{
  "type": "FeatureCollection",
  "features": [
    {
      "type": "Feature",
      "properties": {
        "indoor": "room",
        "level": [
          1
        ],
        "ref": "27119",
        "name": "삼성전자 산하 공과대학",
        "room_type": "office",
        "_idx": 1,
        "_centroid": [
          126.9763972,
          37.2955598
        ],
        "_area_m2": 253.1
      },
      "geometry": {
        "type": "Polygon",
        "coordinates": [
          [
            [
              126.97649112897861,
              37.29554783064058
            ],
            [
              126.97648703607715,
              37.29552288352173
            ],
            [
              126.97638630820734,
              37.29553364946906
            ],
            [
              126.97638632236959,
              37.295533726746726
            ],
            [
              126.9763487602778,
              37.29553775512501
            ],
            [
              126.97634866785073,
              37.29553724998893
            ],
            [
              126.97625490165852,
              37.295546985525476
            ],
            [
              126.97627294930136,
              37.29565687351669
            ],
            [
              126.97650506084616,
              37.29563274838368
            ],
            [
              126.97649111450511,
              37.29554783225876
            ],
            [
              126.97649112897861,
              37.29554783064058
            ]
          ]
        ]
      }
    },
    {
      "type": "Feature",
      "properties": {
        "indoor": "room",
        "level": [
          1
        ],
        "ref": "",
        "name": "",
        "room_type": "",
        "_idx": 2,
        "_centroid": [
          126.9765589,
          37.2955505
        ],
        "_area_m2": 74.5
      },
      "geometry": {
        "type": "Polygon",
        "coordinates": [
          [
            [
              126.97648703607715,
              37.29552288352173
            ],
            [
              126.97649112897861,
              37.29554783064058
            ],
            [
              126.97655316199429,
              37.29554089515525
            ],
            [
              126.97656236123102,
              37.29559584247966
            ],
            [
              126.97663659334566,
              37.29558800694772
            ],
            [
              126.97662320584637,
              37.29550774603807
            ],
            [
              126.97648703607715,
              37.29552288352173
            ]
          ]
        ]
      }
    },
    {
      "type": "Feature",
      "properties": {
        "indoor": "room",
        "level": [
          1
        ],
        "ref": "",
        "name": "",
        "room_type": "",
        "_idx": 3,
        "_centroid": [
          126.9766656,
          37.295544
        ],
        "_area_m2": 57.1
      },
      "geometry": {
        "type": "Polygon",
        "coordinates": [
          [
            [
              126.97670801514262,
              37.29558046805737
            ],
            [
              126.97669458330317,
              37.29549994131265
            ],
            [
              126.97662320584637,
              37.29550774603807
            ],
            [
              126.97663659334566,
              37.29558800694772
            ],
            [
              126.97670801514262,
              37.29558046805737
            ]
          ]
        ]
      }
    },
    {
      "type": "Feature",
      "properties": {
        "indoor": "room",
        "level": [
          1
        ],
        "ref": "27117",
        "name": "삼성전자 산하 공과대학",
        "room_type": "office",
        "_idx": 4,
        "_centroid": [
          126.9767683,
          37.295533
        ],
        "_area_m2": 107.6
      },
      "geometry": {
        "type": "Polygon",
        "coordinates": [
          [
            [
              126.97684203906194,
              37.295566321232826
            ],
            [
              126.97682852401775,
              37.29548529564513
            ],
            [
              126.97669458330317,
              37.29549994131265
            ],
            [
              126.97670801514262,
              37.29558046805737
            ],
            [
              126.97684203906194,
              37.295566321232826
            ]
          ]
        ]
      }
    },
    {
      "type": "Feature",
      "properties": {
        "indoor": "room",
        "level": [
          1
        ],
        "ref": "27113",
        "name": "삼성전자 산하 공과대학",
        "room_type": "office",
        "_idx": 5,
        "_centroid": [
          126.9768703,
          37.295522
        ],
        "_area_m2": 56.5
      },
      "geometry": {
        "type": "Polygon",
        "coordinates": [
          [
            [
              126.97691209599736,
              37.29555892640973
            ],
            [
              126.97689853746158,
              37.29547764006689
            ],
            [
              126.97682852401775,
              37.29548529564513
            ],
            [
              126.97684203906194,
              37.295566321232826
            ],
            [
              126.97691209599736,
              37.29555892640973
            ]
          ]
        ]
      }
    },
    {
      "type": "Feature",
      "properties": {
        "indoor": "room",
        "level": [
          1
        ],
        "ref": "27111",
        "name": "Live Virtual Studio",
        "room_type": "lounge",
        "_idx": 6,
        "_centroid": [
          126.9769741,
          37.2955109
        ],
        "_area_m2": 111.6
      },
      "geometry": {
        "type": "Polygon",
        "coordinates": [
          [
            [
              126.97704977430229,
              37.29554439384843
            ],
            [
              126.97703613029361,
              37.29546259506077
            ],
            [
              126.97689853746158,
              37.29547764006689
            ],
            [
              126.97691209599736,
              37.29555892640973
            ],
            [
              126.97704977430229,
              37.29554439384843
            ]
          ]
        ]
      }
    },
    {
      "type": "Feature",
      "properties": {
        "indoor": "room",
        "level": [
          1
        ],
        "ref": "27109",
        "name": "삼성전자 산하 공과대학",
        "room_type": "office",
        "_idx": 7,
        "_centroid": [
          126.9770776,
          37.2954998
        ],
        "_area_m2": 56.4
      },
      "geometry": {
        "type": "Polygon",
        "coordinates": [
          [
            [
              126.97711905062056,
              37.29553708142297
            ],
            [
              126.9771053636041,
              37.295455024785745
            ],
            [
              126.97703613029361,
              37.29546259506077
            ],
            [
              126.97704977430229,
              37.29554439384843
            ],
            [
              126.97711905062056,
              37.29553708142297
            ]
          ]
        ]
      }
    },
    {
      "type": "Feature",
      "properties": {
        "indoor": "room",
        "level": [
          1
        ],
        "ref": "27125",
        "name": "삼성전자 산하 공과대학",
        "room_type": "office",
        "_idx": 8,
        "_centroid": [
          126.9762935,
          37.2954944
        ],
        "_area_m2": 88.1
      },
      "geometry": {
        "type": "Polygon",
        "coordinates": [
          [
            [
              126.97625490165852,
              37.295546985525476
            ],
            [
              126.97634866785073,
              37.29553724998893
            ],
            [
              126.97633117826298,
              37.29544166520125
            ],
            [
              126.97623925484892,
              37.295451715661656
            ],
            [
              126.97625490165852,
              37.295546985525476
            ]
          ]
        ]
      }
    },
    {
      "type": "Feature",
      "properties": {
        "indoor": "room",
        "level": [
          1
        ],
        "ref": "27107",
        "name": "삼성전자 산하 공과대학",
        "room_type": "office",
        "_idx": 9,
        "_centroid": [
          126.9771457,
          37.2954925
        ],
        "_area_m2": 54.8
      },
      "geometry": {
        "type": "Polygon",
        "coordinates": [
          [
            [
              126.9771860973466,
              37.29553000434095
            ],
            [
              126.97717236870578,
              37.295447698152884
            ],
            [
              126.9771053636041,
              37.295455024785745
            ],
            [
              126.97711905062056,
              37.29553708142297
            ],
            [
              126.9771860973466,
              37.29553000434095
            ]
          ]
        ]
      }
    },
    {
      "type": "Feature",
      "properties": {
        "indoor": "room",
        "level": [
          1
        ],
        "ref": "27105",
        "name": "삼성전자 산하 공과대학",
        "room_type": "office",
        "_idx": 10,
        "_centroid": [
          126.9772149,
          37.295485
        ],
        "_area_m2": 58.5
      },
      "geometry": {
        "type": "Polygon",
        "coordinates": [
          [
            [
              126.97725745033418,
              37.29552247271375
            ],
            [
              126.97724367739676,
              37.29543990094662
            ],
            [
              126.97717236870578,
              37.295447698152884
            ],
            [
              126.9771860973466,
              37.29553000434095
            ],
            [
              126.97725745033418,
              37.29552247271375
            ]
          ]
        ]
      }
    },
    {
      "type": "Feature",
      "properties": {
        "indoor": "room",
        "level": [
          1
        ],
        "ref": "",
        "name": "",
        "room_type": "",
        "_idx": 11,
        "_centroid": [
          126.9772978,
          37.2954713
        ],
        "_area_m2": 52.6
      },
      "geometry": {
        "type": "Polygon",
        "coordinates": [
          [
            [
              126.97731181784788,
              37.295457857717416
            ],
            [
              126.97731181784788,
              37.2954578577174
            ],
            [
              126.97730764061363,
              37.295432906926834
            ],
            [
              126.97724367739676,
              37.29543990094662
            ],
            [
              126.97725745033418,
              37.29552247271375
            ],
            [
              126.9773215036315,
              37.29551571126334
            ],
            [
              126.97731652161058,
              37.29548595347264
            ],
            [
              126.97731181784786,
              37.295457857717416
            ],
            [
              126.97731181784788,
              37.295457857717416
            ]
          ]
        ]
      }
    },
    {
      "type": "Feature",
      "properties": {
        "indoor": "room",
        "level": [
          1
        ],
        "ref": "27116",
        "name": "경비실",
        "room_type": "office",
        "_idx": 12,
        "_centroid": [
          126.9764956,
          37.2954624
        ],
        "_area_m2": 101.9
      },
      "geometry": {
        "type": "Polygon",
        "coordinates": [
          [
            [
              126.97647136016752,
              37.295426338391486
            ],
            [
              126.97636872106558,
              37.295437560453244
            ],
            [
              126.97638160637081,
              37.29550799345312
            ],
            [
              126.97659542590999,
              37.29548461347507
            ],
            [
              126.97658577402552,
              37.295428255578884
            ],
            [
              126.97653519864234,
              37.29543359950049
            ],
            [
              126.9765441404846,
              37.295487009399885
            ],
            [
              126.97648226139702,
              37.295493927680525
            ],
            [
              126.97647136016752,
              37.295426338391486
            ]
          ]
        ]
      }
    },
    {
      "type": "Feature",
      "properties": {
        "indoor": "room",
        "level": [
          1
        ],
        "ref": "",
        "name": "",
        "room_type": "",
        "_idx": 13,
        "_centroid": [
          126.9766365,
          37.2954515
        ],
        "_area_m2": 51.3
      },
      "geometry": {
        "type": "Polygon",
        "coordinates": [
          [
            [
              126.97668724637387,
              37.29547457341775
            ],
            [
              126.9766776513613,
              37.295418547589556
            ],
            [
              126.97658577402552,
              37.295428255578884
            ],
            [
              126.97659542590999,
              37.29548461347507
            ],
            [
              126.97668724637387,
              37.29547457341775
            ]
          ]
        ]
      }
    },
    {
      "type": "Feature",
      "properties": {
        "indoor": "room",
        "level": [
          1
        ],
        "ref": "27114C",
        "name": "삼성전자 산하 공과대학",
        "room_type": "office",
        "_idx": 14,
        "_centroid": [
          126.9767094,
          37.2954437
        ],
        "_area_m2": 30
      },
      "geometry": {
        "type": "Polygon",
        "coordinates": [
          [
            [
              126.97674116378145,
              37.29546867784894
            ],
            [
              126.97673160216418,
              37.29541284701265
            ],
            [
              126.9766776513613,
              37.295418547589556
            ],
            [
              126.97668724637387,
              37.29547457341775
            ],
            [
              126.97674116378145,
              37.29546867784894
            ]
          ]
        ]
      }
    },
    {
      "type": "Feature",
      "properties": {
        "indoor": "room",
        "level": [
          1
        ],
        "ref": "27101",
        "name": "측량기기성능검사실",
        "room_type": "lab",
        "_idx": 15,
        "_centroid": [
          126.9774416,
          37.2954391
        ],
        "_area_m2": 78.4
      },
      "geometry": {
        "type": "Polygon",
        "coordinates": [
          [
            [
              126.97737560768678,
              37.29542547510778
            ],
            [
              126.97738033032685,
              37.295449940317695
            ],
            [
              126.97738033032687,
              37.295449940317695
            ],
            [
              126.97738509010026,
              37.295474597883825
            ],
            [
              126.97738991503957,
              37.2954995930276
            ],
            [
              126.97749660630058,
              37.29548693900542
            ],
            [
              126.97748222380575,
              37.29541381095437
            ],
            [
              126.97748218850481,
              37.29541381515488
            ],
            [
              126.97748218963038,
              37.29541382096875
            ],
            [
              126.9774815730833,
              37.29541388838472
            ],
            [
              126.97748136217116,
              37.29541391348144
            ],
            [
              126.97748136180006,
              37.29541391148736
            ],
            [
              126.97737560768678,
              37.29542547510778
            ]
          ]
        ]
      }
    },
    {
      "type": "Feature",
      "properties": {
        "indoor": "room",
        "level": [
          1
        ],
        "ref": "27114B",
        "name": "교육매체지원실",
        "room_type": "office",
        "_idx": 16,
        "_centroid": [
          126.9767709,
          37.295437
        ],
        "_area_m2": 38.3
      },
      "geometry": {
        "type": "Polygon",
        "coordinates": [
          [
            [
              126.97681024265863,
              37.29546112445771
            ],
            [
              126.97680072382695,
              37.2954055434447
            ],
            [
              126.97673160216418,
              37.29541284701265
            ],
            [
              126.97674116378145,
              37.29546867784894
            ],
            [
              126.97681024265863,
              37.29546112445771
            ]
          ]
        ]
      }
    },
    {
      "type": "Feature",
      "properties": {
        "indoor": "room",
        "level": [
          1
        ],
        "ref": "26121C",
        "name": "예비",
        "room_type": "reserved",
        "_idx": 17,
        "_centroid": [
          126.9775397,
          37.2954344
        ],
        "_area_m2": 76.1
      },
      "geometry": {
        "type": "Polygon",
        "coordinates": [
          [
            [
              126.97762201601633,
              37.29541972659466
            ],
            [
              126.97751809276212,
              37.29543208655586
            ],
            [
              126.97751345793264,
              37.295407424250826
            ],
            [
              126.97751394875554,
              37.29541003595976
            ],
            [
              126.97748222380575,
              37.29541381095437
            ],
            [
              126.97749660630058,
              37.29548693900542
            ],
            [
              126.97763161146953,
              37.29547092683736
            ],
            [
              126.97762201601633,
              37.29541972659466
            ]
          ]
        ]
      }
    },
    {
      "type": "Feature",
      "properties": {
        "indoor": "room",
        "level": [
          1
        ],
        "ref": "27114A",
        "name": "교육매체지원실",
        "room_type": "office",
        "_idx": 18,
        "_centroid": [
          126.9768397,
          37.2954297
        ],
        "_area_m2": 37.7
      },
      "geometry": {
        "type": "Polygon",
        "coordinates": [
          [
            [
              126.97687857530508,
              37.29545365266266
            ],
            [
              126.9768690987966,
              37.29539831877422
            ],
            [
              126.97680072382695,
              37.2954055434447
            ],
            [
              126.97681024265863,
              37.29546112445771
            ],
            [
              126.97687857530508,
              37.29545365266266
            ]
          ]
        ]
      }
    },
    {
      "type": "Feature",
      "properties": {
        "indoor": "room",
        "level": [
          1
        ],
        "ref": "27110",
        "name": "",
        "room_type": "",
        "_idx": 19,
        "_centroid": [
          126.976909,
          37.2954222
        ],
        "_area_m2": 38.6
      },
      "geometry": {
        "type": "Polygon",
        "coordinates": [
          [
            [
              126.97694879649468,
              37.29544597436591
            ],
            [
              126.97693936347964,
              37.29539089443189
            ],
            [
              126.9768690987966,
              37.29539831877422
            ],
            [
              126.97687857530508,
              37.29545365266266
            ],
            [
              126.97694879649468,
              37.29544597436591
            ]
          ]
        ]
      }
    },
    {
      "type": "Feature",
      "properties": {
        "indoor": "room",
        "level": [
          1
        ],
        "ref": "27112",
        "name": "삼성전자 산하 공과대학",
        "room_type": "office",
        "_idx": 20,
        "_centroid": [
          126.9769944,
          37.295413
        ],
        "_area_m2": 55
      },
      "geometry": {
        "type": "Polygon",
        "coordinates": [
          [
            [
              126.97704943877642,
              37.29543496969184
            ],
            [
              126.97704006809724,
              37.29538025372987
            ],
            [
              126.97693936347964,
              37.29539089443189
            ],
            [
              126.97694879649468,
              37.29544597436591
            ],
            [
              126.97704943877642,
              37.29543496969184
            ]
          ]
        ]
      }
    },
    {
      "type": "Feature",
      "properties": {
        "indoor": "room",
        "level": [
          1
        ],
        "ref": "",
        "name": "",
        "room_type": "",
        "_idx": 21,
        "_centroid": [
          126.9775898,
          37.2954062
        ],
        "_area_m2": 18.2
      },
      "geometry": {
        "type": "Polygon",
        "coordinates": [
          [
            [
              126.97756628778207,
              37.29538813848305
            ],
            [
              126.97757178749343,
              37.29541571518099
            ],
            [
              126.97757373274897,
              37.295425469094894
            ],
            [
              126.97762201601633,
              37.29541972659466
            ],
            [
              126.97761494516048,
              37.29538199731523
            ],
            [
              126.97756628778207,
              37.29538813848305
            ]
          ]
        ]
      }
    },
    {
      "type": "Feature",
      "properties": {
        "indoor": "room",
        "level": [
          1
        ],
        "ref": "27108",
        "name": "삼성전자 산하 공과대학",
        "room_type": "office",
        "_idx": 22,
        "_centroid": [
          126.9770809,
          37.2954037
        ],
        "_area_m2": 39.2
      },
      "geometry": {
        "type": "Polygon",
        "coordinates": [
          [
            [
              126.97712169015774,
              37.295427069404916
            ],
            [
              126.97711236422944,
              37.295372614739534
            ],
            [
              126.97704006809724,
              37.29538025372987
            ],
            [
              126.97704943877642,
              37.29543496969184
            ],
            [
              126.97712169015774,
              37.295427069404916
            ]
          ]
        ]
      }
    },
    {
      "type": "Feature",
      "properties": {
        "indoor": "room",
        "level": [
          1
        ],
        "ref": "27104",
        "name": "삼성전자 산하 공과대학",
        "room_type": "office",
        "_idx": 23,
        "_centroid": [
          126.9771676,
          37.2953944
        ],
        "_area_m2": 54.6
      },
      "geometry": {
        "type": "Polygon",
        "coordinates": [
          [
            [
              126.97722278227491,
              37.29541601554385
            ],
            [
              126.97721351896006,
              37.29536192647744
            ],
            [
              126.97711236422944,
              37.295372614739534
            ],
            [
              126.97712169015774,
              37.295427069404916
            ],
            [
              126.97722278227491,
              37.29541601554385
            ]
          ]
        ]
      }
    },
    {
      "type": "Feature",
      "properties": {
        "indoor": "room",
        "level": [
          1
        ],
        "ref": "27102",
        "name": "공학교육혁신센터",
        "room_type": "lab",
        "_idx": 24,
        "_centroid": [
          126.9773421,
          37.2953942
        ],
        "_area_m2": 8
      },
      "geometry": {
        "type": "Polygon",
        "coordinates": [
          [
            [
              126.97737066034988,
              37.29539984589836
            ],
            [
              126.97736692697005,
              37.295380505480146
            ],
            [
              126.97736832377936,
              37.295387741518546
            ],
            [
              126.97730137434682,
              37.29539547829678
            ],
            [
              126.97730333799294,
              37.29540720722387
            ],
            [
              126.97737066034988,
              37.29539984589836
            ]
          ]
        ]
      }
    },
    {
      "type": "Feature",
      "properties": {
        "indoor": "room",
        "level": [
          1
        ],
        "ref": "27126",
        "name": "삼성전자 산하 공과대학",
        "room_type": "office",
        "_idx": 25,
        "_centroid": [
          126.9762758,
          37.2953924
        ],
        "_area_m2": 98.3
      },
      "geometry": {
        "type": "Polygon",
        "coordinates": [
          [
            [
              126.97631132616894,
              37.29533316875058
            ],
            [
              126.97622139988823,
              37.29534300086825
            ],
            [
              126.97623925484892,
              37.295451715661656
            ],
            [
              126.97633117826298,
              37.29544166520125
            ],
            [
              126.97631132616894,
              37.29533316875058
            ]
          ]
        ]
      }
    },
    {
      "type": "Feature",
      "properties": {
        "indoor": "room",
        "level": [
          1
        ],
        "ref": "",
        "name": "",
        "room_type": "",
        "_idx": 26,
        "_centroid": [
          126.9772793,
          37.2953863
        ],
        "_area_m2": 43.4
      },
      "geometry": {
        "type": "Polygon",
        "coordinates": [
          [
            [
              126.97730034844986,
              37.29538935057831
            ],
            [
              126.97729742544858,
              37.29537189138418
            ],
            [
              126.97729429148448,
              37.29535317209707
            ],
            [
              126.97721351896006,
              37.29536192647744
            ],
            [
              126.97722278227491,
              37.29541601554385
            ],
            [
              126.97730333799294,
              37.29540720722387
            ],
            [
              126.97730137434682,
              37.29539547829678
            ],
            [
              126.97730137434674,
              37.29539547829679
            ],
            [
              126.97730034844986,
              37.29538935057831
            ]
          ]
        ]
      }
    },
    {
      "type": "Feature",
      "properties": {
        "indoor": "room",
        "level": [
          1
        ],
        "ref": "",
        "name": "",
        "room_type": "",
        "_idx": 27,
        "_centroid": [
          126.9775305,
          37.295386
        ],
        "_area_m2": 42.3
      },
      "geometry": {
        "type": "Polygon",
        "coordinates": [
          [
            [
              126.97755840203702,
              37.29534859769754
            ],
            [
              126.97753761459751,
              37.29535122133261
            ],
            [
              126.97750370005672,
              37.295355501771965
            ],
            [
              126.97750866165487,
              37.29538190285781
            ],
            [
              126.97751345793264,
              37.295407424250826
            ],
            [
              126.97751809276212,
              37.29543208655586
            ],
            [
              126.97757373274897,
              37.295425469094894
            ],
            [
              126.97755840203702,
              37.29534859769754
            ]
          ]
        ]
      }
    },
    {
      "type": "Feature",
      "properties": {
        "indoor": "room",
        "level": [
          1
        ],
        "ref": "27120",
        "name": "교육혁신팀",
        "room_type": "",
        "_idx": 28,
        "_centroid": [
          126.9764107,
          37.2953776
        ],
        "_area_m2": 112.2
      },
      "geometry": {
        "type": "Polygon",
        "coordinates": [
          [
            [
              126.97645382039173,
              37.295317589100726
            ],
            [
              126.9763488722089,
              37.295329063642704
            ],
            [
              126.97636872106558,
              37.295437560453244
            ],
            [
              126.97647136016752,
              37.295426338391486
            ],
            [
              126.97645382039173,
              37.295317589100726
            ]
          ]
        ]
      }
    },
    {
      "type": "Feature",
      "properties": {
        "indoor": "room",
        "level": [
          1
        ],
        "ref": "",
        "name": "",
        "room_type": "",
        "_idx": 29,
        "_centroid": [
          126.9774005,
          37.2953672
        ],
        "_area_m2": 60.2
      },
      "geometry": {
        "type": "Polygon",
        "coordinates": [
          [
            [
              126.97736303532183,
              37.29536034516074
            ],
            [
              126.97736692697005,
              37.295380505480146
            ],
            [
              126.97737066034988,
              37.29539984589836
            ],
            [
              126.97747658863756,
              37.29538826322892
            ],
            [
              126.97746584357697,
              37.295330525389346
            ],
            [
              126.97735982628996,
              37.295343721067454
            ],
            [
              126.97736303532183,
              37.29536034516074
            ]
          ]
        ]
      }
    },
    {
      "type": "Feature",
      "properties": {
        "indoor": "room",
        "level": [
          1
        ],
        "ref": "",
        "name": "",
        "room_type": "",
        "_idx": 30,
        "_centroid": [
          126.9775868,
          37.2953653
        ],
        "_area_m2": 19.4
      },
      "geometry": {
        "type": "Polygon",
        "coordinates": [
          [
            [
              126.97756628778207,
              37.29538813848305
            ],
            [
              126.97761494516048,
              37.29538199731523
            ],
            [
              126.9776075238243,
              37.295342397912755
            ],
            [
              126.97755840203702,
              37.29534859769754
            ],
            [
              126.97756628778207,
              37.29538813848305
            ]
          ]
        ]
      }
    },
    {
      "type": "Feature",
      "properties": {
        "indoor": "room",
        "level": [
          1
        ],
        "ref": "26119B",
        "name": "공과대학 세미나실2",
        "room_type": "classroom",
        "_idx": 31,
        "_centroid": [
          126.9775517,
          37.2953283
        ],
        "_area_m2": 42.8
      },
      "geometry": {
        "type": "Polygon",
        "coordinates": [
          [
            [
              126.97759979676685,
              37.29530116721645
            ],
            [
              126.97749595200408,
              37.295314273732735
            ],
            [
              126.97750370005672,
              37.295355501771965
            ],
            [
              126.9776075238243,
              37.295342397912755
            ],
            [
              126.97759979676685,
              37.29530116721645
            ]
          ]
        ]
      }
    },
    {
      "type": "Feature",
      "properties": {
        "indoor": "room",
        "level": [
          1
        ],
        "ref": "26112",
        "name": "공학교육혁신센터",
        "room_type": "lab",
        "_idx": 32,
        "_centroid": [
          126.9774187,
          37.2953133
        ],
        "_area_m2": 83.8
      },
      "geometry": {
        "type": "Polygon",
        "coordinates": [
          [
            [
              126.97737744555947,
              37.295341528045775
            ],
            [
              126.97746584357695,
              37.29533052538934
            ],
            [
              126.97746584357695,
              37.295330525389346
            ],
            [
              126.97746584357697,
              37.295330525389346
            ],
            [
              126.97745116519343,
              37.2952516521111
            ],
            [
              126.97734461381872,
              37.29526491427955
            ],
            [
              126.97735982628996,
              37.295343721067454
            ],
            [
              126.97737744555947,
              37.295341528045775
            ]
          ]
        ]
      }
    },
    {
      "type": "Feature",
      "properties": {
        "indoor": "room",
        "level": [
          1
        ],
        "ref": "",
        "name": "",
        "room_type": "",
        "_idx": 33,
        "_centroid": [
          126.976261,
          37.2953071
        ],
        "_area_m2": 55.2
      },
      "geometry": {
        "type": "Polygon",
        "coordinates": [
          [
            [
              126.97622139988823,
              37.29534300086825
            ],
            [
              126.97631132616894,
              37.29533316875058
            ],
            [
              126.97630003202136,
              37.2952714435279
            ],
            [
              126.97621116455477,
              37.29528068025142
            ],
            [
              126.97622139988823,
              37.29534300086825
            ]
          ]
        ]
      }
    },
    {
      "type": "Feature",
      "properties": {
        "indoor": "room",
        "level": [
          1
        ],
        "ref": "26119A",
        "name": "공과대학 세미나실1",
        "room_type": "classroom",
        "_idx": 34,
        "_centroid": [
          126.9775441,
          37.2952876
        ],
        "_area_m2": 41.9
      },
      "geometry": {
        "type": "Polygon",
        "coordinates": [
          [
            [
              126.97759224347288,
              37.295260863702225
            ],
            [
              126.97748837818705,
              37.29527397281583
            ],
            [
              126.97749595200408,
              37.295314273732735
            ],
            [
              126.97759979676685,
              37.29530116721645
            ],
            [
              126.97759224347288,
              37.295260863702225
            ]
          ]
        ]
      }
    },
    {
      "type": "Feature",
      "properties": {
        "indoor": "room",
        "level": [
          1
        ],
        "ref": "",
        "name": "",
        "room_type": "",
        "_idx": 35,
        "_centroid": [
          126.9764045,
          37.2952856
        ],
        "_area_m2": 64.2
      },
      "geometry": {
        "type": "Polygon",
        "coordinates": [
          [
            [
              126.97645382039173,
              37.295317589100726
            ],
            [
              126.97644328077045,
              37.29525658343786
            ],
            [
              126.97643875012817,
              37.29525702541912
            ],
            [
              126.97633761628563,
              37.29526753708754
            ],
            [
              126.9763488722089,
              37.295329063642704
            ],
            [
              126.97645382039173,
              37.295317589100726
            ]
          ]
        ]
      }
    },
    {
      "type": "Feature",
      "properties": {
        "indoor": "room",
        "level": [
          1
        ],
        "ref": "26117",
        "name": "e+녹화강의실",
        "room_type": "classroom",
        "_idx": 36,
        "_centroid": [
          126.9775326,
          37.2952265
        ],
        "_area_m2": 84.9
      },
      "geometry": {
        "type": "Polygon",
        "coordinates": [
          [
            [
              126.97757692225576,
              37.29517911143704
            ],
            [
              126.97747301534066,
              37.295192225819086
            ],
            [
              126.97748837818705,
              37.29527397281583
            ],
            [
              126.97759224347288,
              37.295260863702225
            ],
            [
              126.97757692225576,
              37.29517911143704
            ]
          ]
        ]
      }
    },
    {
      "type": "Feature",
      "properties": {
        "indoor": "room",
        "level": [
          1
        ],
        "ref": "26110",
        "name": "첨단e+강의실",
        "room_type": "classroom",
        "_idx": 37,
        "_centroid": [
          126.9773901,
          37.295217
        ],
        "_area_m2": 88.1
      },
      "geometry": {
        "type": "Polygon",
        "coordinates": [
          [
            [
              126.9774358108773,
              37.29516914675587
            ],
            [
              126.97732870082045,
              37.29518247847667
            ],
            [
              126.97734461381872,
              37.29526491427955
            ],
            [
              126.97745116519343,
              37.2952516521111
            ],
            [
              126.9774358108773,
              37.29516914675587
            ]
          ]
        ]
      }
    },
    {
      "type": "Feature",
      "properties": {
        "indoor": "room",
        "level": [
          1
        ],
        "ref": "26115D",
        "name": "화공융합기술연구소",
        "room_type": "lab",
        "_idx": 38,
        "_centroid": [
          126.9775225,
          37.2951725
        ],
        "_area_m2": 27.3
      },
      "geometry": {
        "type": "Polygon",
        "coordinates": [
          [
            [
              126.97757198904917,
              37.295152788409894
            ],
            [
              126.97746806873006,
              37.29516590448833
            ],
            [
              126.97747301534066,
              37.295192225819086
            ],
            [
              126.97757692225576,
              37.29517911143704
            ],
            [
              126.97757198904917,
              37.295152788409894
            ]
          ]
        ]
      }
    },
    {
      "type": "Feature",
      "properties": {
        "indoor": "room",
        "level": [
          1
        ],
        "ref": "26115C",
        "name": "",
        "room_type": "",
        "_idx": 39,
        "_centroid": [
          126.977517,
          37.2951432
        ],
        "_area_m2": 33.6
      },
      "geometry": {
        "type": "Polygon",
        "coordinates": [
          [
            [
              126.97756593332956,
              37.29512047578149
            ],
            [
              126.97746199655646,
              37.295133593942246
            ],
            [
              126.97746806873006,
              37.29516590448833
            ],
            [
              126.97757198904917,
              37.295152788409894
            ],
            [
              126.97756593332956,
              37.29512047578149
            ]
          ]
        ]
      }
    },
    {
      "type": "Feature",
      "properties": {
        "indoor": "room",
        "level": [
          1
        ],
        "ref": "26108",
        "name": "첨단e+강의실",
        "room_type": "classroom",
        "_idx": 40,
        "_centroid": [
          126.977372,
          37.2951217
        ],
        "_area_m2": 116.2
      },
      "geometry": {
        "type": "Polygon",
        "coordinates": [
          [
            [
              126.97741567657333,
              37.29506095646673
            ],
            [
              126.97730783390973,
              37.295074379392524
            ],
            [
              126.97732870082045,
              37.29518247847667
            ],
            [
              126.9774358108773,
              37.29516914675587
            ],
            [
              126.97741567657333,
              37.29506095646673
            ]
          ]
        ]
      }
    },
    {
      "type": "Feature",
      "properties": {
        "indoor": "room",
        "level": [
          1
        ],
        "ref": "26115B",
        "name": "공과대학 회의실",
        "room_type": "lounge",
        "_idx": 41,
        "_centroid": [
          126.977512,
          37.2951166
        ],
        "_area_m2": 21.7
      },
      "geometry": {
        "type": "Polygon",
        "coordinates": [
          [
            [
              126.97756201566152,
              37.29509957155219
            ],
            [
              126.97745806824373,
              37.29511269106013
            ],
            [
              126.97746199655646,
              37.295133593942246
            ],
            [
              126.97756593332956,
              37.29512047578149
            ],
            [
              126.97756201566152,
              37.29509957155219
            ]
          ]
        ]
      }
    },
    {
      "type": "Feature",
      "properties": {
        "indoor": "room",
        "level": [
          1
        ],
        "ref": "26115A",
        "name": "공과대학 학장실",
        "room_type": "office",
        "_idx": 42,
        "_centroid": [
          126.9775048,
          37.2950782
        ],
        "_area_m2": 58
      },
      "geometry": {
        "type": "Polygon",
        "coordinates": [
          [
            [
              126.97755155909722,
              37.295043776519
            ],
            [
              126.97744758326792,
              37.29505689962262
            ],
            [
              126.97745806824373,
              37.29511269106013
            ],
            [
              126.97756201566152,
              37.29509957155219
            ],
            [
              126.97755155909722,
              37.295043776519
            ]
          ]
        ]
      }
    },
    {
      "type": "Feature",
      "properties": {
        "indoor": "room",
        "level": [
          1
        ],
        "ref": "",
        "name": "",
        "room_type": "",
        "_idx": 43,
        "_centroid": [
          126.9773565,
          37.2950401
        ],
        "_area_m2": 59.5
      },
      "geometry": {
        "type": "Polygon",
        "coordinates": [
          [
            [
              126.97740542415818,
              37.29500586582331
            ],
            [
              126.97729720845021,
              37.295019335190744
            ],
            [
              126.97730783390973,
              37.295074379392524
            ],
            [
              126.97741567657333,
              37.29506095646673
            ],
            [
              126.97740542415818,
              37.29500586582331
            ]
          ]
        ]
      }
    },
    {
      "type": "Feature",
      "properties": {
        "indoor": "room",
        "level": [
          1
        ],
        "ref": "26113",
        "name": "정보통신/소프트웨어융합/공과대학행정실",
        "room_type": "office",
        "_idx": 44,
        "_centroid": [
          126.9774944,
          37.295023
        ],
        "_area_m2": 56.9
      },
      "geometry": {
        "type": "Polygon",
        "coordinates": [
          [
            [
              126.97754129992215,
              37.29498903473222
            ],
            [
              126.97743729621763,
              37.29500216136349
            ],
            [
              126.97744758326792,
              37.29505689962262
            ],
            [
              126.97755155909722,
              37.295043776519
            ],
            [
              126.97754129992215,
              37.29498903473222
            ]
          ]
        ]
      }
    },
    {
      "type": "Feature",
      "properties": {
        "indoor": "room",
        "level": [
          1
        ],
        "ref": "26106",
        "name": "원격화상강의실",
        "room_type": "classroom",
        "_idx": 45,
        "_centroid": [
          126.9773385,
          37.2949449
        ],
        "_area_m2": 147.1
      },
      "geometry": {
        "type": "Polygon",
        "coordinates": [
          [
            [
              126.97738021544636,
              37.29487040855477
            ],
            [
              126.97727108249437,
              37.29488399211399
            ],
            [
              126.97729720845021,
              37.295019335190744
            ],
            [
              126.97740542415818,
              37.29500586582331
            ],
            [
              126.97738021544636,
              37.29487040855477
            ]
          ]
        ]
      }
    },
    {
      "type": "Feature",
      "properties": {
        "indoor": "room",
        "level": [
          1
        ],
        "ref": "26111",
        "name": "",
        "room_type": "",
        "_idx": 46,
        "_centroid": [
          126.9774714,
          37.2949002
        ],
        "_area_m2": 198.6
      },
      "geometry": {
        "type": "Polygon",
        "coordinates": [
          [
            [
              126.97750553216113,
              37.29479818204335
            ],
            [
              126.97740143127203,
              37.294811320973785
            ],
            [
              126.97743729621763,
              37.29500216136349
            ],
            [
              126.97754129992215,
              37.29498903473222
            ],
            [
              126.97750553216113,
              37.29479818204335
            ]
          ]
        ]
      }
    },
    {
      "type": "Feature",
      "properties": {
        "indoor": "room",
        "level": [
          1
        ],
        "ref": "",
        "name": "",
        "room_type": "",
        "_idx": 47,
        "_centroid": [
          126.9773152,
          37.294822
        ],
        "_area_m2": 120.8
      },
      "geometry": {
        "type": "Polygon",
        "coordinates": [
          [
            [
              126.97735966881854,
              37.29476000267191
            ],
            [
              126.97724978825717,
              37.294773679304896
            ],
            [
              126.97727108249437,
              37.29488399211399
            ],
            [
              126.97738021544636,
              37.29487040855477
            ],
            [
              126.97735966881854,
              37.29476000267191
            ]
          ]
        ]
      }
    },
    {
      "type": "Feature",
      "properties": {
        "indoor": "room",
        "level": [
          1
        ],
        "ref": "25102",
        "name": "유연전자디스플레이연구실",
        "room_type": "lab",
        "_idx": 48,
        "_centroid": [
          126.9762479,
          37.2948008
        ],
        "_area_m2": 53.1
      },
      "geometry": {
        "type": "Polygon",
        "coordinates": [
          [
            [
              126.97622154714648,
              37.29484483680634
            ],
            [
              126.97628817797536,
              37.29483730397046
            ],
            [
              126.97627373477367,
              37.29475645179557
            ],
            [
              126.97620827204776,
              37.29476443476446
            ],
            [
              126.97622154714648,
              37.29484483680634
            ]
          ]
        ]
      }
    },
    {
      "type": "Feature",
      "properties": {
        "indoor": "room",
        "level": [
          1
        ],
        "ref": "25104",
        "name": "유무기하이브리드광전자소재및소자실험실",
        "room_type": "lab",
        "_idx": 49,
        "_centroid": [
          126.9763148,
          37.2947928
        ],
        "_area_m2": 54.7
      },
      "geometry": {
        "type": "Polygon",
        "coordinates": [
          [
            [
              126.97635649412953,
              37.29482918315167
            ],
            [
              126.97634093014983,
              37.294748271641126
            ],
            [
              126.97627373477367,
              37.29475645179557
            ],
            [
              126.97628817797536,
              37.29483730397046
            ],
            [
              126.97635649412953,
              37.29482918315167
            ]
          ]
        ]
      }
    },
    {
      "type": "Feature",
      "properties": {
        "indoor": "room",
        "level": [
          1
        ],
        "ref": "26109B",
        "name": "대학원생연구실",
        "room_type": "lab",
        "_idx": 50,
        "_centroid": [
          126.9774508,
          37.2947906
        ],
        "_area_m2": 29.4
      },
      "geometry": {
        "type": "Polygon",
        "coordinates": [
          [
            [
              126.97750023288363,
              37.29476990570362
            ],
            [
              126.97739611759586,
              37.29478304645631
            ],
            [
              126.97740143127203,
              37.294811320973785
            ],
            [
              126.97750553216113,
              37.29479818204335
            ],
            [
              126.97750023288363,
              37.29476990570362
            ]
          ]
        ]
      }
    },
    {
      "type": "Feature",
      "properties": {
        "indoor": "room",
        "level": [
          1
        ],
        "ref": "25106",
        "name": "차세대반도체연구실",
        "room_type": "lab",
        "_idx": 51,
        "_centroid": [
          126.9763822,
          37.2947847
        ],
        "_area_m2": 54.2
      },
      "geometry": {
        "type": "Polygon",
        "coordinates": [
          [
            [
              126.97634093014983,
              37.294748271641126
            ],
            [
              126.97635649412953,
              37.29482918315167
            ],
            [
              126.97642346878298,
              37.294821221798585
            ],
            [
              126.97640786591202,
              37.29474010809033
            ],
            [
              126.97634093014983,
              37.294748271641126
            ]
          ]
        ]
      }
    },
    {
      "type": "Feature",
      "properties": {
        "indoor": "room",
        "level": [
          1
        ],
        "ref": "25108",
        "name": "대학원생연구실",
        "room_type": "lab",
        "_idx": 52,
        "_centroid": [
          126.9764451,
          37.2947771
        ],
        "_area_m2": 47.8
      },
      "geometry": {
        "type": "Polygon",
        "coordinates": [
          [
            [
              126.97640786591202,
              37.29474010809033
            ],
            [
              126.97642346878298,
              37.294821221798585
            ],
            [
              126.97648244153821,
              37.29481421164023
            ],
            [
              126.97646680442101,
              37.294732919892326
            ],
            [
              126.97640786591202,
              37.29474010809033
            ]
          ]
        ]
      }
    },
    {
      "type": "Feature",
      "properties": {
        "indoor": "room",
        "level": [
          1
        ],
        "ref": "",
        "name": "",
        "room_type": "",
        "_idx": 53,
        "_centroid": [
          126.9766115,
          37.2947583
        ],
        "_area_m2": 96.8
      },
      "geometry": {
        "type": "Polygon",
        "coordinates": [
          [
            [
              126.97656393108802,
              37.29472107422935
            ],
            [
              126.97656928356638,
              37.29474889985036
            ],
            [
              126.97657569779521,
              37.294782245117716
            ],
            [
              126.97657962464213,
              37.29480265937435
            ],
            [
              126.97669808317968,
              37.29478857807352
            ],
            [
              126.97668232083788,
              37.29470663530007
            ],
            [
              126.97656393108802,
              37.29472107422935
            ]
          ]
        ]
      }
    },
    {
      "type": "Feature",
      "properties": {
        "indoor": "room",
        "level": [
          1
        ],
        "ref": "26104",
        "name": "경비실",
        "room_type": "office",
        "_idx": 54,
        "_centroid": [
          126.9773023,
          37.2947541
        ],
        "_area_m2": 28
      },
      "geometry": {
        "type": "Polygon",
        "coordinates": [
          [
            [
              126.97735493497929,
              37.29473456571428
            ],
            [
              126.97724488217249,
              37.29474826379093
            ],
            [
              126.97724978825717,
              37.294773679304896
            ],
            [
              126.97735966881854,
              37.29476000267191
            ],
            [
              126.97735493497929,
              37.29473456571428
            ]
          ]
        ]
      }
    },
    {
      "type": "Feature",
      "properties": {
        "indoor": "room",
        "level": [
          1
        ],
        "ref": "26109A",
        "name": "멀티스케일재료이미징연구실",
        "room_type": "lab",
        "_idx": 55,
        "_centroid": [
          126.9774431,
          37.2947495
        ],
        "_area_m2": 56.1
      },
      "geometry": {
        "type": "Polygon",
        "coordinates": [
          [
            [
              126.97749013600372,
              37.29471602990534
            ],
            [
              126.97738599328174,
              37.29472917413004
            ],
            [
              126.97739611759586,
              37.29478304645631
            ],
            [
              126.97750023288363,
              37.29476990570362
            ],
            [
              126.97749013600372,
              37.29471602990534
            ]
          ]
        ]
      }
    },
    {
      "type": "Feature",
      "properties": {
        "indoor": "room",
        "level": [
          1
        ],
        "ref": "",
        "name": "화장실",
        "room_type": "restroom",
        "_idx": 56,
        "_centroid": [
          126.9767255,
          37.2947434
        ],
        "_area_m2": 57.9
      },
      "geometry": {
        "type": "Polygon",
        "coordinates": [
          [
            [
              126.97668232083788,
              37.29470663530007
            ],
            [
              126.97669808317968,
              37.29478857807352
            ],
            [
              126.97676870804435,
              37.29478018281569
            ],
            [
              126.97675290469016,
              37.29469802682465
            ],
            [
              126.97668232083788,
              37.29470663530007
            ]
          ]
        ]
      }
    },
    {
      "type": "Feature",
      "properties": {
        "indoor": "room",
        "level": [
          1
        ],
        "ref": "25112",
        "name": "반도체나노시스템실험실",
        "room_type": "lab",
        "_idx": 57,
        "_centroid": [
          126.9767932,
          37.2947352
        ],
        "_area_m2": 53.3
      },
      "geometry": {
        "type": "Polygon",
        "coordinates": [
          [
            [
              126.97675290469016,
              37.29469802682465
            ],
            [
              126.97676870804435,
              37.29478018281569
            ],
            [
              126.97683360883707,
              37.29477246798479
            ],
            [
              126.97681776779487,
              37.294690116057176
            ],
            [
              126.97675290469016,
              37.29469802682465
            ]
          ]
        ]
      }
    },
    {
      "type": "Feature",
      "properties": {
        "indoor": "room",
        "level": [
          1
        ],
        "ref": "25114",
        "name": "지능형반도체소재연구실",
        "room_type": "lab",
        "_idx": 58,
        "_centroid": [
          126.9768626,
          37.2947268
        ],
        "_area_m2": 60.8
      },
      "geometry": {
        "type": "Polygon",
        "coordinates": [
          [
            [
              126.97681776779487,
              37.294690116057176
            ],
            [
              126.97683360883707,
              37.29477246798479
            ],
            [
              126.97690744202986,
              37.29476369134935
            ],
            [
              126.97689155811156,
              37.294681116518234
            ],
            [
              126.97681776779487,
              37.294690116057176
            ]
          ]
        ]
      }
    },
    {
      "type": "Feature",
      "properties": {
        "indoor": "room",
        "level": [
          1
        ],
        "ref": "25116",
        "name": "나노신소재연구실Ⅰ",
        "room_type": "lab",
        "_idx": 59,
        "_centroid": [
          126.9769323,
          37.2947185
        ],
        "_area_m2": 54.2
      },
      "geometry": {
        "type": "Polygon",
        "coordinates": [
          [
            [
              126.97689155811156,
              37.294681116518234
            ],
            [
              126.97690744202986,
              37.29476369134935
            ],
            [
              126.97697305720868,
              37.29475589159856
            ],
            [
              126.97695713518723,
              37.29467311867417
            ],
            [
              126.97689155811156,
              37.294681116518234
            ]
          ]
        ]
      }
    },
    {
      "type": "Feature",
      "properties": {
        "indoor": "room",
        "level": [
          1
        ],
        "ref": "26102",
        "name": "측량기술센터",
        "room_type": "lab",
        "_idx": 60,
        "_centroid": [
          126.9772946,
          37.2947134
        ],
        "_area_m2": 61.9
      },
      "geometry": {
        "type": "Polygon",
        "coordinates": [
          [
            [
              126.9773444877978,
              37.294678428507424
            ],
            [
              126.97723405485995,
              37.29469217390849
            ],
            [
              126.97724488217249,
              37.29474826379093
            ],
            [
              126.97735493497929,
              37.29473456571428
            ],
            [
              126.9773444877978,
              37.294678428507424
            ]
          ]
        ]
      }
    },
    {
      "type": "Feature",
      "properties": {
        "indoor": "room",
        "level": [
          1
        ],
        "ref": "25118",
        "name": "재료 정보학 및 설계 연구실",
        "room_type": "lab",
        "_idx": 61,
        "_centroid": [
          126.9770014,
          37.2947101
        ],
        "_area_m2": 60.2
      },
      "geometry": {
        "type": "Polygon",
        "coordinates": [
          [
            [
              126.97695713518723,
              37.29467311867417
            ],
            [
              126.97697305720868,
              37.29475589159856
            ],
            [
              126.9770457774093,
              37.29474724726577
            ],
            [
              126.97702981315958,
              37.29466425479782
            ],
            [
              126.97695713518723,
              37.29467311867417
            ]
          ]
        ]
      }
    },
    {
      "type": "Feature",
      "properties": {
        "indoor": "room",
        "level": [
          1
        ],
        "ref": "",
        "name": "",
        "room_type": "",
        "_idx": 62,
        "_centroid": [
          126.9762316,
          37.294706
        ],
        "_area_m2": 35.4
      },
      "geometry": {
        "type": "Polygon",
        "coordinates": [
          [
            [
              126.97626889556982,
              37.2947293622233
            ],
            [
              126.97625911191825,
              37.29467459392995
            ],
            [
              126.97619475231743,
              37.294682551085394
            ],
            [
              126.9762037920836,
              37.29473730138693
            ],
            [
              126.97626889556982,
              37.2947293622233
            ]
          ]
        ]
      }
    },
    {
      "type": "Feature",
      "properties": {
        "indoor": "room",
        "level": [
          1
        ],
        "ref": "25120",
        "name": "예비(신소재)",
        "room_type": "reserved",
        "_idx": 63,
        "_centroid": [
          126.9770718,
          37.2947017
        ],
        "_area_m2": 56.5
      },
      "geometry": {
        "type": "Polygon",
        "coordinates": [
          [
            [
              126.97702981315958,
              37.29466425479782
            ],
            [
              126.9770457774093,
              37.29474724726577
            ],
            [
              126.97711386704157,
              37.29473915337389
            ],
            [
              126.97709786325194,
              37.294655955342236
            ],
            [
              126.97702981315958,
              37.29466425479782
            ]
          ]
        ]
      }
    },
    {
      "type": "Feature",
      "properties": {
        "indoor": "room",
        "level": [
          1
        ],
        "ref": "25101",
        "name": "대학원생 연구실",
        "room_type": "lab",
        "_idx": 64,
        "_centroid": [
          126.9762801,
          37.2947
        ],
        "_area_m2": 17.6
      },
      "geometry": {
        "type": "Polygon",
        "coordinates": [
          [
            [
              126.97625911191825,
              37.29467459392995
            ],
            [
              126.97626889556982,
              37.2947293622233
            ],
            [
              126.97630111202267,
              37.29472543352907
            ],
            [
              126.97629131886724,
              37.294670611995684
            ],
            [
              126.97625911191825,
              37.29467459392995
            ]
          ]
        ]
      }
    },
    {
      "type": "Feature",
      "properties": {
        "indoor": "room",
        "level": [
          1
        ],
        "ref": "25103",
        "name": "대학원생 연구실",
        "room_type": "lab",
        "_idx": 65,
        "_centroid": [
          126.9763133,
          37.2946959
        ],
        "_area_m2": 18.7
      },
      "geometry": {
        "type": "Polygon",
        "coordinates": [
          [
            [
              126.97629131886724,
              37.294670611995684
            ],
            [
              126.97630111202267,
              37.29472543352907
            ],
            [
              126.97633522100054,
              37.29472127404741
            ],
            [
              126.9763254177768,
              37.29466639614723
            ],
            [
              126.97629131886724,
              37.294670611995684
            ]
          ]
        ]
      }
    },
    {
      "type": "Feature",
      "properties": {
        "indoor": "room",
        "level": [
          1
        ],
        "ref": "26107B",
        "name": "다기능나노바이오전자실험실",
        "room_type": "lab",
        "_idx": 66,
        "_centroid": [
          126.9774329,
          37.2946951
        ],
        "_area_m2": 57.2
      },
      "geometry": {
        "type": "Polygon",
        "coordinates": [
          [
            [
              126.97747983525643,
              37.29466106629388
            ],
            [
              126.97737566454627,
              37.29467421406059
            ],
            [
              126.97738599328174,
              37.29472917413004
            ],
            [
              126.97749013600372,
              37.29471602990534
            ],
            [
              126.97747983525643,
              37.29466106629388
            ]
          ]
        ]
      }
    },
    {
      "type": "Feature",
      "properties": {
        "indoor": "room",
        "level": [
          1
        ],
        "ref": "25105",
        "name": "문준영교수실",
        "room_type": "office",
        "_idx": 67,
        "_centroid": [
          126.9763477,
          37.2946917
        ],
        "_area_m2": 19.1
      },
      "geometry": {
        "type": "Polygon",
        "coordinates": [
          [
            [
              126.9763254177768,
              37.29466639614723
            ],
            [
              126.97633522100054,
              37.29472127404741
            ],
            [
              126.9763700498069,
              37.29471702678496
            ],
            [
              126.97636023630183,
              37.29466209132848
            ],
            [
              126.9763254177768,
              37.29466639614723
            ]
          ]
        ]
      }
    },
    {
      "type": "Feature",
      "properties": {
        "indoor": "room",
        "level": [
          1
        ],
        "ref": "25122",
        "name": "응용나노재료연구실",
        "room_type": "lab",
        "_idx": 68,
        "_centroid": [
          126.977154,
          37.2946877
        ],
        "_area_m2": 57
      },
      "geometry": {
        "type": "Polygon",
        "coordinates": [
          [
            [
              126.97717427647603,
              37.29468899711077
            ],
            [
              126.97717158960802,
              37.29467546570482
            ],
            [
              126.97717158960802,
              37.29467546570481
            ],
            [
              126.97716606389828,
              37.29464763752493
            ],
            [
              126.97709786325194,
              37.294655955342236
            ],
            [
              126.97711386704157,
              37.29473915337389
            ],
            [
              126.97718261311307,
              37.294730981450336
            ],
            [
              126.97717427647603,
              37.29468899711077
            ]
          ]
        ]
      }
    },
    {
      "type": "Feature",
      "properties": {
        "indoor": "room",
        "level": [
          1
        ],
        "ref": "25107",
        "name": "정현석교수실",
        "room_type": "office",
        "_idx": 69,
        "_centroid": [
          126.9763818,
          37.2946875
        ],
        "_area_m2": 18.3
      },
      "geometry": {
        "type": "Polygon",
        "coordinates": [
          [
            [
              126.97636023630183,
              37.29466209132848
            ],
            [
              126.9763700498069,
              37.29471702678496
            ],
            [
              126.97640334782237,
              37.294712966197594
            ],
            [
              126.97639352448803,
              37.294657975714514
            ],
            [
              126.97636023630183,
              37.29466209132848
            ]
          ]
        ]
      }
    },
    {
      "type": "Feature",
      "properties": {
        "indoor": "room",
        "level": [
          1
        ],
        "ref": "25109",
        "name": "유지범교수실",
        "room_type": "office",
        "_idx": 70,
        "_centroid": [
          126.9764162,
          37.2946833
        ],
        "_area_m2": 19.6
      },
      "geometry": {
        "type": "Polygon",
        "coordinates": [
          [
            [
              126.97639352448803,
              37.294657975714514
            ],
            [
              126.97640334782237,
              37.294712966197594
            ],
            [
              126.9764389771633,
              37.29470862131249
            ],
            [
              126.9764291433119,
              37.29465357195012
            ],
            [
              126.97639352448803,
              37.294657975714514
            ]
          ]
        ]
      }
    },
    {
      "type": "Feature",
      "properties": {
        "indoor": "room",
        "level": [
          1
        ],
        "ref": "25111",
        "name": "이정헌교수실",
        "room_type": "office",
        "_idx": 71,
        "_centroid": [
          126.9764511,
          37.294679
        ],
        "_area_m2": 18.7
      },
      "geometry": {
        "type": "Polygon",
        "coordinates": [
          [
            [
              126.9764291433119,
              37.29465357195012
            ],
            [
              126.9764389771633,
              37.29470862131249
            ],
            [
              126.9764730879813,
              37.294704461606436
            ],
            [
              126.97646324406055,
              37.294649355874284
            ],
            [
              126.9764291433119,
              37.29465357195012
            ]
          ]
        ]
      }
    },
    {
      "type": "Feature",
      "properties": {
        "indoor": "room",
        "level": [
          1
        ],
        "ref": "25113",
        "name": "대학원생연구실",
        "room_type": "lab",
        "_idx": 72,
        "_centroid": [
          126.9765023,
          37.2946727
        ],
        "_area_m2": 37.6
      },
      "geometry": {
        "type": "Polygon",
        "coordinates": [
          [
            [
              126.97646324406055,
              37.294649355874284
            ],
            [
              126.9764730879813,
              37.294704461606436
            ],
            [
              126.97654137550366,
              37.29469613415969
            ],
            [
              126.97653151142494,
              37.29464091557907
            ],
            [
              126.97646324406055,
              37.294649355874284
            ]
          ]
        ]
      }
    },
    {
      "type": "Feature",
      "properties": {
        "indoor": "room",
        "level": [
          1
        ],
        "ref": "",
        "name": "",
        "room_type": "",
        "_idx": 73,
        "_centroid": [
          126.9772574,
          37.2946663
        ],
        "_area_m2": 56.9
      },
      "geometry": {
        "type": "Polygon",
        "coordinates": [
          [
            [
              126.9772240916473,
              37.294640560404105
            ],
            [
              126.97722953908928,
              37.294668780379986
            ],
            [
              126.97722953908928,
              37.29466878037999
            ],
            [
              126.97722953908931,
              37.29466878037999
            ],
            [
              126.97723284183775,
              37.29468588996092
            ],
            [
              126.97723405485995,
              37.29469217390849
            ],
            [
              126.9773444877978,
              37.294678428507424
            ],
            [
              126.97733492492452,
              37.29462704306959
            ],
            [
              126.9772240916473,
              37.294640560404105
            ]
          ]
        ]
      }
    },
    {
      "type": "Feature",
      "properties": {
        "indoor": "room",
        "level": [
          1
        ],
        "ref": "25115",
        "name": "신소재공학부사무실",
        "room_type": "office",
        "_idx": 74,
        "_centroid": [
          126.9765696,
          37.2946645
        ],
        "_area_m2": 36.6
      },
      "geometry": {
        "type": "Polygon",
        "coordinates": [
          [
            [
              126.97653151142494,
              37.29464091557907
            ],
            [
              126.97654137550366,
              37.29469613415969
            ],
            [
              126.97660775404866,
              37.29468803950669
            ],
            [
              126.97659787037566,
              37.29463271123226
            ],
            [
              126.97653151142494,
              37.29464091557907
            ]
          ]
        ]
      }
    },
    {
      "type": "Feature",
      "properties": {
        "indoor": "room",
        "level": [
          1
        ],
        "ref": "25122",
        "name": "응용나노재료연구실",
        "room_type": "lab",
        "_idx": 75,
        "_centroid": [
          126.9771987,
          37.2946628
        ],
        "_area_m2": 16.2
      },
      "geometry": {
        "type": "Polygon",
        "coordinates": [
          [
            [
              126.97722953908928,
              37.29466878037999
            ],
            [
              126.97722953908928,
              37.294668780379986
            ],
            [
              126.9772240916473,
              37.294640560404105
            ],
            [
              126.97716606389828,
              37.29464763752493
            ],
            [
              126.97717158960802,
              37.29467546570481
            ],
            [
              126.97717158960802,
              37.29467546570482
            ],
            [
              126.97722953908928,
              37.29466878037999
            ]
          ]
        ]
      }
    },
    {
      "type": "Feature",
      "properties": {
        "indoor": "room",
        "level": [
          1
        ],
        "ref": "25117",
        "name": "첨단소재기술연구소",
        "room_type": "lab",
        "_idx": 76,
        "_centroid": [
          126.9766212,
          37.2946581
        ],
        "_area_m2": 20.3
      },
      "geometry": {
        "type": "Polygon",
        "coordinates": [
          [
            [
              126.97659787037566,
              37.29463271123226
            ],
            [
              126.97660775404866,
              37.29468803950669
            ],
            [
              126.97664457253933,
              37.29468354960854
            ],
            [
              126.976634677998,
              37.29462816048973
            ],
            [
              126.97659787037566,
              37.29463271123226
            ]
          ]
        ]
      }
    },
    {
      "type": "Feature",
      "properties": {
        "indoor": "room",
        "level": [
          1
        ],
        "ref": "25119",
        "name": "대학원생연구실",
        "room_type": "lab",
        "_idx": 77,
        "_centroid": [
          126.9766563,
          37.2946538
        ],
        "_area_m2": 18.4
      },
      "geometry": {
        "type": "Polygon",
        "coordinates": [
          [
            [
              126.976634677998,
              37.29462816048973
            ],
            [
              126.97664457253933,
              37.29468354960854
            ],
            [
              126.97667788098222,
              37.29467948774959
            ],
            [
              126.97666797660874,
              37.294624043586914
            ],
            [
              126.976634677998,
              37.29462816048973
            ]
          ]
        ]
      }
    },
    {
      "type": "Feature",
      "properties": {
        "indoor": "room",
        "level": [
          1
        ],
        "ref": "26107A",
        "name": "대학원생연구실",
        "room_type": "lab",
        "_idx": 78,
        "_centroid": [
          126.977425,
          37.2946531
        ],
        "_area_m2": 30.3
      },
      "geometry": {
        "type": "Polygon",
        "coordinates": [
          [
            [
              126.97747439168265,
              37.2946320200057
            ],
            [
              126.97737020618177,
              37.294645169644355
            ],
            [
              126.97737566454627,
              37.29467421406059
            ],
            [
              126.97747983525643,
              37.29466106629388
            ],
            [
              126.97747439168265,
              37.2946320200057
            ]
          ]
        ]
      }
    },
    {
      "type": "Feature",
      "properties": {
        "indoor": "room",
        "level": [
          1
        ],
        "ref": "",
        "name": "",
        "room_type": "",
        "_idx": 79,
        "_centroid": [
          126.9767083,
          37.2946474
        ],
        "_area_m2": 39.2
      },
      "geometry": {
        "type": "Polygon",
        "coordinates": [
          [
            [
              126.97666797660874,
              37.294624043586914
            ],
            [
              126.97667788098222,
              37.29467948774959
            ],
            [
              126.9767485639776,
              37.294670868182514
            ],
            [
              126.97673863873885,
              37.29461530721276
            ],
            [
              126.97666797660874,
              37.294624043586914
            ]
          ]
        ]
      }
    },
    {
      "type": "Feature",
      "properties": {
        "indoor": "room",
        "level": [
          1
        ],
        "ref": "25121",
        "name": "김윤석교수실",
        "room_type": "office",
        "_idx": 80,
        "_centroid": [
          126.9767606,
          37.294641
        ],
        "_area_m2": 18.9
      },
      "geometry": {
        "type": "Polygon",
        "coordinates": [
          [
            [
              126.97673863873885,
              37.29461530721276
            ],
            [
              126.9767485639776,
              37.294670868182514
            ],
            [
              126.97678266252869,
              37.294666709972375
            ],
            [
              126.97677272722385,
              37.29461109265315
            ],
            [
              126.97673863873885,
              37.29461530721276
            ]
          ]
        ]
      }
    },
    {
      "type": "Feature",
      "properties": {
        "indoor": "room",
        "level": [
          1
        ],
        "ref": "25123",
        "name": "이내응교수실",
        "room_type": "office",
        "_idx": 81,
        "_centroid": [
          126.9767941,
          37.2946369
        ],
        "_area_m2": 18.2
      },
      "geometry": {
        "type": "Polygon",
        "coordinates": [
          [
            [
              126.97677272722385,
              37.29461109265315
            ],
            [
              126.97678266252869,
              37.294666709972375
            ],
            [
              126.97681548079615,
              37.29466270788876
            ],
            [
              126.97680553580405,
              37.294607036335684
            ],
            [
              126.97677272722385,
              37.29461109265315
            ]
          ]
        ]
      }
    },
    {
      "type": "Feature",
      "properties": {
        "indoor": "room",
        "level": [
          1
        ],
        "ref": "25125",
        "name": "이보람교수실",
        "room_type": "office",
        "_idx": 82,
        "_centroid": [
          126.9768284,
          37.2946327
        ],
        "_area_m2": 19.9
      },
      "geometry": {
        "type": "Polygon",
        "coordinates": [
          [
            [
              126.97680553580405,
              37.294607036335684
            ],
            [
              126.97681548079615,
              37.29466270788876
            ],
            [
              126.97685120372586,
              37.2946583515908
            ],
            [
              126.97684124818952,
              37.294602621003726
            ],
            [
              126.97680553580405,
              37.294607036335684
            ]
          ]
        ]
      }
    },
    {
      "type": "Feature",
      "properties": {
        "indoor": "room",
        "level": [
          1
        ],
        "ref": "25127",
        "name": "조형균교수실",
        "room_type": "office",
        "_idx": 83,
        "_centroid": [
          126.9768634,
          37.2946284
        ],
        "_area_m2": 19.2
      },
      "geometry": {
        "type": "Polygon",
        "coordinates": [
          [
            [
              126.97684124818952,
              37.294602621003726
            ],
            [
              126.97685120372586,
              37.2946583515908
            ],
            [
              126.97688563103827,
              37.29465415328925
            ],
            [
              126.97687566533926,
              37.294598365809364
            ],
            [
              126.97684124818952,
              37.294602621003726
            ]
          ]
        ]
      }
    },
    {
      "type": "Feature",
      "properties": {
        "indoor": "room",
        "level": [
          1
        ],
        "ref": "26105",
        "name": "주사전자현미경실",
        "room_type": "lab",
        "_idx": 84,
        "_centroid": [
          126.9774198,
          37.2946255
        ],
        "_area_m2": 27.2
      },
      "geometry": {
        "type": "Polygon",
        "coordinates": [
          [
            [
              126.97746949049316,
              37.29460586781823
            ],
            [
              126.97736529167527,
              37.29461901914221
            ],
            [
              126.97737020618177,
              37.294645169644355
            ],
            [
              126.97747439168265,
              37.2946320200057
            ],
            [
              126.97746949049316,
              37.29460586781823
            ]
          ]
        ]
      }
    },
    {
      "type": "Feature",
      "properties": {
        "indoor": "room",
        "level": [
          1
        ],
        "ref": "25129",
        "name": "최재영교수실",
        "room_type": "office",
        "_idx": 85,
        "_centroid": [
          126.9768983,
          37.2946241
        ],
        "_area_m2": 19.7
      },
      "geometry": {
        "type": "Polygon",
        "coordinates": [
          [
            [
              126.97687566533926,
              37.294598365809364
            ],
            [
              126.97688563103827,
              37.29465415328925
            ],
            [
              126.97692092671247,
              37.294649849093744
            ],
            [
              126.97691095059447,
              37.29459400328602
            ],
            [
              126.97687566533926,
              37.294598365809364
            ]
          ]
        ]
      }
    },
    {
      "type": "Feature",
      "properties": {
        "indoor": "room",
        "level": [
          1
        ],
        "ref": "25131",
        "name": "김한기교수실",
        "room_type": "office",
        "_idx": 86,
        "_centroid": [
          126.976933,
          37.2946198
        ],
        "_area_m2": 19
      },
      "geometry": {
        "type": "Polygon",
        "coordinates": [
          [
            [
              126.97691095059447,
              37.29459400328602
            ],
            [
              126.97692092671247,
              37.294649849093744
            ],
            [
              126.97695496050419,
              37.294645698780805
            ],
            [
              126.97694497433973,
              37.29458979673057
            ],
            [
              126.97691095059447,
              37.29459400328602
            ]
          ]
        ]
      }
    },
    {
      "type": "Feature",
      "properties": {
        "indoor": "room",
        "level": [
          1
        ],
        "ref": "25133",
        "name": "정경재교수실",
        "room_type": "office",
        "_idx": 87,
        "_centroid": [
          126.9769672,
          37.2946156
        ],
        "_area_m2": 19.3
      },
      "geometry": {
        "type": "Polygon",
        "coordinates": [
          [
            [
              126.97694497433973,
              37.29458979673057
            ],
            [
              126.97695496050419,
              37.294645698780805
            ],
            [
              126.9769894599366,
              37.29464149168445
            ],
            [
              126.97697946358791,
              37.29458553262226
            ],
            [
              126.97694497433973,
              37.29458979673057
            ]
          ]
        ]
      }
    },
    {
      "type": "Feature",
      "properties": {
        "indoor": "room",
        "level": [
          1
        ],
        "ref": "25135",
        "name": "김선국교수실",
        "room_type": "office",
        "_idx": 88,
        "_centroid": [
          126.9770023,
          37.2946113
        ],
        "_area_m2": 19.9
      },
      "geometry": {
        "type": "Polygon",
        "coordinates": [
          [
            [
              126.97697946358791,
              37.29458553262226
            ],
            [
              126.9769894599366,
              37.29464149168445
            ],
            [
              126.97702506658419,
              37.29463714956673
            ],
            [
              126.97701505972495,
              37.29458113166277
            ],
            [
              126.97697946358791,
              37.29458553262226
            ]
          ]
        ]
      }
    },
    {
      "type": "Feature",
      "properties": {
        "indoor": "room",
        "level": [
          1
        ],
        "ref": "25137",
        "name": "김명길교수실",
        "room_type": "office",
        "_idx": 89,
        "_centroid": [
          126.9770377,
          37.294607
        ],
        "_area_m2": 19.8
      },
      "geometry": {
        "type": "Polygon",
        "coordinates": [
          [
            [
              126.97701505972495,
              37.29458113166277
            ],
            [
              126.97702506658419,
              37.29463714956673
            ],
            [
              126.97706038004605,
              37.29463284320207
            ],
            [
              126.97705036276274,
              37.294576766940864
            ],
            [
              126.97701505972495,
              37.29458113166277
            ]
          ]
        ]
      }
    },
    {
      "type": "Feature",
      "properties": {
        "indoor": "room",
        "level": [
          1
        ],
        "ref": "25139",
        "name": "대학원공동연구실",
        "room_type": "lab",
        "_idx": 90,
        "_centroid": [
          126.9770742,
          37.2946025
        ],
        "_area_m2": 21.1
      },
      "geometry": {
        "type": "Polygon",
        "coordinates": [
          [
            [
              126.97705036276274,
              37.294576766940864
            ],
            [
              126.97706038004605,
              37.29463284320207
            ],
            [
              126.97709798987283,
              37.294628256803
            ],
            [
              126.97708796148716,
              37.29457211838974
            ],
            [
              126.97705036276274,
              37.294576766940864
            ]
          ]
        ]
      }
    },
    {
      "type": "Feature",
      "properties": {
        "indoor": "room",
        "level": [
          1
        ],
        "ref": "26103",
        "name": "대학원공동연구실",
        "room_type": "lab",
        "_idx": 91,
        "_centroid": [
          126.9774044,
          37.2946001
        ],
        "_area_m2": 23.8
      },
      "geometry": {
        "type": "Polygon",
        "coordinates": [
          [
            [
              126.97746521058914,
              37.2945830307391
            ],
            [
              126.97736100014237,
              37.29459618353492
            ],
            [
              126.9773610001424,
              37.29459618353511
            ],
            [
              126.97736529167527,
              37.29461901914221
            ],
            [
              126.97746949049316,
              37.29460586781823
            ],
            [
              126.97746521058914,
              37.2945830307391
            ]
          ]
        ]
      }
    },
    {
      "type": "Feature",
      "properties": {
        "indoor": "room",
        "level": [
          1
        ],
        "ref": "",
        "name": "",
        "room_type": "",
        "_idx": 92,
        "_centroid": [
          126.9771947,
          37.2946
        ],
        "_area_m2": 12.8
      },
      "geometry": {
        "type": "Polygon",
        "coordinates": [
          [
            [
              126.9772188710771,
              37.29461351572358
            ],
            [
              126.97721271519785,
              37.294581625782165
            ],
            [
              126.97721420476272,
              37.294589342331776
            ],
            [
              126.97716172695156,
              37.294595396425365
            ],
            [
              126.97716611301587,
              37.2946199494018
            ],
            [
              126.9772188710771,
              37.29461351572358
            ]
          ]
        ]
      }
    },
    {
      "type": "Feature",
      "properties": {
        "indoor": "room",
        "level": [
          1
        ],
        "ref": "25141",
        "name": "최민재교수실",
        "room_type": "office",
        "_idx": 93,
        "_centroid": [
          126.9771096,
          37.2945981
        ],
        "_area_m2": 18.7
      },
      "geometry": {
        "type": "Polygon",
        "coordinates": [
          [
            [
              126.97708796148716,
              37.29457211838974
            ],
            [
              126.97709798987283,
              37.294628256803
            ],
            [
              126.97713129831627,
              37.29462419494398
            ],
            [
              126.97712126009817,
              37.29456800148689
            ],
            [
              126.97708796148716,
              37.29457211838974
            ]
          ]
        ]
      }
    },
    {
      "type": "Feature",
      "properties": {
        "indoor": "room",
        "level": [
          1
        ],
        "ref": "25143",
        "name": "황동목교수실",
        "room_type": "office",
        "_idx": 94,
        "_centroid": [
          126.9771477,
          37.294594
        ],
        "_area_m2": 16.8
      },
      "geometry": {
        "type": "Polygon",
        "coordinates": [
          [
            [
              126.97712126009817,
              37.29456800148689
            ],
            [
              126.97713129831627,
              37.29462419494398
            ],
            [
              126.97716611301587,
              37.2946199494018
            ],
            [
              126.97716172695156,
              37.294595396425365
            ],
            [
              126.97715582580155,
              37.294596077210514
            ],
            [
              126.97715447052276,
              37.294589251857616
            ],
            [
              126.97714351231785,
              37.29456525031428
            ],
            [
              126.97712126009817,
              37.29456800148689
            ]
          ]
        ]
      }
    },
    {
      "type": "Feature",
      "properties": {
        "indoor": "room",
        "level": [
          1
        ],
        "ref": "",
        "name": "",
        "room_type": "restroom",
        "_idx": 95,
        "_centroid": [
          126.9772384,
          37.2945745
        ],
        "_area_m2": 60.4
      },
      "geometry": {
        "type": "Polygon",
        "coordinates": [
          [
            [
              126.97724675231343,
              37.29461011569548
            ],
            [
              126.97729747148142,
              37.294603930653835
            ],
            [
              126.9772825618956,
              37.29452655415401
            ],
            [
              126.97720413525141,
              37.29453717816791
            ],
            [
              126.97720636125099,
              37.29454870975423
            ],
            [
              126.97721271519785,
              37.294581625782165
            ],
            [
              126.9772188710771,
              37.29461351572358
            ],
            [
              126.97724675231343,
              37.29461011569548
            ]
          ]
        ]
      }
    },
    {
      "type": "Feature",
      "properties": {
        "indoor": "room",
        "level": [
          1
        ],
        "ref": "26101",
        "name": "신소재공학부 학생회실",
        "room_type": "",
        "_idx": 96,
        "_centroid": [
          126.977366,
          37.294574
        ],
        "_area_m2": 95.7
      },
      "geometry": {
        "type": "Polygon",
        "coordinates": [
          [
            [
              126.9772825618956,
              37.29452655415401
            ],
            [
              126.97729747148142,
              37.294603930653835
            ],
            [
              126.9773298880105,
              37.29459997756071
            ],
            [
              126.97732987127623,
              37.2945998876402
            ],
            [
              126.97736100013996,
              37.29459618353521
            ],
            [
              126.97736100014237,
              37.29459618353492
            ],
            [
              126.97746521058914,
              37.2945830307391
            ],
            [
              126.97746010562268,
              37.294555791220915
            ],
            [
              126.9773917565475,
              37.29456505007921
            ],
            [
              126.97738067180784,
              37.29451326375912
            ],
            [
              126.9772825618956,
              37.29452655415401
            ]
          ]
        ]
      }
    }
  ]
}