{
  "type": "FeatureCollection",
  "features": [
    {
      "type": "Feature",
      "properties": {
        "building": "university",
        "name": "제2공학관",
        "loc_ref": "ENG2"
      },
      "geometry": {
        "type": "Polygon",
        "coordinates": [
          [
            [
              126.97622154714648,
              37.29484483680634
            ],
            [
              126.97718261311307,
              37.294730981450336
            ],
            [
              126.97717158960802,
              37.29467546570482
            ],
            [
              126.97722953908931,
              37.29466878037999
            ],
            [
              126.97736832377936,
              37.295387741518546
            ],
            [
              126.97730137434674,
              37.29539547829679
            ],
            [
              126.97729429148448,
              37.29535317209707
            ],
            [
              126.97653519864234,
              37.29543359950049
            ],
            [
              126.9765441404846,
              37.295487009399885
            ],
            [
              126.97648226139702,
              37.295493927680525
            ],
            [
              126.97644328077045,
              37.29525658343786
            ],
            [
              126.97643875012817,
              37.29525702541912
            ],
            [
              126.97621116455477,
              37.29528068025142
            ],
            [
              126.97627294930136,
              37.29565687351669
            ],
            [
              126.97650506084616,
              37.29563274838368
            ],
            [
              126.97649111450511,
              37.29554783225876
            ],
            [
              126.97655316199429,
              37.29554089515525
            ],
            [
              126.97656236123102,
              37.29559584247966
            ],
            [
              126.9773215036315,
              37.295515711263356
            ],
            [
              126.97731181784786,
              37.295457857717416
            ],
            [
              126.97738033032687,
              37.295449940317695
            ],
            [
              126.97738991503957,
              37.2954995930276
            ],
            [
              126.97763161146953,
              37.29547092683736
            ],
            [
              126.97746010562268,
              37.294555791220915
            ],
            [
              126.9773917565475,
              37.29456505007921
            ],
            [
              126.97738067180784,
              37.29451326375912
            ],
            [
              126.97720413525141,
              37.29453717816791
            ],
            [
              126.97721420476272,
              37.294589342331776
            ],
            [
              126.97715582580155,
              37.294596077210514
            ],
            [
              126.97715447052276,
              37.294589251857616
            ],
            [
              126.97715067334204,
              37.294570128761634
            ],
            [
              126.97619094749881,
              37.29469073338685
            ],
            [
              126.97622154714648,
              37.29484483680634
            ]
          ]
        ]
      }
    }
  ]
}