{
  "type": "FeatureCollection",
  "features": [
    {
      "type": "Feature",
      "properties": {
        "indoor": "corridor",
        "level": "1"
      },
      "geometry": {
        "type": "Polygon",
        "coordinates": [
          [
            [
              126.97633732463197,
              37.29526594286515
            ],
            [
              126.97629982141116,
              37.29527029249268
            ],
            [
              126.9763487602778,
              37.29553775512501
            ],
            [
              126.97638632236959,
              37.295533726746726
            ],
            [
              126.97638630820734,
              37.29553364946906
            ],
            [
              126.97748136180006,
              37.29541391148736
            ],
            [
              126.97748136217116,
              37.29541391348144
            ],
            [
              126.9774815730833,
              37.29541388838472
            ],
            [
              126.97748218963038,
              37.29541382096875
            ],
            [
              126.97748218850481,
              37.29541381515488
            ],
            [
              126.97751394875554,
              37.29541003595976
            ],
            [
              126.9773610001424,
              37.29459618353511
            ],
            [
              126.97736100014237,
              37.29459618353492
            ],
            [
              126.97736100013996,
              37.29459618353521
            ],
            [
              126.97732987127623,
              37.2945998876402
            ],
            [
              126.9773298880105,
              37.29459997756071
            ],
            [
              126.97620001170259,
              37.2947377623924
            ],
            [
              126.97620522283792,
              37.29476480660579
            ],
            [
              126.97733492492452,
              37.29462704306959
            ],
            [
              126.97747658863756,
              37.29538826322892
            ],
            [
              126.97638160637081,
              37.29550799345312
            ],
            [
              126.97633732463197,
              37.29526594286515
            ]
          ]
        ]
      }
    }
  ]
}