{
  "type": "FeatureCollection",
  "features": [
    {
      "type": "Feature",
      "properties": {
        "indoor": "room",
        "level": "5",
        "ref": "",
        "name": "",
        "room_type": "",
        "_idx": 1,
        "_centroid": [
          126.9763133,
          37.2956113
        ],
        "_area_m2": 76.1
      },
      "geometry": {
        "type": "Polygon",
        "coordinates": [
          [
            [
              126.97635349551281,
              37.29556525703938
            ],
            [
              126.97625965128861,
              37.29557590494249
            ],
            [
              126.97627294930136,
              37.29565687351669
            ],
            [
              126.97636727883241,
              37.295647032242805
            ],
            [
              126.97635349551281,
              37.29556525703938
            ]
          ]
        ]
      }
    },
    {
      "type": "Feature",
      "properties": {
        "indoor": "room",
        "level": "5",
        "ref": "",
        "name": "",
        "room_type": "",
        "_idx": 2,
        "_centroid": [
          126.9764694,
          37.2955641
        ],
        "_area_m2": 124.8
      },
      "geometry": {
        "type": "Polygon",
        "coordinates": [
          [
            [
              126.9763860873991,
              37.29553375194634
            ],
            [
              126.97640510743068,
              37.29564308563571
            ],
            [
              126.97650495326019,
              37.295632093316925
            ],
            [
              126.97649111450511,
              37.29554783225876
            ],
            [
              126.97655316199429,
              37.29554089515525
            ],
            [
              126.97656236123102,
              37.29559584247966
            ],
            [
              126.97654897777872,
              37.29551586246183
            ],
            [
              126.97638630820734,
              37.29553364946906
            ],
            [
              126.97638632236959,
              37.295533726746726
            ],
            [
              126.9763860873991,
              37.29553375194634
            ]
          ]
        ]
      }
    },
    {
      "type": "Feature",
      "properties": {
        "indoor": "room",
        "level": "5",
        "ref": "",
        "name": "",
        "room_type": "",
        "_idx": 3,
        "_centroid": [
          126.9765851,
          37.2955527
        ],
        "_area_m2": 46.9
      },
      "geometry": {
        "type": "Polygon",
        "coordinates": [
          [
            [
              126.97656236123102,
              37.29559584247966
            ],
            [
              126.97662115056428,
              37.29558961678629
            ],
            [
              126.97660791664634,
              37.29550941782652
            ],
            [
              126.97654897777872,
              37.29551586246183
            ],
            [
              126.97656236123102,
              37.29559584247966
            ]
          ]
        ]
      }
    },
    {
      "type": "Feature",
      "properties": {
        "indoor": "room",
        "level": "5",
        "ref": "",
        "name": "",
        "room_type": "",
        "_idx": 4,
        "_centroid": [
          126.9766508,
          37.2955456
        ],
        "_area_m2": 58.0
      },
      "geometry": {
        "type": "Polygon",
        "coordinates": [
          [
            [
              126.97669379840019,
              37.295581923500364
            ],
            [
              126.9766805239054,
              37.295501478629106
            ],
            [
              126.97660791664634,
              37.29550941782652
            ],
            [
              126.97662115056428,
              37.295589616786295
            ],
            [
              126.97669379840019,
              37.295581923500364
            ]
          ]
        ]
      }
    },
    {
      "type": "Feature",
      "properties": {
        "indoor": "room",
        "level": "5",
        "ref": "",
        "name": "",
        "room_type": "",
        "_idx": 5,
        "_centroid": [
          126.97672,
          37.2955382
        ],
        "_area_m2": 52.5
      },
      "geometry": {
        "type": "Polygon",
        "coordinates": [
          [
            [
              126.97675943373132,
              37.29557497282711
            ],
            [
              126.97674612257616,
              37.295494305781595
            ],
            [
              126.9766805239054,
              37.295501478629106
            ],
            [
              126.97669379840019,
              37.295581923500364
            ],
            [
              126.97675943373132,
              37.29557497282711
            ]
          ]
        ]
      }
    },
    {
      "type": "Feature",
      "properties": {
        "indoor": "room",
        "level": "5",
        "ref": "",
        "name": "",
        "room_type": "",
        "_idx": 6,
        "_centroid": [
          126.9767713,
          37.2955326
        ],
        "_area_m2": 29.7
      },
      "geometry": {
        "type": "Polygon",
        "coordinates": [
          [
            [
              126.97679649381698,
              37.295571048225206
            ],
            [
              126.9767831619616,
              37.29549025573209
            ],
            [
              126.97674612257616,
              37.295494305781595
            ],
            [
              126.97675943373132,
              37.29557497282711
            ],
            [
              126.97679649381698,
              37.295571048225206
            ]
          ]
        ]
      }
    },
    {
      "type": "Feature",
      "properties": {
        "indoor": "room",
        "level": "5",
        "ref": "",
        "name": "",
        "room_type": "",
        "_idx": 7,
        "_centroid": [
          126.9768234,
          37.295527
        ],
        "_area_m2": 54.0
      },
      "geometry": {
        "type": "Polygon",
        "coordinates": [
          [
            [
              126.97686360925088,
              37.29556394081152
            ],
            [
              126.97685023990846,
              37.29548292113402
            ],
            [
              126.9767831619616,
              37.29549025573209
            ],
            [
              126.97679649381698,
              37.295571048225206
            ],
            [
              126.97686360925088,
              37.29556394081152
            ]
          ]
        ]
      }
    },
    {
      "type": "Feature",
      "properties": {
        "indoor": "room",
        "level": "5",
        "ref": "",
        "name": "",
        "room_type": "",
        "_idx": 8,
        "_centroid": [
          126.9768747,
          37.2955215
        ],
        "_area_m2": 28.6
      },
      "geometry": {
        "type": "Polygon",
        "coordinates": [
          [
            [
              126.97689911560242,
              37.295560180747486
            ],
            [
              126.97688572642814,
              37.295479040881695
            ],
            [
              126.97685023990846,
              37.29548292113402
            ],
            [
              126.97686360925088,
              37.29556394081152
            ],
            [
              126.97689911560242,
              37.295560180747486
            ]
          ]
        ]
      }
    },
    {
      "type": "Feature",
      "properties": {
        "indoor": "room",
        "level": "5",
        "ref": "",
        "name": "",
        "room_type": "",
        "_idx": 9,
        "_centroid": [
          126.9763075,
          37.295521
        ],
        "_area_m2": 75.2
      },
      "geometry": {
        "type": "Polygon",
        "coordinates": [
          [
            [
              126.97635349551281,
              37.29556525703938
            ],
            [
              126.97633905161742,
              37.295484694969716
            ],
            [
              126.97633905161729,
              37.295484694969026
            ],
            [
              126.97624628945462,
              37.29549454777532
            ],
            [
              126.97625965128861,
              37.29557590494249
            ],
            [
              126.97635349551281,
              37.29556525703938
            ]
          ]
        ]
      }
    },
    {
      "type": "Feature",
      "properties": {
        "indoor": "room",
        "level": "5",
        "ref": "",
        "name": "",
        "room_type": "",
        "_idx": 10,
        "_centroid": [
          126.9769437,
          37.2955141
        ],
        "_area_m2": 82.9
      },
      "geometry": {
        "type": "Polygon",
        "coordinates": [
          [
            [
              126.97700164420131,
              37.29554932313807
            ],
            [
              126.97698819775951,
              37.29546783621511
            ],
            [
              126.97688572642814,
              37.295479040881695
            ],
            [
              126.97689911560242,
              37.295560180747486
            ],
            [
              126.97700164420131,
              37.29554932313807
            ]
          ]
        ]
      }
    },
    {
      "type": "Feature",
      "properties": {
        "indoor": "room",
        "level": "5",
        "ref": "",
        "name": "",
        "room_type": "",
        "_idx": 11,
        "_centroid": [
          126.9770132,
          37.2955066
        ],
        "_area_m2": 29.6
      },
      "geometry": {
        "type": "Polygon",
        "coordinates": [
          [
            [
              126.977038120414,
              37.29554546036734
            ],
            [
              126.97702465359887,
              37.29546384997311
            ],
            [
              126.97698819775951,
              37.29546783621511
            ],
            [
              126.97700164420131,
              37.29554932313807
            ],
            [
              126.977038120414,
              37.29554546036734
            ]
          ]
        ]
      }
    },
    {
      "type": "Feature",
      "properties": {
        "indoor": "room",
        "level": "5",
        "ref": "",
        "name": "",
        "room_type": "",
        "_idx": 12,
        "_centroid": [
          126.9770656,
          37.295501
        ],
        "_area_m2": 55.7
      },
      "geometry": {
        "type": "Polygon",
        "coordinates": [
          [
            [
              126.97710665871367,
              37.29553820227452
            ],
            [
              126.97709315361635,
              37.295456359879566
            ],
            [
              126.97702465359887,
              37.29546384997311
            ],
            [
              126.977038120414,
              37.29554546036734
            ],
            [
              126.97710665871367,
              37.29553820227452
            ]
          ]
        ]
      }
    },
    {
      "type": "Feature",
      "properties": {
        "indoor": "room",
        "level": "5",
        "ref": "",
        "name": "",
        "room_type": "",
        "_idx": 13,
        "_centroid": [
          126.9771186,
          37.2954953
        ],
        "_area_m2": 30.4
      },
      "geometry": {
        "type": "Polygon",
        "coordinates": [
          [
            [
              126.9771440265548,
              37.29553424508181
            ],
            [
              126.97713050058611,
              37.295452276197445
            ],
            [
              126.97709315361635,
              37.295456359879566
            ],
            [
              126.97710665871367,
              37.29553820227452
            ],
            [
              126.9771440265548,
              37.29553424508181
            ]
          ]
        ]
      }
    },
    {
      "type": "Feature",
      "properties": {
        "indoor": "room",
        "level": "5",
        "ref": "",
        "name": "",
        "room_type": "",
        "_idx": 14,
        "_centroid": [
          126.9772431,
          37.2954786
        ],
        "_area_m2": 145.2
      },
      "geometry": {
        "type": "Polygon",
        "coordinates": [
          [
            [
              126.9771440265548,
              37.29553424508181
            ],
            [
              126.9773215036315,
              37.29551571126334
            ],
            [
              126.97731181784786,
              37.295457857717416
            ],
            [
              126.97730764061114,
              37.295432906927104
            ],
            [
              126.97713050058611,
              37.295452276197445
            ],
            [
              126.9771440265548,
              37.29553424508181
            ]
          ]
        ]
      }
    },
    {
      "type": "Feature",
      "properties": {
        "indoor": "room",
        "level": "5",
        "ref": "",
        "name": "",
        "room_type": "",
        "_idx": 15,
        "_centroid": [
          126.9764911,
          37.2954739
        ],
        "_area_m2": 43.6
      },
      "geometry": {
        "type": "Polygon",
        "coordinates": [
          [
            [
              126.9764783399631,
              37.29546990034748
            ],
            [
              126.97637661415094,
              37.29548070523487
            ],
            [
              126.97638160637081,
              37.29550799345312
            ],
            [
              126.9765700628828,
              37.295487386781105
            ],
            [
              126.97656060716031,
              37.29543090741739
            ],
            [
              126.97653519864234,
              37.29543359950049
            ],
            [
              126.9765441404846,
              37.295487009399885
            ],
            [
              126.97648226139702,
              37.295493927680525
            ],
            [
              126.9764783399631,
              37.29546990034748
            ]
          ]
        ]
      }
    },
    {
      "type": "Feature",
      "properties": {
        "indoor": "room",
        "level": "5",
        "ref": "",
        "name": "",
        "room_type": "",
        "_idx": 16,
        "_centroid": [
          126.9765818,
          37.2954574
        ],
        "_area_m2": 18.5
      },
      "geometry": {
        "type": "Polygon",
        "coordinates": [
          [
            [
              126.97660303715631,
              37.29548378122759
            ],
            [
              126.97659359983592,
              37.29542741177767
            ],
            [
              126.97656060716031,
              37.29543090741739
            ],
            [
              126.9765700628828,
              37.295487386781105
            ],
            [
              126.97660303715631,
              37.29548378122759
            ]
          ]
        ]
      }
    },
    {
      "type": "Feature",
      "properties": {
        "indoor": "room",
        "level": "5",
        "ref": "",
        "name": "",
        "room_type": "",
        "_idx": 17,
        "_centroid": [
          126.9774354,
          37.2954565
        ],
        "_area_m2": 77.2
      },
      "geometry": {
        "type": "Polygon",
        "coordinates": [
          [
            [
              126.97737576459478,
              37.29542545795076
            ],
            [
              126.97738991503957,
              37.2954995930276
            ],
            [
              126.97749484565999,
              37.29548714782464
            ],
            [
              126.97748087688355,
              37.29541396451027
            ],
            [
              126.97737576459478,
              37.29542545795076
            ]
          ]
        ]
      }
    },
    {
      "type": "Feature",
      "properties": {
        "indoor": "room",
        "level": "5",
        "ref": "",
        "name": "",
        "room_type": "",
        "_idx": 18,
        "_centroid": [
          126.9766161,
          37.2954537
        ],
        "_area_m2": 19.9
      },
      "geometry": {
        "type": "Polygon",
        "coordinates": [
          [
            [
              126.97663854826328,
              37.29547989828544
            ],
            [
              126.97662913076076,
              37.29542364720539
            ],
            [
              126.97659359983592,
              37.29542741177767
            ],
            [
              126.97660303715631,
              37.29548378122759
            ],
            [
              126.97663854826328,
              37.29547989828544
            ]
          ]
        ]
      }
    },
    {
      "type": "Feature",
      "properties": {
        "indoor": "room",
        "level": "5",
        "ref": "",
        "name": "",
        "room_type": "",
        "_idx": 19,
        "_centroid": [
          126.9773531,
          37.2954532
        ],
        "_area_m2": 16.9
      },
      "geometry": {
        "type": "Polygon",
        "coordinates": [
          [
            [
              126.97730764061114,
              37.295432906927104
            ],
            [
              126.97731181784786,
              37.295457857717416
            ],
            [
              126.97738033032687,
              37.295449940317695
            ],
            [
              126.97738991503957,
              37.2954995930276
            ],
            [
              126.97737576459478,
              37.29542545795076
            ],
            [
              126.97730764061114,
              37.295432906927104
            ]
          ]
        ]
      }
    },
    {
      "type": "Feature",
      "properties": {
        "indoor": "room",
        "level": "5",
        "ref": "",
        "name": "",
        "room_type": "",
        "_idx": 20,
        "_centroid": [
          126.9764228,
          37.2954485
        ],
        "_area_m2": 54.4
      },
      "geometry": {
        "type": "Polygon",
        "coordinates": [
          [
            [
              126.97646959329583,
              37.29541630793951
            ],
            [
              126.976366829897,
              37.295427223043795
            ],
            [
              126.97637661415094,
              37.29548070523487
            ],
            [
              126.9764783399631,
              37.29546990034748
            ],
            [
              126.97646959329583,
              37.29541630793951
            ]
          ]
        ]
      }
    },
    {
      "type": "Feature",
      "properties": {
        "indoor": "room",
        "level": "5",
        "ref": "",
        "name": "",
        "room_type": "",
        "_idx": 21,
        "_centroid": [
          126.9766681,
          37.2954481
        ],
        "_area_m2": 38.3
      },
      "geometry": {
        "type": "Polygon",
        "coordinates": [
          [
            [
              126.97670714675677,
              37.2954723974215
            ],
            [
              126.97669776753743,
              37.29541637500215
            ],
            [
              126.97662913076076,
              37.29542364720539
            ],
            [
              126.97663854826328,
              37.29547989828544
            ],
            [
              126.97670714675677,
              37.2954723974215
            ]
          ]
        ]
      }
    },
    {
      "type": "Feature",
      "properties": {
        "indoor": "room",
        "level": "5",
        "ref": "",
        "name": "",
        "room_type": "",
        "_idx": 22,
        "_centroid": [
          126.9767196,
          37.2954425
        ],
        "_area_m2": 19.1
      },
      "geometry": {
        "type": "Polygon",
        "coordinates": [
          [
            [
              126.97674138716663,
              37.29546865342301
            ],
            [
              126.97673202705604,
              37.295412745137895
            ],
            [
              126.97669776753743,
              37.29541637500215
            ],
            [
              126.97670714675677,
              37.2954723974215
            ],
            [
              126.97674138716663,
              37.29546865342301
            ]
          ]
        ]
      }
    },
    {
      "type": "Feature",
      "properties": {
        "indoor": "room",
        "level": "5",
        "ref": "",
        "name": "",
        "room_type": "",
        "_idx": 23,
        "_centroid": [
          126.9767885,
          37.2954351
        ],
        "_area_m2": 57.4
      },
      "geometry": {
        "type": "Polygon",
        "coordinates": [
          [
            [
              126.97684485366544,
              37.295457339936505
            ],
            [
              126.97683555129673,
              37.29540177653833
            ],
            [
              126.97673202705604,
              37.295412745137895
            ],
            [
              126.97674138716663,
              37.29546865342301
            ],
            [
              126.97684485366544,
              37.295457339936505
            ]
          ]
        ]
      }
    },
    {
      "type": "Feature",
      "properties": {
        "indoor": "room",
        "level": "5",
        "ref": "",
        "name": "",
        "room_type": "",
        "_idx": 24,
        "_centroid": [
          126.9768568,
          37.2954278
        ],
        "_area_m2": 18.4
      },
      "geometry": {
        "type": "Polygon",
        "coordinates": [
          [
            [
              126.97687810889734,
              37.29545370366175
            ],
            [
              126.97686882508744,
              37.29539825111391
            ],
            [
              126.97683555129673,
              37.29540177653833
            ],
            [
              126.97684485366544,
              37.295457339936505
            ],
            [
              126.97687810889734,
              37.29545370366175
            ]
          ]
        ]
      }
    },
    {
      "type": "Feature",
      "properties": {
        "indoor": "room",
        "level": "5",
        "ref": "",
        "name": "",
        "room_type": "",
        "_idx": 25,
        "_centroid": [
          126.9775152,
          37.2954264
        ],
        "_area_m2": 83.9
      },
      "geometry": {
        "type": "Polygon",
        "coordinates": [
          [
            [
              126.97762081081686,
              37.295413297503636
            ],
            [
              126.97751684231044,
              37.295425560854966
            ],
            [
              126.97751394875554,
              37.29541003595976
            ],
            [
              126.97748218850481,
              37.29541381515488
            ],
            [
              126.97748218963038,
              37.29541382096875
            ],
            [
              126.9774815730833,
              37.29541388838472
            ],
            [
              126.97748136217116,
              37.29541391348144
            ],
            [
              126.97748136180006,
              37.29541391148736
            ],
            [
              126.97748087688355,
              37.29541396451027
            ],
            [
              126.97749484565999,
              37.29548714782464
            ],
            [
              126.97763161146953,
              37.29547092683736
            ],
            [
              126.97762081081686,
              37.295413297503636
            ]
          ]
        ]
      }
    },
    {
      "type": "Feature",
      "properties": {
        "indoor": "room",
        "level": "5",
        "ref": "",
        "name": "",
        "room_type": "",
        "_idx": 26,
        "_centroid": [
          126.9762813,
          37.2954244
        ],
        "_area_m2": 118.9
      },
      "geometry": {
        "type": "Polygon",
        "coordinates": [
          [
            [
              126.976315194884,
              37.29535431220534
            ],
            [
              126.97622483393226,
              37.29536390998102
            ],
            [
              126.97624628945462,
              37.29549454777532
            ],
            [
              126.97633905161729,
              37.295484694969026
            ],
            [
              126.976315194884,
              37.29535431220534
            ]
          ]
        ]
      }
    },
    {
      "type": "Feature",
      "properties": {
        "indoor": "room",
        "level": "5",
        "ref": "",
        "name": "",
        "room_type": "",
        "_idx": 27,
        "_centroid": [
          126.9769086,
          37.2954222
        ],
        "_area_m2": 38.7
      },
      "geometry": {
        "type": "Polygon",
        "coordinates": [
          [
            [
              126.97694845243352,
              37.29544601198709
            ],
            [
              126.97693920788059,
              37.295390793916745
            ],
            [
              126.97686882508744,
              37.29539825111391
            ],
            [
              126.97687810889734,
              37.29545370366175
            ],
            [
              126.97694845243352,
              37.29544601198709
            ]
          ]
        ]
      }
    },
    {
      "type": "Feature",
      "properties": {
        "indoor": "room",
        "level": "5",
        "ref": "",
        "name": "",
        "room_type": "",
        "_idx": 28,
        "_centroid": [
          126.9769607,
          37.2954166
        ],
        "_area_m2": 18.5
      },
      "geometry": {
        "type": "Polygon",
        "coordinates": [
          [
            [
              126.97698221849859,
              37.29544231985557
            ],
            [
              126.97697299278957,
              37.29538721433833
            ],
            [
              126.97693920788059,
              37.295390793916745
            ],
            [
              126.97694845243352,
              37.29544601198709
            ],
            [
              126.97698221849859,
              37.29544231985557
            ]
          ]
        ]
      }
    },
    {
      "type": "Feature",
      "properties": {
        "indoor": "room",
        "level": "5",
        "ref": "",
        "name": "",
        "room_type": "",
        "_idx": 29,
        "_centroid": [
          126.9769956,
          37.2954128
        ],
        "_area_m2": 19.7
      },
      "geometry": {
        "type": "Polygon",
        "coordinates": [
          [
            [
              126.97701822128288,
              37.295438383151236
            ],
            [
              126.97700901566587,
              37.29538339764281
            ],
            [
              126.97697299278957,
              37.29538721433833
            ],
            [
              126.97698221849859,
              37.29544231985557
            ],
            [
              126.97701822128288,
              37.295438383151236
            ]
          ]
        ]
      }
    },
    {
      "type": "Feature",
      "properties": {
        "indoor": "room",
        "level": "5",
        "ref": "",
        "name": "",
        "room_type": "",
        "_idx": 30,
        "_centroid": [
          126.9770474,
          37.2954073
        ],
        "_area_m2": 36.9
      },
      "geometry": {
        "type": "Polygon",
        "coordinates": [
          [
            [
              126.97708580996972,
              37.295430992704034
            ],
            [
              126.97707664207232,
              37.295376232490305
            ],
            [
              126.97700901566587,
              37.29538339764281
            ],
            [
              126.97701822128288,
              37.295438383151236
            ],
            [
              126.97708580996972,
              37.295430992704034
            ]
          ]
        ]
      }
    },
    {
      "type": "Feature",
      "properties": {
        "indoor": "room",
        "level": "5",
        "ref": "",
        "name": "",
        "room_type": "",
        "_idx": 31,
        "_centroid": [
          126.9770997,
          37.2954016
        ],
        "_area_m2": 20.1
      },
      "geometry": {
        "type": "Polygon",
        "coordinates": [
          [
            [
              126.9771228052293,
              37.29542694747804
            ],
            [
              126.97711365797828,
              37.295372310581314
            ],
            [
              126.97707664207232,
              37.295376232490305
            ],
            [
              126.97708580996972,
              37.295430992704034
            ],
            [
              126.9771228052293,
              37.29542694747804
            ]
          ]
        ]
      }
    },
    {
      "type": "Feature",
      "properties": {
        "indoor": "room",
        "level": "5",
        "ref": "",
        "name": "",
        "room_type": "",
        "_idx": 32,
        "_centroid": [
          126.9771346,
          37.2953979
        ],
        "_area_m2": 17.8
      },
      "geometry": {
        "type": "Polygon",
        "coordinates": [
          [
            [
              126.97715556239925,
              37.295423365663595
            ],
            [
              126.97714643342911,
              37.295368837957
            ],
            [
              126.97711365797828,
              37.295372310581314
            ],
            [
              126.9771228052293,
              37.29542694747804
            ],
            [
              126.97715556239925,
              37.295423365663595
            ]
          ]
        ]
      }
    },
    {
      "type": "Feature",
      "properties": {
        "indoor": "room",
        "level": "5",
        "ref": "",
        "name": "",
        "room_type": "",
        "_idx": 33,
        "_centroid": [
          126.9771689,
          37.2953942
        ],
        "_area_m2": 19.4
      },
      "geometry": {
        "type": "Polygon",
        "coordinates": [
          [
            [
              126.97719129061086,
              37.29541945898226
            ],
            [
              126.97718218157962,
              37.29536505036923
            ],
            [
              126.97714643342911,
              37.295368837957
            ],
            [
              126.97715556239925,
              37.295423365663595
            ],
            [
              126.97719129061086,
              37.29541945898226
            ]
          ]
        ]
      }
    },
    {
      "type": "Feature",
      "properties": {
        "indoor": "room",
        "level": "5",
        "ref": "",
        "name": "",
        "room_type": "",
        "_idx": 34,
        "_centroid": [
          126.9772042,
          37.2953904
        ],
        "_area_m2": 18.8
      },
      "geometry": {
        "type": "Polygon",
        "coordinates": [
          [
            [
              126.97722610935708,
              37.295415651745905
            ],
            [
              126.97721701975686,
              37.295361359194935
            ],
            [
              126.97718218157962,
              37.29536505036923
            ],
            [
              126.97719129061086,
              37.29541945898226
            ],
            [
              126.97722610935708,
              37.295415651745905
            ]
          ]
        ]
      }
    },
    {
      "type": "Feature",
      "properties": {
        "indoor": "room",
        "level": "5",
        "ref": "",
        "name": "",
        "room_type": "",
        "_idx": 35,
        "_centroid": [
          126.9773799,
          37.2953892
        ],
        "_area_m2": 21.5
      },
      "geometry": {
        "type": "Polygon",
        "coordinates": [
          [
            [
              126.97730137434674,
              37.29539547829679
            ],
            [
              126.97730333799217,
              37.295407207223946
            ],
            [
              126.97747658863756,
              37.29538826322892
            ],
            [
              126.97747408700796,
              37.295374821267636
            ],
            [
              126.97736832377936,
              37.29538774151854
            ],
            [
              126.97736744049102,
              37.295383165675624
            ],
            [
              126.97736832377936,
              37.295387741518546
            ],
            [
              126.97730137434674,
              37.29539547829679
            ]
          ]
        ]
      }
    },
    {
      "type": "Feature",
      "properties": {
        "indoor": "room",
        "level": "5",
        "ref": "",
        "name": "",
        "room_type": "",
        "_idx": 36,
        "_centroid": [
          126.9772684,
          37.2953866
        ],
        "_area_m2": 41.6
      },
      "geometry": {
        "type": "Polygon",
        "coordinates": [
          [
            [
              126.97730333799217,
              37.295407207223946
            ],
            [
              126.97730137434674,
              37.29539547829679
            ],
            [
              126.97729429148448,
              37.29535317209707
            ],
            [
              126.97721701975686,
              37.295361359194935
            ],
            [
              126.97722610935708,
              37.295415651745905
            ],
            [
              126.97730333799217,
              37.295407207223946
            ]
          ]
        ]
      }
    },
    {
      "type": "Feature",
      "properties": {
        "indoor": "room",
        "level": "5",
        "ref": "",
        "name": "",
        "room_type": "",
        "_idx": 37,
        "_centroid": [
          126.976409,
          37.2953684
        ],
        "_area_m2": 110.3
      },
      "geometry": {
        "type": "Polygon",
        "coordinates": [
          [
            [
              126.97645214071433,
              37.29530937282467
            ],
            [
              126.97634730697611,
              37.29532050784677
            ],
            [
              126.976366829897,
              37.295427223043795
            ],
            [
              126.97646959329583,
              37.29541630793951
            ],
            [
              126.97645214071433,
              37.29530937282467
            ]
          ]
        ]
      }
    },
    {
      "type": "Feature",
      "properties": {
        "indoor": "room",
        "level": "5",
        "ref": "",
        "name": "",
        "room_type": "",
        "_idx": 38,
        "_centroid": [
          126.9774065,
          37.2953609
        ],
        "_area_m2": 55.1
      },
      "geometry": {
        "type": "Polygon",
        "coordinates": [
          [
            [
              126.97736744049102,
              37.295383165675624
            ],
            [
              126.97736832377936,
              37.29538774151854
            ],
            [
              126.97747408700796,
              37.295374821267636
            ],
            [
              126.97746440388484,
              37.29532279111623
            ],
            [
              126.97735828880519,
              37.29533575570148
            ],
            [
              126.97736744049102,
              37.295383165675624
            ]
          ]
        ]
      }
    },
    {
      "type": "Feature",
      "properties": {
        "indoor": "room",
        "level": "5",
        "ref": "",
        "name": "",
        "room_type": "",
        "_idx": 39,
        "_centroid": [
          126.9762674,
          37.2953442
        ],
        "_area_m2": 26.7
      },
      "geometry": {
        "type": "Polygon",
        "coordinates": [
          [
            [
              126.9763097396597,
              37.29532449809748
            ],
            [
              126.97621992778346,
              37.29533403755723
            ],
            [
              126.97622483393226,
              37.29536390998102
            ],
            [
              126.976315194884,
              37.29535431220534
            ],
            [
              126.9763097396597,
              37.29532449809748
            ]
          ]
        ]
      }
    },
    {
      "type": "Feature",
      "properties": {
        "indoor": "room",
        "level": "5",
        "ref": "",
        "name": "",
        "room_type": "",
        "_idx": 40,
        "_centroid": [
          126.977544,
          37.2953437
        ],
        "_area_m2": 191.7
      },
      "geometry": {
        "type": "Polygon",
        "coordinates": [
          [
            [
              126.97751394875554,
              37.29541003595976
            ],
            [
              126.97751684231044,
              37.295425560854966
            ],
            [
              126.97762081081686,
              37.295413297503636
            ],
            [
              126.97758620431976,
              37.29522864668381
            ],
            [
              126.97748217819085,
              37.295240982115004
            ],
            [
              126.97751394875554,
              37.29541003595976
            ]
          ]
        ]
      }
    },
    {
      "type": "Feature",
      "properties": {
        "indoor": "room",
        "level": "5",
        "ref": "",
        "name": "",
        "room_type": "",
        "_idx": 41,
        "_centroid": [
          126.9762602,
          37.2953027
        ],
        "_area_m2": 47.3
      },
      "geometry": {
        "type": "Polygon",
        "coordinates": [
          [
            [
              126.97621992778346,
              37.29533403755723
            ],
            [
              126.9763097396597,
              37.29532449809748
            ],
            [
              126.97630003202136,
              37.2952714435279
            ],
            [
              126.97621116455477,
              37.29528068025142
            ],
            [
              126.97621992778346,
              37.29533403755723
            ]
          ]
        ]
      }
    },
    {
      "type": "Feature",
      "properties": {
        "indoor": "room",
        "level": "5",
        "ref": "",
        "name": "",
        "room_type": "",
        "_idx": 42,
        "_centroid": [
          126.9774037,
          37.295289
        ],
        "_area_m2": 85.6
      },
      "geometry": {
        "type": "Polygon",
        "coordinates": [
          [
            [
              126.9774494223144,
              37.29524229091313
            ],
            [
              126.97734276246615,
              37.29525532206932
            ],
            [
              126.97735828880519,
              37.29533575570148
            ],
            [
              126.97746440388484,
              37.29532279111623
            ],
            [
              126.9774494223144,
              37.29524229091313
            ]
          ]
        ]
      }
    },
    {
      "type": "Feature",
      "properties": {
        "indoor": "room",
        "level": "5",
        "ref": "",
        "name": "",
        "room_type": "",
        "_idx": 43,
        "_centroid": [
          126.9764038,
          37.2952822
        ],
        "_area_m2": 55.4
      },
      "geometry": {
        "type": "Polygon",
        "coordinates": [
          [
            [
              126.97645214071433,
              37.29530937282467
            ],
            [
              126.97644328077045,
              37.29525658343786
            ],
            [
              126.97643875012817,
              37.29525702541912
            ],
            [
              126.97633761628563,
              37.29526753708754
            ],
            [
              126.97634730697611,
              37.29532050784677
            ],
            [
              126.97645214071433,
              37.29530937282467
            ]
          ]
        ]
      }
    },
    {
      "type": "Feature",
      "properties": {
        "indoor": "room",
        "level": "5",
        "ref": "",
        "name": "",
        "room_type": "",
        "_idx": 44,
        "_centroid": [
          126.9773885,
          37.2952088
        ],
        "_area_m2": 85.5
      },
      "geometry": {
        "type": "Polygon",
        "coordinates": [
          [
            [
              126.97743452290922,
              37.29516223220721
            ],
            [
              126.97732732128016,
              37.295175329569375
            ],
            [
              126.97734276246615,
              37.29525532206932
            ],
            [
              126.9774494223144,
              37.29524229091313
            ],
            [
              126.97743452290922,
              37.29516223220721
            ]
          ]
        ]
      }
    },
    {
      "type": "Feature",
      "properties": {
        "indoor": "room",
        "level": "5",
        "ref": "",
        "name": "",
        "room_type": "",
        "_idx": 45,
        "_centroid": [
          126.9775263,
          37.2951928
        ],
        "_area_m2": 87.3
      },
      "geometry": {
        "type": "Polygon",
        "coordinates": [
          [
            [
              126.97757045060811,
              37.295144589179706
            ],
            [
              126.97746638207462,
              37.295156929653004
            ],
            [
              126.97748217819085,
              37.295240982115004
            ],
            [
              126.97758620431976,
              37.29522864668381
            ],
            [
              126.97757045060811,
              37.295144589179706
            ]
          ]
        ]
      }
    },
    {
      "type": "Feature",
      "properties": {
        "indoor": "room",
        "level": "5",
        "ref": "",
        "name": "",
        "room_type": "",
        "_idx": 46,
        "_centroid": [
          126.9773707,
          37.295115
        ],
        "_area_m2": 115.5
      },
      "geometry": {
        "type": "Polygon",
        "coordinates": [
          [
            [
              126.97741451414579,
              37.29505471947843
            ],
            [
              126.97730658494648,
              37.295067905750244
            ],
            [
              126.97732732128016,
              37.295175329569375
            ],
            [
              126.97743452290922,
              37.29516223220721
            ],
            [
              126.97741451414579,
              37.29505471947843
            ]
          ]
        ]
      }
    },
    {
      "type": "Feature",
      "properties": {
        "indoor": "room",
        "level": "5",
        "ref": "",
        "name": "",
        "room_type": "",
        "_idx": 47,
        "_centroid": [
          126.9775086,
          37.2950983
        ],
        "_area_m2": 109.1
      },
      "geometry": {
        "type": "Polygon",
        "coordinates": [
          [
            [
              126.97755077299473,
              37.2950395948073
            ],
            [
              126.97744665149462,
              37.29505194157861
            ],
            [
              126.97746638207462,
              37.295156929653004
            ],
            [
              126.97757045060811,
              37.295144589179706
            ],
            [
              126.97755077299473,
              37.2950395948073
            ]
          ]
        ]
      }
    },
    {
      "type": "Feature",
      "properties": {
        "indoor": "room",
        "level": "5",
        "ref": "",
        "name": "",
        "room_type": "",
        "_idx": 48,
        "_centroid": [
          126.9773556,
          37.2950353
        ],
        "_area_m2": 56.3
      },
      "geometry": {
        "type": "Polygon",
        "coordinates": [
          [
            [
              126.97740481481016,
              37.29500260221264
            ],
            [
              126.97729653291799,
              37.29501583158394
            ],
            [
              126.97730658494648,
              37.295067905750244
            ],
            [
              126.97741451414579,
              37.29505471947843
            ],
            [
              126.97740481481016,
              37.29500260221264
            ]
          ]
        ]
      }
    },
    {
      "type": "Feature",
      "properties": {
        "indoor": "room",
        "level": "5",
        "ref": "",
        "name": "",
        "room_type": "",
        "_idx": 49,
        "_centroid": [
          126.9774936,
          37.2950188
        ],
        "_area_m2": 56.1
      },
      "geometry": {
        "type": "Polygon",
        "coordinates": [
          [
            [
              126.97754066088727,
              37.294985639362785
            ],
            [
              126.9774365121682,
              37.29499798937054
            ],
            [
              126.97744665149462,
              37.29505194157861
            ],
            [
              126.97755077299473,
              37.2950395948073
            ],
            [
              126.97754066088727,
              37.294985639362785
            ]
          ]
        ]
      }
    },
    {
      "type": "Feature",
      "properties": {
        "indoor": "room",
        "level": "5",
        "ref": "",
        "name": "",
        "room_type": "",
        "_idx": 50,
        "_centroid": [
          126.977343,
          37.2949688
        ],
        "_area_m2": 87.8
      },
      "geometry": {
        "type": "Polygon",
        "coordinates": [
          [
            [
              126.9773897565655,
              37.294921690017404
            ],
            [
              126.9772809271168,
              37.294934986300916
            ],
            [
              126.97729653291799,
              37.29501583158394
            ],
            [
              126.97740481481016,
              37.29500260221264
            ],
            [
              126.9773897565655,
              37.294921690017404
            ]
          ]
        ]
      }
    },
    {
      "type": "Feature",
      "properties": {
        "indoor": "room",
        "level": "5",
        "ref": "",
        "name": "",
        "room_type": "",
        "_idx": 51,
        "_centroid": [
          126.9774813,
          37.2949528
        ],
        "_area_m2": 81.2
      },
      "geometry": {
        "type": "Polygon",
        "coordinates": [
          [
            [
              126.97752602687157,
              37.2949075562506
            ],
            [
              126.97742183876184,
              37.294919910942205
            ],
            [
              126.9774365121682,
              37.29499798937054
            ],
            [
              126.97754066088727,
              37.294985639362785
            ],
            [
              126.97752602687157,
              37.2949075562506
            ]
          ]
        ]
      }
    },
    {
      "type": "Feature",
      "properties": {
        "indoor": "room",
        "level": "5",
        "ref": "",
        "name": "",
        "room_type": "",
        "_idx": 52,
        "_centroid": [
          126.977328,
          37.2948897
        ],
        "_area_m2": 84.3
      },
      "geometry": {
        "type": "Polygon",
        "coordinates": [
          [
            [
              126.97737535602919,
              37.2948443118745
            ],
            [
              126.97726600293991,
              37.29485767214783
            ],
            [
              126.9772809271168,
              37.294934986300916
            ],
            [
              126.9773897565655,
              37.294921690017404
            ],
            [
              126.97737535602919,
              37.2948443118745
            ]
          ]
        ]
      }
    },
    {
      "type": "Feature",
      "properties": {
        "indoor": "room",
        "level": "5",
        "ref": "",
        "name": "",
        "room_type": "",
        "_idx": 53,
        "_centroid": [
          126.9774665,
          37.2948741
        ],
        "_area_m2": 82.4
      },
      "geometry": {
        "type": "Polygon",
        "coordinates": [
          [
            [
              126.97751117701395,
              37.29482832146477
            ],
            [
              126.97740694893258,
              37.2948406809093
            ],
            [
              126.97742183876184,
              37.294919910942205
            ],
            [
              126.97752602687157,
              37.2949075562506
            ],
            [
              126.97751117701395,
              37.29482832146477
            ]
          ]
        ]
      }
    },
    {
      "type": "Feature",
      "properties": {
        "indoor": "room",
        "level": "5",
        "ref": "",
        "name": "",
        "room_type": "",
        "_idx": 54,
        "_centroid": [
          126.977313,
          37.2948106
        ],
        "_area_m2": 88.5
      },
      "geometry": {
        "type": "Polygon",
        "coordinates": [
          [
            [
              126.9773603154765,
              37.29476349474321
            ],
            [
              126.97725041547406,
              37.29477692185043
            ],
            [
              126.97726600293991,
              37.29485767214783
            ],
            [
              126.97737535602919,
              37.2948443118745
            ],
            [
              126.9773603154765,
              37.29476349474321
            ]
          ]
        ]
      }
    },
    {
      "type": "Feature",
      "properties": {
        "indoor": "room",
        "level": "5",
        "ref": "",
        "name": "",
        "room_type": "",
        "_idx": 55,
        "_centroid": [
          126.9762505,
          37.2948004
        ],
        "_area_m2": 57.1
      },
      "geometry": {
        "type": "Polygon",
        "coordinates": [
          [
            [
              126.97629387316793,
              37.294836268502806
            ],
            [
              126.97627826590984,
              37.29475589923809
            ],
            [
              126.97620827204776,
              37.29476443476446
            ],
            [
              126.97622154714648,
              37.29484483680634
            ],
            [
              126.97629387316793,
              37.294836268502806
            ]
          ]
        ]
      }
    },
    {
      "type": "Feature",
      "properties": {
        "indoor": "room",
        "level": "5",
        "ref": "",
        "name": "",
        "room_type": "",
        "_idx": 56,
        "_centroid": [
          126.9774516,
          37.2947948
        ],
        "_area_m2": 82.6
      },
      "geometry": {
        "type": "Polygon",
        "coordinates": [
          [
            [
              126.97749631290863,
              37.29474901065717
            ],
            [
              126.97739204481726,
              37.29476137485917
            ],
            [
              126.97740694893258,
              37.2948406809093
            ],
            [
              126.97751117701395,
              37.29482832146477
            ],
            [
              126.97749631290863,
              37.29474901065717
            ]
          ]
        ]
      }
    },
    {
      "type": "Feature",
      "properties": {
        "indoor": "room",
        "level": "5",
        "ref": "",
        "name": "",
        "room_type": "",
        "_idx": 57,
        "_centroid": [
          126.9763192,
          37.2947921
        ],
        "_area_m2": 53.3
      },
      "geometry": {
        "type": "Polygon",
        "coordinates": [
          [
            [
              126.97627826590984,
              37.29475589923809
            ],
            [
              126.97629387316793,
              37.294836268502806
            ],
            [
              126.9763600823314,
              37.29482842484988
            ],
            [
              126.97634443137142,
              37.294747830572845
            ],
            [
              126.97627826590984,
              37.29475589923809
            ]
          ]
        ]
      }
    },
    {
      "type": "Feature",
      "properties": {
        "indoor": "room",
        "level": "5",
        "ref": "",
        "name": "",
        "room_type": "",
        "_idx": 58,
        "_centroid": [
          126.9763859,
          37.2947841
        ],
        "_area_m2": 54.3
      },
      "geometry": {
        "type": "Polygon",
        "coordinates": [
          [
            [
              126.97634443137142,
              37.294747830572845
            ],
            [
              126.9763600823314,
              37.29482842484988
            ],
            [
              126.97642737050298,
              37.29482045336926
            ],
            [
              126.9764116751353,
              37.2947396304121
            ],
            [
              126.97634443137142,
              37.294747830572845
            ]
          ]
        ]
      }
    },
    {
      "type": "Feature",
      "properties": {
        "indoor": "room",
        "level": "5",
        "ref": "",
        "name": "",
        "room_type": "",
        "_idx": 59,
        "_centroid": [
          126.9764539,
          37.2947759
        ],
        "_area_m2": 55.6
      },
      "geometry": {
        "type": "Polygon",
        "coordinates": [
          [
            [
              126.9764116751353,
              37.2947396304121
            ],
            [
              126.97642737050298,
              37.29482045336926
            ],
            [
              126.9764961503206,
              37.294812305176634
            ],
            [
              126.97648040956174,
              37.29473124846986
            ],
            [
              126.9764116751353,
              37.2947396304121
            ]
          ]
        ]
      }
    },
    {
      "type": "Feature",
      "properties": {
        "indoor": "room",
        "level": "5",
        "ref": "",
        "name": "",
        "room_type": "",
        "_idx": 60,
        "_centroid": [
          126.9765222,
          37.2947677
        ],
        "_area_m2": 55.1
      },
      "geometry": {
        "type": "Polygon",
        "coordinates": [
          [
            [
              126.97648040956174,
              37.29473124846986
            ],
            [
              126.9764961503206,
              37.294812305176634
            ],
            [
              126.97656411173058,
              37.29480425393895
            ],
            [
              126.97654832612139,
              37.29472296626383
            ],
            [
              126.97648040956174,
              37.29473124846986
            ]
          ]
        ]
      }
    },
    {
      "type": "Feature",
      "properties": {
        "indoor": "room",
        "level": "5",
        "ref": "",
        "name": "",
        "room_type": "",
        "_idx": 61,
        "_centroid": [
          126.976589,
          37.2947597
        ],
        "_area_m2": 53.4
      },
      "geometry": {
        "type": "Polygon",
        "coordinates": [
          [
            [
              126.97654832612139,
              37.29472296626383
            ],
            [
              126.97656411173058,
              37.29480425393895
            ],
            [
              126.97662974303702,
              37.29479647874347
            ],
            [
              126.97661391411505,
              37.294714968018944
            ],
            [
              126.97654832612139,
              37.29472296626383
            ]
          ]
        ]
      }
    },
    {
      "type": "Feature",
      "properties": {
        "indoor": "room",
        "level": "5",
        "ref": "",
        "name": "",
        "room_type": "",
        "_idx": 62,
        "_centroid": [
          126.9766568,
          37.2947515
        ],
        "_area_m2": 57.0
      },
      "geometry": {
        "type": "Polygon",
        "coordinates": [
          [
            [
              126.97661391411505,
              37.294714968018944
            ],
            [
              126.97662974303702,
              37.29479647874347
            ],
            [
              126.9766996226589,
              37.29478820025947
            ],
            [
              126.97668374761933,
              37.29470645204769
            ],
            [
              126.97661391411505,
              37.294714968018944
            ]
          ]
        ]
      }
    },
    {
      "type": "Feature",
      "properties": {
        "indoor": "room",
        "level": "5",
        "ref": "",
        "name": "",
        "room_type": "",
        "_idx": 63,
        "_centroid": [
          126.9767258,
          37.2947432
        ],
        "_area_m2": 55.8
      },
      "geometry": {
        "type": "Polygon",
        "coordinates": [
          [
            [
              126.97668374761933,
              37.29470645204769
            ],
            [
              126.9766996226589,
              37.29478820025947
            ],
            [
              126.97676787730045,
              37.29478011428329
            ],
            [
              126.97675195721627,
              37.29469813410672
            ],
            [
              126.97668374761933,
              37.29470645204769
            ]
          ]
        ]
      }
    },
    {
      "type": "Feature",
      "properties": {
        "indoor": "room",
        "level": "5",
        "ref": "",
        "name": "",
        "room_type": "",
        "_idx": 64,
        "_centroid": [
          126.9774415,
          37.2947411
        ],
        "_area_m2": 29.3
      },
      "geometry": {
        "type": "Polygon",
        "coordinates": [
          [
            [
              126.97749104027078,
              37.29472087730117
            ],
            [
              126.97738675798722,
              37.294733243192134
            ],
            [
              126.97739204481726,
              37.29476137485917
            ],
            [
              126.97749631290863,
              37.29474901065717
            ],
            [
              126.97749104027078,
              37.29472087730117
            ]
          ]
        ]
      }
    },
    {
      "type": "Feature",
      "properties": {
        "indoor": "room",
        "level": "5",
        "ref": "",
        "name": "",
        "room_type": "",
        "_idx": 65,
        "_centroid": [
          126.9767934,
          37.2947351
        ],
        "_area_m2": 54.9
      },
      "geometry": {
        "type": "Polygon",
        "coordinates": [
          [
            [
              126.97675195721627,
              37.29469813410672
            ],
            [
              126.97676787730045,
              37.29478011428329
            ],
            [
              126.97683482623485,
              37.294772182991345
            ],
            [
              126.9768188619682,
              37.29468997528739
            ],
            [
              126.97675195721627,
              37.29469813410672
            ]
          ]
        ]
      }
    },
    {
      "type": "Feature",
      "properties": {
        "indoor": "room",
        "level": "5",
        "ref": "",
        "name": "",
        "room_type": "",
        "_idx": 66,
        "_centroid": [
          126.9772979,
          37.2947306
        ],
        "_area_m2": 87.2
      },
      "geometry": {
        "type": "Polygon",
        "coordinates": [
          [
            [
              126.97725041547406,
              37.29477692185043
            ],
            [
              126.9773603154765,
              37.29476349474321
            ],
            [
              126.97734561816733,
              37.294684521956114
            ],
            [
              126.97723508978993,
              37.29469753526671
            ],
            [
              126.97725041547406,
              37.29477692185043
            ]
          ]
        ]
      }
    },
    {
      "type": "Feature",
      "properties": {
        "indoor": "room",
        "level": "5",
        "ref": "",
        "name": "",
        "room_type": "",
        "_idx": 67,
        "_centroid": [
          126.9768948,
          37.2947229
        ],
        "_area_m2": 112.0
      },
      "geometry": {
        "type": "Polygon",
        "coordinates": [
          [
            [
              126.9768188619682,
              37.29468997528739
            ],
            [
              126.97683482623485,
              37.294772182991345
            ],
            [
              126.97697083072876,
              37.29475607084024
            ],
            [
              126.97695477670662,
              37.29467340092216
            ],
            [
              126.9768188619682,
              37.29468997528739
            ]
          ]
        ]
      }
    },
    {
      "type": "Feature",
      "properties": {
        "indoor": "room",
        "level": "5",
        "ref": "",
        "name": "",
        "room_type": "",
        "_idx": 68,
        "_centroid": [
          126.9769983,
          37.2947105
        ],
        "_area_m2": 58.7
      },
      "geometry": {
        "type": "Polygon",
        "coordinates": [
          [
            [
              126.97695477670662,
              37.29467340092216
            ],
            [
              126.97697083072876,
              37.29475607084024
            ],
            [
              126.97704182957023,
              37.29474765976478
            ],
            [
              126.97702572869292,
              37.29466474855562
            ],
            [
              126.97695477670662,
              37.29467340092216
            ]
          ]
        ]
      }
    },
    {
      "type": "Feature",
      "properties": {
        "indoor": "room",
        "level": "5",
        "ref": "",
        "name": "",
        "room_type": "",
        "_idx": 69,
        "_centroid": [
          126.9762335,
          37.2947057
        ],
        "_area_m2": 37.4
      },
      "geometry": {
        "type": "Polygon",
        "coordinates": [
          [
            [
              126.97627301501696,
              37.294728859869785
            ],
            [
              126.97626240743286,
              37.2946742363267
            ],
            [
              126.97619475231743,
              37.294682551085394
            ],
            [
              126.9762037920836,
              37.29473730138693
            ],
            [
              126.97627301501696,
              37.294728859869785
            ]
          ]
        ]
      }
    },
    {
      "type": "Feature",
      "properties": {
        "indoor": "room",
        "level": "5",
        "ref": "",
        "name": "",
        "room_type": "",
        "_idx": 70,
        "_centroid": [
          126.9770671,
          37.2947022
        ],
        "_area_m2": 55.4
      },
      "geometry": {
        "type": "Polygon",
        "coordinates": [
          [
            [
              126.97702572869292,
              37.29466474855562
            ],
            [
              126.97704182957023,
              37.29474765976478
            ],
            [
              126.97710857754936,
              37.294739752279554
            ],
            [
              126.977092432622,
              37.294656614226
            ],
            [
              126.97702572869292,
              37.29466474855562
            ]
          ]
        ]
      }
    },
    {
      "type": "Feature",
      "properties": {
        "indoor": "room",
        "level": "5",
        "ref": "",
        "name": "",
        "room_type": "",
        "_idx": 71,
        "_centroid": [
          126.977434,
          37.2947011
        ],
        "_area_m2": 54.0
      },
      "geometry": {
        "type": "Polygon",
        "coordinates": [
          [
            [
              126.97748132549759,
              37.294669041923925
            ],
            [
              126.97737701706455,
              37.29468141092405
            ],
            [
              126.97738675798722,
              37.294733243192134
            ],
            [
              126.97749104027078,
              37.29472087730117
            ],
            [
              126.97748132549759,
              37.294669041923925
            ]
          ]
        ]
      }
    },
    {
      "type": "Feature",
      "properties": {
        "indoor": "room",
        "level": "5",
        "ref": "",
        "name": "",
        "room_type": "",
        "_idx": 72,
        "_centroid": [
          126.9762846,
          37.2946995
        ],
        "_area_m2": 18.5
      },
      "geometry": {
        "type": "Polygon",
        "coordinates": [
          [
            [
              126.97630681264046,
              37.294724738356805
            ],
            [
              126.97629610984669,
              37.29467000721828
            ],
            [
              126.97626240743286,
              37.2946742363267
            ],
            [
              126.97627301501696,
              37.294728859869785
            ],
            [
              126.97630681264046,
              37.294724738356805
            ]
          ]
        ]
      }
    },
    {
      "type": "Feature",
      "properties": {
        "indoor": "room",
        "level": "5",
        "ref": "",
        "name": "",
        "room_type": "",
        "_idx": 73,
        "_centroid": [
          126.9763183,
          37.2946953
        ],
        "_area_m2": 18.5
      },
      "geometry": {
        "type": "Polygon",
        "coordinates": [
          [
            [
              126.97629610984669,
              37.29467000721828
            ],
            [
              126.97630681264046,
              37.294724738356805
            ],
            [
              126.97634052953077,
              37.294720626688985
            ],
            [
              126.97632981595864,
              37.29466584042853
            ],
            [
              126.97629610984669,
              37.29467000721828
            ]
          ]
        ]
      }
    },
    {
      "type": "Feature",
      "properties": {
        "indoor": "room",
        "level": "5",
        "ref": "",
        "name": "",
        "room_type": "",
        "_idx": 74,
        "_centroid": [
          126.9763524,
          37.2946911
        ],
        "_area_m2": 18.9
      },
      "geometry": {
        "type": "Polygon",
        "coordinates": [
          [
            [
              126.97632981595864,
              37.29466584042853
            ],
            [
              126.97634052953077,
              37.294720626688985
            ],
            [
              126.97637494697588,
              37.29471642959073
            ],
            [
              126.9763642224011,
              37.29466158706308
            ],
            [
              126.97632981595864,
              37.29466584042853
            ]
          ]
        ]
      }
    },
    {
      "type": "Feature",
      "properties": {
        "indoor": "room",
        "level": "5",
        "ref": "",
        "name": "",
        "room_type": "",
        "_idx": 75,
        "_centroid": [
          126.9771489,
          37.2946876
        ],
        "_area_m2": 61.5
      },
      "geometry": {
        "type": "Polygon",
        "coordinates": [
          [
            [
              126.977092432622,
              37.294656614226
            ],
            [
              126.97710857754936,
              37.294739752279554
            ],
            [
              126.97718261311307,
              37.294730981450336
            ],
            [
              126.97717158960802,
              37.29467546570482
            ],
            [
              126.97717183111591,
              37.29467543784333
            ],
            [
              126.97716642347531,
              37.2946475912794
            ],
            [
              126.977092432622,
              37.294656614226
            ]
          ]
        ]
      }
    },
    {
      "type": "Feature",
      "properties": {
        "indoor": "room",
        "level": "5",
        "ref": "",
        "name": "",
        "room_type": "",
        "_idx": 76,
        "_centroid": [
          126.976386,
          37.294687
        ],
        "_area_m2": 18.0
      },
      "geometry": {
        "type": "Polygon",
        "coordinates": [
          [
            [
              126.9763642224011,
              37.29466158706308
            ],
            [
              126.97637494697588,
              37.29471642959073
            ],
            [
              126.97640780751136,
              37.29471242235267
            ],
            [
              126.97639707243182,
              37.29465752610311
            ],
            [
              126.9763642224011,
              37.29466158706308
            ]
          ]
        ]
      }
    },
    {
      "type": "Feature",
      "properties": {
        "indoor": "room",
        "level": "5",
        "ref": "",
        "name": "",
        "room_type": "",
        "_idx": 77,
        "_centroid": [
          126.9764195,
          37.2946829
        ],
        "_area_m2": 18.7
      },
      "geometry": {
        "type": "Polygon",
        "coordinates": [
          [
            [
              126.97639707243182,
              37.29465752610311
            ],
            [
              126.97640780751136,
              37.29471242235267
            ],
            [
              126.9764418394038,
              37.294708272271336
            ],
            [
              126.97643109344497,
              37.294653320384896
            ],
            [
              126.97639707243182,
              37.29465752610311
            ]
          ]
        ]
      }
    },
    {
      "type": "Feature",
      "properties": {
        "indoor": "room",
        "level": "5",
        "ref": "",
        "name": "",
        "room_type": "",
        "_idx": 78,
        "_centroid": [
          126.9764535,
          37.2946787
        ],
        "_area_m2": 18.7
      },
      "geometry": {
        "type": "Polygon",
        "coordinates": [
          [
            [
              126.97643109344497,
              37.294653320384896
            ],
            [
              126.9764418394038,
              37.294708272271336
            ],
            [
              126.97647591219085,
              37.29470411720303
            ],
            [
              126.97646515533982,
              37.294649109612834
            ],
            [
              126.97643109344497,
              37.294653320384896
            ]
          ]
        ]
      }
    },
    {
      "type": "Feature",
      "properties": {
        "indoor": "room",
        "level": "5",
        "ref": "",
        "name": "",
        "room_type": "",
        "_idx": 79,
        "_centroid": [
          126.9764878,
          37.2946745
        ],
        "_area_m2": 19.0
      },
      "geometry": {
        "type": "Polygon",
        "coordinates": [
          [
            [
              126.97646515533982,
              37.294649109612834
            ],
            [
              126.97647591219085,
              37.29470411720303
            ],
            [
              126.97651045938136,
              37.29469990428274
            ],
            [
              126.97649969148638,
              37.29464484021321
            ],
            [
              126.97646515533982,
              37.294649109612834
            ]
          ]
        ]
      }
    },
    {
      "type": "Feature",
      "properties": {
        "indoor": "room",
        "level": "5",
        "ref": "",
        "name": "",
        "room_type": "",
        "_idx": 80,
        "_centroid": [
          126.9765218,
          37.2946703
        ],
        "_area_m2": 18.5
      },
      "geometry": {
        "type": "Polygon",
        "coordinates": [
          [
            [
              126.97649969148638,
              37.29464484021321
            ],
            [
              126.97651045938136,
              37.29469990428274
            ],
            [
              126.97654399833534,
              37.29469581431369
            ],
            [
              126.97653321971846,
              37.29464069541318
            ],
            [
              126.97649969148638,
              37.29464484021321
            ]
          ]
        ]
      }
    },
    {
      "type": "Feature",
      "properties": {
        "indoor": "room",
        "level": "5",
        "ref": "",
        "name": "",
        "room_type": "",
        "_idx": 81,
        "_centroid": [
          126.9772472,
          37.2946668
        ],
        "_area_m2": 79.4
      },
      "geometry": {
        "type": "Polygon",
        "coordinates": [
          [
            [
              126.97734561816733,
              37.294684521956114
            ],
            [
              126.97733492492452,
              37.29462704306959
            ],
            [
              126.97716642347531,
              37.2946475912794
            ],
            [
              126.97717183111591,
              37.29467543784333
            ],
            [
              126.97722953908931,
              37.29466878037999
            ],
            [
              126.97723508978993,
              37.29469753526671
            ],
            [
              126.97734561816733,
              37.294684521956114
            ]
          ]
        ]
      }
    },
    {
      "type": "Feature",
      "properties": {
        "indoor": "room",
        "level": "5",
        "ref": "",
        "name": "",
        "room_type": "",
        "_idx": 82,
        "_centroid": [
          126.9765555,
          37.2946662
        ],
        "_area_m2": 18.6
      },
      "geometry": {
        "type": "Polygon",
        "coordinates": [
          [
            [
              126.97653321971846,
              37.29464069541318
            ],
            [
              126.97654399833534,
              37.29469581431369
            ],
            [
              126.97657773736226,
              37.29469169994638
            ],
            [
              126.9765669479597,
              37.294636525887775
            ],
            [
              126.97653321971846,
              37.29464069541318
            ]
          ]
        ]
      }
    },
    {
      "type": "Feature",
      "properties": {
        "indoor": "room",
        "level": "5",
        "ref": "",
        "name": "",
        "room_type": "",
        "_idx": 83,
        "_centroid": [
          126.9766059,
          37.29466
        ],
        "_area_m2": 37.1
      },
      "geometry": {
        "type": "Polygon",
        "coordinates": [
          [
            [
              126.9765669479597,
              37.294636525887775
            ],
            [
              126.97657773736226,
              37.29469169994638
            ],
            [
              126.97664485228188,
              37.294683515494825
            ],
            [
              126.97663404142422,
              37.29462823171369
            ],
            [
              126.9765669479597,
              37.294636525887775
            ]
          ]
        ]
      }
    },
    {
      "type": "Feature",
      "properties": {
        "indoor": "room",
        "level": "5",
        "ref": "",
        "name": "",
        "room_type": "",
        "_idx": 84,
        "_centroid": [
          126.9766562,
          37.2946538
        ],
        "_area_m2": 18.5
      },
      "geometry": {
        "type": "Polygon",
        "coordinates": [
          [
            [
              126.97663404142422,
              37.29462823171369
            ],
            [
              126.97664485228188,
              37.294683515494825
            ],
            [
              126.97667836146259,
              37.29467942915653
            ],
            [
              126.97666753989259,
              37.29462409059308
            ],
            [
              126.97663404142422,
              37.29462823171369
            ]
          ]
        ]
      }
    },
    {
      "type": "Feature",
      "properties": {
        "indoor": "room",
        "level": "5",
        "ref": "",
        "name": "",
        "room_type": "",
        "_idx": 85,
        "_centroid": [
          126.9767069,
          37.2946476
        ],
        "_area_m2": 37.6
      },
      "geometry": {
        "type": "Polygon",
        "coordinates": [
          [
            [
              126.97666753989259,
              37.29462409059308
            ],
            [
              126.97667836146259,
              37.29467942915653
            ],
            [
              126.97674619928492,
              37.294671156549285
            ],
            [
              126.97673535602853,
              37.29461570708148
            ],
            [
              126.97666753989259,
              37.29462409059308
            ]
          ]
        ]
      }
    },
    {
      "type": "Feature",
      "properties": {
        "indoor": "room",
        "level": "5",
        "ref": "",
        "name": "",
        "room_type": "",
        "_idx": 86,
        "_centroid": [
          126.9767584,
          37.2946413
        ],
        "_area_m2": 19.6
      },
      "geometry": {
        "type": "Polygon",
        "coordinates": [
          [
            [
              126.97673535602853,
              37.29461570708148
            ],
            [
              126.97674619928492,
              37.294671156549285
            ],
            [
              126.97678152127656,
              37.29466684914445
            ],
            [
              126.97677066672838,
              37.29461134193066
            ],
            [
              126.97673535602853,
              37.29461570708148
            ]
          ]
        ]
      }
    },
    {
      "type": "Feature",
      "properties": {
        "indoor": "room",
        "level": "5",
        "ref": "",
        "name": "",
        "room_type": "",
        "_idx": 87,
        "_centroid": [
          126.9767918,
          37.2946372
        ],
        "_area_m2": 17.5
      },
      "geometry": {
        "type": "Polygon",
        "coordinates": [
          [
            [
              126.97677066672838,
              37.29461134193066
            ],
            [
              126.97678152127656,
              37.29466684914445
            ],
            [
              126.97681299903856,
              37.294663010531224
            ],
            [
              126.97680213442752,
              37.294607451856166
            ],
            [
              126.97677066672838,
              37.29461134193066
            ]
          ]
        ]
      }
    },
    {
      "type": "Feature",
      "properties": {
        "indoor": "room",
        "level": "5",
        "ref": "",
        "name": "",
        "room_type": "",
        "_idx": 88,
        "_centroid": [
          126.9768255,
          37.294633
        ],
        "_area_m2": 19.9
      },
      "geometry": {
        "type": "Polygon",
        "coordinates": [
          [
            [
              126.97680213442752,
              37.294607451856166
            ],
            [
              126.97681299903856,
              37.294663010531224
            ],
            [
              126.97684882891438,
              37.294658641191525
            ],
            [
              126.97683795284925,
              37.29460302394016
            ],
            [
              126.97680213442752,
              37.294607451856166
            ]
          ]
        ]
      }
    },
    {
      "type": "Feature",
      "properties": {
        "indoor": "room",
        "level": "5",
        "ref": "",
        "name": "",
        "room_type": "",
        "_idx": 89,
        "_centroid": [
          126.9768601,
          37.2946288
        ],
        "_area_m2": 18.6
      },
      "geometry": {
        "type": "Polygon",
        "coordinates": [
          [
            [
              126.97683795284925,
              37.29460302394016
            ],
            [
              126.97684882891438,
              37.294658641191525
            ],
            [
              126.97688231597064,
              37.29465455755123
            ],
            [
              126.9768714292004,
              37.29459888555371
            ],
            [
              126.97683795284925,
              37.29460302394016
            ]
          ]
        ]
      }
    },
    {
      "type": "Feature",
      "properties": {
        "indoor": "room",
        "level": "5",
        "ref": "",
        "name": "",
        "room_type": "",
        "_idx": 90,
        "_centroid": [
          126.9768938,
          37.2946246
        ],
        "_area_m2": 18.8
      },
      "geometry": {
        "type": "Polygon",
        "coordinates": [
          [
            [
              126.9768714292004,
              37.29459888555371
            ],
            [
              126.97688231597064,
              37.29465455755123
            ],
            [
              126.97691608836094,
              37.294650439115365
            ],
            [
              126.97690519079451,
              37.29459471190519
            ],
            [
              126.9768714292004,
              37.29459888555371
            ]
          ]
        ]
      }
    },
    {
      "type": "Feature",
      "properties": {
        "indoor": "room",
        "level": "5",
        "ref": "",
        "name": "",
        "room_type": "",
        "_idx": 91,
        "_centroid": [
          126.9769278,
          37.2946205
        ],
        "_area_m2": 19.1
      },
      "geometry": {
        "type": "Polygon",
        "coordinates": [
          [
            [
              126.97690519079451,
              37.29459471190519
            ],
            [
              126.97691608836094,
              37.294650439115365
            ],
            [
              126.97695040211612,
              37.29464625466177
            ],
            [
              126.97693949358022,
              37.294590471353914
            ],
            [
              126.97690519079451,
              37.29459471190519
            ]
          ]
        ]
      }
    },
    {
      "type": "Feature",
      "properties": {
        "indoor": "room",
        "level": "5",
        "ref": "",
        "name": "",
        "room_type": "",
        "_idx": 92,
        "_centroid": [
          126.9769631,
          37.2946161
        ],
        "_area_m2": 20.3
      },
      "geometry": {
        "type": "Polygon",
        "coordinates": [
          [
            [
              126.97693949358022,
              37.294590471353914
            ],
            [
              126.97695040211612,
              37.29464625466177
            ],
            [
              126.97698670651322,
              37.2946418274557
            ],
            [
              126.97697578637137,
              37.294585984795795
            ],
            [
              126.97693949358022,
              37.294590471353914
            ]
          ]
        ]
      }
    },
    {
      "type": "Feature",
      "properties": {
        "indoor": "room",
        "level": "5",
        "ref": "",
        "name": "",
        "room_type": "",
        "_idx": 93,
        "_centroid": [
          126.9770324,
          37.2946076
        ],
        "_area_m2": 57.2
      },
      "geometry": {
        "type": "Polygon",
        "coordinates": [
          [
            [
              126.97697578637137,
              37.294585984795795
            ],
            [
              126.97698670651322,
              37.2946418274557
            ],
            [
              126.97708907490484,
              37.294629343955066
            ],
            [
              126.977078122038,
              37.29457333393865
            ],
            [
              126.97697578637137,
              37.294585984795795
            ]
          ]
        ]
      }
    },
    {
      "type": "Feature",
      "properties": {
        "indoor": "room",
        "level": "5",
        "ref": "",
        "name": "",
        "room_type": "",
        "_idx": 94,
        "_centroid": [
          126.97739,
          37.2946029
        ],
        "_area_m2": 117.1
      },
      "geometry": {
        "type": "Polygon",
        "coordinates": [
          [
            [
              126.97748132549759,
              37.294669041923925
            ],
            [
              126.97746010562268,
              37.294555791220915
            ],
            [
              126.9773917565475,
              37.29456505007921
            ],
            [
              126.9773556659448,
              37.294570087715584
            ],
            [
              126.97736140894571,
              37.294596126472875
            ],
            [
              126.97736100013996,
              37.29459618353521
            ],
            [
              126.97736100014237,
              37.29459618353492
            ],
            [
              126.9773610001424,
              37.29459618353511
            ],
            [
              126.97737701706455,
              37.29468141092405
            ],
            [
              126.97748132549759,
              37.294669041923925
            ]
          ]
        ]
      }
    },
    {
      "type": "Feature",
      "properties": {
        "indoor": "room",
        "level": "5",
        "ref": "",
        "name": "",
        "room_type": "",
        "_idx": 95,
        "_centroid": [
          126.9771014,
          37.2945992
        ],
        "_area_m2": 19.9
      },
      "geometry": {
        "type": "Polygon",
        "coordinates": [
          [
            [
              126.977078122038,
              37.29457333393865
            ],
            [
              126.97708907490484,
              37.294629343955066
            ],
            [
              126.97712463786438,
              37.29462500716496
            ],
            [
              126.9771136736288,
              37.2945689390086
            ],
            [
              126.977078122038,
              37.29457333393865
            ]
          ]
        ]
      }
    },
    {
      "type": "Feature",
      "properties": {
        "indoor": "room",
        "level": "5",
        "ref": "",
        "name": "",
        "room_type": "",
        "_idx": 96,
        "_centroid": [
          126.9771393,
          37.2945937
        ],
        "_area_m2": 19.4
      },
      "geometry": {
        "type": "Polygon",
        "coordinates": [
          [
            [
              126.9771136736288,
              37.2945689390086
            ],
            [
              126.97712463786438,
              37.29462500716496
            ],
            [
              126.97716042337382,
              37.294620643235596
            ],
            [
              126.9771541455316,
              37.29458854003577
            ],
            [
              126.97714351231785,
              37.29456525031428
            ],
            [
              126.9771136736288,
              37.2945689390086
            ]
          ]
        ]
      }
    },
    {
      "type": "Feature",
      "properties": {
        "indoor": "room",
        "level": "5",
        "ref": "",
        "name": "",
        "room_type": "",
        "_idx": 97,
        "_centroid": [
          126.9772091,
          37.2945807
        ],
        "_area_m2": 93.9
      },
      "geometry": {
        "type": "Polygon",
        "coordinates": [
          [
            [
              126.97730666139219,
              37.29452341901372
            ],
            [
              126.97720413525141,
              37.29453717816791
            ],
            [
              126.97721420476272,
              37.294589342331776
            ],
            [
              126.97715582580155,
              37.294596077210514
            ],
            [
              126.97715447052276,
              37.294589251857616
            ],
            [
              126.9771541455316,
              37.29458854003577
            ],
            [
              126.97716042337382,
              37.294620643235596
            ],
            [
              126.977323072054,
              37.29460080874498
            ],
            [
              126.97730666139219,
              37.29452341901372
            ]
          ]
        ]
      }
    },
    {
      "type": "Feature",
      "properties": {
        "indoor": "room",
        "level": "5",
        "ref": "",
        "name": "",
        "room_type": "",
        "_idx": 98,
        "_centroid": [
          126.977348,
          37.294574
        ],
        "_area_m2": 48.5
      },
      "geometry": {
        "type": "Polygon",
        "coordinates": [
          [
            [
              126.97736140894571,
              37.294596126472875
            ],
            [
              126.9773556659448,
              37.294570087715584
            ],
            [
              126.9773917565475,
              37.29456505007921
            ],
            [
              126.97738067180784,
              37.29451326375912
            ],
            [
              126.97730666139219,
              37.29452341901372
            ],
            [
              126.977323072054,
              37.29460080874498
            ],
            [
              126.9773298880105,
              37.29459997756071
            ],
            [
              126.97732987127623,
              37.2945998876402
            ],
            [
              126.97735303253917,
              37.29459729567679
            ],
            [
              126.97736140894571,
              37.294596126472875
            ]
          ]
        ]
      }
    }
  ]
}