{
  "type": "FeatureCollection",
  "features": [
    {
      "type": "Feature",
      "properties": {
        "indoor": "room",
        "level": [
          3
        ],
        "ref": "27321B",
        "name": "연구지원팀",
        "room_type": "",
        "_idx": 1,
        "_centroid": [
          126.9764475,
          37.2956003
        ],
        "_area_m2": 77.4
      },
      "geometry": {
        "type": "Polygon",
        "coordinates": [
          [
            [
              126.97649289882443,
              37.29555672612117
            ],
            [
              126.97638974777276,
              37.295568258728764
            ],
            [
              126.97640223297299,
              37.29564354076211
            ],
            [
              126.97650506084616,
              37.29563274838368
            ],
            [
              126.97649289882443,
              37.29555672612117
            ]
          ]
        ]
      }
    },
    {
      "type": "Feature",
      "properties": {
        "indoor": "room",
        "level": [
          3
        ],
        "ref": "",
        "name": "",
        "room_type": "",
        "_idx": 2,
        "_centroid": [
          126.9765753,
          37.2955487
        ],
        "_area_m2": 49.1
      },
      "geometry": {
        "type": "Polygon",
        "coordinates": [
          [
            [
              126.97662385720109,
              37.29558934594718
            ],
            [
              126.97661058291199,
              37.295509126285296
            ],
            [
              126.97654872218754,
              37.2955158904093
            ],
            [
              126.97655286531865,
              37.29554092832451
            ],
            [
              126.97655316199429,
              37.29554089515525
            ],
            [
              126.97656236123102,
              37.29559584247966
            ],
            [
              126.97662385720109,
              37.29558934594718
            ]
          ]
        ]
      }
    },
    {
      "type": "Feature",
      "properties": {
        "indoor": "room",
        "level": [
          3
        ],
        "ref": "",
        "name": "",
        "room_type": "",
        "_idx": 3,
        "_centroid": [
          126.9766524,
          37.2955455
        ],
        "_area_m2": 56.2
      },
      "geometry": {
        "type": "Polygon",
        "coordinates": [
          [
            [
              126.97669422915047,
              37.29558191174206
            ],
            [
              126.9766809125109,
              37.29550143613727
            ],
            [
              126.97661058291199,
              37.295509126285296
            ],
            [
              126.97662385720109,
              37.29558934594718
            ],
            [
              126.97669422915047,
              37.29558191174206
            ]
          ]
        ]
      }
    },
    {
      "type": "Feature",
      "properties": {
        "indoor": "room",
        "level": [
          3
        ],
        "ref": "27321A",
        "name": "연구지원팀",
        "room_type": "",
        "_idx": 4,
        "_centroid": [
          126.9764451,
          37.2955435
        ],
        "_area_m2": 35.1
      },
      "geometry": {
        "type": "Polygon",
        "coordinates": [
          [
            [
              126.97638974777276,
              37.295568258728764
            ],
            [
              126.97649289882443,
              37.29555672612117
            ],
            [
              126.97649111450511,
              37.29554783225876
            ],
            [
              126.9764973942249,
              37.29554717955913
            ],
            [
              126.9764911145051,
              37.29554783225876
            ],
            [
              126.97648697731888,
              37.29552264186512
            ],
            [
              126.97638630820734,
              37.29553364946906
            ],
            [
              126.97638632236959,
              37.295533726746726
            ],
            [
              126.97638406101368,
              37.29553396926775
            ],
            [
              126.97638974777276,
              37.295568258728764
            ]
          ]
        ]
      }
    },
    {
      "type": "Feature",
      "properties": {
        "indoor": "room",
        "level": [
          3
        ],
        "ref": "27319",
        "name": "예비",
        "room_type": "reserved",
        "_idx": 5,
        "_centroid": [
          126.9767212,
          37.2955381
        ],
        "_area_m2": 53.9
      },
      "geometry": {
        "type": "Polygon",
        "coordinates": [
          [
            [
              126.97676146793711,
              37.29557480852926
            ],
            [
              126.976748110832,
              37.29549408837694
            ],
            [
              126.9766809125109,
              37.29550143613727
            ],
            [
              126.97669422915047,
              37.29558191174206
            ],
            [
              126.97676146793711,
              37.29557480852926
            ]
          ]
        ]
      }
    },
    {
      "type": "Feature",
      "properties": {
        "indoor": "room",
        "level": [
          3
        ],
        "ref": "",
        "name": "",
        "room_type": "",
        "_idx": 6,
        "_centroid": [
          126.9765154,
          37.2955349
        ],
        "_area_m2": 15.4
      },
      "geometry": {
        "type": "Polygon",
        "coordinates": [
          [
            [
              126.97648697731888,
              37.29552264186512
            ],
            [
              126.9764911145051,
              37.29554783225876
            ],
            [
              126.9764973942249,
              37.29554717955913
            ],
            [
              126.97655286531865,
              37.29554092832451
            ],
            [
              126.97654872218754,
              37.2955158904093
            ],
            [
              126.97648697731888,
              37.29552264186512
            ]
          ]
        ]
      }
    },
    {
      "type": "Feature",
      "properties": {
        "indoor": "room",
        "level": [
          3
        ],
        "ref": "27317",
        "name": "소프트웨어학과공용연구실",
        "room_type": "lab",
        "_idx": 7,
        "_centroid": [
          126.9767901,
          37.2955307
        ],
        "_area_m2": 56.8
      },
      "geometry": {
        "type": "Polygon",
        "coordinates": [
          [
            [
              126.97683209239179,
              37.29556734764908
            ],
            [
              126.97681869278435,
              37.29548637063548
            ],
            [
              126.976748110832,
              37.29549408837694
            ],
            [
              126.97676146793711,
              37.29557480852926
            ],
            [
              126.97683209239179,
              37.29556734764908
            ]
          ]
        ]
      }
    },
    {
      "type": "Feature",
      "properties": {
        "indoor": "room",
        "level": [
          3
        ],
        "ref": "27315",
        "name": "소프트웨어학과 오픈랩 구축",
        "room_type": "lab",
        "_idx": 8,
        "_centroid": [
          126.9768592,
          37.2955232
        ],
        "_area_m2": 54.4
      },
      "geometry": {
        "type": "Polygon",
        "coordinates": [
          [
            [
              126.97689963083016,
              37.29556021278059
            ],
            [
              126.97688619057749,
              37.29547899012956
            ],
            [
              126.97681869278435,
              37.29548637063548
            ],
            [
              126.97683209239179,
              37.29556734764908
            ],
            [
              126.97689963083016,
              37.29556021278059
            ]
          ]
        ]
      }
    },
    {
      "type": "Feature",
      "properties": {
        "indoor": "room",
        "level": [
          3
        ],
        "ref": "27313",
        "name": "인터넷보안연구실",
        "room_type": "lab",
        "_idx": 9,
        "_centroid": [
          126.9769281,
          37.2955158
        ],
        "_area_m2": 56.9
      },
      "geometry": {
        "type": "Polygon",
        "coordinates": [
          [
            [
              126.97696995039588,
              37.29555278410937
            ],
            [
              126.97695646782378,
              37.295471305706
            ],
            [
              126.97688619057749,
              37.29547899012956
            ],
            [
              126.97689963083016,
              37.29556021278059
            ],
            [
              126.97696995039588,
              37.29555278410937
            ]
          ]
        ]
      }
    },
    {
      "type": "Feature",
      "properties": {
        "indoor": "room",
        "level": [
          3
        ],
        "ref": "27309",
        "name": "소프트웨어학과 공용연구실",
        "room_type": "lab",
        "_idx": 10,
        "_centroid": [
          126.9769971,
          37.2955084
        ],
        "_area_m2": 55
      },
      "geometry": {
        "type": "Polygon",
        "coordinates": [
          [
            [
              126.97703775443584,
              37.295545621182306
            ],
            [
              126.97702423105846,
              37.295463896175534
            ],
            [
              126.97695646782378,
              37.295471305706
            ],
            [
              126.97696995039588,
              37.29555278410937
            ],
            [
              126.97703775443584,
              37.295545621182306
            ]
          ]
        ]
      }
    },
    {
      "type": "Feature",
      "properties": {
        "indoor": "room",
        "level": [
          3
        ],
        "ref": "27323",
        "name": "연구지원팀",
        "room_type": "",
        "_idx": 11,
        "_centroid": [
          126.9763227,
          37.2955036
        ],
        "_area_m2": 339.4
      },
      "geometry": {
        "type": "Polygon",
        "coordinates": [
          [
            [
              126.9763087963531,
              37.29531940873617
            ],
            [
              126.97621922629897,
              37.295329766377705
            ],
            [
              126.97627294930136,
              37.29565687351669
            ],
            [
              126.97640223297299,
              37.29564354076211
            ],
            [
              126.97638406101368,
              37.29553396926775
            ],
            [
              126.9763487602778,
              37.29553775512501
            ],
            [
              126.9763087963531,
              37.29531940873617
            ]
          ]
        ]
      }
    },
    {
      "type": "Feature",
      "properties": {
        "indoor": "room",
        "level": [
          3
        ],
        "ref": "27307",
        "name": "기계학습-데이터마이닝연구실",
        "room_type": "lab",
        "_idx": 12,
        "_centroid": [
          126.9770672,
          37.2955009
        ],
        "_area_m2": 58.9
      },
      "geometry": {
        "type": "Polygon",
        "coordinates": [
          [
            [
              126.97711014798806,
              37.29553797341184
            ],
            [
              126.97709658104384,
              37.295455985109555
            ],
            [
              126.97702423105846,
              37.295463896175534
            ],
            [
              126.97703775443584,
              37.295545621182306
            ],
            [
              126.97711014798806,
              37.29553797341184
            ]
          ]
        ]
      }
    },
    {
      "type": "Feature",
      "properties": {
        "indoor": "room",
        "level": [
          3
        ],
        "ref": "27305",
        "name": "정보및지능시스템연구실",
        "room_type": "lab",
        "_idx": 13,
        "_centroid": [
          126.977137,
          37.2954934
        ],
        "_area_m2": 54.9
      },
      "geometry": {
        "type": "Polygon",
        "coordinates": [
          [
            [
              126.97717746011406,
              37.29553086245135
            ],
            [
              126.97716385266038,
              37.295448629334786
            ],
            [
              126.97709658104384,
              37.295455985109555
            ],
            [
              126.97711014798806,
              37.29553797341184
            ],
            [
              126.97717746011406,
              37.29553086245135
            ]
          ]
        ]
      }
    },
    {
      "type": "Feature",
      "properties": {
        "indoor": "room",
        "level": [
          3
        ],
        "ref": "27303",
        "name": "인간언어지능연구실",
        "room_type": "lab",
        "_idx": 14,
        "_centroid": [
          126.9772069,
          37.2954858
        ],
        "_area_m2": 59.4
      },
      "geometry": {
        "type": "Polygon",
        "coordinates": [
          [
            [
              126.97725003545222,
              37.295523195476726
            ],
            [
              126.97723638432237,
              37.29544069840348
            ],
            [
              126.97716385266038,
              37.295448629334786
            ],
            [
              126.97717746011406,
              37.29553086245135
            ],
            [
              126.97725003545222,
              37.295523195476726
            ]
          ]
        ]
      }
    },
    {
      "type": "Feature",
      "properties": {
        "indoor": "room",
        "level": [
          3
        ],
        "ref": "",
        "name": "",
        "room_type": "",
        "_idx": 15,
        "_centroid": [
          126.9764501,
          37.295478
        ],
        "_area_m2": 58.6
      },
      "geometry": {
        "type": "Polygon",
        "coordinates": [
          [
            [
              126.97647318972385,
              37.29543869234002
            ],
            [
              126.97637109066864,
              37.29545051307811
            ],
            [
              126.97638160637081,
              37.29550799345312
            ],
            [
              126.97648275504838,
              37.295496933407485
            ],
            [
              126.97648226139702,
              37.295493927680525
            ],
            [
              126.9764816252057,
              37.29549005406119
            ],
            [
              126.97647803331814,
              37.29546818389826
            ],
            [
              126.97647318972385,
              37.29543869234002
            ]
          ]
        ]
      }
    },
    {
      "type": "Feature",
      "properties": {
        "indoor": "room",
        "level": [
          3
        ],
        "ref": "27301",
        "name": "인터랙션연구실",
        "room_type": "lab",
        "_idx": 16,
        "_centroid": [
          126.9772899,
          37.2954714
        ],
        "_area_m2": 58.6
      },
      "geometry": {
        "type": "Polygon",
        "coordinates": [
          [
            [
              126.97731184100437,
              37.29545785504142
            ],
            [
              126.97730767378826,
              37.29543290329937
            ],
            [
              126.97723638432237,
              37.29544069840348
            ],
            [
              126.97725003545222,
              37.295523195476726
            ],
            [
              126.9773215036315,
              37.29551571126334
            ],
            [
              126.97731181784786,
              37.295457857717416
            ],
            [
              126.97731184100437,
              37.29545785504142
            ]
          ]
        ]
      }
    },
    {
      "type": "Feature",
      "properties": {
        "indoor": "room",
        "level": [
          3
        ],
        "ref": "",
        "name": "",
        "room_type": "",
        "_idx": 17,
        "_centroid": [
          126.9765494,
          37.2954643
        ],
        "_area_m2": 15
      },
      "geometry": {
        "type": "Polygon",
        "coordinates": [
          [
            [
              126.97653986219434,
              37.2954614550453
            ],
            [
              126.97654336321541,
              37.295482366748715
            ],
            [
              126.97654466854357,
              37.29549016351094
            ],
            [
              126.97657138207069,
              37.295487242535245
            ],
            [
              126.97656205326084,
              37.295430791006474
            ],
            [
              126.97653519864234,
              37.29543359950049
            ],
            [
              126.97653986219434,
              37.2954614550453
            ]
          ]
        ]
      }
    },
    {
      "type": "Feature",
      "properties": {
        "indoor": "room",
        "level": [
          3
        ],
        "ref": "27328",
        "name": "이성길교수실",
        "room_type": "office",
        "_idx": 18,
        "_centroid": [
          126.9765843,
          37.2954571
        ],
        "_area_m2": 19.7
      },
      "geometry": {
        "type": "Polygon",
        "coordinates": [
          [
            [
              126.97656205326084,
              37.295430791006474
            ],
            [
              126.97657138207069,
              37.295487242535245
            ],
            [
              126.97660653928118,
              37.295483398289704
            ],
            [
              126.97659722955561,
              37.2954270622396
            ],
            [
              126.97656205326084,
              37.295430791006474
            ]
          ]
        ]
      }
    },
    {
      "type": "Feature",
      "properties": {
        "indoor": "room",
        "level": [
          3
        ],
        "ref": "27326",
        "name": "조재민교수실",
        "room_type": "office",
        "_idx": 19,
        "_centroid": [
          126.9766183,
          37.2954535
        ],
        "_area_m2": 18.3
      },
      "geometry": {
        "type": "Polygon",
        "coordinates": [
          [
            [
              126.97659722955561,
              37.2954270622396
            ],
            [
              126.97660653928118,
              37.295483398289704
            ],
            [
              126.97663928990724,
              37.295479817190795
            ],
            [
              126.9766299979592,
              37.295423588714634
            ],
            [
              126.97659722955561,
              37.2954270622396
            ]
          ]
        ]
      }
    },
    {
      "type": "Feature",
      "properties": {
        "indoor": "room",
        "level": [
          3
        ],
        "ref": "27324",
        "name": "이선재교수실",
        "room_type": "office",
        "_idx": 20,
        "_centroid": [
          126.9766523,
          37.2954498
        ],
        "_area_m2": 19.7
      },
      "geometry": {
        "type": "Polygon",
        "coordinates": [
          [
            [
              126.9766299979592,
              37.295423588714634
            ],
            [
              126.97663928990724,
              37.295479817190795
            ],
            [
              126.97667451385084,
              37.295475965648365
            ],
            [
              126.97666524102264,
              37.29541985287012
            ],
            [
              126.9766299979592,
              37.295423588714634
            ]
          ]
        ]
      }
    },
    {
      "type": "Feature",
      "properties": {
        "indoor": "room",
        "level": [
          3
        ],
        "ref": "27322B",
        "name": "이진규교수실",
        "room_type": "office",
        "_idx": 21,
        "_centroid": [
          126.9766868,
          37.2954461
        ],
        "_area_m2": 18.9
      },
      "geometry": {
        "type": "Polygon",
        "coordinates": [
          [
            [
              126.97666524102264,
              37.29541985287012
            ],
            [
              126.97667451385084,
              37.295475965648365
            ],
            [
              126.97670844100632,
              37.2954722559025
            ],
            [
              126.97669918659413,
              37.29541625456269
            ],
            [
              126.97666524102264,
              37.29541985287012
            ]
          ]
        ]
      }
    },
    {
      "type": "Feature",
      "properties": {
        "indoor": "room",
        "level": [
          3
        ],
        "ref": "27322A",
        "name": "최형기교수실",
        "room_type": "office",
        "_idx": 22,
        "_centroid": [
          126.9767213,
          37.2954424
        ],
        "_area_m2": 19.4
      },
      "geometry": {
        "type": "Polygon",
        "coordinates": [
          [
            [
              126.97669918659413,
              37.29541625456269
            ],
            [
              126.97670844100632,
              37.2954722559025
            ],
            [
              126.9767434001804,
              37.29546843331114
            ],
            [
              126.97673416474468,
              37.29541254679955
            ],
            [
              126.97669918659413,
              37.29541625456269
            ]
          ]
        ]
      }
    },
    {
      "type": "Feature",
      "properties": {
        "indoor": "room",
        "level": [
          3
        ],
        "ref": "27320",
        "name": "심규홍교수실",
        "room_type": "office",
        "_idx": 23,
        "_centroid": [
          126.9767556,
          37.2954387
        ],
        "_area_m2": 18.7
      },
      "geometry": {
        "type": "Polygon",
        "coordinates": [
          [
            [
              126.97673416474468,
              37.29541254679955
            ],
            [
              126.9767434001804,
              37.29546843331114
            ],
            [
              126.97677700117157,
              37.29546475922954
            ],
            [
              126.97676778397489,
              37.29540898308504
            ],
            [
              126.97673416474468,
              37.29541254679955
            ]
          ]
        ]
      }
    },
    {
      "type": "Feature",
      "properties": {
        "indoor": "room",
        "level": [
          3
        ],
        "ref": "",
        "name": "",
        "room_type": "",
        "_idx": 24,
        "_centroid": [
          126.9775439,
          37.2954379
        ],
        "_area_m2": 78.6
      },
      "geometry": {
        "type": "Polygon",
        "coordinates": [
          [
            [
              126.97748241104279,
              37.295413788674786
            ],
            [
              126.97749659913364,
              37.29548640079576
            ],
            [
              126.97763161146953,
              37.29547092683736
            ],
            [
              126.97762149299626,
              37.29541693581933
            ],
            [
              126.97751745420366,
              37.295429064911154
            ],
            [
              126.97751394875554,
              37.29541003595976
            ],
            [
              126.97748241104279,
              37.295413788674786
            ]
          ]
        ]
      }
    },
    {
      "type": "Feature",
      "properties": {
        "indoor": "room",
        "level": [
          3
        ],
        "ref": "",
        "name": "",
        "room_type": "",
        "_idx": 25,
        "_centroid": [
          126.9774343,
          37.2954373
        ],
        "_area_m2": 95
      },
      "geometry": {
        "type": "Polygon",
        "coordinates": [
          [
            [
              126.97730767378826,
              37.29543290329937
            ],
            [
              126.97731184100437,
              37.29545785504142
            ],
            [
              126.97738033032687,
              37.295449940317695
            ],
            [
              126.97738991503957,
              37.2954995930276
            ],
            [
              126.97749659913364,
              37.29548640079576
            ],
            [
              126.97748241104279,
              37.295413788674786
            ],
            [
              126.97748218850481,
              37.29541381515488
            ],
            [
              126.97748218963038,
              37.29541382096875
            ],
            [
              126.9774815730833,
              37.29541388838472
            ],
            [
              126.97748136217116,
              37.29541391348144
            ],
            [
              126.97748136180006,
              37.29541391148736
            ],
            [
              126.97730767378826,
              37.29543290329937
            ]
          ]
        ]
      }
    },
    {
      "type": "Feature",
      "properties": {
        "indoor": "room",
        "level": [
          3
        ],
        "ref": "27318",
        "name": "차수영교수실",
        "room_type": "office",
        "_idx": 26,
        "_centroid": [
          126.9767902,
          37.295435
        ],
        "_area_m2": 19.7
      },
      "geometry": {
        "type": "Polygon",
        "coordinates": [
          [
            [
              126.97676778397489,
              37.29540898308504
            ],
            [
              126.97677700117157,
              37.29546475922954
            ],
            [
              126.97681255127958,
              37.295460872022836
            ],
            [
              126.9768033533799,
              37.29540521264758
            ],
            [
              126.97676778397489,
              37.29540898308504
            ]
          ]
        ]
      }
    },
    {
      "type": "Feature",
      "properties": {
        "indoor": "room",
        "level": [
          3
        ],
        "ref": "27316",
        "name": "",
        "room_type": "",
        "_idx": 27,
        "_centroid": [
          126.9768414,
          37.2954294
        ],
        "_area_m2": 36.9
      },
      "geometry": {
        "type": "Polygon",
        "coordinates": [
          [
            [
              126.9768033533799,
              37.29540521264758
            ],
            [
              126.97681255127958,
              37.295460872022836
            ],
            [
              126.97687939354839,
              37.2954535631923
            ],
            [
              126.976870231931,
              37.29539812336976
            ],
            [
              126.9768033533799,
              37.29540521264758
            ]
          ]
        ]
      }
    },
    {
      "type": "Feature",
      "properties": {
        "indoor": "room",
        "level": [
          3
        ],
        "ref": "",
        "name": "",
        "room_type": "",
        "_idx": 28,
        "_centroid": [
          126.9769097,
          37.2954221
        ],
        "_area_m2": 38.4
      },
      "geometry": {
        "type": "Polygon",
        "coordinates": [
          [
            [
              126.976870231931,
              37.29539812336976
            ],
            [
              126.97687939354839,
              37.2954535631923
            ],
            [
              126.97694918478109,
              37.29544593190895
            ],
            [
              126.97694006104716,
              37.29539072132536
            ],
            [
              126.976870231931,
              37.29539812336976
            ]
          ]
        ]
      }
    },
    {
      "type": "Feature",
      "properties": {
        "indoor": "room",
        "level": [
          3
        ],
        "ref": "27314",
        "name": "예비(소프트)",
        "room_type": "reserved",
        "_idx": 29,
        "_centroid": [
          126.9769612,
          37.2954165
        ],
        "_area_m2": 18.2
      },
      "geometry": {
        "type": "Polygon",
        "coordinates": [
          [
            [
              126.97694006104716,
              37.29539072132536
            ],
            [
              126.97694918478109,
              37.29544593190895
            ],
            [
              126.97698242223716,
              37.295442297577885
            ],
            [
              126.97697331654521,
              37.29538719616728
            ],
            [
              126.97694006104716,
              37.29539072132536
            ]
          ]
        ]
      }
    },
    {
      "type": "Feature",
      "properties": {
        "indoor": "room",
        "level": [
          3
        ],
        "ref": "27312",
        "name": "김광수교수실",
        "room_type": "office",
        "_idx": 30,
        "_centroid": [
          126.9769957,
          37.2954128
        ],
        "_area_m2": 19.5
      },
      "geometry": {
        "type": "Polygon",
        "coordinates": [
          [
            [
              126.97697331654521,
              37.29538719616728
            ],
            [
              126.97698242223716,
              37.295442297577885
            ],
            [
              126.97701801772405,
              37.29543840540926
            ],
            [
              126.9770089313539,
              37.295383420916934
            ],
            [
              126.97697331654521,
              37.29538719616728
            ]
          ]
        ]
      }
    },
    {
      "type": "Feature",
      "properties": {
        "indoor": "room",
        "level": [
          3
        ],
        "ref": "27330",
        "name": "예비",
        "room_type": "reserved",
        "_idx": 31,
        "_centroid": [
          126.9764165,
          37.2954119
        ],
        "_area_m2": 66.9
      },
      "geometry": {
        "type": "Polygon",
        "coordinates": [
          [
            [
              126.97646244676363,
              37.29537328086728
            ],
            [
              126.976359149401,
              37.29538524035256
            ],
            [
              126.97637109066864,
              37.29545051307811
            ],
            [
              126.97647318972385,
              37.29543869234002
            ],
            [
              126.97646244676363,
              37.29537328086728
            ]
          ]
        ]
      }
    },
    {
      "type": "Feature",
      "properties": {
        "indoor": "room",
        "level": [
          3
        ],
        "ref": "27310B",
        "name": "이호준교수실",
        "room_type": "office",
        "_idx": 32,
        "_centroid": [
          126.9770303,
          37.2954091
        ],
        "_area_m2": 18.3
      },
      "geometry": {
        "type": "Polygon",
        "coordinates": [
          [
            [
              126.9770089313539,
              37.295383420916934
            ],
            [
              126.97701801772405,
              37.29543840540926
            ],
            [
              126.9770515733371,
              37.2954347362895
            ],
            [
              126.97704250518115,
              37.29537986201524
            ],
            [
              126.9770089313539,
              37.295383420916934
            ]
          ]
        ]
      }
    },
    {
      "type": "Feature",
      "properties": {
        "indoor": "room",
        "level": [
          3
        ],
        "ref": "27310A",
        "name": "박호건교수실",
        "room_type": "office",
        "_idx": 33,
        "_centroid": [
          126.9770647,
          37.2954054
        ],
        "_area_m2": 19.3
      },
      "geometry": {
        "type": "Polygon",
        "coordinates": [
          [
            [
              126.97704250518115,
              37.29537986201524
            ],
            [
              126.9770515733371,
              37.2954347362895
            ],
            [
              126.97708692007028,
              37.295430871320704
            ],
            [
              126.97707787110056,
              37.29537611314772
            ],
            [
              126.97704250518115,
              37.29537986201524
            ]
          ]
        ]
      }
    },
    {
      "type": "Feature",
      "properties": {
        "indoor": "room",
        "level": [
          3
        ],
        "ref": "27308B",
        "name": "신동렬교수실",
        "room_type": "office",
        "_idx": 34,
        "_centroid": [
          126.9770995,
          37.2954017
        ],
        "_area_m2": 18.6
      },
      "geometry": {
        "type": "Polygon",
        "coordinates": [
          [
            [
              126.97707787110056,
              37.29537611314772
            ],
            [
              126.97708692007028,
              37.295430871320704
            ],
            [
              126.97712107195584,
              37.29542713700186
            ],
            [
              126.97711204152405,
              37.29537249100547
            ],
            [
              126.97707787110056,
              37.29537611314772
            ]
          ]
        ]
      }
    },
    {
      "type": "Feature",
      "properties": {
        "indoor": "room",
        "level": [
          3
        ],
        "ref": "26317",
        "name": "컨버젼스연구소",
        "room_type": "lab",
        "_idx": 35,
        "_centroid": [
          126.9775542,
          37.2953981
        ],
        "_area_m2": 57.9
      },
      "geometry": {
        "type": "Polygon",
        "coordinates": [
          [
            [
              126.97751394875554,
              37.29541003595976
            ],
            [
              126.97751745420366,
              37.295429064911154
            ],
            [
              126.97762149299626,
              37.29541693581933
            ],
            [
              126.9776109917764,
              37.29536090250914
            ],
            [
              126.97750690325681,
              37.29537366179249
            ],
            [
              126.97751394875554,
              37.29541003595976
            ]
          ]
        ]
      }
    },
    {
      "type": "Feature",
      "properties": {
        "indoor": "room",
        "level": [
          3
        ],
        "ref": "27308A",
        "name": "이지형교수실",
        "room_type": "office",
        "_idx": 36,
        "_centroid": [
          126.9771341,
          37.2953979
        ],
        "_area_m2": 19
      },
      "geometry": {
        "type": "Polygon",
        "coordinates": [
          [
            [
              126.97711204152405,
              37.29537249100547
            ],
            [
              126.97712107195584,
              37.29542713700186
            ],
            [
              126.97715612455677,
              37.2954233041948
            ],
            [
              126.97714711315189,
              37.29536877333352
            ],
            [
              126.97711204152405,
              37.29537249100547
            ]
          ]
        ]
      }
    },
    {
      "type": "Feature",
      "properties": {
        "indoor": "room",
        "level": [
          3
        ],
        "ref": "",
        "name": "",
        "room_type": "",
        "_idx": 37,
        "_centroid": [
          126.9773424,
          37.2953952
        ],
        "_area_m2": 8
      },
      "geometry": {
        "type": "Polygon",
        "coordinates": [
          [
            [
              126.97737071140448,
              37.29539984031582
            ],
            [
              126.9773680138739,
              37.295385790271354
            ],
            [
              126.97736832377936,
              37.295387741518546
            ],
            [
              126.9773014920925,
              37.29539546468991
            ],
            [
              126.97730343090574,
              37.295407197064364
            ],
            [
              126.97737071140448,
              37.29539984031582
            ]
          ]
        ]
      }
    },
    {
      "type": "Feature",
      "properties": {
        "indoor": "room",
        "level": [
          3
        ],
        "ref": "27306",
        "name": "박진영교수실",
        "room_type": "office",
        "_idx": 38,
        "_centroid": [
          126.9771686,
          37.2953942
        ],
        "_area_m2": 18.4
      },
      "geometry": {
        "type": "Polygon",
        "coordinates": [
          [
            [
              126.97714711315189,
              37.29536877333352
            ],
            [
              126.97715612455677,
              37.2954233041948
            ],
            [
              126.9771900090033,
              37.29541959911892
            ],
            [
              126.97718101599128,
              37.295365179555795
            ],
            [
              126.97714711315189,
              37.29536877333352
            ]
          ]
        ]
      }
    },
    {
      "type": "Feature",
      "properties": {
        "indoor": "room",
        "level": [
          3
        ],
        "ref": "27304",
        "name": "추현승교수실",
        "room_type": "office",
        "_idx": 39,
        "_centroid": [
          126.9772038,
          37.2953904
        ],
        "_area_m2": 19.7
      },
      "geometry": {
        "type": "Polygon",
        "coordinates": [
          [
            [
              126.97718101599128,
              37.295365179555795
            ],
            [
              126.9771900090033,
              37.29541959911892
            ],
            [
              126.97722648955656,
              37.29541561017321
            ],
            [
              126.97721751634654,
              37.2953613104355
            ],
            [
              126.97718101599128,
              37.295365179555795
            ]
          ]
        ]
      }
    },
    {
      "type": "Feature",
      "properties": {
        "indoor": "room",
        "level": [
          3
        ],
        "ref": "27302A",
        "name": "정윤경교수실",
        "room_type": "office",
        "_idx": 40,
        "_centroid": [
          126.9772853,
          37.2953868
        ],
        "_area_m2": 23.3
      },
      "geometry": {
        "type": "Polygon",
        "coordinates": [
          [
            [
              126.97725114358947,
              37.29535774587163
            ],
            [
              126.97726009855607,
              37.29541193521593
            ],
            [
              126.97730343090574,
              37.295407197064364
            ],
            [
              126.9773014920925,
              37.29539546468991
            ],
            [
              126.97730137434674,
              37.29539547829679
            ],
            [
              126.97729429148448,
              37.29535317209707
            ],
            [
              126.97725114358947,
              37.29535774587163
            ]
          ]
        ]
      }
    },
    {
      "type": "Feature",
      "properties": {
        "indoor": "room",
        "level": [
          3
        ],
        "ref": "27302B",
        "name": "컨버젼스연구소/지능형HCI융합연구센터",
        "room_type": "lab",
        "_idx": 41,
        "_centroid": [
          126.9772388,
          37.2953867
        ],
        "_area_m2": 18.1
      },
      "geometry": {
        "type": "Polygon",
        "coordinates": [
          [
            [
              126.97721751634654,
              37.2953613104355
            ],
            [
              126.97722648955656,
              37.29541561017321
            ],
            [
              126.97726009855607,
              37.29541193521593
            ],
            [
              126.97725114358947,
              37.29535774587163
            ],
            [
              126.97721751634654,
              37.2953613104355
            ]
          ]
        ]
      }
    },
    {
      "type": "Feature",
      "properties": {
        "indoor": "room",
        "level": [
          3
        ],
        "ref": "",
        "name": "",
        "room_type": "",
        "_idx": 42,
        "_centroid": [
          126.9774075,
          37.2953661
        ],
        "_area_m2": 69.5
      },
      "geometry": {
        "type": "Polygon",
        "coordinates": [
          [
            [
              126.9773680138739,
              37.295385790271354
            ],
            [
              126.97737071140448,
              37.29539984031582
            ],
            [
              126.97747658863756,
              37.29538826322892
            ],
            [
              126.97746425940305,
              37.29532213510921
            ],
            [
              126.97735807791038,
              37.295334663750225
            ],
            [
              126.9773680138739,
              37.295385790271354
            ]
          ]
        ]
      }
    },
    {
      "type": "Feature",
      "properties": {
        "indoor": "room",
        "level": [
          3
        ],
        "ref": "",
        "name": "",
        "room_type": "",
        "_idx": 43,
        "_centroid": [
          126.9764054,
          37.2953481
        ],
        "_area_m2": 64.6
      },
      "geometry": {
        "type": "Polygon",
        "coordinates": [
          [
            [
              126.97645218595258,
              37.29531080509251
            ],
            [
              126.97634774406318,
              37.29532289709812
            ],
            [
              126.976359149401,
              37.29538524035256
            ],
            [
              126.97646244676363,
              37.29537328086728
            ],
            [
              126.97645218595258,
              37.29531080509251
            ]
          ]
        ]
      }
    },
    {
      "type": "Feature",
      "properties": {
        "indoor": "room",
        "level": [
          3
        ],
        "ref": "26315B",
        "name": "인공지능융합연구실",
        "room_type": "lab",
        "_idx": 44,
        "_centroid": [
          126.9775538,
          37.2953399
        ],
        "_area_m2": 56.9
      },
      "geometry": {
        "type": "Polygon",
        "coordinates": [
          [
            [
              126.97750690325681,
              37.29537366179249
            ],
            [
              126.9776109917764,
              37.29536090250914
            ],
            [
              126.97760073650102,
              37.29530618153066
            ],
            [
              126.97749663452065,
              37.295318942473244
            ],
            [
              126.97750690325681,
              37.29537366179249
            ]
          ]
        ]
      }
    },
    {
      "type": "Feature",
      "properties": {
        "indoor": "room",
        "level": [
          3
        ],
        "ref": "26316",
        "name": "인터랙티브데이터컴퓨팅연구실",
        "room_type": "lab",
        "_idx": 45,
        "_centroid": [
          126.977406,
          37.295301
        ],
        "_area_m2": 58.3
      },
      "geometry": {
        "type": "Polygon",
        "coordinates": [
          [
            [
              126.97735807791038,
              37.295334663750225
            ],
            [
              126.97746425940305,
              37.29532213510921
            ],
            [
              126.97745404074837,
              37.295267216222896
            ],
            [
              126.97734748516352,
              37.29527978901339
            ],
            [
              126.97735807791038,
              37.295334663750225
            ]
          ]
        ]
      }
    },
    {
      "type": "Feature",
      "properties": {
        "indoor": "room",
        "level": [
          3
        ],
        "ref": "",
        "name": "",
        "room_type": "",
        "_idx": 46,
        "_centroid": [
          126.9762598,
          37.2953003
        ],
        "_area_m2": 43.1
      },
      "geometry": {
        "type": "Polygon",
        "coordinates": [
          [
            [
              126.9763087963531,
              37.29531940873617
            ],
            [
              126.97630003202136,
              37.2952714435279
            ],
            [
              126.97621116455477,
              37.29528068025142
            ],
            [
              126.97621922629897,
              37.295329766377705
            ],
            [
              126.9763087963531,
              37.29531940873617
            ]
          ]
        ]
      }
    },
    {
      "type": "Feature",
      "properties": {
        "indoor": "room",
        "level": [
          3
        ],
        "ref": "26315A",
        "name": "첨단학습/의료응용기술개발연구실",
        "room_type": "lab",
        "_idx": 47,
        "_centroid": [
          126.9775435,
          37.295285
        ],
        "_area_m2": 57.5
      },
      "geometry": {
        "type": "Polygon",
        "coordinates": [
          [
            [
              126.97760073650102,
              37.29530618153066
            ],
            [
              126.97759059541937,
              37.295251260507065
            ],
            [
              126.97748622204067,
              37.29526345718205
            ],
            [
              126.97749663452065,
              37.295318942473244
            ],
            [
              126.97760073650102,
              37.29530618153066
            ]
          ]
        ]
      }
    },
    {
      "type": "Feature",
      "properties": {
        "indoor": "room",
        "level": [
          3
        ],
        "ref": "",
        "name": "",
        "room_type": "",
        "_idx": 48,
        "_centroid": [
          126.9764039,
          37.295283
        ],
        "_area_m2": 57.3
      },
      "geometry": {
        "type": "Polygon",
        "coordinates": [
          [
            [
              126.97633761628563,
              37.29526753708754
            ],
            [
              126.97634774406318,
              37.29532289709812
            ],
            [
              126.97645218595258,
              37.29531080509251
            ],
            [
              126.97644328077045,
              37.29525658343786
            ],
            [
              126.97643875012817,
              37.29525702541912
            ],
            [
              126.97633761628563,
              37.29526753708754
            ]
          ]
        ]
      }
    },
    {
      "type": "Feature",
      "properties": {
        "indoor": "room",
        "level": [
          3
        ],
        "ref": "26314B",
        "name": "이동통신공학과세미나실",
        "room_type": "classroom",
        "_idx": 49,
        "_centroid": [
          126.9773957,
          37.2952468
        ],
        "_area_m2": 57
      },
      "geometry": {
        "type": "Polygon",
        "coordinates": [
          [
            [
              126.97734748516352,
              37.29527978901339
            ],
            [
              126.97745404074837,
              37.295267216222896
            ],
            [
              126.97744409127917,
              37.2952137440404
            ],
            [
              126.97733717145667,
              37.29522635981725
            ],
            [
              126.97734748516352,
              37.29527978901339
            ]
          ]
        ]
      }
    },
    {
      "type": "Feature",
      "properties": {
        "indoor": "room",
        "level": [
          3
        ],
        "ref": "26313B",
        "name": "네트워크연구실",
        "room_type": "lab",
        "_idx": 50,
        "_centroid": [
          126.9775335,
          37.2952313
        ],
        "_area_m2": 54.3
      },
      "geometry": {
        "type": "Polygon",
        "coordinates": [
          [
            [
              126.97748622204067,
              37.29526345718205
            ],
            [
              126.97759059541937,
              37.295251260507065
            ],
            [
              126.97758061889999,
              37.29519883630855
            ],
            [
              126.97747649051388,
              37.29521160050634
            ],
            [
              126.97748622204067,
              37.29526345718205
            ]
          ]
        ]
      }
    },
    {
      "type": "Feature",
      "properties": {
        "indoor": "room",
        "level": [
          3
        ],
        "ref": "26314A",
        "name": "실시간컴퓨팅연구실",
        "room_type": "lab",
        "_idx": 51,
        "_centroid": [
          126.9773853,
          37.2951921
        ],
        "_area_m2": 59.9
      },
      "geometry": {
        "type": "Polygon",
        "coordinates": [
          [
            [
              126.97733717145667,
              37.29522635981725
            ],
            [
              126.97744409127917,
              37.2952137440404
            ],
            [
              126.97743367532031,
              37.295157764767374
            ],
            [
              126.97732637418255,
              37.2951704255461
            ],
            [
              126.97733717145667,
              37.29522635981725
            ]
          ]
        ]
      }
    },
    {
      "type": "Feature",
      "properties": {
        "indoor": "room",
        "level": [
          3
        ],
        "ref": "26313A",
        "name": "통신망연구실Ⅱ",
        "room_type": "lab",
        "_idx": 52,
        "_centroid": [
          126.9775235,
          37.2951785
        ],
        "_area_m2": 55.6
      },
      "geometry": {
        "type": "Polygon",
        "coordinates": [
          [
            [
              126.97747649051388,
              37.29521160050634
            ],
            [
              126.97758061889999,
              37.29519883630855
            ],
            [
              126.97757061306464,
              37.29514544631356
            ],
            [
              126.97746647154517,
              37.29515821213031
            ],
            [
              126.97747649051388,
              37.29521160050634
            ]
          ]
        ]
      }
    },
    {
      "type": "Feature",
      "properties": {
        "indoor": "room",
        "level": [
          3
        ],
        "ref": "26312",
        "name": "e+녹화강의실",
        "room_type": "classroom",
        "_idx": 53,
        "_centroid": [
          126.97737,
          37.2951112
        ],
        "_area_m2": 113.7
      },
      "geometry": {
        "type": "Polygon",
        "coordinates": [
          [
            [
              126.97732637418255,
              37.2951704255461
            ],
            [
              126.97743367532031,
              37.295157764767374
            ],
            [
              126.97741399011528,
              37.295051969085726
            ],
            [
              126.97730596832676,
              37.29506471491395
            ],
            [
              126.97732637418255,
              37.2951704255461
            ]
          ]
        ]
      }
    },
    {
      "type": "Feature",
      "properties": {
        "indoor": "room",
        "level": [
          3
        ],
        "ref": "26311",
        "name": "첨단e+강의실",
        "room_type": "classroom",
        "_idx": 54,
        "_centroid": [
          126.9775084,
          37.2950979
        ],
        "_area_m2": 112.3
      },
      "geometry": {
        "type": "Polygon",
        "coordinates": [
          [
            [
              126.97746647154517,
              37.29515821213031
            ],
            [
              126.97757061306464,
              37.29514544631356
            ],
            [
              126.97755039149934,
              37.295037546349974
            ],
            [
              126.97744622343765,
              37.29505031543866
            ],
            [
              126.97746647154517,
              37.29515821213031
            ]
          ]
        ]
      }
    },
    {
      "type": "Feature",
      "properties": {
        "indoor": "room",
        "level": [
          3
        ],
        "ref": "",
        "name": "",
        "room_type": "",
        "_idx": 55,
        "_centroid": [
          126.9773548,
          37.295031
        ],
        "_area_m2": 59
      },
      "geometry": {
        "type": "Polygon",
        "coordinates": [
          [
            [
              126.97730596832676,
              37.29506471491395
            ],
            [
              126.97741399011528,
              37.295051969085726
            ],
            [
              126.97740382891493,
              37.29499735898055
            ],
            [
              126.97729543513759,
              37.29501014871018
            ],
            [
              126.97730596832676,
              37.29506471491395
            ]
          ]
        ]
      }
    },
    {
      "type": "Feature",
      "properties": {
        "indoor": "room",
        "level": [
          3
        ],
        "ref": "26318",
        "name": "",
        "room_type": "",
        "_idx": 56,
        "_centroid": [
          126.977493,
          37.2950158
        ],
        "_area_m2": 58.5
      },
      "geometry": {
        "type": "Polygon",
        "coordinates": [
          [
            [
              126.97744622343765,
              37.29505031543866
            ],
            [
              126.97755039149934,
              37.295037546349974
            ],
            [
              126.97753986140862,
              37.29498135898821
            ],
            [
              126.97743567952544,
              37.294994129780676
            ],
            [
              126.97744622343765,
              37.29505031543866
            ]
          ]
        ]
      }
    },
    {
      "type": "Feature",
      "properties": {
        "indoor": "room",
        "level": [
          3
        ],
        "ref": "26310",
        "name": "일반강의실",
        "room_type": "classroom",
        "_idx": 57,
        "_centroid": [
          126.9773398,
          37.2949518
        ],
        "_area_m2": 112.8
      },
      "geometry": {
        "type": "Polygon",
        "coordinates": [
          [
            [
              126.97729543513759,
              37.29501014871018
            ],
            [
              126.97740382891493,
              37.29499735898055
            ],
            [
              126.9773845031669,
              37.29489349515576
            ],
            [
              126.97727540189817,
              37.2949063683824
            ],
            [
              126.97729543513759,
              37.29501014871018
            ]
          ]
        ]
      }
    },
    {
      "type": "Feature",
      "properties": {
        "indoor": "room",
        "level": [
          3
        ],
        "ref": "26309",
        "name": "지속가능설계및생산연구실",
        "room_type": "lab",
        "_idx": 58,
        "_centroid": [
          126.977478,
          37.2949354
        ],
        "_area_m2": 109
      },
      "geometry": {
        "type": "Polygon",
        "coordinates": [
          [
            [
              126.97743567952544,
              37.294994129780676
            ],
            [
              126.97753986140862,
              37.29498135898821
            ],
            [
              126.97752024254181,
              37.294876674955034
            ],
            [
              126.9774160349075,
              37.29488944892181
            ],
            [
              126.97743567952544,
              37.294994129780676
            ]
          ]
        ]
      }
    },
    {
      "type": "Feature",
      "properties": {
        "indoor": "room",
        "level": [
          3
        ],
        "ref": "26308",
        "name": "첨단e+강의실(박상조강의실)",
        "room_type": "classroom",
        "_idx": 59,
        "_centroid": [
          126.9773198,
          37.2948465
        ],
        "_area_m2": 116.8
      },
      "geometry": {
        "type": "Polygon",
        "coordinates": [
          [
            [
              126.97727540189817,
              37.2949063683824
            ],
            [
              126.9773845031669,
              37.29489349515576
            ],
            [
              126.97736460888902,
              37.29478657583813
            ],
            [
              126.97725477931576,
              37.294799535018285
            ],
            [
              126.97727540189817,
              37.2949063683824
            ]
          ]
        ]
      }
    },
    {
      "type": "Feature",
      "properties": {
        "indoor": "room",
        "level": [
          3
        ],
        "ref": "26307",
        "name": "첨단e+강의실",
        "room_type": "classroom",
        "_idx": 60,
        "_centroid": [
          126.9774605,
          37.2948424
        ],
        "_area_m2": 84.7
      },
      "geometry": {
        "type": "Polygon",
        "coordinates": [
          [
            [
              126.9774160349075,
              37.29488944892181
            ],
            [
              126.97752024254181,
              37.294876674955034
            ],
            [
              126.9775050066154,
              37.29479537779133
            ],
            [
              126.97740077898287,
              37.29480815422332
            ],
            [
              126.9774160349075,
              37.29488944892181
            ]
          ]
        ]
      }
    },
    {
      "type": "Feature",
      "properties": {
        "indoor": "room",
        "level": [
          3
        ],
        "ref": "25302",
        "name": "센서시스템 연구실",
        "room_type": "lab",
        "_idx": 61,
        "_centroid": [
          126.9762476,
          37.2948007
        ],
        "_area_m2": 52.4
      },
      "geometry": {
        "type": "Polygon",
        "coordinates": [
          [
            [
              126.97628775682554,
              37.29483699348559
            ],
            [
              126.97627269499345,
              37.29475657859342
            ],
            [
              126.97620827204776,
              37.29476443476446
            ],
            [
              126.97622154714648,
              37.29484483680634
            ],
            [
              126.97628775682554,
              37.29483699348559
            ]
          ]
        ]
      }
    },
    {
      "type": "Feature",
      "properties": {
        "indoor": "room",
        "level": [
          3
        ],
        "ref": "25304",
        "name": "김종욱교수연구실",
        "room_type": "lab",
        "_idx": 62,
        "_centroid": [
          126.9763144,
          37.2947927
        ],
        "_area_m2": 54.9
      },
      "geometry": {
        "type": "Polygon",
        "coordinates": [
          [
            [
              126.97635603776818,
              37.29482890479913
            ],
            [
              126.9763409323642,
              37.294748257265525
            ],
            [
              126.97627269499345,
              37.29475657859342
            ],
            [
              126.97628775682554,
              37.29483699348559
            ],
            [
              126.97635603776818,
              37.29482890479913
            ]
          ]
        ]
      }
    },
    {
      "type": "Feature",
      "properties": {
        "indoor": "room",
        "level": [
          3
        ],
        "ref": "25306",
        "name": "반도체 화학공정실험실",
        "room_type": "lab",
        "_idx": 63,
        "_centroid": [
          126.9763819,
          37.2947846
        ],
        "_area_m2": 53.9
      },
      "geometry": {
        "type": "Polygon",
        "coordinates": [
          [
            [
              126.97642289202477,
              37.294820985120545
            ],
            [
              126.9764077439587,
              37.29474010980645
            ],
            [
              126.9763409323642,
              37.294748257265525
            ],
            [
              126.97635603776818,
              37.29482890479913
            ],
            [
              126.97642289202477,
              37.294820985120545
            ]
          ]
        ]
      }
    },
    {
      "type": "Feature",
      "properties": {
        "indoor": "room",
        "level": [
          3
        ],
        "ref": "25308",
        "name": "공정설계및시스템공학연구실",
        "room_type": "lab",
        "_idx": 64,
        "_centroid": [
          126.9764503,
          37.2947763
        ],
        "_area_m2": 56.5
      },
      "geometry": {
        "type": "Polygon",
        "coordinates": [
          [
            [
              126.97649279399809,
              37.2948127044038
            ],
            [
              126.97647760132509,
              37.29473159092528
            ],
            [
              126.9764077439587,
              37.29474010980645
            ],
            [
              126.97642289202477,
              37.294820985120545
            ],
            [
              126.97649279399809,
              37.2948127044038
            ]
          ]
        ]
      }
    },
    {
      "type": "Feature",
      "properties": {
        "indoor": "room",
        "level": [
          3
        ],
        "ref": "25310",
        "name": "김수찬교수Lab",
        "room_type": "lab",
        "_idx": 65,
        "_centroid": [
          126.9765188,
          37.2947681
        ],
        "_area_m2": 54.5
      },
      "geometry": {
        "type": "Polygon",
        "coordinates": [
          [
            [
              126.9765600303808,
              37.294804739457845
            ],
            [
              126.97654479480202,
              37.29472339689688
            ],
            [
              126.97647760132509,
              37.29473159092528
            ],
            [
              126.97649279399809,
              37.2948127044038
            ],
            [
              126.9765600303808,
              37.294804739457845
            ]
          ]
        ]
      }
    },
    {
      "type": "Feature",
      "properties": {
        "indoor": "room",
        "level": [
          3
        ],
        "ref": "26306",
        "name": "소프트웨어융합대학세미나실",
        "room_type": "classroom",
        "_idx": 66,
        "_centroid": [
          126.9773046,
          37.2947664
        ],
        "_area_m2": 58.6
      },
      "geometry": {
        "type": "Polygon",
        "coordinates": [
          [
            [
              126.97725477931576,
              37.294799535018285
            ],
            [
              126.97736460888902,
              37.29478657583813
            ],
            [
              126.9773546721764,
              37.294733172214315
            ],
            [
              126.97724447883262,
              37.294746174326335
            ],
            [
              126.97725477931576,
              37.294799535018285
            ]
          ]
        ]
      }
    },
    {
      "type": "Feature",
      "properties": {
        "indoor": "room",
        "level": [
          3
        ],
        "ref": "26305",
        "name": "학생 참여형 플립러닝 강의실",
        "room_type": "classroom",
        "_idx": 67,
        "_centroid": [
          126.9774454,
          37.294762
        ],
        "_area_m2": 82.8
      },
      "geometry": {
        "type": "Polygon",
        "coordinates": [
          [
            [
              126.97740077898287,
              37.29480815422332
            ],
            [
              126.9775050066154,
              37.29479537779133
            ],
            [
              126.97749011361766,
              37.29471591045581
            ],
            [
              126.97738586643705,
              37.29472868929769
            ],
            [
              126.97740077898287,
              37.29480815422332
            ]
          ]
        ]
      }
    },
    {
      "type": "Feature",
      "properties": {
        "indoor": "room",
        "level": [
          3
        ],
        "ref": "25312",
        "name": "스마트 공정 및 소재 설계 연구실",
        "room_type": "lab",
        "_idx": 68,
        "_centroid": [
          126.9765862,
          37.29476
        ],
        "_area_m2": 54.9
      },
      "geometry": {
        "type": "Polygon",
        "coordinates": [
          [
            [
              126.97662754376834,
              37.29479674169738
            ],
            [
              126.97661226510701,
              37.29471516911018
            ],
            [
              126.97654479480202,
              37.29472339689688
            ],
            [
              126.9765600303808,
              37.294804739457845
            ],
            [
              126.97662754376834,
              37.29479674169738
            ]
          ]
        ]
      }
    },
    {
      "type": "Feature",
      "properties": {
        "indoor": "room",
        "level": [
          3
        ],
        "ref": "",
        "name": "",
        "room_type": "",
        "_idx": 69,
        "_centroid": [
          126.9766537,
          37.2947519
        ],
        "_area_m2": 55.2
      },
      "geometry": {
        "type": "Polygon",
        "coordinates": [
          [
            [
              126.97669517549522,
              37.294788729918224
            ],
            [
              126.97667985367552,
              37.29470692690162
            ],
            [
              126.97661226510701,
              37.29471516911018
            ],
            [
              126.97662754376834,
              37.29479674169738
            ],
            [
              126.97669517549522,
              37.294788729918224
            ]
          ]
        ]
      }
    },
    {
      "type": "Feature",
      "properties": {
        "indoor": "room",
        "level": [
          3
        ],
        "ref": "",
        "name": "",
        "room_type": "",
        "_idx": 70,
        "_centroid": [
          126.9767221,
          37.2947437
        ],
        "_area_m2": 56.5
      },
      "geometry": {
        "type": "Polygon",
        "coordinates": [
          [
            [
              126.97676429999929,
              37.294780541301925
            ],
            [
              126.97674893406895,
              37.29469850276981
            ],
            [
              126.97667985367552,
              37.29470692690162
            ],
            [
              126.97669517549522,
              37.294788729918224
            ],
            [
              126.97676429999929,
              37.294780541301925
            ]
          ]
        ]
      }
    },
    {
      "type": "Feature",
      "properties": {
        "indoor": "room",
        "level": [
          3
        ],
        "ref": "25314",
        "name": "화학공학부ConferenceRoom",
        "room_type": "lab",
        "_idx": 71,
        "_centroid": [
          126.9768247,
          37.2947313
        ],
        "_area_m2": 111.9
      },
      "geometry": {
        "type": "Polygon",
        "coordinates": [
          [
            [
              126.97690052238478,
              37.29476440414679
            ],
            [
              126.97688506952653,
              37.29468190148859
            ],
            [
              126.97674893406895,
              37.29469850276981
            ],
            [
              126.97676429999929,
              37.294780541301925
            ],
            [
              126.97690052238478,
              37.29476440414679
            ]
          ]
        ]
      }
    },
    {
      "type": "Feature",
      "properties": {
        "indoor": "room",
        "level": [
          3
        ],
        "ref": "26304",
        "name": "다기능유연소자연구실",
        "room_type": "lab",
        "_idx": 72,
        "_centroid": [
          126.9772972,
          37.294727
        ],
        "_area_m2": 27.9
      },
      "geometry": {
        "type": "Polygon",
        "coordinates": [
          [
            [
              126.97724447883262,
              37.294746174326335
            ],
            [
              126.9773546721764,
              37.294733172214315
            ],
            [
              126.97734996266766,
              37.29470786154635
            ],
            [
              126.97723959691469,
              37.29472088400599
            ],
            [
              126.97724447883262,
              37.294746174326335
            ]
          ]
        ]
      }
    },
    {
      "type": "Feature",
      "properties": {
        "indoor": "room",
        "level": [
          3
        ],
        "ref": "25318",
        "name": "트랜스레이셔널나노바이오사이언스연구실",
        "room_type": "lab",
        "_idx": 73,
        "_centroid": [
          126.9769275,
          37.294719
        ],
        "_area_m2": 57.3
      },
      "geometry": {
        "type": "Polygon",
        "coordinates": [
          [
            [
              126.97697002901522,
              37.29475617026309
            ],
            [
              126.97695453180249,
              37.29467343078743
            ],
            [
              126.97688506952653,
              37.29468190148859
            ],
            [
              126.97690052238478,
              37.29476440414679
            ],
            [
              126.97697002901522,
              37.29475617026309
            ]
          ]
        ]
      }
    },
    {
      "type": "Feature",
      "properties": {
        "indoor": "room",
        "level": [
          3
        ],
        "ref": "25320",
        "name": "정보전자유기소재연구실",
        "room_type": "lab",
        "_idx": 74,
        "_centroid": [
          126.9769961,
          37.2947107
        ],
        "_area_m2": 55.9
      },
      "geometry": {
        "type": "Polygon",
        "coordinates": [
          [
            [
              126.97703762769783,
              37.29474816239842
            ],
            [
              126.977022087348,
              37.29466519260592
            ],
            [
              126.97695453180249,
              37.29467343078743
            ],
            [
              126.97697002901522,
              37.29475617026309
            ],
            [
              126.97703762769783,
              37.29474816239842
            ]
          ]
        ]
      }
    },
    {
      "type": "Feature",
      "properties": {
        "indoor": "room",
        "level": [
          3
        ],
        "ref": "",
        "name": "",
        "room_type": "",
        "_idx": 75,
        "_centroid": [
          126.976231,
          37.294706
        ],
        "_area_m2": 34.7
      },
      "geometry": {
        "type": "Polygon",
        "coordinates": [
          [
            [
              126.97626806403598,
              37.29472946362621
            ],
            [
              126.97625744072083,
              37.29467483589224
            ],
            [
              126.97619475231743,
              37.294682551085394
            ],
            [
              126.9762037920836,
              37.29473730138693
            ],
            [
              126.97626806403598,
              37.29472946362621
            ]
          ]
        ]
      }
    },
    {
      "type": "Feature",
      "properties": {
        "indoor": "room",
        "level": [
          3
        ],
        "ref": "25322",
        "name": "유변물성연구실",
        "room_type": "lab",
        "_idx": 76,
        "_centroid": [
          126.9770643,
          37.2947025
        ],
        "_area_m2": 57.1
      },
      "geometry": {
        "type": "Polygon",
        "coordinates": [
          [
            [
              126.97710644690596,
              37.29474000994804
            ],
            [
              126.97709086264105,
              37.29465680568013
            ],
            [
              126.977022087348,
              37.29466519260592
            ],
            [
              126.97703762769783,
              37.29474816239842
            ],
            [
              126.97710644690596,
              37.29474000994804
            ]
          ]
        ]
      }
    },
    {
      "type": "Feature",
      "properties": {
        "indoor": "room",
        "level": [
          3
        ],
        "ref": "26302",
        "name": "화학공학부학생회실",
        "room_type": "",
        "_idx": 77,
        "_centroid": [
          126.9772922,
          37.2947005
        ],
        "_area_m2": 30.6
      },
      "geometry": {
        "type": "Polygon",
        "coordinates": [
          [
            [
              126.97723959691469,
              37.29472088400599
            ],
            [
              126.97734996266766,
              37.29470786154635
            ],
            [
              126.97734480429428,
              37.29468013851133
            ],
            [
              126.97723424969975,
              37.294693183257856
            ],
            [
              126.97723959691469,
              37.29472088400599
            ]
          ]
        ]
      }
    },
    {
      "type": "Feature",
      "properties": {
        "indoor": "room",
        "level": [
          3
        ],
        "ref": "25301A",
        "name": "방석호교수실",
        "room_type": "office",
        "_idx": 78,
        "_centroid": [
          126.9762799,
          37.2947
        ],
        "_area_m2": 18.7
      },
      "geometry": {
        "type": "Polygon",
        "coordinates": [
          [
            [
              126.97625744072083,
              37.29467483589224
            ],
            [
              126.97626806403598,
              37.29472946362621
            ],
            [
              126.9763023282029,
              37.29472528521975
            ],
            [
              126.97629169363903,
              37.294670599636554
            ],
            [
              126.97625744072083,
              37.29467483589224
            ]
          ]
        ]
      }
    },
    {
      "type": "Feature",
      "properties": {
        "indoor": "room",
        "level": [
          3
        ],
        "ref": "25301B",
        "name": "이동엽교수실",
        "room_type": "office",
        "_idx": 79,
        "_centroid": [
          126.9763141,
          37.2946958
        ],
        "_area_m2": 18.7
      },
      "geometry": {
        "type": "Polygon",
        "coordinates": [
          [
            [
              126.97629169363903,
              37.294670599636554
            ],
            [
              126.9763023282029,
              37.29472528521975
            ],
            [
              126.97633648049765,
              37.29472112045573
            ],
            [
              126.97632583472124,
              37.29466637721227
            ],
            [
              126.97629169363903,
              37.294670599636554
            ]
          ]
        ]
      }
    },
    {
      "type": "Feature",
      "properties": {
        "indoor": "room",
        "level": [
          3
        ],
        "ref": "25303A",
        "name": "박재형교수실",
        "room_type": "office",
        "_idx": 80,
        "_centroid": [
          126.976348,
          37.2946917
        ],
        "_area_m2": 18.5
      },
      "geometry": {
        "type": "Polygon",
        "coordinates": [
          [
            [
              126.97632583472124,
              37.29466637721227
            ],
            [
              126.97633648049765,
              37.29472112045573
            ],
            [
              126.97637024689719,
              37.294717002750424
            ],
            [
              126.97635959003503,
              37.294662202498195
            ],
            [
              126.97632583472124,
              37.29466637721227
            ]
          ]
        ]
      }
    },
    {
      "type": "Feature",
      "properties": {
        "indoor": "room",
        "level": [
          3
        ],
        "ref": "25303B",
        "name": "권석준교수실",
        "room_type": "office",
        "_idx": 81,
        "_centroid": [
          126.9763817,
          37.2946875
        ],
        "_area_m2": 18.4
      },
      "geometry": {
        "type": "Polygon",
        "coordinates": [
          [
            [
              126.97635959003503,
              37.294662202498195
            ],
            [
              126.97637024689719,
              37.294717002750424
            ],
            [
              126.97640380992611,
              37.29471290984551
            ],
            [
              126.97639314204483,
              37.29465805292789
            ],
            [
              126.97635959003503,
              37.294662202498195
            ]
          ]
        ]
      }
    },
    {
      "type": "Feature",
      "properties": {
        "indoor": "room",
        "level": [
          3
        ],
        "ref": "25305A",
        "name": "김수찬교수실",
        "room_type": "office",
        "_idx": 82,
        "_centroid": [
          126.9764154,
          37.2946834
        ],
        "_area_m2": 18.6
      },
      "geometry": {
        "type": "Polygon",
        "coordinates": [
          [
            [
              126.97639314204483,
              37.29465805292789
            ],
            [
              126.97640380992611,
              37.29471290984551
            ],
            [
              126.97643772028599,
              37.294708774584684
            ],
            [
              126.97642704127234,
              37.294653860415174
            ],
            [
              126.97639314204483,
              37.29465805292789
            ]
          ]
        ]
      }
    },
    {
      "type": "Feature",
      "properties": {
        "indoor": "room",
        "level": [
          3
        ],
        "ref": "25324",
        "name": "생물공정석사과정연구실/에너지나노소재연구실",
        "room_type": "lab",
        "_idx": 83,
        "_centroid": [
          126.977176,
          37.2946831
        ],
        "_area_m2": 79.4
      },
      "geometry": {
        "type": "Polygon",
        "coordinates": [
          [
            [
              126.97722620514472,
              37.294669268164355
            ],
            [
              126.97722953908928,
              37.294668780379986
            ],
            [
              126.97722469682552,
              37.294640485031756
            ],
            [
              126.97709086264105,
              37.29465680568013
            ],
            [
              126.97710644690596,
              37.29474000994804
            ],
            [
              126.97718261311307,
              37.294730981450336
            ],
            [
              126.97717158960802,
              37.29467546570482
            ],
            [
              126.97722620514472,
              37.294669268164355
            ]
          ]
        ]
      }
    },
    {
      "type": "Feature",
      "properties": {
        "indoor": "room",
        "level": [
          3
        ],
        "ref": "25305B",
        "name": "김종욱교수실",
        "room_type": "office",
        "_idx": 84,
        "_centroid": [
          126.9764503,
          37.2946791
        ],
        "_area_m2": 19.7
      },
      "geometry": {
        "type": "Polygon",
        "coordinates": [
          [
            [
              126.97642704127234,
              37.294653860415174
            ],
            [
              126.97643772028599,
              37.294708774584684
            ],
            [
              126.97647349051586,
              37.29470441251862
            ],
            [
              126.97646279975847,
              37.29464943795723
            ],
            [
              126.97642704127234,
              37.294653860415174
            ]
          ]
        ]
      }
    },
    {
      "type": "Feature",
      "properties": {
        "indoor": "room",
        "level": [
          3
        ],
        "ref": "25307",
        "name": "학부장실(교수휴게실)",
        "room_type": "office",
        "_idx": 85,
        "_centroid": [
          126.9765011,
          37.2946729
        ],
        "_area_m2": 36.3
      },
      "geometry": {
        "type": "Polygon",
        "coordinates": [
          [
            [
              126.97646279975847,
              37.29464943795723
            ],
            [
              126.97647349051586,
              37.29470441251862
            ],
            [
              126.9765394890724,
              37.294696364204
            ],
            [
              126.97652877664706,
              37.294641278215416
            ],
            [
              126.97646279975847,
              37.29464943795723
            ]
          ]
        ]
      }
    },
    {
      "type": "Feature",
      "properties": {
        "indoor": "room",
        "level": [
          3
        ],
        "ref": "",
        "name": "",
        "room_type": "",
        "_idx": 86,
        "_centroid": [
          126.9772606,
          37.294664
        ],
        "_area_m2": 58.4
      },
      "geometry": {
        "type": "Polygon",
        "coordinates": [
          [
            [
              126.97722469682552,
              37.294640485031756
            ],
            [
              126.97722953908928,
              37.294668780379986
            ],
            [
              126.97722620514472,
              37.294669268164355
            ],
            [
              126.97722953908931,
              37.29466878037999
            ],
            [
              126.97723424969975,
              37.294693183257856
            ],
            [
              126.97734480429428,
              37.29468013851133
            ],
            [
              126.97733492492452,
              37.29462704306959
            ],
            [
              126.97722469682552,
              37.294640485031756
            ]
          ]
        ]
      }
    },
    {
      "type": "Feature",
      "properties": {
        "indoor": "room",
        "level": [
          3
        ],
        "ref": "25309",
        "name": "교수회의실",
        "room_type": "lounge",
        "_idx": 87,
        "_centroid": [
          126.9766021,
          37.2946605
        ],
        "_area_m2": 75.1
      },
      "geometry": {
        "type": "Polygon",
        "coordinates": [
          [
            [
              126.97652877664706,
              37.294641278215416
            ],
            [
              126.9765394890724,
              37.294696364204
            ],
            [
              126.9766754677578,
              37.294679782034656
            ],
            [
              126.9766647106895,
              37.294624466469436
            ],
            [
              126.97652877664706,
              37.294641278215416
            ]
          ]
        ]
      }
    },
    {
      "type": "Feature",
      "properties": {
        "indoor": "room",
        "level": [
          3
        ],
        "ref": "",
        "name": "",
        "room_type": "",
        "_idx": 88,
        "_centroid": [
          126.9767053,
          37.2946478
        ],
        "_area_m2": 39
      },
      "geometry": {
        "type": "Polygon",
        "coordinates": [
          [
            [
              126.9766647106895,
              37.294624466469436
            ],
            [
              126.9766754677578,
              37.294679782034656
            ],
            [
              126.97674587043345,
              37.29467119665168
            ],
            [
              126.97673509025151,
              37.294615762223636
            ],
            [
              126.9766647106895,
              37.294624466469436
            ]
          ]
        ]
      }
    },
    {
      "type": "Feature",
      "properties": {
        "indoor": "room",
        "level": [
          3
        ],
        "ref": "25315",
        "name": "대학원세미나실",
        "room_type": "classroom",
        "_idx": 89,
        "_centroid": [
          126.9767904,
          37.2946374
        ],
        "_area_m2": 55.4
      },
      "geometry": {
        "type": "Polygon",
        "coordinates": [
          [
            [
              126.97673509025151,
              37.294615762223636
            ],
            [
              126.97674587043345,
              37.29467119665168
            ],
            [
              126.97684563644086,
              37.294659030503546
            ],
            [
              126.97683482350521,
              37.29460342763771
            ],
            [
              126.97673509025151,
              37.294615762223636
            ]
          ]
        ]
      }
    },
    {
      "type": "Feature",
      "properties": {
        "indoor": "room",
        "level": [
          3
        ],
        "ref": "25317A",
        "name": "김재윤교수실",
        "room_type": "office",
        "_idx": 90,
        "_centroid": [
          126.9768575,
          37.2946291
        ],
        "_area_m2": 19.2
      },
      "geometry": {
        "type": "Polygon",
        "coordinates": [
          [
            [
              126.97683482350521,
              37.29460342763771
            ],
            [
              126.97684563644086,
              37.294659030503546
            ],
            [
              126.9768802027154,
              37.29465481525601
            ],
            [
              126.97686937843109,
              37.294599154031
            ],
            [
              126.97683482350521,
              37.29460342763771
            ]
          ]
        ]
      }
    },
    {
      "type": "Feature",
      "properties": {
        "indoor": "room",
        "level": [
          3
        ],
        "ref": "25317B",
        "name": "조슈아잭맨교수실",
        "room_type": "office",
        "_idx": 91,
        "_centroid": [
          126.9768915,
          37.2946249
        ],
        "_area_m2": 18.6
      },
      "geometry": {
        "type": "Polygon",
        "coordinates": [
          [
            [
              126.97686937843109,
              37.294599154031
            ],
            [
              126.9768802027154,
              37.29465481525601
            ],
            [
              126.97691369081343,
              37.29465073148868
            ],
            [
              126.97690285553459,
              37.29459501372479
            ],
            [
              126.97686937843109,
              37.294599154031
            ]
          ]
        ]
      }
    },
    {
      "type": "Feature",
      "properties": {
        "indoor": "room",
        "level": [
          3
        ],
        "ref": "25319A",
        "name": "이준영교수실",
        "room_type": "office",
        "_idx": 92,
        "_centroid": [
          126.9769262,
          37.2946207
        ],
        "_area_m2": 20
      },
      "geometry": {
        "type": "Polygon",
        "coordinates": [
          [
            [
              126.97690285553459,
              37.29459501372479
            ],
            [
              126.97691369081343,
              37.29465073148868
            ],
            [
              126.97694949084305,
              37.29464636578863
            ],
            [
              126.97693864381085,
              37.29459058758253
            ],
            [
              126.97690285553459,
              37.29459501372479
            ]
          ]
        ]
      }
    },
    {
      "type": "Feature",
      "properties": {
        "indoor": "room",
        "level": [
          3
        ],
        "ref": "26301",
        "name": "생물공학및단백질공학연구실/신생체모사재료및면역공학연구실",
        "room_type": "lab",
        "_idx": 93,
        "_centroid": [
          126.9774009,
          37.2946182
        ],
        "_area_m2": 166.1
      },
      "geometry": {
        "type": "Polygon",
        "coordinates": [
          [
            [
              126.97738586643705,
              37.29472868929769
            ],
            [
              126.97749011361766,
              37.29471591045581
            ],
            [
              126.97746010562268,
              37.294555791220915
            ],
            [
              126.9773917565475,
              37.29456505007921
            ],
            [
              126.97735659746446,
              37.29456973123035
            ],
            [
              126.97736100014237,
              37.29459618353492
            ],
            [
              126.9773610001424,
              37.29459618353511
            ],
            [
              126.97738586643705,
              37.29472868929769
            ]
          ]
        ]
      }
    },
    {
      "type": "Feature",
      "properties": {
        "indoor": "room",
        "level": [
          3
        ],
        "ref": "25319B",
        "name": "권영돈교수실",
        "room_type": "office",
        "_idx": 94,
        "_centroid": [
          126.9769608,
          37.2946164
        ],
        "_area_m2": 18.7
      },
      "geometry": {
        "type": "Polygon",
        "coordinates": [
          [
            [
              126.97693864381085,
              37.29459058758253
            ],
            [
              126.97694949084305,
              37.29464636578863
            ],
            [
              126.97698305073047,
              37.29464227326682
            ],
            [
              126.97697219268056,
              37.29458643840058
            ],
            [
              126.97693864381085,
              37.29459058758253
            ]
          ]
        ]
      }
    },
    {
      "type": "Feature",
      "properties": {
        "indoor": "room",
        "level": [
          3
        ],
        "ref": "25321A",
        "name": "엄숭호교수실",
        "room_type": "office",
        "_idx": 95,
        "_centroid": [
          126.9769939,
          37.2946124
        ],
        "_area_m2": 18.2
      },
      "geometry": {
        "type": "Polygon",
        "coordinates": [
          [
            [
              126.97697219268056,
              37.29458643840058
            ],
            [
              126.97698305073047,
              37.29464227326682
            ],
            [
              126.97701566382969,
              37.29463829620281
            ],
            [
              126.977004795073,
              37.29458240627493
            ],
            [
              126.97697219268056,
              37.29458643840058
            ]
          ]
        ]
      }
    },
    {
      "type": "Feature",
      "properties": {
        "indoor": "room",
        "level": [
          3
        ],
        "ref": "25321B",
        "name": "김진웅교수실",
        "room_type": "office",
        "_idx": 96,
        "_centroid": [
          126.9770284,
          37.2946081
        ],
        "_area_m2": 20.3
      },
      "geometry": {
        "type": "Polygon",
        "coordinates": [
          [
            [
              126.977004795073,
              37.29458240627493
            ],
            [
              126.97701566382969,
              37.29463829620281
            ],
            [
              126.97705200123728,
              37.294633864971225
            ],
            [
              126.97704112055067,
              37.29457791369388
            ],
            [
              126.977004795073,
              37.29458240627493
            ]
          ]
        ]
      }
    },
    {
      "type": "Feature",
      "properties": {
        "indoor": "room",
        "level": [
          3
        ],
        "ref": "25323A",
        "name": "채희엽교수실",
        "room_type": "office",
        "_idx": 97,
        "_centroid": [
          126.9770634,
          37.2946038
        ],
        "_area_m2": 18.9
      },
      "geometry": {
        "type": "Polygon",
        "coordinates": [
          [
            [
              126.97704112055067,
              37.29457791369388
            ],
            [
              126.97705200123728,
              37.294633864971225
            ],
            [
              126.97708578182412,
              37.294629745535815
            ],
            [
              126.9770748900474,
              37.29457373722571
            ],
            [
              126.97704112055067,
              37.29457791369388
            ]
          ]
        ]
      }
    },
    {
      "type": "Feature",
      "properties": {
        "indoor": "room",
        "level": [
          3
        ],
        "ref": "25323B",
        "name": "나노공정실험실",
        "room_type": "lab",
        "_idx": 98,
        "_centroid": [
          126.9771143,
          37.2945976
        ],
        "_area_m2": 38.1
      },
      "geometry": {
        "type": "Polygon",
        "coordinates": [
          [
            [
              126.9770748900474,
              37.29457373722571
            ],
            [
              126.97708578182412,
              37.294629745535815
            ],
            [
              126.97715368404997,
              37.29462146507476
            ],
            [
              126.97714276998036,
              37.294565342123434
            ],
            [
              126.9770748900474,
              37.29457373722571
            ]
          ]
        ]
      }
    },
    {
      "type": "Feature",
      "properties": {
        "indoor": "room",
        "level": [
          3
        ],
        "ref": "",
        "name": "",
        "room_type": "",
        "_idx": 99,
        "_centroid": [
          126.9771988,
          37.2945766
        ],
        "_area_m2": 93.5
      },
      "geometry": {
        "type": "Polygon",
        "coordinates": [
          [
            [
              126.97730193262758,
              37.294523813003224
            ],
            [
              126.97720413525141,
              37.29453717816791
            ],
            [
              126.97721420476272,
              37.294589342331776
            ],
            [
              126.97715582580155,
              37.294596077210514
            ],
            [
              126.97715447052276,
              37.294589251857616
            ],
            [
              126.97714351231785,
              37.29456525031428
            ],
            [
              126.97714276998036,
              37.294565342123434
            ],
            [
              126.97715368404997,
              37.29462146507476
            ],
            [
              126.97731867486685,
              37.29460134496801
            ],
            [
              126.97730193262758,
              37.294523813003224
            ]
          ]
        ]
      }
    },
    {
      "type": "Feature",
      "properties": {
        "indoor": "room",
        "level": [
          3
        ],
        "ref": "",
        "name": "",
        "room_type": "",
        "_idx": 100,
        "_centroid": [
          126.9773479,
          37.2945739
        ],
        "_area_m2": 52.1
      },
      "geometry": {
        "type": "Polygon",
        "coordinates": [
          [
            [
              126.97736100014237,
              37.29459618353492
            ],
            [
              126.97735659746446,
              37.29456973123035
            ],
            [
              126.9773917565475,
              37.29456505007921
            ],
            [
              126.97738067180784,
              37.29451326375912
            ],
            [
              126.97730193262758,
              37.294523813003224
            ],
            [
              126.97731867486685,
              37.29460134496801
            ],
            [
              126.9773298880105,
              37.29459997756071
            ],
            [
              126.97732987127623,
              37.2945998876402
            ],
            [
              126.97736100013996,
              37.29459618353521
            ],
            [
              126.97736100014237,
              37.29459618353492
            ]
          ]
        ]
      }
    }
  ]
}