{
  "type": "FeatureCollection",
  "features": [
    {
      "type": "Feature",
      "properties": {
        "building": "university",
        "name": "23실습동",
        "loc_ref": "LAB23"
      },
      "geometry": {
        "type": "Polygon",
        "coordinates": [
          [
            [
              126.97784251272628,
              37.292898237103174
            ],
            [
              126.97800194081437,
              37.2938108761166
            ],
            [
              126.97817422057285,
              37.29379182916207
            ],
            [
              126.97801479250082,
              37.292879189916604
            ],
            [
              126.97784251272628,
              37.292898237103174
            ]
          ]
        ]
      }
    }
  ]
}