{
  "type": "FeatureCollection",
  "features": [
    {
      "type": "Feature",
      "properties": {
        "indoor": "corridor",
        "level": "1"
      },
      "geometry": {
        "type": "Polygon",
        "coordinates": [
          [
            [
              126.97792474381075,
              37.29336896667872
            ],
            [
              126.97802185198671,
              37.29335689029293
            ],
            [
              126.97801206532431,
              37.293300866017674
            ],
            [
              126.97801048767542,
              37.29330104043809
            ],
            [
              126.9780012175412,
              37.29324797301745
            ],
            [
              126.97799089971457,
              37.29318890797659
            ],
            [
              126.97796526323526,
              37.293191742277685
            ],
            [
              126.97797005197889,
              37.29321915574354
            ],
            [
              126.97797571855654,
              37.29325159441247
            ],
            [
              126.97798485120163,
              37.29330387476658
            ],
            [
              126.97791472744302,
              37.29331162745105
            ],
            [
              126.97792474381075,
              37.29336896667872
            ]
          ]
        ]
      }
    },
    {
      "type": "Feature",
      "properties": {
        "indoor": "corridor",
        "level": "1"
      },
      "geometry": {
        "type": "Polygon",
        "coordinates": [
          [
            [
              126.97777730399271,
              37.293388907851956
            ],
            [
              126.97776709601763,
              37.293330472759166
            ],
            [
              126.97759574074057,
              37.29334941762328
            ],
            [
              126.97760594871438,
              37.2934078527015
            ],
            [
              126.97777730399271,
              37.293388907851956
            ]
          ]
        ]
      }
    }
  ]
}