{
  "type": "FeatureCollection",
  "features": [
    {
      "type": "Feature",
      "properties": {
        "indoor": "room",
        "level": [
          2
        ],
        "ref": "24201",
        "name": "에너지공학연구실",
        "room_type": "lab",
        "_idx": 1,
        "_centroid": [
          126.9777619,
          37.2938006
        ],
        "_area_m2": 123.2
      },
      "geometry": {
        "type": "Polygon",
        "coordinates": [
          [
            [
              126.97766991030102,
              37.29377399804372
            ],
            [
              126.97768252161976,
              37.29384619054724
            ],
            [
              126.97785387686638,
              37.293827245812
            ],
            [
              126.97784126561666,
              37.29375505328207
            ],
            [
              126.97766991030102,
              37.29377399804372
            ]
          ]
        ]
      }
    },
    {
      "type": "Feature",
      "properties": {
        "indoor": "room",
        "level": [
          2
        ],
        "ref": "",
        "name": "",
        "room_type": "",
        "_idx": 2,
        "_centroid": [
          126.9780783,
          37.2937455
        ],
        "_area_m2": 193
      },
      "geometry": {
        "type": "Polygon",
        "coordinates": [
          [
            [
              126.97798235346964,
              37.29369875002018
            ],
            [
              126.97800201072253,
              37.29381127651992
            ],
            [
              126.97817429049708,
              37.29379222956452
            ],
            [
              126.97815463334663,
              37.29367970302407
            ],
            [
              126.97798235346964,
              37.29369875002018
            ]
          ]
        ]
      }
    },
    {
      "type": "Feature",
      "properties": {
        "indoor": "room",
        "level": [
          2
        ],
        "ref": "24202",
        "name": "창의적설계실",
        "room_type": "classroom",
        "_idx": 3,
        "_centroid": [
          126.9777479,
          37.2937204
        ],
        "_area_m2": 150.5
      },
      "geometry": {
        "type": "Polygon",
        "coordinates": [
          [
            [
              126.97766991030102,
              37.29377399804372
            ],
            [
              126.97784126561666,
              37.29375505328207
            ],
            [
              126.97782585582401,
              37.293666840619395
            ],
            [
              126.9776545005154,
              37.293685785401216
            ],
            [
              126.97766991030102,
              37.29377399804372
            ]
          ]
        ]
      }
    },
    {
      "type": "Feature",
      "properties": {
        "indoor": "room",
        "level": [
          2
        ],
        "ref": "24210",
        "name": "내연기관연구실",
        "room_type": "lab",
        "_idx": 4,
        "_centroid": [
          126.9780019,
          37.2936665
        ],
        "_area_m2": 29
      },
      "geometry": {
        "type": "Polygon",
        "coordinates": [
          [
            [
              126.97803181654125,
              37.293693284097195
            ],
            [
              126.97798235346964,
              37.29369875002018
            ],
            [
              126.97797205807493,
              37.29363978629202
            ],
            [
              126.97802152114653,
              37.293634320364745
            ],
            [
              126.97803181654125,
              37.293693284097195
            ]
          ]
        ]
      }
    },
    {
      "type": "Feature",
      "properties": {
        "indoor": "room",
        "level": [
          2
        ],
        "ref": "",
        "name": "",
        "room_type": "",
        "_idx": 5,
        "_centroid": [
          126.9781149,
          37.2936551
        ],
        "_area_m2": 39.4
      },
      "geometry": {
        "type": "Polygon",
        "coordinates": [
          [
            [
              126.97814468802845,
              37.29362277146365
            ],
            [
              126.97807518336393,
              37.293630459170025
            ],
            [
              126.97808513287869,
              37.293687389525665
            ],
            [
              126.97815463334663,
              37.29367970302407
            ],
            [
              126.97814468802845,
              37.29362277146365
            ]
          ]
        ]
      }
    },
    {
      "type": "Feature",
      "properties": {
        "indoor": "room",
        "level": [
          2
        ],
        "ref": "24203",
        "name": "창의적설계실",
        "room_type": "classroom",
        "_idx": 6,
        "_centroid": [
          126.9777331,
          37.293636
        ],
        "_area_m2": 137.4
      },
      "geometry": {
        "type": "Polygon",
        "coordinates": [
          [
            [
              126.9776545005154,
              37.293685785401216
            ],
            [
              126.97782585582401,
              37.293666840619395
            ],
            [
              126.97781178755405,
              37.29358630744285
            ],
            [
              126.97764043225209,
              37.293605252244305
            ],
            [
              126.9776545005154,
              37.293685785401216
            ]
          ]
        ]
      }
    },
    {
      "type": "Feature",
      "properties": {
        "indoor": "room",
        "level": [
          2
        ],
        "ref": "24204",
        "name": "창의적설계실",
        "room_type": "classroom",
        "_idx": 7,
        "_centroid": [
          126.9777194,
          37.2935574
        ],
        "_area_m2": 131.1
      },
      "geometry": {
        "type": "Polygon",
        "coordinates": [
          [
            [
              126.97764043225209,
              37.293605252244305
            ],
            [
              126.97781178755405,
              37.29358630744285
            ],
            [
              126.97779836480045,
              37.293509469495525
            ],
            [
              126.97762700950481,
              37.29352841431573
            ],
            [
              126.97764043225209,
              37.293605252244305
            ]
          ]
        ]
      }
    },
    {
      "type": "Feature",
      "properties": {
        "indoor": "room",
        "level": [
          2
        ],
        "ref": "",
        "name": "",
        "room_type": "",
        "_idx": 8,
        "_centroid": [
          126.9780072,
          37.2935106
        ],
        "_area_m2": 417.1
      },
      "geometry": {
        "type": "Polygon",
        "coordinates": [
          [
            [
              126.97803181654125,
              37.293693284097195
            ],
            [
              126.97808513287869,
              37.293687389525665
            ],
            [
              126.9780751833679,
              37.293630459169584
            ],
            [
              126.97814468802845,
              37.29362277146365
            ],
            [
              126.97809679411895,
              37.293348604770294
            ],
            [
              126.97796908764117,
              37.29336272386299
            ],
            [
              126.97792474381075,
              37.29336896667872
            ],
            [
              126.97792816436635,
              37.29338854749119
            ],
            [
              126.97793393377181,
              37.2934215741745
            ],
            [
              126.97798342528746,
              37.293416102448546
            ],
            [
              126.97800220109531,
              37.29352358356255
            ],
            [
              126.97795270958595,
              37.29352905527992
            ],
            [
              126.97796165846043,
              37.29358028261491
            ],
            [
              126.97801115780244,
              37.29357527640424
            ],
            [
              126.97803181654125,
              37.293693284097195
            ]
          ]
        ]
      }
    },
    {
      "type": "Feature",
      "properties": {
        "indoor": "room",
        "level": [
          2
        ],
        "ref": "24205",
        "name": "로봇및지능시스템연구실",
        "room_type": "lab",
        "_idx": 9,
        "_centroid": [
          126.9777034,
          37.2934656
        ],
        "_area_m2": 181.9
      },
      "geometry": {
        "type": "Polygon",
        "coordinates": [
          [
            [
              126.97762700950481,
              37.29352841431573
            ],
            [
              126.97779836480045,
              37.293509469495525
            ],
            [
              126.97777974229054,
              37.2934028657779
            ],
            [
              126.97760838700371,
              37.2934218106242
            ],
            [
              126.97762700950481,
              37.29352841431573
            ]
          ]
        ]
      }
    },
    {
      "type": "Feature",
      "properties": {
        "indoor": "room",
        "level": [
          2
        ],
        "ref": "",
        "name": "",
        "room_type": "",
        "_idx": 10,
        "_centroid": [
          126.9777484,
          37.2933281
        ],
        "_area_m2": 15.1
      },
      "geometry": {
        "type": "Polygon",
        "coordinates": [
          [
            [
              126.97776266574476,
              37.293305111862175
            ],
            [
              126.97772672683325,
              37.29330908523314
            ],
            [
              126.97773407970374,
              37.293351176431514
            ],
            [
              126.9777700186196,
              37.29334720306237
            ],
            [
              126.97776266574476,
              37.293305111862175
            ]
          ]
        ]
      }
    },
    {
      "type": "Feature",
      "properties": {
        "indoor": "room",
        "level": [
          2
        ],
        "ref": "24211",
        "name": "기계공학부제2행정실",
        "room_type": "office",
        "_idx": 11,
        "_centroid": [
          126.9780549,
          37.2933281
        ],
        "_area_m2": 37
      },
      "geometry": {
        "type": "Polygon",
        "coordinates": [
          [
            [
              126.97808812867112,
              37.293298999774464
            ],
            [
              126.97801280380048,
              37.29330778389448
            ],
            [
              126.97802185214678,
              37.29335689027523
            ],
            [
              126.97809679411895,
              37.293348604770294
            ],
            [
              126.97808812867112,
              37.293298999774464
            ]
          ]
        ]
      }
    },
    {
      "type": "Feature",
      "properties": {
        "indoor": "room",
        "level": [
          2
        ],
        "ref": "24206",
        "name": "학생회및동아리(6)",
        "room_type": "lab",
        "_idx": 12,
        "_centroid": [
          126.9776851,
          37.2933135
        ],
        "_area_m2": 165.8
      },
      "geometry": {
        "type": "Polygon",
        "coordinates": [
          [
            [
              126.97764190128497,
              37.29336136758064
            ],
            [
              126.97773407970374,
              37.293351176431514
            ],
            [
              126.97772672683325,
              37.29330908523314
            ],
            [
              126.97776266574476,
              37.293305111862175
            ],
            [
              126.9777515055969,
              37.293241226099276
            ],
            [
              126.97758015032332,
              37.29326017098459
            ],
            [
              126.97759866333736,
              37.29336614792222
            ],
            [
              126.97764190128497,
              37.29336136758064
            ]
          ]
        ]
      }
    },
    {
      "type": "Feature",
      "properties": {
        "indoor": "room",
        "level": [
          2
        ],
        "ref": "24213",
        "name": "기계역학연구실",
        "room_type": "lab",
        "_idx": 13,
        "_centroid": [
          126.9779461,
          37.2932864
        ],
        "_area_m2": 29.8
      },
      "geometry": {
        "type": "Polygon",
        "coordinates": [
          [
            [
              126.97797739661104,
              37.293261236710826
            ],
            [
              126.9779072800424,
              37.29326899518458
            ],
            [
              126.97791472744302,
              37.29331162745105
            ],
            [
              126.97798485117957,
              37.293303874640266
            ],
            [
              126.97797739661104,
              37.293261236710826
            ]
          ]
        ]
      }
    },
    {
      "type": "Feature",
      "properties": {
        "indoor": "room",
        "level": [
          2
        ],
        "ref": "24212",
        "name": "지속가능설계및생산연구실",
        "room_type": "lab",
        "_idx": 14,
        "_centroid": [
          126.9780459,
          37.2932779
        ],
        "_area_m2": 38.5
      },
      "geometry": {
        "type": "Polygon",
        "coordinates": [
          [
            [
              126.97801280380048,
              37.29330778389448
            ],
            [
              126.97808812867112,
              37.293298999774464
            ],
            [
              126.97807920096778,
              37.29324789350786
            ],
            [
              126.97800339725583,
              37.29325673347459
            ],
            [
              126.97801280380048,
              37.29330778389448
            ]
          ]
        ]
      }
    },
    {
      "type": "Feature",
      "properties": {
        "indoor": "room",
        "level": [
          2
        ],
        "ref": "24207C",
        "name": "신에너지시스템연구실",
        "room_type": "lab",
        "_idx": 15,
        "_centroid": [
          126.9776218,
          37.2932413
        ],
        "_area_m2": 24.6
      },
      "geometry": {
        "type": "Polygon",
        "coordinates": [
          [
            [
              126.97766830412637,
              37.29325042477981
            ],
            [
              126.97766340450792,
              37.293222377079864
            ],
            [
              126.97757525069723,
              37.293232123289705
            ],
            [
              126.97758015032332,
              37.29326017098459
            ],
            [
              126.97766830412637,
              37.29325042477981
            ]
          ]
        ]
      }
    },
    {
      "type": "Feature",
      "properties": {
        "indoor": "room",
        "level": [
          2
        ],
        "ref": "24215",
        "name": "휴고로드리그연구실",
        "room_type": "lab",
        "_idx": 16,
        "_centroid": [
          126.9779376,
          37.2932381
        ],
        "_area_m2": 37.7
      },
      "geometry": {
        "type": "Polygon",
        "coordinates": [
          [
            [
              126.97796794532934,
              37.29320717817209
            ],
            [
              126.97789783644672,
              37.293214935800904
            ],
            [
              126.9779072800424,
              37.29326899518458
            ],
            [
              126.97797739661104,
              37.293261236710826
            ],
            [
              126.97796794532934,
              37.29320717817209
            ]
          ]
        ]
      }
    },
    {
      "type": "Feature",
      "properties": {
        "indoor": "room",
        "level": [
          2
        ],
        "ref": "",
        "name": "",
        "room_type": "",
        "_idx": 17,
        "_centroid": [
          126.9777075,
          37.2932318
        ],
        "_area_m2": 23.2
      },
      "geometry": {
        "type": "Polygon",
        "coordinates": [
          [
            [
              126.97766340450792,
              37.293222377079864
            ],
            [
              126.97766830412637,
              37.29325042477981
            ],
            [
              126.9777515055969,
              37.293241226099276
            ],
            [
              126.9777466059685,
              37.293213178397615
            ],
            [
              126.97766340450792,
              37.293222377079864
            ]
          ]
        ]
      }
    },
    {
      "type": "Feature",
      "properties": {
        "indoor": "room",
        "level": [
          2
        ],
        "ref": "24214",
        "name": "자작자동차동아리",
        "room_type": "club",
        "_idx": 18,
        "_centroid": [
          126.9780367,
          37.2932264
        ],
        "_area_m2": 39.3
      },
      "geometry": {
        "type": "Polygon",
        "coordinates": [
          [
            [
              126.97800339725583,
              37.29325673347459
            ],
            [
              126.97807920096778,
              37.29324789350786
            ],
            [
              126.97807014958266,
              37.29319607923008
            ],
            [
              126.97799386039571,
              37.29320497581741
            ],
            [
              126.97800339725583,
              37.29325673347459
            ]
          ]
        ]
      }
    },
    {
      "type": "Feature",
      "properties": {
        "indoor": "room",
        "level": [
          2
        ],
        "ref": "24217",
        "name": "코업 URP용 종합설계실험실습실",
        "room_type": "classroom",
        "_idx": 19,
        "_centroid": [
          126.9779508,
          37.2931916
        ],
        "_area_m2": 12.3
      },
      "geometry": {
        "type": "Polygon",
        "coordinates": [
          [
            [
              126.97792653549705,
              37.29317594480364
            ],
            [
              126.97793267841357,
              37.29321108049704
            ],
            [
              126.97796794532934,
              37.29320717817209
            ],
            [
              126.97796524692427,
              37.293191744080985
            ],
            [
              126.97796180241328,
              37.293172042476655
            ],
            [
              126.97792653549705,
              37.29317594480364
            ]
          ]
        ]
      }
    },
    {
      "type": "Feature",
      "properties": {
        "indoor": "room",
        "level": [
          2
        ],
        "ref": "24219",
        "name": "나노소재및나노공정연구실",
        "room_type": "lab",
        "_idx": 20,
        "_centroid": [
          126.9779112,
          37.2931898
        ],
        "_area_m2": 18
      },
      "geometry": {
        "type": "Polygon",
        "coordinates": [
          [
            [
              126.97793267841357,
              37.29321108049704
            ],
            [
              126.97792653549705,
              37.29317594480364
            ],
            [
              126.9779235949773,
              37.29315912587937
            ],
            [
              126.9778887597523,
              37.293162977290905
            ],
            [
              126.97789781878339,
              37.293214834688065
            ],
            [
              126.97789783644672,
              37.293214935800904
            ],
            [
              126.97793267841357,
              37.29321108049704
            ]
          ]
        ]
      }
    },
    {
      "type": "Feature",
      "properties": {
        "indoor": "room",
        "level": [
          2
        ],
        "ref": "24216",
        "name": "에너지변환연구실",
        "room_type": "lab",
        "_idx": 21,
        "_centroid": [
          126.9780219,
          37.2931878
        ],
        "_area_m2": 19.9
      },
      "geometry": {
        "type": "Polygon",
        "coordinates": [
          [
            [
              126.97806563250266,
              37.29317022139344
            ],
            [
              126.97798911298004,
              37.29317868837111
            ],
            [
              126.97799089930201,
              37.29318890561495
            ],
            [
              126.97799386039571,
              37.29320497581741
            ],
            [
              126.97807014958266,
              37.29319607923008
            ],
            [
              126.97806563250266,
              37.29317022139344
            ]
          ]
        ]
      }
    },
    {
      "type": "Feature",
      "properties": {
        "indoor": "room",
        "level": [
          2
        ],
        "ref": "24207A",
        "name": "전력전자및서보기기연구실",
        "room_type": "lab",
        "_idx": 22,
        "_centroid": [
          126.9776415,
          37.293172
        ],
        "_area_m2": 123.9
      },
      "geometry": {
        "type": "Polygon",
        "coordinates": [
          [
            [
              126.97770425920018,
              37.29312984621924
            ],
            [
              126.97764868731642,
              37.293135990206466
            ],
            [
              126.97756016693516,
              37.29314577695468
            ],
            [
              126.97757525069723,
              37.293232123289705
            ],
            [
              126.97771931722887,
              37.29321619566188
            ],
            [
              126.97770425920018,
              37.29312984621924
            ]
          ]
        ]
      }
    },
    {
      "type": "Feature",
      "properties": {
        "indoor": "room",
        "level": [
          2
        ],
        "ref": "24207B",
        "name": "전동기제어실험준비실",
        "room_type": "lab",
        "_idx": 23,
        "_centroid": [
          126.9777254,
          37.2931715
        ],
        "_area_m2": 23.4
      },
      "geometry": {
        "type": "Polygon",
        "coordinates": [
          [
            [
              126.97770425920018,
              37.29312984621924
            ],
            [
              126.97771931722887,
              37.29321619566188
            ],
            [
              126.9777466059685,
              37.293213178397615
            ],
            [
              126.97773152219932,
              37.29312683204162
            ],
            [
              126.97770425920018,
              37.29312984621924
            ]
          ]
        ]
      }
    },
    {
      "type": "Feature",
      "properties": {
        "indoor": "room",
        "level": [
          2
        ],
        "ref": "24218",
        "name": "코업 URP용 종합설계실험실습실",
        "room_type": "classroom",
        "_idx": 24,
        "_centroid": [
          126.9780251,
          37.2931613
        ],
        "_area_m2": 20
      },
      "geometry": {
        "type": "Polygon",
        "coordinates": [
          [
            [
              126.97798911298004,
              37.29317868837111
            ],
            [
              126.97806563250266,
              37.29317022139344
            ],
            [
              126.97806103966413,
              37.29314392988014
            ],
            [
              126.97798451521598,
              37.293152390486966
            ],
            [
              126.97798911298004,
              37.29317868837111
            ]
          ]
        ]
      }
    },
    {
      "type": "Feature",
      "properties": {
        "indoor": "room",
        "level": [
          2
        ],
        "ref": "",
        "name": "",
        "room_type": "",
        "_idx": 25,
        "_centroid": [
          126.97797,
          37.2931257
        ],
        "_area_m2": 95.3
      },
      "geometry": {
        "type": "Polygon",
        "coordinates": [
          [
            [
              126.9778887597523,
              37.293162977290905
            ],
            [
              126.97806103966413,
              37.29314392988014
            ],
            [
              126.97805133284358,
              37.29308836358954
            ],
            [
              126.97787905297045,
              37.29310741100973
            ],
            [
              126.9778887597523,
              37.293162977290905
            ]
          ]
        ]
      }
    },
    {
      "type": "Feature",
      "properties": {
        "indoor": "room",
        "level": [
          2
        ],
        "ref": "24207E",
        "name": "전동기제어실험실Ⅱ",
        "room_type": "lab",
        "_idx": 26,
        "_centroid": [
          126.9776001,
          37.2931159
        ],
        "_area_m2": 44
      },
      "geometry": {
        "type": "Polygon",
        "coordinates": [
          [
            [
              126.97756016693516,
              37.29314577695468
            ],
            [
              126.97764868731642,
              37.293135990206466
            ],
            [
              126.9776399564193,
              37.293086010400465
            ],
            [
              126.97755143601046,
              37.29309579715879
            ],
            [
              126.97756016693516,
              37.29314577695468
            ]
          ]
        ]
      }
    },
    {
      "type": "Feature",
      "properties": {
        "indoor": "room",
        "level": [
          2
        ],
        "ref": "24207D",
        "name": "전동기제어실험실Ⅰ",
        "room_type": "lab",
        "_idx": 27,
        "_centroid": [
          126.9776857,
          37.2931064
        ],
        "_area_m2": 41.2
      },
      "geometry": {
        "type": "Polygon",
        "coordinates": [
          [
            [
              126.9776399564193,
              37.293086010400465
            ],
            [
              126.97764868731642,
              37.293135990206466
            ],
            [
              126.97773152219932,
              37.29312683204162
            ],
            [
              126.97772279127052,
              37.29307685223365
            ],
            [
              126.9776399564193,
              37.293086010400465
            ]
          ]
        ]
      }
    },
    {
      "type": "Feature",
      "properties": {
        "indoor": "room",
        "level": [
          2
        ],
        "ref": "24221",
        "name": "석창성 연구실",
        "room_type": "lab",
        "_idx": 28,
        "_centroid": [
          126.9779066,
          37.2930839
        ],
        "_area_m2": 31.2
      },
      "geometry": {
        "type": "Polygon",
        "coordinates": [
          [
            [
              126.97790909349898,
              37.2931040897018
            ],
            [
              126.97794155032538,
              37.29310050124561
            ],
            [
              126.97793279936083,
              37.2930504072613
            ],
            [
              126.97787030213354,
              37.293057317016554
            ],
            [
              126.97787905297045,
              37.29310741100973
            ],
            [
              126.97790909349898,
              37.2931040897018
            ]
          ]
        ]
      }
    },
    {
      "type": "Feature",
      "properties": {
        "indoor": "room",
        "level": [
          2
        ],
        "ref": "",
        "name": "",
        "room_type": "",
        "_idx": 29,
        "_centroid": [
          126.9779563,
          37.2930733
        ],
        "_area_m2": 19
      },
      "geometry": {
        "type": "Polygon",
        "coordinates": [
          [
            [
              126.97797970996004,
              37.29309628228157
            ],
            [
              126.97797095899627,
              37.29304618829427
            ],
            [
              126.97793279936083,
              37.2930504072613
            ],
            [
              126.97794155032538,
              37.29310050124561
            ],
            [
              126.97797970996004,
              37.29309628228157
            ]
          ]
        ]
      }
    },
    {
      "type": "Feature",
      "properties": {
        "indoor": "room",
        "level": [
          2
        ],
        "ref": "24220",
        "name": "휴고로드리그연구실",
        "room_type": "lab",
        "_idx": 30,
        "_centroid": [
          126.9780111,
          37.2930673
        ],
        "_area_m2": 35.7
      },
      "geometry": {
        "type": "Polygon",
        "coordinates": [
          [
            [
              126.97797095899627,
              37.29304618829427
            ],
            [
              126.97797970996004,
              37.29309628228157
            ],
            [
              126.97805133284358,
              37.29308836358954
            ],
            [
              126.97804258197169,
              37.29303826958728
            ],
            [
              126.97797095899627,
              37.29304618829427
            ]
          ]
        ]
      }
    },
    {
      "type": "Feature",
      "properties": {
        "indoor": "room",
        "level": [
          2
        ],
        "ref": "24208",
        "name": "화학공학부화학공학실험실",
        "room_type": "lab",
        "_idx": 31,
        "_centroid": [
          126.9776294,
          37.2930422
        ],
        "_area_m2": 150.4
      },
      "geometry": {
        "type": "Polygon",
        "coordinates": [
          [
            [
              126.97755143601046,
              37.29309579715879
            ],
            [
              126.97772279127052,
              37.29307685223365
            ],
            [
              126.97770739235543,
              37.292988701839086
            ],
            [
              126.9775360371026,
              37.29300764678548
            ],
            [
              126.97755143601046,
              37.29309579715879
            ]
          ]
        ]
      }
    },
    {
      "type": "Feature",
      "properties": {
        "indoor": "room",
        "level": [
          2
        ],
        "ref": "",
        "name": "",
        "room_type": "",
        "_idx": 32,
        "_centroid": [
          126.9779425,
          37.2929683
        ],
        "_area_m2": 272.9
      },
      "geometry": {
        "type": "Polygon",
        "coordinates": [
          [
            [
              126.97787030213354,
              37.293057317016554
            ],
            [
              126.97804258197169,
              37.29303826958728
            ],
            [
              126.97801479250082,
              37.2928791899166
            ],
            [
              126.97784251272628,
              37.29289823710317
            ],
            [
              126.97787030213354,
              37.293057317016554
            ]
          ]
        ]
      }
    },
    {
      "type": "Feature",
      "properties": {
        "indoor": "room",
        "level": [
          2
        ],
        "ref": "24209",
        "name": "화학공학부화공기초실험실",
        "room_type": "lab",
        "_idx": 33,
        "_centroid": [
          126.9776152,
          37.2929611
        ],
        "_area_m2": 126.4
      },
      "geometry": {
        "type": "Polygon",
        "coordinates": [
          [
            [
              126.9775360371026,
              37.29300764678548
            ],
            [
              126.97770739235543,
              37.292988701839086
            ],
            [
              126.97769444840488,
              37.292914604778225
            ],
            [
              126.97752309315825,
              37.2929335497433
            ],
            [
              126.9775360371026,
              37.29300764678548
            ]
          ]
        ]
      }
    }
  ]
}