{
  "type": "FeatureCollection",
  "features": [
    {
      "type": "Feature",
      "properties": {
        "indoor": "corridor",
        "level": "2"
      },
      "geometry": {
        "type": "Polygon",
        "coordinates": [
          [
            [
              126.97792474381075,
              37.29336896667872
            ],
            [
              126.97791472744302,
              37.29331162745105
            ],
            [
              126.97798485117957,
              37.293303874640266
            ],
            [
              126.97797739661105,
              37.29326123671082
            ],
            [
              126.97796794532934,
              37.29320717817208
            ],
            [
              126.97796180241328,
              37.293172042476655
            ],
            [
              126.97792653549705,
              37.29317594480364
            ],
            [
              126.9779235949773,
              37.29315912587936
            ],
            [
              126.97798451521595,
              37.29315239048696
            ],
            [
              126.97798911298004,
              37.29317868837111
            ],
            [
              126.9779938603957,
              37.29320497581741
            ],
            [
              126.97800339725582,
              37.293256733474585
            ],
            [
              126.97801280380048,
              37.29330778389448
            ],
            [
              126.97802185214678,
              37.29335689027522
            ],
            [
              126.97792474381075,
              37.29336896667872
            ]
          ]
        ]
      }
    },
    {
      "type": "Feature",
      "properties": {
        "indoor": "corridor",
        "level": "2"
      },
      "geometry": {
        "type": "Polygon",
        "coordinates": [
          [
            [
              126.97760838700368,
              37.293421810624196
            ],
            [
              126.97759866333733,
              37.29336614792222
            ],
            [
              126.97777001861961,
              37.29334720306236
            ],
            [
              126.97777974229051,
              37.2934028657779
            ],
            [
              126.97760838700368,
              37.293421810624196
            ]
          ]
        ]
      }
    },
    {
      "type": "Feature",
      "properties": {
        "indoor": "corridor",
        "level": "2"
      },
      "geometry": {
        "type": "Polygon",
        "coordinates": [
          [
            [
              126.97769444840488,
              37.292914604778225
            ],
            [
              126.97785387686638,
              37.293827245812
            ],
            [
              126.97787944184971,
              37.29382441939191
            ],
            [
              126.97772001338821,
              37.292911778323855
            ],
            [
              126.97769444840488,
              37.292914604778225
            ]
          ]
        ]
      }
    }
  ]
}