{
  "type": "FeatureCollection",
  "features": [
    {
      "type": "Feature",
      "properties": {
        "indoor": "room",
        "level": "1",
        "ref": "",
        "name": "",
        "room_type": "",
        "_idx": 1,
        "_centroid": [
          126.9777631,
          37.2938073
        ],
        "_area_m2": 100.3
      },
      "geometry": {
        "type": "Polygon",
        "coordinates": [
          [
            [
              126.9776722521523,
              37.29378740379283
            ],
            [
              126.97768252161976,
              37.29384619054724
            ],
            [
              126.97785387686638,
              37.293827245812
            ],
            [
              126.97784360745605,
              37.293768459035995
            ],
            [
              126.9776722521523,
              37.29378740379283
            ]
          ]
        ]
      }
    },
    {
      "type": "Feature",
      "properties": {
        "indoor": "room",
        "level": "1",
        "ref": "",
        "name": "",
        "room_type": "",
        "_idx": 2,
        "_centroid": [
          126.9780783,
          37.2937455
        ],
        "_area_m2": 193.0
      },
      "geometry": {
        "type": "Polygon",
        "coordinates": [
          [
            [
              126.97798235346964,
              37.29369875002018
            ],
            [
              126.97800201072253,
              37.29381127651992
            ],
            [
              126.97817429049708,
              37.29379222956452
            ],
            [
              126.97815463334663,
              37.29367970302407
            ],
            [
              126.97798235346964,
              37.29369875002018
            ]
          ]
        ]
      }
    },
    {
      "type": "Feature",
      "properties": {
        "indoor": "room",
        "level": "1",
        "ref": "",
        "name": "",
        "room_type": "",
        "_idx": 3,
        "_centroid": [
          126.9777477,
          37.2937196
        ],
        "_area_m2": 198.9
      },
      "geometry": {
        "type": "Polygon",
        "coordinates": [
          [
            [
              126.9776722521523,
              37.29378740379283
            ],
            [
              126.97784360745605,
              37.293768459035995
            ],
            [
              126.97782324253791,
              37.293651880980995
            ],
            [
              126.97765188724183,
              37.29367082576559
            ],
            [
              126.9776722521523,
              37.29378740379283
            ]
          ]
        ]
      }
    },
    {
      "type": "Feature",
      "properties": {
        "indoor": "room",
        "level": "1",
        "ref": "",
        "name": "",
        "room_type": "",
        "_idx": 4,
        "_centroid": [
          126.9781149,
          37.2936551
        ],
        "_area_m2": 39.4
      },
      "geometry": {
        "type": "Polygon",
        "coordinates": [
          [
            [
              126.97814468802845,
              37.29362277146365
            ],
            [
              126.97807518336393,
              37.293630459170025
            ],
            [
              126.97808513287869,
              37.293687389525665
            ],
            [
              126.97815463334663,
              37.29367970302407
            ],
            [
              126.97814468802845,
              37.29362277146365
            ]
          ]
        ]
      }
    },
    {
      "type": "Feature",
      "properties": {
        "indoor": "room",
        "level": "1",
        "ref": "",
        "name": "",
        "room_type": "",
        "_idx": 5,
        "_centroid": [
          126.9780482,
          37.2936313
        ],
        "_area_m2": 62.7
      },
      "geometry": {
        "type": "Polygon",
        "coordinates": [
          [
            [
              126.97806450844006,
              37.29356937803141
            ],
            [
              126.97801115780244,
              37.29357527640424
            ],
            [
              126.97803181654125,
              37.293693284097195
            ],
            [
              126.97808513287869,
              37.293687389525665
            ],
            [
              126.97806450844006,
              37.29356937803141
            ]
          ]
        ]
      }
    },
    {
      "type": "Feature",
      "properties": {
        "indoor": "room",
        "level": "1",
        "ref": "",
        "name": "",
        "room_type": "",
        "_idx": 6,
        "_centroid": [
          126.9777283,
          37.2936085
        ],
        "_area_m2": 180.3
      },
      "geometry": {
        "type": "Polygon",
        "coordinates": [
          [
            [
              126.97765188724183,
              37.29367082576559
            ],
            [
              126.97782324253791,
              37.293651880980995
            ],
            [
              126.97780478098635,
              37.293546198662135
            ],
            [
              126.97763342569739,
              37.29356514347278
            ],
            [
              126.97765188724183,
              37.29367082576559
            ]
          ]
        ]
      }
    },
    {
      "type": "Feature",
      "properties": {
        "indoor": "room",
        "level": "1",
        "ref": "",
        "name": "",
        "room_type": "",
        "_idx": 7,
        "_centroid": [
          126.977714,
          37.2935266
        ],
        "_area_m2": 99.1
      },
      "geometry": {
        "type": "Polygon",
        "coordinates": [
          [
            [
              126.97763342569739,
              37.29356514347278
            ],
            [
              126.97780478098635,
              37.293546198662135
            ],
            [
              126.97779463483194,
              37.29348811745907
            ],
            [
              126.97762327954692,
              37.29350706228416
            ],
            [
              126.97763342569739,
              37.29356514347278
            ]
          ]
        ]
      }
    },
    {
      "type": "Feature",
      "properties": {
        "indoor": "room",
        "level": "1",
        "ref": "",
        "name": "",
        "room_type": "",
        "_idx": 8,
        "_centroid": [
          126.9780037,
          37.2934875
        ],
        "_area_m2": 354.4
      },
      "geometry": {
        "type": "Polygon",
        "coordinates": [
          [
            [
              126.97792816436635,
              37.29338854749119
            ],
            [
              126.97793393377181,
              37.2934215741745
            ],
            [
              126.97798342528746,
              37.293416102448546
            ],
            [
              126.97800220109531,
              37.29352358356255
            ],
            [
              126.97795270958595,
              37.29352905527992
            ],
            [
              126.97796165846043,
              37.29358028261491
            ],
            [
              126.97801115780244,
              37.29357527640424
            ],
            [
              126.97806450844006,
              37.29356937803141
            ],
            [
              126.97807518336393,
              37.293630459170025
            ],
            [
              126.97814468802845,
              37.29362277146365
            ],
            [
              126.97809679411895,
              37.293348604770294
            ],
            [
              126.97796908764117,
              37.29336272386299
            ],
            [
              126.97792474381075,
              37.29336896667872
            ],
            [
              126.97792816436635,
              37.29338854749119
            ]
          ]
        ]
      }
    },
    {
      "type": "Feature",
      "properties": {
        "indoor": "room",
        "level": "1",
        "ref": "",
        "name": "",
        "room_type": "",
        "_idx": 9,
        "_centroid": [
          126.9777003,
          37.293448
        ],
        "_area_m2": 169.3
      },
      "geometry": {
        "type": "Polygon",
        "coordinates": [
          [
            [
              126.97762327954692,
              37.29350706228416
            ],
            [
              126.97779463483194,
              37.29348811745907
            ],
            [
              126.97777730399271,
              37.29338890785197
            ],
            [
              126.97760594871437,
              37.293407852701506
            ],
            [
              126.97762327954692,
              37.29350706228416
            ]
          ]
        ]
      }
    },
    {
      "type": "Feature",
      "properties": {
        "indoor": "room",
        "level": "1",
        "ref": "",
        "name": "",
        "room_type": "",
        "_idx": 10,
        "_centroid": [
          126.9780568,
          37.2933381
        ],
        "_area_m2": 21.8
      },
      "geometry": {
        "type": "Polygon",
        "coordinates": [
          [
            [
              126.97809168271525,
              37.29331934475216
            ],
            [
              126.97801674192525,
              37.29332763702495
            ],
            [
              126.97802185214677,
              37.293356890275234
            ],
            [
              126.97809679411898,
              37.2933486047703
            ],
            [
              126.97809168271525,
              37.29331934475216
            ]
          ]
        ]
      }
    },
    {
      "type": "Feature",
      "properties": {
        "indoor": "room",
        "level": "1",
        "ref": "",
        "name": "",
        "room_type": "",
        "_idx": 11,
        "_centroid": [
          126.9776319,
          37.293329
        ],
        "_area_m2": 25.1
      },
      "geometry": {
        "type": "Polygon",
        "coordinates": [
          [
            [
              126.97767378465356,
              37.29334078916826
            ],
            [
              126.97766814129497,
              37.29330848400081
            ],
            [
              126.9775900973832,
              37.293317112458844
            ],
            [
              126.9775957407432,
              37.29334941762301
            ],
            [
              126.97767378465356,
              37.29334078916826
            ]
          ]
        ]
      }
    },
    {
      "type": "Feature",
      "properties": {
        "indoor": "room",
        "level": "1",
        "ref": "",
        "name": "",
        "room_type": "",
        "_idx": 12,
        "_centroid": [
          126.9777176,
          37.2933195
        ],
        "_area_m2": 30.0
      },
      "geometry": {
        "type": "Polygon",
        "coordinates": [
          [
            [
              126.97766814129497,
              37.29330848400081
            ],
            [
              126.97767378465356,
              37.29334078916826
            ],
            [
              126.97776709601767,
              37.293330472759465
            ],
            [
              126.9777614526555,
              37.29329816758739
            ],
            [
              126.97766814129497,
              37.29330848400081
            ]
          ]
        ]
      }
    },
    {
      "type": "Feature",
      "properties": {
        "indoor": "room",
        "level": "1",
        "ref": "",
        "name": "",
        "room_type": "",
        "_idx": 13,
        "_centroid": [
          126.978035,
          37.2932894
        ],
        "_area_m2": 60.4
      },
      "geometry": {
        "type": "Polygon",
        "coordinates": [
          [
            [
              126.97807773579525,
              37.29323950618846
            ],
            [
              126.97800122613326,
              37.29324797206753
            ],
            [
              126.97801050398681,
              37.293301038634745
            ],
            [
              126.9780120652992,
              37.293300865873945
            ],
            [
              126.97801674192525,
              37.29332763702495
            ],
            [
              126.97809168271525,
              37.29331934475216
            ],
            [
              126.97807773579525,
              37.29323950618846
            ]
          ]
        ]
      }
    },
    {
      "type": "Feature",
      "properties": {
        "indoor": "room",
        "level": "1",
        "ref": "",
        "name": "",
        "room_type": "",
        "_idx": 14,
        "_centroid": [
          126.9779451,
          37.293287
        ],
        "_area_m2": 36.5
      },
      "geometry": {
        "type": "Polygon",
        "coordinates": [
          [
            [
              126.97798485117957,
              37.293303874640266
            ],
            [
              126.97797571095175,
              37.29325159525324
            ],
            [
              126.97790559577544,
              37.293259353573774
            ],
            [
              126.97791472744302,
              37.29331162745105
            ],
            [
              126.97794449009979,
              37.293308336921335
            ],
            [
              126.97798485117957,
              37.293303874640266
            ]
          ]
        ]
      }
    },
    {
      "type": "Feature",
      "properties": {
        "indoor": "room",
        "level": "1",
        "ref": "",
        "name": "",
        "room_type": "",
        "_idx": 15,
        "_centroid": [
          126.9776653,
          37.2932563
        ],
        "_area_m2": 219.7
      },
      "geometry": {
        "type": "Polygon",
        "coordinates": [
          [
            [
              126.9775900973832,
              37.29331711245884
            ],
            [
              126.97766814129497,
              37.29330848400081
            ],
            [
              126.9777614526555,
              37.29329816758739
            ],
            [
              126.97773896056349,
              37.293169412621545
            ],
            [
              126.97756760529977,
              37.29318835752425
            ],
            [
              126.9775900973832,
              37.29331711245884
            ]
          ]
        ]
      }
    },
    {
      "type": "Feature",
      "properties": {
        "indoor": "room",
        "level": "1",
        "ref": "",
        "name": "",
        "room_type": "",
        "_idx": 16,
        "_centroid": [
          126.9779378,
          37.2932393
        ],
        "_area_m2": 22.6
      },
      "geometry": {
        "type": "Polygon",
        "coordinates": [
          [
            [
              126.97790559577544,
              37.293259353573774
            ],
            [
              126.97797571095175,
              37.29325159525324
            ],
            [
              126.97797003965657,
              37.29321915710589
            ],
            [
              126.97789992910151,
              37.293226914918485
            ],
            [
              126.97790559577544,
              37.293259353573774
            ]
          ]
        ]
      }
    },
    {
      "type": "Feature",
      "properties": {
        "indoor": "room",
        "level": "1",
        "ref": "",
        "name": "",
        "room_type": "",
        "_idx": 17,
        "_centroid": [
          126.9780343,
          37.2932142
        ],
        "_area_m2": 45.0
      },
      "geometry": {
        "type": "Polygon",
        "coordinates": [
          [
            [
              126.97799089930201,
              37.29318890561495
            ],
            [
              126.97800122613326,
              37.29324797206753
            ],
            [
              126.97807773579525,
              37.29323950618846
            ],
            [
              126.97806741871315,
              37.29318044648096
            ],
            [
              126.97799089930201,
              37.29318890561495
            ]
          ]
        ]
      }
    },
    {
      "type": "Feature",
      "properties": {
        "indoor": "room",
        "level": "1",
        "ref": "",
        "name": "",
        "room_type": "",
        "_idx": 18,
        "_centroid": [
          126.9779326,
          37.2932093
        ],
        "_area_m2": 19.1
      },
      "geometry": {
        "type": "Polygon",
        "coordinates": [
          [
            [
              126.97789992910151,
              37.293226914918485
            ],
            [
              126.97797003965657,
              37.29321915710589
            ],
            [
              126.97796524692427,
              37.293191744080985
            ],
            [
              126.97789513890007,
              37.29319949359588
            ],
            [
              126.97789992910151,
              37.293226914918485
            ]
          ]
        ]
      }
    },
    {
      "type": "Feature",
      "properties": {
        "indoor": "room",
        "level": "1",
        "ref": "",
        "name": "",
        "room_type": "",
        "_idx": 19,
        "_centroid": [
          126.9779728,
          37.2931415
        ],
        "_area_m2": 166.2
      },
      "geometry": {
        "type": "Polygon",
        "coordinates": [
          [
            [
              126.97789513890007,
              37.29319949359588
            ],
            [
              126.97806741871315,
              37.29318044648096
            ],
            [
              126.97805049502242,
              37.293083567517
            ],
            [
              126.97787821522178,
              37.293102614655254
            ],
            [
              126.97789513890007,
              37.29319949359588
            ]
          ]
        ]
      }
    },
    {
      "type": "Feature",
      "properties": {
        "indoor": "room",
        "level": "1",
        "ref": "",
        "name": "",
        "room_type": "",
        "_idx": 20,
        "_centroid": [
          126.9779356,
          37.2930576
        ],
        "_area_m2": 79.0
      },
      "geometry": {
        "type": "Polygon",
        "coordinates": [
          [
            [
              126.97799251765564,
              37.29302545969548
            ],
            [
              126.9779363381762,
              37.29303167086613
            ],
            [
              126.97786715823443,
              37.29303931935963
            ],
            [
              126.97787821522178,
              37.293102614655254
            ],
            [
              126.97800357461088,
              37.29308875500597
            ],
            [
              126.97799251765564,
              37.29302545969548
            ]
          ]
        ]
      }
    },
    {
      "type": "Feature",
      "properties": {
        "indoor": "room",
        "level": "1",
        "ref": "",
        "name": "",
        "room_type": "",
        "_idx": 21,
        "_centroid": [
          126.9780215,
          37.2930545
        ],
        "_area_m2": 29.6
      },
      "geometry": {
        "type": "Polygon",
        "coordinates": [
          [
            [
              126.97799251765564,
              37.29302545969548
            ],
            [
              126.97800357461088,
              37.29308875500597
            ],
            [
              126.97805049502242,
              37.293083567517
            ],
            [
              126.97803943802693,
              37.29302027220608
            ],
            [
              126.97799251765564,
              37.29302545969548
            ]
          ]
        ]
      }
    },
    {
      "type": "Feature",
      "properties": {
        "indoor": "room",
        "level": "1",
        "ref": "",
        "name": "",
        "room_type": "",
        "_idx": 22,
        "_centroid": [
          126.977631,
          37.2930515
        ],
        "_area_m2": 434.7
      },
      "geometry": {
        "type": "Polygon",
        "coordinates": [
          [
            [
              126.97756760529977,
              37.29318835752425
            ],
            [
              126.97773896056349,
              37.293169412621545
            ],
            [
              126.9776944487917,
              37.292914606992504
            ],
            [
              126.97752309354506,
              37.292933551957574
            ],
            [
              126.97756760529977,
              37.29318835752425
            ]
          ]
        ]
      }
    },
    {
      "type": "Feature",
      "properties": {
        "indoor": "room",
        "level": "1",
        "ref": "",
        "name": "",
        "room_type": "",
        "_idx": 23,
        "_centroid": [
          126.9779492,
          37.2930066
        ],
        "_area_m2": 79.7
      },
      "geometry": {
        "type": "Polygon",
        "coordinates": [
          [
            [
              126.97786715823443,
              37.29303931935963
            ],
            [
              126.97803943802693,
              37.29302027220608
            ],
            [
              126.97803131897354,
              37.292973795022576
            ],
            [
              126.97785903918708,
              37.29299284218762
            ],
            [
              126.97786715823443,
              37.29303931935963
            ]
          ]
        ]
      }
    },
    {
      "type": "Feature",
      "properties": {
        "indoor": "room",
        "level": "1",
        "ref": "",
        "name": "",
        "room_type": "",
        "_idx": 24,
        "_centroid": [
          126.9779147,
          37.2929637
        ],
        "_area_m2": 70.4
      },
      "geometry": {
        "type": "Polygon",
        "coordinates": [
          [
            [
              126.97790603971617,
              37.29298764583364
            ],
            [
              126.97798453512591,
              37.292978967421305
            ],
            [
              126.9779747171395,
              37.292922629673775
            ],
            [
              126.9778491976866,
              37.29293650489945
            ],
            [
              126.97785903918708,
              37.29299284218762
            ],
            [
              126.97790603971617,
              37.29298764583364
            ]
          ]
        ]
      }
    },
    {
      "type": "Feature",
      "properties": {
        "indoor": "room",
        "level": "1",
        "ref": "",
        "name": "",
        "room_type": "",
        "_idx": 25,
        "_centroid": [
          126.978003,
          37.2929482
        ],
        "_area_m2": 26.2
      },
      "geometry": {
        "type": "Polygon",
        "coordinates": [
          [
            [
              126.9779747171395,
              37.292922629673775
            ],
            [
              126.97798453512591,
              37.292978967421305
            ],
            [
              126.97803131897354,
              37.292973795022576
            ],
            [
              126.97802147746584,
              37.29291745772094
            ],
            [
              126.9779747171395,
              37.292922629673775
            ]
          ]
        ]
      }
    },
    {
      "type": "Feature",
      "properties": {
        "indoor": "room",
        "level": "1",
        "ref": "",
        "name": "",
        "room_type": "",
        "_idx": 26,
        "_centroid": [
          126.977932,
          37.2929078
        ],
        "_area_m2": 65.6
      },
      "geometry": {
        "type": "Polygon",
        "coordinates": [
          [
            [
              126.9778491976866,
              37.29293650489945
            ],
            [
              126.97802147746584,
              37.29291745772094
            ],
            [
              126.97801479250082,
              37.2928791899166
            ],
            [
              126.97784251272628,
              37.29289823710317
            ],
            [
              126.9778491976866,
              37.29293650489945
            ]
          ]
        ]
      }
    }
  ]
}