{
  "type": "FeatureCollection",
  "features": [
    {
      "type": "Feature",
      "properties": {
        "indoor": "room",
        "level": "1",
        "ref": "",
        "name": "",
        "room_type": "",
        "_idx": 1,
        "_centroid": [
          126.9754535,
          37.2922098
        ],
        "_area_m2": 60.5
      },
      "geometry": {
        "type": "Polygon",
        "coordinates": [
          [
            [
              126.97541907965332,
              37.29224359284959
            ],
            [
              126.97545124564554,
              37.292239229992795
            ],
            [
              126.97550414005227,
              37.292232055622506
            ],
            [
              126.97548898062591,
              37.2921613180713
            ],
            [
              126.9754039202274,
              37.292172855309026
            ],
            [
              126.97541907965332,
              37.29224359284959
            ]
          ]
        ]
      }
    },
    {
      "type": "Feature",
      "properties": {
        "indoor": "room",
        "level": "1",
        "ref": "",
        "name": "",
        "room_type": "",
        "_idx": 2,
        "_centroid": [
          126.9754049,
          37.2922091
        ],
        "_area_m2": 9.3
      },
      "geometry": {
        "type": "Polygon",
        "coordinates": [
          [
            [
              126.97541907965332,
              37.29224359284959
            ],
            [
              126.9754039202274,
              37.292172855309026
            ],
            [
              126.9753908019129,
              37.2921746346225
            ],
            [
              126.97540596133925,
              37.29224537216118
            ],
            [
              126.97541907965332,
              37.29224359284959
            ]
          ]
        ]
      }
    },
    {
      "type": "Feature",
      "properties": {
        "indoor": "room",
        "level": "1",
        "ref": "",
        "name": "",
        "room_type": "",
        "_idx": 3,
        "_centroid": [
          126.9755604,
          37.292188
        ],
        "_area_m2": 90.8
      },
      "geometry": {
        "type": "Polygon",
        "coordinates": [
          [
            [
              126.97563179532128,
              37.292214741006944
            ],
            [
              126.97561663589492,
              37.29214400343945
            ],
            [
              126.97548898062591,
              37.2921613180713
            ],
            [
              126.97550414005227,
              37.29223205562251
            ],
            [
              126.97563179532128,
              37.292214741006944
            ]
          ]
        ]
      }
    },
    {
      "type": "Feature",
      "properties": {
        "indoor": "room",
        "level": "1",
        "ref": "",
        "name": "",
        "room_type": "",
        "_idx": 4,
        "_centroid": [
          126.9756407,
          37.2921532
        ],
        "_area_m2": 10.5
      },
      "geometry": {
        "type": "Polygon",
        "coordinates": [
          [
            [
              126.97566484360225,
              37.292162368662346
            ],
            [
              126.97565965731813,
              37.292138168190924
            ],
            [
              126.97561663589492,
              37.29214400343945
            ],
            [
              126.97562182217904,
              37.29216820390899
            ],
            [
              126.97566484360225,
              37.292162368662346
            ]
          ]
        ]
      }
    },
    {
      "type": "Feature",
      "properties": {
        "indoor": "room",
        "level": "1",
        "ref": "",
        "name": "",
        "room_type": "",
        "_idx": 5,
        "_centroid": [
          126.975825,
          37.2921523
        ],
        "_area_m2": 52.6
      },
      "geometry": {
        "type": "Polygon",
        "coordinates": [
          [
            [
              126.9758537095199,
              37.2921114198278
            ],
            [
              126.97578093233523,
              37.292121291028394
            ],
            [
              126.97579634831206,
              37.29219322574399
            ],
            [
              126.975869125498,
              37.292183354551405
            ],
            [
              126.9758537095199,
              37.2921114198278
            ]
          ]
        ]
      }
    },
    {
      "type": "Feature",
      "properties": {
        "indoor": "room",
        "level": "1",
        "ref": "",
        "name": "",
        "room_type": "",
        "_idx": 6,
        "_centroid": [
          126.9753869,
          37.2921503
        ],
        "_area_m2": 19.1
      },
      "geometry": {
        "type": "Polygon",
        "coordinates": [
          [
            [
              126.97539021008755,
              37.29217172262876
            ],
            [
              126.9753908019129,
              37.2921746346225
            ],
            [
              126.97540499531739,
              37.29217270948831
            ],
            [
              126.97538780046906,
              37.292092474102894
            ],
            [
              126.97536379261626,
              37.29209573892642
            ],
            [
              126.97538040454965,
              37.29217305259068
            ],
            [
              126.97539020935895,
              37.29217171923782
            ],
            [
              126.97539021008755,
              37.29217172262876
            ]
          ]
        ]
      }
    },
    {
      "type": "Feature",
      "properties": {
        "indoor": "room",
        "level": "1",
        "ref": "",
        "name": "",
        "room_type": "",
        "_idx": 7,
        "_centroid": [
          126.9753258,
          37.2921455
        ],
        "_area_m2": 53.5
      },
      "geometry": {
        "type": "Polygon",
        "coordinates": [
          [
            [
              126.97528704610784,
              37.29211628911429
            ],
            [
              126.97529403586076,
              37.29214890502047
            ],
            [
              126.97530150424406,
              37.29218375431788
            ],
            [
              126.97538034723526,
              37.29217306038484
            ],
            [
              126.97536588910366,
              37.292105595170916
            ],
            [
              126.97528704610784,
              37.29211628911429
            ]
          ]
        ]
      }
    },
    {
      "type": "Feature",
      "properties": {
        "indoor": "room",
        "level": "1",
        "ref": "",
        "name": "",
        "room_type": "",
        "_idx": 8,
        "_centroid": [
          126.9758902,
          37.2921435
        ],
        "_area_m2": 41.7
      },
      "geometry": {
        "type": "Polygon",
        "coordinates": [
          [
            [
              126.9758537095199,
              37.2921114198278
            ],
            [
              126.975869125498,
              37.292183354551405
            ],
            [
              126.9759267485926,
              37.29217553879627
            ],
            [
              126.97591133261521,
              37.29210360406458
            ],
            [
              126.9758537095199,
              37.2921114198278
            ]
          ]
        ]
      }
    },
    {
      "type": "Feature",
      "properties": {
        "indoor": "room",
        "level": "1",
        "ref": "",
        "name": "",
        "room_type": "",
        "_idx": 9,
        "_centroid": [
          126.9759609,
          37.2921339
        ],
        "_area_m2": 60.5
      },
      "geometry": {
        "type": "Polygon",
        "coordinates": [
          [
            [
              126.97591133261521,
              37.29210360406458
            ],
            [
              126.9759267485926,
              37.29217553879627
            ],
            [
              126.97601046654657,
              37.29216418364374
            ],
            [
              126.97599505056972,
              37.292092248900374
            ],
            [
              126.97591133261521,
              37.29210360406458
            ]
          ]
        ]
      }
    },
    {
      "type": "Feature",
      "properties": {
        "indoor": "room",
        "level": "1",
        "ref": "",
        "name": "",
        "room_type": "",
        "_idx": 10,
        "_centroid": [
          126.9754384,
          37.2921203
        ],
        "_area_m2": 40.3
      },
      "geometry": {
        "type": "Polygon",
        "coordinates": [
          [
            [
              126.97548680376421,
              37.29213747776142
            ],
            [
              126.97547691171637,
              37.29209131902833
            ],
            [
              126.97539007699558,
              37.292103096939634
            ],
            [
              126.97539996904291,
              37.292149255666004
            ],
            [
              126.97548680376421,
              37.29213747776142
            ]
          ]
        ]
      }
    },
    {
      "type": "Feature",
      "properties": {
        "indoor": "room",
        "level": "1",
        "ref": "",
        "name": "",
        "room_type": "",
        "_idx": 11,
        "_centroid": [
          126.9754997,
          37.2921072
        ],
        "_area_m2": 19.5
      },
      "geometry": {
        "type": "Polygon",
        "coordinates": [
          [
            [
              126.97548667258938,
              37.29208999510278
            ],
            [
              126.97547691171637,
              37.29209131902833
            ],
            [
              126.97548680376421,
              37.29213747776142
            ],
            [
              126.97552890278827,
              37.292131767622884
            ],
            [
              126.97551901074094,
              37.29208560888578
            ],
            [
              126.97548667258938,
              37.29208999510278
            ]
          ]
        ]
      }
    },
    {
      "type": "Feature",
      "properties": {
        "indoor": "room",
        "level": "1",
        "ref": "",
        "name": "",
        "room_type": "",
        "_idx": 12,
        "_centroid": [
          126.9755875,
          37.2921048
        ],
        "_area_m2": 19.9
      },
      "geometry": {
        "type": "Polygon",
        "coordinates": [
          [
            [
              126.97557089073689,
              37.29212607254929
            ],
            [
              126.97558794871104,
              37.29212375887532
            ],
            [
              126.97561375457003,
              37.292120258673854
            ],
            [
              126.97560386252269,
              37.29207409992969
            ],
            [
              126.97556099868974,
              37.29207991380844
            ],
            [
              126.97557089073689,
              37.29212607254929
            ]
          ]
        ]
      }
    },
    {
      "type": "Feature",
      "properties": {
        "indoor": "room",
        "level": "1",
        "ref": "",
        "name": "",
        "room_type": "",
        "_idx": 13,
        "_centroid": [
          126.9753238,
          37.2920985
        ],
        "_area_m2": 19.8
      },
      "geometry": {
        "type": "Polygon",
        "coordinates": [
          [
            [
              126.97536054158513,
              37.29208064232837
            ],
            [
              126.9752816985908,
              37.29209133627509
            ],
            [
              126.97528704610784,
              37.29211628911429
            ],
            [
              126.97536588910366,
              37.292105595170916
            ],
            [
              126.97536054158513,
              37.29208064232837
            ]
          ]
        ]
      }
    },
    {
      "type": "Feature",
      "properties": {
        "indoor": "room",
        "level": "1",
        "ref": "",
        "name": "",
        "room_type": "",
        "_idx": 14,
        "_centroid": [
          126.9754172,
          37.292076
        ],
        "_area_m2": 6.7
      },
      "geometry": {
        "type": "Polygon",
        "coordinates": [
          [
            [
              126.97542805542292,
              37.29206182262242
            ],
            [
              126.97540100658911,
              37.29206549141862
            ],
            [
              126.97540631269848,
              37.29209025106056
            ],
            [
              126.97543336153511,
              37.29208658226512
            ],
            [
              126.97542805542292,
              37.29206182262242
            ]
          ]
        ]
      }
    },
    {
      "type": "Feature",
      "properties": {
        "indoor": "room",
        "level": "1",
        "ref": "",
        "name": "",
        "room_type": "",
        "_idx": 15,
        "_centroid": [
          126.9757929,
          37.292074
        ],
        "_area_m2": 19.9
      },
      "geometry": {
        "type": "Polygon",
        "coordinates": [
          [
            [
              126.9757705328261,
              37.292052972435826
            ],
            [
              126.97577544874133,
              37.29207591132673
            ],
            [
              126.97578058442595,
              37.29209987570835
            ],
            [
              126.97581777616965,
              37.292094831170594
            ],
            [
              126.97582281434518,
              37.292094147812655
            ],
            [
              126.97581276274497,
              37.29204724453697
            ],
            [
              126.97577060263626,
              37.292052962967055
            ],
            [
              126.9757705328261,
              37.292052972435826
            ]
          ]
        ]
      }
    },
    {
      "type": "Feature",
      "properties": {
        "indoor": "room",
        "level": "1",
        "ref": "",
        "name": "",
        "room_type": "",
        "_idx": 16,
        "_centroid": [
          126.9757116,
          37.2920728
        ],
        "_area_m2": 9.2
      },
      "geometry": {
        "type": "Polygon",
        "coordinates": [
          [
            [
              126.97573415712039,
              37.29208151195657
            ],
            [
              126.97572924120534,
              37.29205857306722
            ],
            [
              126.97568912046009,
              37.29206401488716
            ],
            [
              126.97569403637588,
              37.29208695377304
            ],
            [
              126.97573415712039,
              37.29208151195657
            ]
          ]
        ]
      }
    },
    {
      "type": "Feature",
      "properties": {
        "indoor": "room",
        "level": "1",
        "ref": "",
        "name": "",
        "room_type": "",
        "_idx": 17,
        "_centroid": [
          126.9753211,
          37.2920705
        ],
        "_area_m2": 17.7
      },
      "geometry": {
        "type": "Polygon",
        "coordinates": [
          [
            [
              126.9752816985908,
              37.29209133627509
            ],
            [
              126.97536054158513,
              37.29208064232837
            ],
            [
              126.9753571998454,
              37.2920650489452
            ],
            [
              126.97533626148108,
              37.29206788894146
            ],
            [
              126.97533431315742,
              37.29205879757588
            ],
            [
              126.97530100298586,
              37.29206331563506
            ],
            [
              126.97527640852921,
              37.292066651529176
            ],
            [
              126.9752816985908,
              37.29209133627509
            ]
          ]
        ]
      }
    },
    {
      "type": "Feature",
      "properties": {
        "indoor": "room",
        "level": "1",
        "ref": "",
        "name": "",
        "room_type": "",
        "_idx": 18,
        "_centroid": [
          126.9757513,
          37.2920697
        ],
        "_area_m2": 9.5
      },
      "geometry": {
        "type": "Polygon",
        "coordinates": [
          [
            [
              126.97574735038374,
              37.292079722475286
            ],
            [
              126.97577544874133,
              37.29207591132673
            ],
            [
              126.9757705328261,
              37.292052972435826
            ],
            [
              126.97572924120534,
              37.29205857306722
            ],
            [
              126.97573415712039,
              37.29208151195657
            ],
            [
              126.97574735038374,
              37.292079722475286
            ]
          ]
        ]
      }
    },
    {
      "type": "Feature",
      "properties": {
        "indoor": "room",
        "level": "1",
        "ref": "",
        "name": "",
        "room_type": "",
        "_idx": 19,
        "_centroid": [
          126.975838,
          37.2920679
        ],
        "_area_m2": 19.1
      },
      "geometry": {
        "type": "Polygon",
        "coordinates": [
          [
            [
              126.97581276274497,
              37.29204724453697
            ],
            [
              126.97582281434518,
              37.292094147812655
            ],
            [
              126.9758633274039,
              37.2920886527837
            ],
            [
              126.97585327580445,
              37.292041749504655
            ],
            [
              126.97581276274497,
              37.29204724453697
            ]
          ]
        ]
      }
    },
    {
      "type": "Feature",
      "properties": {
        "indoor": "room",
        "level": "1",
        "ref": "",
        "name": "",
        "room_type": "",
        "_idx": 20,
        "_centroid": [
          126.9754456,
          37.2920648
        ],
        "_area_m2": 14.7
      },
      "geometry": {
        "type": "Polygon",
        "coordinates": [
          [
            [
              126.97545285192423,
              37.29203361712532
            ],
            [
              126.97542288199898,
              37.29203768212821
            ],
            [
              126.97543336153511,
              37.29208658226512
            ],
            [
              126.97545573130515,
              37.292083548119464
            ],
            [
              126.97546333146047,
              37.29208251726488
            ],
            [
              126.97545285192423,
              37.29203361712532
            ]
          ]
        ]
      }
    },
    {
      "type": "Feature",
      "properties": {
        "indoor": "room",
        "level": "1",
        "ref": "",
        "name": "",
        "room_type": "",
        "_idx": 21,
        "_centroid": [
          126.9759217,
          37.2920566
        ],
        "_area_m2": 59.8
      },
      "geometry": {
        "type": "Polygon",
        "coordinates": [
          [
            [
              126.97585327580445,
              37.292041749504655
            ],
            [
              126.9758633274039,
              37.2920886527837
            ],
            [
              126.97599009170348,
              37.29207145898203
            ],
            [
              126.9759800401041,
              37.292024555692805
            ],
            [
              126.97585327580445,
              37.292041749504655
            ]
          ]
        ]
      }
    },
    {
      "type": "Feature",
      "properties": {
        "indoor": "room",
        "level": "1",
        "ref": "",
        "name": "",
        "room_type": "",
        "_idx": 22,
        "_centroid": [
          126.975471,
          37.2920563
        ],
        "_area_m2": 12.7
      },
      "geometry": {
        "type": "Polygon",
        "coordinates": [
          [
            [
              126.97545285192423,
              37.29203361712532
            ],
            [
              126.97546333146047,
              37.29208251726488
            ],
            [
              126.97548906395797,
              37.29207902701213
            ],
            [
              126.97547858442198,
              37.292030126870294
            ],
            [
              126.97545285192423,
              37.29203361712532
            ]
          ]
        ]
      }
    },
    {
      "type": "Feature",
      "properties": {
        "indoor": "room",
        "level": "1",
        "ref": "",
        "name": "",
        "room_type": "",
        "_idx": 23,
        "_centroid": [
          126.9753588,
          37.2920556
        ],
        "_area_m2": 8.8
      },
      "geometry": {
        "type": "Polygon",
        "coordinates": [
          [
            [
              126.97538128669555,
              37.29204324403449
            ],
            [
              126.97533240094319,
              37.29204987470484
            ],
            [
              126.97533626148108,
              37.29206788894145
            ],
            [
              126.97538514723249,
              37.29206125827287
            ],
            [
              126.97538128669555,
              37.29204324403449
            ]
          ]
        ]
      }
    },
    {
      "type": "Feature",
      "properties": {
        "indoor": "room",
        "level": "1",
        "ref": "",
        "name": "",
        "room_type": "",
        "_idx": 24,
        "_centroid": [
          126.9754092,
          37.2920495
        ],
        "_area_m2": 6.6
      },
      "geometry": {
        "type": "Polygon",
        "coordinates": [
          [
            [
              126.97542805542292,
              37.29206182262242
            ],
            [
              126.97542288199898,
              37.29203768212821
            ],
            [
              126.97539832947288,
              37.29204101233619
            ],
            [
              126.97539583316626,
              37.29204135092539
            ],
            [
              126.97540100658911,
              37.29206549141862
            ],
            [
              126.97542805542292,
              37.29206182262242
            ]
          ]
        ]
      }
    },
    {
      "type": "Feature",
      "properties": {
        "indoor": "room",
        "level": "1",
        "ref": "",
        "name": "",
        "room_type": "",
        "_idx": 25,
        "_centroid": [
          126.975531,
          37.2920477
        ],
        "_area_m2": 20.1
      },
      "geometry": {
        "type": "Polygon",
        "coordinates": [
          [
            [
              126.97555037516602,
              37.29202038945426
            ],
            [
              126.9755094997448,
              37.29202593363696
            ],
            [
              126.97551425629321,
              37.29204812888863
            ],
            [
              126.97551997928103,
              37.292074833781136
            ],
            [
              126.97556085470279,
              37.292069289602125
            ],
            [
              126.97555037516602,
              37.29202038945426
            ]
          ]
        ]
      }
    },
    {
      "type": "Feature",
      "properties": {
        "indoor": "room",
        "level": "1",
        "ref": "",
        "name": "",
        "room_type": "",
        "_idx": 26,
        "_centroid": [
          126.9760057,
          37.2920452
        ],
        "_area_m2": 19.5
      },
      "geometry": {
        "type": "Polygon",
        "coordinates": [
          [
            [
              126.9759800401041,
              37.292024555692805
            ],
            [
              126.97599009170348,
              37.29207145898203
            ],
            [
              126.97603141823029,
              37.29206585361752
            ],
            [
              126.97602136663129,
              37.29201895032493
            ],
            [
              126.9759800401041,
              37.292024555692805
            ]
          ]
        ]
      }
    },
    {
      "type": "Feature",
      "properties": {
        "indoor": "room",
        "level": "1",
        "ref": "",
        "name": "",
        "room_type": "",
        "_idx": 27,
        "_centroid": [
          126.9755709,
          37.2920428
        ],
        "_area_m2": 15.1
      },
      "geometry": {
        "type": "Polygon",
        "coordinates": [
          [
            [
              126.97555037516602,
              37.29202038945426
            ],
            [
              126.97556085470279,
              37.292069289602125
            ],
            [
              126.9755915182968,
              37.292065130514665
            ],
            [
              126.97558103877155,
              37.292016230362165
            ],
            [
              126.97555037516602,
              37.29202038945426
            ]
          ]
        ]
      }
    },
    {
      "type": "Feature",
      "properties": {
        "indoor": "room",
        "level": "1",
        "ref": "",
        "name": "",
        "room_type": "",
        "_idx": 28,
        "_centroid": [
          126.9753004,
          37.2920396
        ],
        "_area_m2": 27.0
      },
      "geometry": {
        "type": "Polygon",
        "coordinates": [
          [
            [
              126.97532438481171,
              37.292012469413685
            ],
            [
              126.97526648018533,
              37.292020323371375
            ],
            [
              126.97527640852918,
              37.292066651529176
            ],
            [
              126.9753343131574,
              37.292058797575784
            ],
            [
              126.97532438481171,
              37.292012469413685
            ]
          ]
        ]
      }
    },
    {
      "type": "Feature",
      "properties": {
        "indoor": "room",
        "level": "1",
        "ref": "",
        "name": "",
        "room_type": "",
        "_idx": 29,
        "_centroid": [
          126.9760482,
          37.2920394
        ],
        "_area_m2": 20.5
      },
      "geometry": {
        "type": "Polygon",
        "coordinates": [
          [
            [
              126.97602136663129,
              37.29201895032493
            ],
            [
              126.97603141823029,
              37.29206585361752
            ],
            [
              126.97607499532455,
              37.29205994299507
            ],
            [
              126.97606494372486,
              37.29201303969907
            ],
            [
              126.97602136663129,
              37.29201895032493
            ]
          ]
        ]
      }
    },
    {
      "type": "Feature",
      "properties": {
        "indoor": "room",
        "level": "1",
        "ref": "",
        "name": "",
        "room_type": "",
        "_idx": 30,
        "_centroid": [
          126.9753498,
          37.2920372
        ],
        "_area_m2": 9.3
      },
      "geometry": {
        "type": "Polygon",
        "coordinates": [
          [
            [
              126.97532980785154,
              37.29203777468734
            ],
            [
              126.97533240094319,
              37.29204987470484
            ],
            [
              126.97538128669555,
              37.29204324403449
            ],
            [
              126.97537722339354,
              37.292024283643116
            ],
            [
              126.97532833764119,
              37.292030914315184
            ],
            [
              126.97532980785154,
              37.29203777468734
            ]
          ]
        ]
      }
    },
    {
      "type": "Feature",
      "properties": {
        "indoor": "room",
        "level": "1",
        "ref": "",
        "name": "",
        "room_type": "",
        "_idx": 31,
        "_centroid": [
          126.9754172,
          37.2920193
        ],
        "_area_m2": 18.9
      },
      "geometry": {
        "type": "Polygon",
        "coordinates": [
          [
            [
              126.97544644002389,
              37.292034486810316
            ],
            [
              126.97543848095707,
              37.29199734778826
            ],
            [
              126.9753878740976,
              37.292004211907646
            ],
            [
              126.97539583316626,
              37.29204135092539
            ],
            [
              126.97544644002389,
              37.292034486810316
            ]
          ]
        ]
      }
    },
    {
      "type": "Feature",
      "properties": {
        "indoor": "room",
        "level": "1",
        "ref": "",
        "name": "",
        "room_type": "",
        "_idx": 32,
        "_centroid": [
          126.9753508,
          37.2920184
        ],
        "_area_m2": 9.1
      },
      "geometry": {
        "type": "Polygon",
        "coordinates": [
          [
            [
              126.97532833764119,
              37.292030914315184
            ],
            [
              126.97537722339354,
              37.292024283643116
            ],
            [
              126.97537327056315,
              37.2920058387402
            ],
            [
              126.97532438481174,
              37.292012469413685
            ],
            [
              126.97532833764119,
              37.292030914315184
            ]
          ]
        ]
      }
    },
    {
      "type": "Feature",
      "properties": {
        "indoor": "room",
        "level": "1",
        "ref": "",
        "name": "",
        "room_type": "",
        "_idx": 33,
        "_centroid": [
          126.9754731,
          37.2920156
        ],
        "_area_m2": 19.6
      },
      "geometry": {
        "type": "Polygon",
        "coordinates": [
          [
            [
              126.97544644002389,
              37.292034486810316
            ],
            [
              126.9754907961995,
              37.29202847051262
            ],
            [
              126.97549895099142,
              37.29202736442858
            ],
            [
              126.97549099192436,
              37.29199022540303
            ],
            [
              126.97543848095707,
              37.29199734778826
            ],
            [
              126.97544644002389,
              37.292034486810316
            ]
          ]
        ]
      }
    },
    {
      "type": "Feature",
      "properties": {
        "indoor": "room",
        "level": "1",
        "ref": "",
        "name": "",
        "room_type": "",
        "_idx": 34,
        "_centroid": [
          126.9752924,
          37.292002
        ],
        "_area_m2": 16.7
      },
      "geometry": {
        "type": "Polygon",
        "coordinates": [
          [
            [
              126.97526648018533,
              37.292020323371375
            ],
            [
              126.97532438481171,
              37.292012469413685
            ],
            [
              126.97531822231966,
              37.29198371365869
            ],
            [
              126.97526031769144,
              37.291991567619824
            ],
            [
              126.97526648018533,
              37.292020323371375
            ]
          ]
        ]
      }
    },
    {
      "type": "Feature",
      "properties": {
        "indoor": "room",
        "level": "1",
        "ref": "",
        "name": "",
        "room_type": "",
        "_idx": 35,
        "_centroid": [
          126.9755345,
          37.2919951
        ],
        "_area_m2": 36.3
      },
      "geometry": {
        "type": "Polygon",
        "coordinates": [
          [
            [
              126.97549895099142,
              37.29202736442858
            ],
            [
              126.97551872387707,
              37.292024682511666
            ],
            [
              126.97558103877155,
              37.292016230362165
            ],
            [
              126.97556900863992,
              37.29196009468257
            ],
            [
              126.97553923037903,
              37.2919641336929
            ],
            [
              126.97554330144786,
              37.29198313034086
            ],
            [
              126.97549099192436,
              37.29199022540303
            ],
            [
              126.97549895099142,
              37.29202736442858
            ]
          ]
        ]
      }
    },
    {
      "type": "Feature",
      "properties": {
        "indoor": "room",
        "level": "1",
        "ref": "",
        "name": "",
        "room_type": "",
        "_idx": 36,
        "_centroid": [
          126.9753115,
          37.2919661
        ],
        "_area_m2": 39.9
      },
      "geometry": {
        "type": "Polygon",
        "coordinates": [
          [
            [
              126.9753627307424,
              37.291940555386624
            ],
            [
              126.97525258712962,
              37.291955494839726
            ],
            [
              126.97526031769144,
              37.291991567619824
            ],
            [
              126.97537046129702,
              37.29197662816399
            ],
            [
              126.9753627307424,
              37.291940555386624
            ]
          ]
        ]
      }
    },
    {
      "type": "Feature",
      "properties": {
        "indoor": "room",
        "level": "1",
        "ref": "",
        "name": "",
        "room_type": "",
        "_idx": 37,
        "_centroid": [
          126.9753983,
          37.2919616
        ],
        "_area_m2": 18.3
      },
      "geometry": {
        "type": "Polygon",
        "coordinates": [
          [
            [
              126.97542309858723,
              37.291940525423925
            ],
            [
              126.97537560627104,
              37.291946967103144
            ],
            [
              126.97537763623234,
              37.29195643942523
            ],
            [
              126.97538380302657,
              37.29198521526544
            ],
            [
              126.97543129534314,
              37.291978773588724
            ],
            [
              126.97542309858723,
              37.291940525423925
            ]
          ]
        ]
      }
    },
    {
      "type": "Feature",
      "properties": {
        "indoor": "room",
        "level": "1",
        "ref": "",
        "name": "",
        "room_type": "",
        "_idx": 38,
        "_centroid": [
          126.9755762,
          37.2919553
        ],
        "_area_m2": 35.0
      },
      "geometry": {
        "type": "Polygon",
        "coordinates": [
          [
            [
              126.97559151829677,
              37.29206513051465
            ],
            [
              126.97560753926834,
              37.292062957493705
            ],
            [
              126.97556094569278,
              37.291845539913695
            ],
            [
              126.9755449247212,
              37.29184771294092
            ],
            [
              126.97559151829677,
              37.29206513051465
            ]
          ]
        ]
      }
    },
    {
      "type": "Feature",
      "properties": {
        "indoor": "room",
        "level": "1",
        "ref": "",
        "name": "",
        "room_type": "",
        "_idx": 39,
        "_centroid": [
          126.9754523,
          37.2919436
        ],
        "_area_m2": 27.0
      },
      "geometry": {
        "type": "Polygon",
        "coordinates": [
          [
            [
              126.97546879934667,
              37.29193143400113
            ],
            [
              126.97546515877016,
              37.291914446129745
            ],
            [
              126.97541885559374,
              37.29192072652077
            ],
            [
              126.97543129534314,
              37.291978773588724
            ],
            [
              126.97547759851663,
              37.291972493202834
            ],
            [
              126.97546879934667,
              37.29193143400113
            ]
          ]
        ]
      }
    },
    {
      "type": "Feature",
      "properties": {
        "indoor": "room",
        "level": "1",
        "ref": "",
        "name": "",
        "room_type": "",
        "_idx": 40,
        "_centroid": [
          126.9755176,
          37.2919411
        ],
        "_area_m2": 34.8
      },
      "geometry": {
        "type": "Polygon",
        "coordinates": [
          [
            [
              126.97552050727177,
              37.291927707773226
            ],
            [
              126.97550804583261,
              37.29192939799611
            ],
            [
              126.97546948391917,
              37.2919346283891
            ],
            [
              126.97547759851663,
              37.291972493202834
            ],
            [
              126.97556900863987,
              37.291960094682295
            ],
            [
              126.97556089403689,
              37.29192222986359
            ],
            [
              126.97552050727177,
              37.291927707773226
            ]
          ]
        ]
      }
    },
    {
      "type": "Feature",
      "properties": {
        "indoor": "room",
        "level": "1",
        "ref": "",
        "name": "",
        "room_type": "",
        "_idx": 41,
        "_centroid": [
          126.9756414,
          37.2919356
        ],
        "_area_m2": 74.9
      },
      "geometry": {
        "type": "Polygon",
        "coordinates": [
          [
            [
              126.97564063256675,
              37.29183775790598
            ],
            [
              126.97560146732076,
              37.291843070277196
            ],
            [
              126.9756422647936,
              37.29203343688485
            ],
            [
              126.97568143003963,
              37.29202812452707
            ],
            [
              126.97564063256675,
              37.29183775790598
            ]
          ]
        ]
      }
    },
    {
      "type": "Feature",
      "properties": {
        "indoor": "room",
        "level": "1",
        "ref": "",
        "name": "",
        "room_type": "",
        "_idx": 42,
        "_centroid": [
          126.975304,
          37.2919308
        ],
        "_area_m2": 38.6
      },
      "geometry": {
        "type": "Polygon",
        "coordinates": [
          [
            [
              126.9753627307424,
              37.291940555386624
            ],
            [
              126.975356830337,
              37.291913022549686
            ],
            [
              126.97535525584313,
              37.29190567554699
            ],
            [
              126.97524511207871,
              37.29192061432485
            ],
            [
              126.97525135159664,
              37.29194972952661
            ],
            [
              126.97525258712962,
              37.291955494839726
            ],
            [
              126.9753627307424,
              37.291940555386624
            ]
          ]
        ]
      }
    },
    {
      "type": "Feature",
      "properties": {
        "indoor": "room",
        "level": "1",
        "ref": "",
        "name": "",
        "room_type": "",
        "_idx": 43,
        "_centroid": [
          126.9754829,
          37.2919231
        ],
        "_area_m2": 8.6
      },
      "geometry": {
        "type": "Polygon",
        "coordinates": [
          [
            [
              126.97546474880376,
              37.29191253312053
            ],
            [
              126.97546879934667,
              37.29193143400113
            ],
            [
              126.97546948391917,
              37.2919346283891
            ],
            [
              126.97550804583261,
              37.29192939799611
            ],
            [
              126.97550331071996,
              37.2919073027246
            ],
            [
              126.97546474880376,
              37.29191253312053
            ]
          ]
        ]
      }
    },
    {
      "type": "Feature",
      "properties": {
        "indoor": "room",
        "level": "1",
        "ref": "",
        "name": "",
        "room_type": "",
        "_idx": 44,
        "_centroid": [
          126.9753936,
          37.2919169
        ],
        "_area_m2": 31.6
      },
      "geometry": {
        "type": "Polygon",
        "coordinates": [
          [
            [
              126.97542309858723,
              37.291940525423925
            ],
            [
              126.97541957819168,
              37.291924098349746
            ],
            [
              126.97540892811766,
              37.29187440233373
            ],
            [
              126.97536143580196,
              37.29188084401826
            ],
            [
              126.97537300326918,
              37.291934820826164
            ],
            [
              126.97537560627104,
              37.291946967103144
            ],
            [
              126.97542309858723,
              37.291940525423925
            ]
          ]
        ]
      }
    },
    {
      "type": "Feature",
      "properties": {
        "indoor": "room",
        "level": "1",
        "ref": "",
        "name": "",
        "room_type": "",
        "_idx": 45,
        "_centroid": [
          126.9755385,
          37.2919146
        ],
        "_area_m2": 8.4
      },
      "geometry": {
        "type": "Polygon",
        "coordinates": [
          [
            [
              126.97551607066853,
              37.291907005428875
            ],
            [
              126.97552050727177,
              37.291927707773226
            ],
            [
              126.97556089403689,
              37.29192222986359
            ],
            [
              126.97555645743013,
              37.29190152751862
            ],
            [
              126.97551607066853,
              37.291907005428875
            ]
          ]
        ]
      }
    },
    {
      "type": "Feature",
      "properties": {
        "indoor": "room",
        "level": "1",
        "ref": "",
        "name": "",
        "room_type": "",
        "_idx": 46,
        "_centroid": [
          126.9754817,
          37.291899
        ],
        "_area_m2": 8.5
      },
      "geometry": {
        "type": "Polygon",
        "coordinates": [
          [
            [
              126.97549863108169,
              37.29188546631109
            ],
            [
              126.97546006916404,
              37.29189069670964
            ],
            [
              126.97546474880376,
              37.29191253312053
            ],
            [
              126.97550331071996,
              37.2919073027246
            ],
            [
              126.97549863108169,
              37.29188546631109
            ]
          ]
        ]
      }
    },
    {
      "type": "Feature",
      "properties": {
        "indoor": "room",
        "level": "1",
        "ref": "",
        "name": "",
        "room_type": "",
        "_idx": 47,
        "_centroid": [
          126.9752827,
          37.2918975
        ],
        "_area_m2": 28.7
      },
      "geometry": {
        "type": "Polygon",
        "coordinates": [
          [
            [
              126.97531908442801,
              37.291874571936006
            ],
            [
              126.9752919207353,
              37.29187825614429
            ],
            [
              126.97523761304964,
              37.29188562188819
            ],
            [
              126.97524511207871,
              37.29192061432485
            ],
            [
              126.97527578834128,
              37.291916453709476
            ],
            [
              126.97532658311226,
              37.29190956442431
            ],
            [
              126.97531908442801,
              37.291874571936006
            ]
          ]
        ]
      }
    },
    {
      "type": "Feature",
      "properties": {
        "indoor": "room",
        "level": "1",
        "ref": "",
        "name": "",
        "room_type": "",
        "_idx": 48,
        "_centroid": [
          126.9754372,
          37.291895
        ],
        "_area_m2": 21.6
      },
      "geometry": {
        "type": "Polygon",
        "coordinates": [
          [
            [
              126.97546515877016,
              37.291914446129745
            ],
            [
              126.97546474880376,
              37.29191253312053
            ],
            [
              126.9754552312921,
              37.29186812193923
            ],
            [
              126.97540892811766,
              37.29187440233373
            ],
            [
              126.97541004552706,
              37.2918796164581
            ],
            [
              126.97541885559374,
              37.29192072652077
            ],
            [
              126.97546515877016,
              37.291914446129745
            ]
          ]
        ]
      }
    },
    {
      "type": "Feature",
      "properties": {
        "indoor": "room",
        "level": "1",
        "ref": "",
        "name": "",
        "room_type": "",
        "_idx": 49,
        "_centroid": [
          126.9755338,
          37.291893
        ],
        "_area_m2": 9.2
      },
      "geometry": {
        "type": "Polygon",
        "coordinates": [
          [
            [
              126.97555162013491,
              37.29187895545846
            ],
            [
              126.9755112333786,
              37.29188443336962
            ],
            [
              126.97551607066853,
              37.291907005428875
            ],
            [
              126.97555645743013,
              37.29190152751862
            ],
            [
              126.97555162013491,
              37.29187895545846
            ]
          ]
        ]
      }
    },
    {
      "type": "Feature",
      "properties": {
        "indoor": "room",
        "level": "1",
        "ref": "",
        "name": "",
        "room_type": "",
        "_idx": 50,
        "_centroid": [
          126.9754769,
          37.2918768
        ],
        "_area_m2": 8.8
      },
      "geometry": {
        "type": "Polygon",
        "coordinates": [
          [
            [
              126.97546006916404,
              37.29189069670964
            ],
            [
              126.97549863108169,
              37.29188546631109
            ],
            [
              126.97549379321032,
              37.291862891540625
            ],
            [
              126.9754552312921,
              37.29186812193923
            ],
            [
              126.97546006916404,
              37.29189069670964
            ]
          ]
        ]
      }
    },
    {
      "type": "Feature",
      "properties": {
        "indoor": "room",
        "level": "1",
        "ref": "",
        "name": "",
        "room_type": "",
        "_idx": 51,
        "_centroid": [
          126.9755291,
          37.2918709
        ],
        "_area_m2": 8.7
      },
      "geometry": {
        "type": "Polygon",
        "coordinates": [
          [
            [
              126.97554701215549,
              37.29185745344469
            ],
            [
              126.97550662540554,
              37.29186293135657
            ],
            [
              126.9755112333786,
              37.29188443336962
            ],
            [
              126.97555162013491,
              37.29187895545846
            ],
            [
              126.97554701215549,
              37.29185745344469
            ]
          ]
        ]
      }
    },
    {
      "type": "Feature",
      "properties": {
        "indoor": "room",
        "level": "1",
        "ref": "",
        "name": "",
        "room_type": "",
        "_idx": 52,
        "_centroid": [
          126.9752611,
          37.2918648
        ],
        "_area_m2": 18.7
      },
      "geometry": {
        "type": "Polygon",
        "coordinates": [
          [
            [
              126.97523761304964,
              37.29188562188819
            ],
            [
              126.9752919207353,
              37.29187825614429
            ],
            [
              126.97528458861767,
              37.29184404092239
            ],
            [
              126.97523028059167,
              37.29185140671594
            ],
            [
              126.97523761304964,
              37.29188562188819
            ]
          ]
        ]
      }
    },
    {
      "type": "Feature",
      "properties": {
        "indoor": "room",
        "level": "1",
        "ref": "",
        "name": "",
        "room_type": "",
        "_idx": 53,
        "_centroid": [
          126.9753163,
          37.2918573
        ],
        "_area_m2": 38.6
      },
      "geometry": {
        "type": "Polygon",
        "coordinates": [
          [
            [
              126.97530632385367,
              37.29180510738793
            ],
            [
              126.97531381754334,
              37.29184007660501
            ],
            [
              126.97528458861767,
              37.29184404092239
            ],
            [
              126.9752919207353,
              37.29187825614429
            ],
            [
              126.97531908442801,
              37.291874571936006
            ],
            [
              126.97532658311226,
              37.29190956442431
            ],
            [
              126.97535525584313,
              37.29190567554699
            ],
            [
              126.97533293026841,
              37.291801498587574
            ],
            [
              126.97530632385367,
              37.29180510738793
            ]
          ]
        ]
      }
    },
    {
      "type": "Feature",
      "properties": {
        "indoor": "room",
        "level": "1",
        "ref": "",
        "name": "",
        "room_type": "",
        "_idx": 54,
        "_centroid": [
          126.975388,
          37.2918422
        ],
        "_area_m2": 48.3
      },
      "geometry": {
        "type": "Polygon",
        "coordinates": [
          [
            [
              126.97540708247551,
              37.29186339239355
            ],
            [
              126.97543100552552,
              37.291860147557614
            ],
            [
              126.9754186104096,
              37.29180230866523
            ],
            [
              126.97533551912366,
              37.29181357887509
            ],
            [
              126.97534791423979,
              37.291871417758365
            ],
            [
              126.97540708247551,
              37.29186339239355
            ]
          ]
        ]
      }
    },
    {
      "type": "Feature",
      "properties": {
        "indoor": "room",
        "level": "1",
        "ref": "",
        "name": "",
        "room_type": "",
        "_idx": 55,
        "_centroid": [
          126.9752771,
          37.2918331
        ],
        "_area_m2": 29.4
      },
      "geometry": {
        "type": "Polygon",
        "coordinates": [
          [
            [
              126.97528458861767,
              37.29184404092239
            ],
            [
              126.97530454932273,
              37.291841333653224
            ],
            [
              126.97531381754334,
              37.29184007660501
            ],
            [
              126.97530632385367,
              37.29180510738793
            ],
            [
              126.97522278666283,
              37.291816438078186
            ],
            [
              126.97523028059167,
              37.29185140671594
            ],
            [
              126.97528458861767,
              37.29184404092239
            ]
          ]
        ]
      }
    },
    {
      "type": "Feature",
      "properties": {
        "indoor": "room",
        "level": "1",
        "ref": "",
        "name": "",
        "room_type": "",
        "_idx": 56,
        "_centroid": [
          126.975446,
          37.2918284
        ],
        "_area_m2": 24.6
      },
      "geometry": {
        "type": "Polygon",
        "coordinates": [
          [
            [
              126.9754186104096,
              37.29180230866523
            ],
            [
              126.97543100552552,
              37.291860147557614
            ],
            [
              126.97547339678728,
              37.29185439775992
            ],
            [
              126.97546100167115,
              37.29179655886357
            ],
            [
              126.9754186104096,
              37.29180230866523
            ]
          ]
        ]
      }
    },
    {
      "type": "Feature",
      "properties": {
        "indoor": "room",
        "level": "1",
        "ref": "",
        "name": "",
        "room_type": "",
        "_idx": 57,
        "_centroid": [
          126.9755266,
          37.2918196
        ],
        "_area_m2": 33.4
      },
      "geometry": {
        "type": "Polygon",
        "coordinates": [
          [
            [
              126.97556094569289,
              37.29184553991415
            ],
            [
              126.97554821832858,
              37.29178615065235
            ],
            [
              126.9754922256243,
              37.29179374530743
            ],
            [
              126.97550495298863,
              37.29185313456325
            ],
            [
              126.97556094569289,
              37.29184553991415
            ]
          ]
        ]
      }
    },
    {
      "type": "Feature",
      "properties": {
        "indoor": "room",
        "level": "1",
        "ref": "",
        "name": "",
        "room_type": "",
        "_idx": 58,
        "_centroid": [
          126.9756867,
          37.2918038
        ],
        "_area_m2": 119.7
      },
      "geometry": {
        "type": "Polygon",
        "coordinates": [
          [
            [
              126.97570226553987,
              37.29182939822937
            ],
            [
              126.9757785765306,
              37.291819047814926
            ],
            [
              126.9757641638154,
              37.29175179333379
            ],
            [
              126.97558705441914,
              37.291775815844936
            ],
            [
              126.97560146732076,
              37.291843070277196
            ],
            [
              126.97570226553987,
              37.29182939822937
            ]
          ]
        ]
      }
    },
    {
      "type": "Feature",
      "properties": {
        "indoor": "room",
        "level": "1",
        "ref": "",
        "name": "",
        "room_type": "",
        "_idx": 59,
        "_centroid": [
          126.9758064,
          37.2917807
        ],
        "_area_m2": 47.4
      },
      "geometry": {
        "type": "Polygon",
        "coordinates": [
          [
            [
              126.9757641638154,
              37.29175179333379
            ],
            [
              126.9757785765306,
              37.291819047814926
            ],
            [
              126.9758486327499,
              37.29180954563657
            ],
            [
              126.97583422003372,
              37.29174229114857
            ],
            [
              126.9757641638154,
              37.29175179333379
            ]
          ]
        ]
      }
    },
    {
      "type": "Feature",
      "properties": {
        "indoor": "room",
        "level": "1",
        "ref": "",
        "name": "",
        "room_type": "",
        "_idx": 60,
        "_centroid": [
          126.9759909,
          37.2917789
        ],
        "_area_m2": 9.2
      },
      "geometry": {
        "type": "Polygon",
        "coordinates": [
          [
            [
              126.97597263383736,
              37.291792726564395
            ],
            [
              126.97601397105751,
              37.29178711959067
            ],
            [
              126.97600925495739,
              37.29176511354261
            ],
            [
              126.97596791773724,
              37.29177072051798
            ],
            [
              126.97597263383736,
              37.291792726564395
            ]
          ]
        ]
      }
    },
    {
      "type": "Feature",
      "properties": {
        "indoor": "room",
        "level": "1",
        "ref": "",
        "name": "",
        "room_type": "",
        "_idx": 61,
        "_centroid": [
          126.9758555,
          37.291774
        ],
        "_area_m2": 19.1
      },
      "geometry": {
        "type": "Polygon",
        "coordinates": [
          [
            [
              126.97583422003372,
              37.29174229114857
            ],
            [
              126.9758486327499,
              37.29180954563657
            ],
            [
              126.97587681976509,
              37.291805722449304
            ],
            [
              126.97586240686346,
              37.29173846798365
            ],
            [
              126.97583422003372,
              37.29174229114857
            ]
          ]
        ]
      }
    },
    {
      "type": "Feature",
      "properties": {
        "indoor": "room",
        "level": "1",
        "ref": "",
        "name": "",
        "room_type": "",
        "_idx": 62,
        "_centroid": [
          126.9754058,
          37.2917739
        ],
        "_area_m2": 63.3
      },
      "geometry": {
        "type": "Polygon",
        "coordinates": [
          [
            [
              126.97549342376453,
              37.29174427443113
            ],
            [
              126.97531073792413,
              37.291769053311114
            ],
            [
              126.97531812152863,
              37.291803507193016
            ],
            [
              126.97550080737068,
              37.29177872832314
            ],
            [
              126.97549342376453,
              37.29174427443113
            ]
          ]
        ]
      }
    },
    {
      "type": "Feature",
      "properties": {
        "indoor": "room",
        "level": "1",
        "ref": "",
        "name": "",
        "room_type": "",
        "_idx": 63,
        "_centroid": [
          126.9759186,
          37.2917705
        ],
        "_area_m2": 55.2
      },
      "geometry": {
        "type": "Polygon",
        "coordinates": [
          [
            [
              126.97596034367,
              37.2917353773302
            ],
            [
              126.97586452959571,
              37.29174837322551
            ],
            [
              126.97587681976509,
              37.291805722449304
            ],
            [
              126.97597263383739,
              37.291792726564395
            ],
            [
              126.97596034367,
              37.2917353773302
            ]
          ]
        ]
      }
    },
    {
      "type": "Feature",
      "properties": {
        "indoor": "room",
        "level": "1",
        "ref": "",
        "name": "",
        "room_type": "",
        "_idx": 64,
        "_centroid": [
          126.9755113,
          37.2917596
        ],
        "_area_m2": 9.8
      },
      "geometry": {
        "type": "Polygon",
        "coordinates": [
          [
            [
              126.97552187324554,
              37.291740415640206
            ],
            [
              126.97549342376453,
              37.29174427443113
            ],
            [
              126.97550080737068,
              37.29177872832314
            ],
            [
              126.97552925685082,
              37.29177486953423
            ],
            [
              126.97552187324554,
              37.291740415640206
            ]
          ]
        ]
      }
    },
    {
      "type": "Feature",
      "properties": {
        "indoor": "room",
        "level": "1",
        "ref": "",
        "name": "",
        "room_type": "",
        "_idx": 65,
        "_centroid": [
          126.9753296,
          37.2917466
        ],
        "_area_m2": 17.9
      },
      "geometry": {
        "type": "Polygon",
        "coordinates": [
          [
            [
              126.97535679964435,
              37.291762805658344
            ],
            [
              126.975348525753,
              37.29172419744233
            ],
            [
              126.97530246403022,
              37.291730445099674
            ],
            [
              126.97531073792413,
              37.291769053311114
            ],
            [
              126.97535679964435,
              37.291762805658344
            ]
          ]
        ]
      }
    },
    {
      "type": "Feature",
      "properties": {
        "indoor": "room",
        "level": "1",
        "ref": "",
        "name": "",
        "room_type": "",
        "_idx": 66,
        "_centroid": [
          126.9753789,
          37.2917439
        ],
        "_area_m2": 17.5
      },
      "geometry": {
        "type": "Polygon",
        "coordinates": [
          [
            [
              126.97535679964435,
              37.291762805658344
            ],
            [
              126.97539357311776,
              37.29175781783094
            ],
            [
              126.97540193911549,
              37.29175668309575
            ],
            [
              126.9753936652245,
              37.291718074876044
            ],
            [
              126.975348525753,
              37.29172419744233
            ],
            [
              126.97535679964435,
              37.291762805658344
            ]
          ]
        ]
      }
    },
    {
      "type": "Feature",
      "properties": {
        "indoor": "room",
        "level": "1",
        "ref": "",
        "name": "",
        "room_type": "",
        "_idx": 67,
        "_centroid": [
          126.9755637,
          37.2917392
        ],
        "_area_m2": 13.5
      },
      "geometry": {
        "type": "Polygon",
        "coordinates": [
          [
            [
              126.97558328114089,
              37.29176016117654
            ],
            [
              126.97557343138281,
              37.291714199537154
            ],
            [
              126.97554413145853,
              37.29171817368019
            ],
            [
              126.9755539812166,
              37.29176413531714
            ],
            [
              126.97558328114089,
              37.29176016117654
            ]
          ]
        ]
      }
    },
    {
      "type": "Feature",
      "properties": {
        "indoor": "room",
        "level": "1",
        "ref": "",
        "name": "",
        "room_type": "",
        "_idx": 68,
        "_centroid": [
          126.9756211,
          37.291738
        ],
        "_area_m2": 27.5
      },
      "geometry": {
        "type": "Polygon",
        "coordinates": [
          [
            [
              126.97565898968266,
              37.291715833788096
            ],
            [
              126.97557618843176,
              37.29172706467319
            ],
            [
              126.97558328114089,
              37.29176016117653
            ],
            [
              126.97566608239478,
              37.29174893029685
            ],
            [
              126.97565898968266,
              37.291715833788096
            ]
          ]
        ]
      }
    },
    {
      "type": "Feature",
      "properties": {
        "indoor": "room",
        "level": "1",
        "ref": "",
        "name": "",
        "room_type": "",
        "_idx": 69,
        "_centroid": [
          126.9754205,
          37.2917343
        ],
        "_area_m2": 17.6
      },
      "geometry": {
        "type": "Polygon",
        "coordinates": [
          [
            [
              126.97540193911549,
              37.29175668309575
            ],
            [
              126.97544726316984,
              37.29175053549639
            ],
            [
              126.97543898927853,
              37.29171192727361
            ],
            [
              126.9753936652245,
              37.291718074876044
            ],
            [
              126.97540193911549,
              37.29175668309575
            ]
          ]
        ]
      }
    },
    {
      "type": "Feature",
      "properties": {
        "indoor": "room",
        "level": "1",
        "ref": "",
        "name": "",
        "room_type": "",
        "_idx": 70,
        "_centroid": [
          126.9755056,
          37.291733
        ],
        "_area_m2": 5.3
      },
      "geometry": {
        "type": "Polygon",
        "coordinates": [
          [
            [
              126.97548941571169,
              37.291725571770655
            ],
            [
              126.97549342376453,
              37.29174427443113
            ],
            [
              126.97552187324554,
              37.291740415640206
            ],
            [
              126.97551786519155,
              37.29172171297906
            ],
            [
              126.97548941571169,
              37.291725571770655
            ]
          ]
        ]
      }
    },
    {
      "type": "Feature",
      "properties": {
        "indoor": "room",
        "level": "1",
        "ref": "",
        "name": "",
        "room_type": "",
        "_idx": 71,
        "_centroid": [
          126.9754692,
          37.2917319
        ],
        "_area_m2": 17.9
      },
      "geometry": {
        "type": "Polygon",
        "coordinates": [
          [
            [
              126.97544726316984,
              37.29175053549639
            ],
            [
              126.9754540625767,
              37.29174961324815
            ],
            [
              126.97547816606867,
              37.29174634393291
            ],
            [
              126.97549342376453,
              37.29174427443113
            ],
            [
              126.97548714964984,
              37.291714997712056
            ],
            [
              126.97548514987226,
              37.291705666205736
            ],
            [
              126.97543898927853,
              37.29171192727361
            ],
            [
              126.97544726316984,
              37.29175053549639
            ]
          ]
        ]
      }
    },
    {
      "type": "Feature",
      "properties": {
        "indoor": "room",
        "level": "1",
        "ref": "",
        "name": "",
        "room_type": "",
        "_idx": 72,
        "_centroid": [
          126.9759097,
          37.2917291
        ],
        "_area_m2": 24.7
      },
      "geometry": {
        "type": "Polygon",
        "coordinates": [
          [
            [
              126.97585904018659,
              37.29172275815749
            ],
            [
              126.97586452959571,
              37.29174837322551
            ],
            [
              126.97596034367,
              37.2917353773302
            ],
            [
              126.97595485425892,
              37.29170976225825
            ],
            [
              126.97585904018659,
              37.29172275815749
            ]
          ]
        ]
      }
    },
    {
      "type": "Feature",
      "properties": {
        "indoor": "room",
        "level": "1",
        "ref": "",
        "name": "",
        "room_type": "",
        "_idx": 73,
        "_centroid": [
          126.9757667,
          37.2917224
        ],
        "_area_m2": 9.0
      },
      "geometry": {
        "type": "Polygon",
        "coordinates": [
          [
            [
              126.97577693159508,
              37.29170617613638
            ],
            [
              126.97574350901627,
              37.29171070946341
            ],
            [
              126.9757492815034,
              37.291737645453516
            ],
            [
              126.97578270408133,
              37.29173311212903
            ],
            [
              126.97578086750359,
              37.291724542159315
            ],
            [
              126.97577693159508,
              37.29170617613638
            ]
          ]
        ]
      }
    },
    {
      "type": "Feature",
      "properties": {
        "indoor": "room",
        "level": "1",
        "ref": "",
        "name": "",
        "room_type": "",
        "_idx": 74,
        "_centroid": [
          126.9757029,
          37.2917109
        ],
        "_area_m2": 37.8
      },
      "geometry": {
        "type": "Polygon",
        "coordinates": [
          [
            [
              126.97573780040187,
              37.29168407151101
            ],
            [
              126.9756808706776,
              37.291691793270324
            ],
            [
              126.9756675363149,
              37.291693601899034
            ],
            [
              126.97567901741607,
              37.29174717583468
            ],
            [
              126.9757492815034,
              37.291737645453516
            ],
            [
              126.97573780040187,
              37.29168407151101
            ]
          ]
        ]
      }
    },
    {
      "type": "Feature",
      "properties": {
        "indoor": "room",
        "level": "1",
        "ref": "",
        "name": "",
        "room_type": "",
        "_idx": 75,
        "_centroid": [
          126.9758797,
          37.2917067
        ],
        "_area_m2": 9.0
      },
      "geometry": {
        "type": "Polygon",
        "coordinates": [
          [
            [
              126.97589425113121,
              37.2916914538254
            ],
            [
              126.97585967786704,
              37.291696143228215
            ],
            [
              126.97586520242668,
              37.29172192233199
            ],
            [
              126.97589977569177,
              37.291717232930544
            ],
            [
              126.97589425113121,
              37.2916914538254
            ]
          ]
        ]
      }
    },
    {
      "type": "Feature",
      "properties": {
        "indoor": "room",
        "level": "1",
        "ref": "",
        "name": "",
        "room_type": "",
        "_idx": 76,
        "_centroid": [
          126.9756221,
          37.2917029
        ],
        "_area_m2": 27.3
      },
      "geometry": {
        "type": "Polygon",
        "coordinates": [
          [
            [
              126.97565898968266,
              37.291715833788096
            ],
            [
              126.97565436178714,
              37.29169423877088
            ],
            [
              126.97565196192718,
              37.29168304037001
            ],
            [
              126.97556916067597,
              37.291694271259736
            ],
            [
              126.97557618843176,
              37.29172706467319
            ],
            [
              126.97565898968266,
              37.291715833788096
            ]
          ]
        ]
      }
    },
    {
      "type": "Feature",
      "properties": {
        "indoor": "room",
        "level": "1",
        "ref": "",
        "name": "",
        "room_type": "",
        "_idx": 77,
        "_centroid": [
          126.9756981,
          37.2916998
        ],
        "_area_m2": 21.4
      },
      "geometry": {
        "type": "Polygon",
        "coordinates": [
          [
            [
              126.97568223534968,
              37.29167893418203
            ],
            [
              126.97565196192718,
              37.29168304037001
            ],
            [
              126.97566608239478,
              37.29174893029685
            ],
            [
              126.97567901741607,
              37.29174717583468
            ],
            [
              126.9756675363149,
              37.291693601899034
            ],
            [
              126.9757712229804,
              37.29167953818275
            ],
            [
              126.97576858361616,
              37.291667222184394
            ],
            [
              126.97568223534968,
              37.29167893418203
            ]
          ]
        ]
      }
    },
    {
      "type": "Feature",
      "properties": {
        "indoor": "room",
        "level": "1",
        "ref": "",
        "name": "",
        "room_type": "",
        "_idx": 78,
        "_centroid": [
          126.9757929,
          37.2916978
        ],
        "_area_m2": 22.8
      },
      "geometry": {
        "type": "Polygon",
        "coordinates": [
          [
            [
              126.97578270408133,
              37.29173311212903
            ],
            [
              126.97581715843216,
              37.29172843885741
            ],
            [
              126.9758030379674,
              37.29166254890888
            ],
            [
              126.97576858361616,
              37.291667222184394
            ],
            [
              126.97578270408133,
              37.29173311212903
            ]
          ]
        ]
      }
    },
    {
      "type": "Feature",
      "properties": {
        "indoor": "room",
        "level": "1",
        "ref": "",
        "name": "",
        "room_type": "",
        "_idx": 79,
        "_centroid": [
          126.9758175,
          37.2916945
        ],
        "_area_m2": 9.8
      },
      "geometry": {
        "type": "Polygon",
        "coordinates": [
          [
            [
              126.9758030379674,
              37.29166254890888
            ],
            [
              126.97581715843216,
              37.29172843885741
            ],
            [
              126.97583188811383,
              37.2917264409731
            ],
            [
              126.97581776764895,
              37.29166055102305
            ],
            [
              126.9758030379674,
              37.29166254890888
            ]
          ]
        ]
      }
    },
    {
      "type": "Feature",
      "properties": {
        "indoor": "room",
        "level": "1",
        "ref": "",
        "name": "",
        "room_type": "",
        "_idx": 80,
        "_centroid": [
          126.9757537,
          37.2916942
        ],
        "_area_m2": 9.0
      },
      "geometry": {
        "type": "Polygon",
        "coordinates": [
          [
            [
              126.97573917408437,
              37.291690481489205
            ],
            [
              126.97574350901627,
              37.29171070946341
            ],
            [
              126.97577693159508,
              37.29170617613638
            ],
            [
              126.9757712229804,
              37.29167953818275
            ],
            [
              126.97573780040187,
              37.29168407151101
            ],
            [
              126.97573917408437,
              37.291690481489205
            ]
          ]
        ]
      }
    },
    {
      "type": "Feature",
      "properties": {
        "indoor": "room",
        "level": "1",
        "ref": "",
        "name": "",
        "room_type": "",
        "_idx": 81,
        "_centroid": [
          126.9758873,
          37.2916917
        ],
        "_area_m2": 40.9
      },
      "geometry": {
        "type": "Polygon",
        "coordinates": [
          [
            [
              126.97583188811383,
              37.2917264409731
            ],
            [
              126.97585045115113,
              37.29172392314532
            ],
            [
              126.97586520242668,
              37.29172192233199
            ],
            [
              126.97585383141961,
              37.2916688621081
            ],
            [
              126.97592994182496,
              37.29165853874091
            ],
            [
              126.97594131283277,
              37.29171159897186
            ],
            [
              126.97595485425892,
              37.29170976225825
            ],
            [
              126.975940733794,
              37.29164387229732
            ],
            [
              126.97581776764895,
              37.29166055102305
            ],
            [
              126.97583188811383,
              37.2917264409731
            ]
          ]
        ]
      }
    },
    {
      "type": "Feature",
      "properties": {
        "indoor": "room",
        "level": "1",
        "ref": "",
        "name": "",
        "room_type": "",
        "_idx": 82,
        "_centroid": [
          126.9759149,
          37.2916879
        ],
        "_area_m2": 22.2
      },
      "geometry": {
        "type": "Polygon",
        "coordinates": [
          [
            [
              126.97588840468478,
              37.29166417270315
            ],
            [
              126.97589977569177,
              37.291717232930544
            ],
            [
              126.97594131283277,
              37.29171159897186
            ],
            [
              126.97592994182496,
              37.29165853874091
            ],
            [
              126.97588840468478,
              37.29166417270315
            ]
          ]
        ]
      }
    },
    {
      "type": "Feature",
      "properties": {
        "indoor": "room",
        "level": "1",
        "ref": "",
        "name": "",
        "room_type": "",
        "_idx": 83,
        "_centroid": [
          126.9758773,
          37.2916787
        ],
        "_area_m2": 9.5
      },
      "geometry": {
        "type": "Polygon",
        "coordinates": [
          [
            [
              126.97589425113121,
              37.2916914538254
            ],
            [
              126.97589022802404,
              37.2916726809052
            ],
            [
              126.97588840468478,
              37.29166417270315
            ],
            [
              126.97585383141961,
              37.2916688621081
            ],
            [
              126.97585967786704,
              37.291696143228215
            ],
            [
              126.97589425113121,
              37.2916914538254
            ]
          ]
        ]
      }
    },
    {
      "type": "Feature",
      "properties": {
        "indoor": "room",
        "level": "1",
        "ref": "",
        "name": "",
        "room_type": "",
        "_idx": 84,
        "_centroid": [
          126.9759667,
          37.2916658
        ],
        "_area_m2": 20.5
      },
      "geometry": {
        "type": "Polygon",
        "coordinates": [
          [
            [
              126.975940733794,
              37.29164387229732
            ],
            [
              126.97595132550425,
              37.291693296127
            ],
            [
              126.97599266275301,
              37.29168768927938
            ],
            [
              126.97598207104275,
              37.29163826544602
            ],
            [
              126.975940733794,
              37.29164387229732
            ]
          ]
        ]
      }
    }
  ]
}