{
  "type": "FeatureCollection",
  "features": [
    {
      "type": "Feature",
      "properties": {
        "indoor": "room",
        "level": [
          8
        ],
        "ref": "86826",
        "name": "",
        "room_type": "",
        "_idx": 1,
        "_centroid": [
          126.9754486,
          37.2922035
        ],
        "_area_m2": 61.2
      },
      "geometry": {
        "type": "Polygon",
        "coordinates": [
          [
            [
              126.97550512175965,
              37.29223192246305
            ],
            [
              126.97548996233311,
              37.29216118491683
            ],
            [
              126.975432425614,
              37.29216898895754
            ],
            [
              126.9754039202274,
              37.292172855309026
            ],
            [
              126.97541196449716,
              37.29221039182181
            ],
            [
              126.97541907965332,
              37.29224359284959
            ],
            [
              126.97547787277976,
              37.29223561839917
            ],
            [
              126.97550512175965,
              37.29223192246305
            ]
          ]
        ]
      }
    },
    {
      "type": "Feature",
      "properties": {
        "indoor": "room",
        "level": [
          8
        ],
        "ref": "86822",
        "name": "",
        "room_type": "",
        "_idx": 2,
        "_centroid": [
          126.9755386,
          37.292191
        ],
        "_area_m2": 58.4
      },
      "geometry": {
        "type": "Polygon",
        "coordinates": [
          [
            [
              126.97548996233311,
              37.29216118491683
            ],
            [
              126.97550512175965,
              37.29223192246305
            ],
            [
              126.97558730933157,
              37.29222077488922
            ],
            [
              126.9755721499057,
              37.29215003733156
            ],
            [
              126.97548996233311,
              37.29216118491683
            ]
          ]
        ]
      }
    },
    {
      "type": "Feature",
      "properties": {
        "indoor": "room",
        "level": [
          8
        ],
        "ref": "86816",
        "name": "IQB학생연구실",
        "room_type": "lab",
        "_idx": 3,
        "_centroid": [
          126.9756066,
          37.2921818
        ],
        "_area_m2": 56.8
      },
      "geometry": {
        "type": "Polygon",
        "coordinates": [
          [
            [
              126.9755721499057,
              37.29215003733156
            ],
            [
              126.97558730933157,
              37.29222077488922
            ],
            [
              126.97558790023395,
              37.29222069474173
            ],
            [
              126.97566720073407,
              37.29220993875808
            ],
            [
              126.97565204130832,
              37.29213920118937
            ],
            [
              126.97557274080808,
              37.29214995718399
            ],
            [
              126.9755721499057,
              37.29215003733156
            ]
          ]
        ]
      }
    },
    {
      "type": "Feature",
      "properties": {
        "indoor": "room",
        "level": [
          8
        ],
        "ref": "86814",
        "name": "",
        "room_type": "",
        "_idx": 4,
        "_centroid": [
          126.9756891,
          37.2921706
        ],
        "_area_m2": 59.5
      },
      "geometry": {
        "type": "Polygon",
        "coordinates": [
          [
            [
              126.97565204130832,
              37.29213920118937
            ],
            [
              126.97566720073407,
              37.29220993875808
            ],
            [
              126.97567189269678,
              37.29220930236014
            ],
            [
              126.97575080746725,
              37.29219859869522
            ],
            [
              126.97573564804149,
              37.29212786111499
            ],
            [
              126.97565673327081,
              37.292138564790825
            ],
            [
              126.97565204130832,
              37.29213920118937
            ]
          ]
        ]
      }
    },
    {
      "type": "Feature",
      "properties": {
        "indoor": "room",
        "level": [
          8
        ],
        "ref": "86810",
        "name": "",
        "room_type": "",
        "_idx": 5,
        "_centroid": [
          126.9757722,
          37.2921593
        ],
        "_area_m2": 58.7
      },
      "geometry": {
        "type": "Polygon",
        "coordinates": [
          [
            [
              126.97573564804149,
              37.29212786111499
            ],
            [
              126.97575080746725,
              37.29219859869522
            ],
            [
              126.97575522018847,
              37.29219800017243
            ],
            [
              126.97583332326509,
              37.292187406602224
            ],
            [
              126.97581816383956,
              37.292116669010575
            ],
            [
              126.97574006076239,
              37.29212726259163
            ],
            [
              126.97573564804149,
              37.29212786111499
            ]
          ]
        ]
      }
    },
    {
      "type": "Feature",
      "properties": {
        "indoor": "room",
        "level": [
          8
        ],
        "ref": "86806",
        "name": "",
        "room_type": "",
        "_idx": 6,
        "_centroid": [
          126.9758713,
          37.2921499
        ],
        "_area_m2": 61.8
      },
      "geometry": {
        "type": "Polygon",
        "coordinates": [
          [
            [
              126.97581816383956,
              37.292116669010575
            ],
            [
              126.97583332326509,
              37.292187406602224
            ],
            [
              126.97583715384019,
              37.29218688703926
            ],
            [
              126.97588255019065,
              37.29218072967073
            ],
            [
              126.97591935726811,
              37.292175737314786
            ],
            [
              126.97592027616155,
              37.292175612679976
            ],
            [
              126.97590511673589,
              37.29210487507633
            ],
            [
              126.97590419784089,
              37.29210499971148
            ],
            [
              126.97582199441315,
              37.29211614944728
            ],
            [
              126.97581816383956,
              37.292116669010575
            ]
          ]
        ]
      }
    },
    {
      "type": "Feature",
      "properties": {
        "indoor": "room",
        "level": [
          8
        ],
        "ref": "86802",
        "name": "HKLEELAMP",
        "room_type": "lab",
        "_idx": 7,
        "_centroid": [
          126.9759512,
          37.2921472
        ],
        "_area_m2": 59.3
      },
      "geometry": {
        "type": "Polygon",
        "coordinates": [
          [
            [
              126.97590511673589,
              37.29210487507633
            ],
            [
              126.97592027616155,
              37.292175612679976
            ],
            [
              126.97592449081182,
              37.29217504102268
            ],
            [
              126.97596487312478,
              37.29216956373695
            ],
            [
              126.97600371612698,
              37.292164295236795
            ],
            [
              126.97598855670108,
              37.292093557621676
            ],
            [
              126.97590511673589,
              37.29210487507633
            ]
          ]
        ]
      }
    },
    {
      "type": "Feature",
      "properties": {
        "indoor": "room",
        "level": [
          8
        ],
        "ref": "",
        "name": "",
        "room_type": "reserved",
        "_idx": 8,
        "_centroid": [
          126.9760758,
          37.2921439
        ],
        "_area_m2": 7.1
      },
      "geometry": {
        "type": "Polygon",
        "coordinates": [
          [
            [
              126.97605660558004,
              37.292135864768305
            ],
            [
              126.97606103233768,
              37.29215652109996
            ],
            [
              126.97609509323043,
              37.292151901223455
            ],
            [
              126.97609066647465,
              37.29213124488792
            ],
            [
              126.97605660558004,
              37.292135864768305
            ]
          ]
        ]
      }
    },
    {
      "type": "Feature",
      "properties": {
        "indoor": "room",
        "level": [
          8
        ],
        "ref": "",
        "name": "",
        "room_type": "restroom",
        "_idx": 9,
        "_centroid": [
          126.9754384,
          37.2921203
        ],
        "_area_m2": 40.3
      },
      "geometry": {
        "type": "Polygon",
        "coordinates": [
          [
            [
              126.97539005883986,
              37.292103012220515
            ],
            [
              126.97539996904291,
              37.292149255666004
            ],
            [
              126.97548680376421,
              37.29213747776142
            ],
            [
              126.97547691171637,
              37.29209131902833
            ],
            [
              126.97539005883986,
              37.292103012220515
            ]
          ]
        ]
      }
    },
    {
      "type": "Feature",
      "properties": {
        "indoor": "room",
        "level": [
          8
        ],
        "ref": "",
        "name": "",
        "room_type": "reserved",
        "_idx": 10,
        "_centroid": [
          126.9755303,
          37.2921079
        ],
        "_area_m2": 5.9
      },
      "geometry": {
        "type": "Polygon",
        "coordinates": [
          [
            [
              126.97553178696546,
              37.29208392038781
            ],
            [
              126.97551901074094,
              37.29208560888578
            ],
            [
              126.97552890278827,
              37.292131767622884
            ],
            [
              126.97554143227029,
              37.292130111735275
            ],
            [
              126.97553178696546,
              37.29208392038781
            ]
          ]
        ]
      }
    },
    {
      "type": "Feature",
      "properties": {
        "indoor": "room",
        "level": [
          8
        ],
        "ref": "",
        "name": "",
        "room_type": "stairs",
        "_idx": 11,
        "_centroid": [
          126.9754997,
          37.2921072
        ],
        "_area_m2": 19.5
      },
      "geometry": {
        "type": "Polygon",
        "coordinates": [
          [
            [
              126.97548667258938,
              37.29208999510278
            ],
            [
              126.97547691171637,
              37.29209131902833
            ],
            [
              126.97548680376421,
              37.29213747776142
            ],
            [
              126.97552890278827,
              37.292131767622884
            ],
            [
              126.97551901074094,
              37.29208560888578
            ],
            [
              126.97548667258938,
              37.29208999510278
            ]
          ]
        ]
      }
    },
    {
      "type": "Feature",
      "properties": {
        "indoor": "room",
        "level": [
          8
        ],
        "ref": "",
        "name": "",
        "room_type": "elevator",
        "_idx": 12,
        "_centroid": [
          126.9755875,
          37.2921048
        ],
        "_area_m2": 19.9
      },
      "geometry": {
        "type": "Polygon",
        "coordinates": [
          [
            [
              126.97557089073689,
              37.29212607254929
            ],
            [
              126.97558794871104,
              37.29212375887532
            ],
            [
              126.97561375457003,
              37.292120258673854
            ],
            [
              126.97560386252269,
              37.29207409992969
            ],
            [
              126.97556099868974,
              37.29207991380844
            ],
            [
              126.97557089073689,
              37.29212607254929
            ]
          ]
        ]
      }
    },
    {
      "type": "Feature",
      "properties": {
        "indoor": "room",
        "level": [
          8
        ],
        "ref": "",
        "name": "",
        "room_type": "",
        "_idx": 13,
        "_centroid": [
          126.9756514,
          37.2920921
        ],
        "_area_m2": 39.3
      },
      "geometry": {
        "type": "Polygon",
        "coordinates": [
          [
            [
              126.97568912046009,
              37.29206401488716
            ],
            [
              126.97560386252269,
              37.292074099929685
            ],
            [
              126.97561375457003,
              37.292120258673854
            ],
            [
              126.97569893823895,
              37.29210982708288
            ],
            [
              126.97568912046009,
              37.29206401488716
            ]
          ]
        ]
      }
    },
    {
      "type": "Feature",
      "properties": {
        "indoor": "room",
        "level": [
          8
        ],
        "ref": "86815",
        "name": "IQB원장실",
        "room_type": "office",
        "_idx": 14,
        "_centroid": [
          126.9757134,
          37.2920844
        ],
        "_area_m2": 17.9
      },
      "geometry": {
        "type": "Polygon",
        "coordinates": [
          [
            [
              126.97572783346162,
              37.29205876400789
            ],
            [
              126.97568912046009,
              37.29206401488716
            ],
            [
              126.97569893823895,
              37.29210982708288
            ],
            [
              126.97573775776141,
              37.29210507324468
            ],
            [
              126.97572783346162,
              37.29205876400789
            ]
          ]
        ]
      }
    },
    {
      "type": "Feature",
      "properties": {
        "indoor": "room",
        "level": [
          8
        ],
        "ref": "86813",
        "name": "회의실",
        "room_type": "lounge",
        "_idx": 15,
        "_centroid": [
          126.975756,
          37.2920789
        ],
        "_area_m2": 21.7
      },
      "geometry": {
        "type": "Polygon",
        "coordinates": [
          [
            [
              126.97572783346162,
              37.29205876400789
            ],
            [
              126.97573775776141,
              37.29210507324468
            ],
            [
              126.97578415249738,
              37.29209939174592
            ],
            [
              126.97577410089839,
              37.29205248847423
            ],
            [
              126.97572783346162,
              37.29205876400789
            ]
          ]
        ]
      }
    },
    {
      "type": "Feature",
      "properties": {
        "indoor": "room",
        "level": [
          8
        ],
        "ref": "86811",
        "name": "LAMP-ERC 방문교수실2",
        "room_type": "office",
        "_idx": 16,
        "_centroid": [
          126.9757999,
          37.2920731
        ],
        "_area_m2": 19.6
      },
      "geometry": {
        "type": "Polygon",
        "coordinates": [
          [
            [
              126.97582567543941,
              37.292093759741256
            ],
            [
              126.97581562384111,
              37.29204685646658
            ],
            [
              126.97577410089839,
              37.29205248847423
            ],
            [
              126.97578415249738,
              37.29209939174592
            ],
            [
              126.97582567543941,
              37.292093759741256
            ]
          ]
        ]
      }
    },
    {
      "type": "Feature",
      "properties": {
        "indoor": "room",
        "level": [
          8
        ],
        "ref": "86809",
        "name": "조규진교수실",
        "room_type": "office",
        "_idx": 17,
        "_centroid": [
          126.9758424,
          37.2920674
        ],
        "_area_m2": 20.5
      },
      "geometry": {
        "type": "Polygon",
        "coordinates": [
          [
            [
              126.97586917555212,
              37.29208785956112
            ],
            [
              126.97585912395407,
              37.29204095628337
            ],
            [
              126.97581562384111,
              37.29204685646658
            ],
            [
              126.97582567543941,
              37.292093759741256
            ],
            [
              126.97586917555212,
              37.29208785956112
            ]
          ]
        ]
      }
    },
    {
      "type": "Feature",
      "properties": {
        "indoor": "room",
        "level": [
          8
        ],
        "ref": "86807",
        "name": "안중호교수실",
        "room_type": "office",
        "_idx": 18,
        "_centroid": [
          126.9758847,
          37.2920616
        ],
        "_area_m2": 19.4
      },
      "geometry": {
        "type": "Polygon",
        "coordinates": [
          [
            [
              126.97591029027988,
              37.292082282924994
            ],
            [
              126.97590023868082,
              37.29203537964452
            ],
            [
              126.97585912395407,
              37.29204095628337
            ],
            [
              126.97586917555212,
              37.29208785956112
            ],
            [
              126.97591029027988,
              37.292082282924994
            ]
          ]
        ]
      }
    },
    {
      "type": "Feature",
      "properties": {
        "indoor": "room",
        "level": [
          8
        ],
        "ref": "86801",
        "name": "LAMP-ERC실험실",
        "room_type": "lab",
        "_idx": 19,
        "_centroid": [
          126.9759704,
          37.2920452
        ],
        "_area_m2": 57.1
      },
      "geometry": {
        "type": "Polygon",
        "coordinates": [
          [
            [
              126.97598852033823,
              37.29202340546748
            ],
            [
              126.97590023868082,
              37.29203537964452
            ],
            [
              126.97591029027988,
              37.292082282924994
            ],
            [
              126.97603141823029,
              37.292065853617515
            ],
            [
              126.9760213666313,
              37.29201895032492
            ],
            [
              126.97598852033823,
              37.29202340546748
            ]
          ]
        ]
      }
    },
    {
      "type": "Feature",
      "properties": {
        "indoor": "room",
        "level": [
          8
        ],
        "ref": "",
        "name": "",
        "room_type": "stairs",
        "_idx": 20,
        "_centroid": [
          126.9760482,
          37.2920394
        ],
        "_area_m2": 20.5
      },
      "geometry": {
        "type": "Polygon",
        "coordinates": [
          [
            [
              126.97602136663129,
              37.29201895032493
            ],
            [
              126.97603141823029,
              37.29206585361752
            ],
            [
              126.97607499532455,
              37.29205994299507
            ],
            [
              126.97606494372486,
              37.29201303969907
            ],
            [
              126.97602136663129,
              37.29201895032493
            ]
          ]
        ]
      }
    }
  ]
}