{
  "type": "FeatureCollection",
  "features": [
    {
      "type": "Feature",
      "properties": {
        "building": "university",
        "name": "N센터",
        "loc_ref": "NCTR"
      },
      "geometry": {
        "type": "Polygon",
        "coordinates": [
          [
            [
              126.97540525728395,
              37.29224546765622
            ],
            [
              126.97563179532128,
              37.292214741006944
            ],
            [
              126.97562182217904,
              37.29216820390899
            ],
            [
              126.97578620773369,
              37.29214590733466
            ],
            [
              126.97579634831206,
              37.292193225744
            ],
            [
              126.97609488090389,
              37.29215273403089
            ],
            [
              126.97606494372486,
              37.29201303969907
            ],
            [
              126.97568912046009,
              37.29206401488716
            ],
            [
              126.97564063256675,
              37.29183775790598
            ],
            [
              126.97601397105751,
              37.29178711959067
            ],
            [
              126.97598207104275,
              37.29163826544602
            ],
            [
              126.97530246403022,
              37.291730445099674
            ],
            [
              126.97531812152863,
              37.291803507193016
            ],
            [
              126.97522278666283,
              37.291816438078186
            ],
            [
              126.97530150424406,
              37.29218375431788
            ],
            [
              126.97539021008755,
              37.29217172262876
            ],
            [
              126.97540525728395,
              37.29224546765622
            ]
          ]
        ]
      }
    }
  ]
}