{
  "type": "FeatureCollection",
  "features": [
    {
      "type": "Feature",
      "properties": {
        "indoor": "corridor",
        "level": "2"
      },
      "geometry": {
        "type": "Polygon",
        "coordinates": [
          [
            [
              126.97609066647462,
              37.29213124488791
            ],
            [
              126.97607499532455,
              37.29205994299506
            ],
            [
              126.97603141823029,
              37.292065853617515
            ],
            [
              126.97591029027988,
              37.292082282924994
            ],
            [
              126.97586917555213,
              37.292087859561114
            ],
            [
              126.97582567543938,
              37.29209375974125
            ],
            [
              126.97578415249738,
              37.29209939174592
            ],
            [
              126.97561375457003,
              37.292120258673854
            ],
            [
              126.97557089073689,
              37.29212607254929
            ],
            [
              126.97561663589492,
              37.29214400343945
            ],
            [
              126.97578102144948,
              37.29212170685522
            ],
            [
              126.975915811552,
              37.292103424477084
            ],
            [
              126.97600160192735,
              37.29209178821746
            ],
            [
              126.97601676135444,
              37.29216252583027
            ],
            [
              126.97606103233768,
              37.29215652109996
            ],
            [
              126.97605660558004,
              37.292135864768305
            ],
            [
              126.97609066647462,
              37.29213124488791
            ]
          ]
        ]
      }
    },
    {
      "type": "Feature",
      "properties": {
        "indoor": "corridor",
        "level": "2"
      },
      "geometry": {
        "type": "Polygon",
        "coordinates": [
          [
            [
              126.97561663589492,
              37.29214400343945
            ],
            [
              126.97548898062591,
              37.2921613180713
            ],
            [
              126.97540499531638,
              37.29217270948844
            ],
            [
              126.97539996904291,
              37.292149255666004
            ],
            [
              126.97548680376421,
              37.292137477761415
            ],
            [
              126.97552890278827,
              37.292131767622884
            ],
            [
              126.97554143227029,
              37.292130111735275
            ],
            [
              126.97557089073689,
              37.29212607254929
            ],
            [
              126.97561663589492,
              37.29214400343945
            ]
          ]
        ]
      }
    },
    {
      "type": "Feature",
      "properties": {
        "indoor": "corridor",
        "level": "2"
      },
      "geometry": {
        "type": "Polygon",
        "coordinates": [
          [
            [
              126.97557089073689,
              37.29212607254929
            ],
            [
              126.97554143227029,
              37.292130111735275
            ],
            [
              126.97553178696546,
              37.29208392038781
            ],
            [
              126.97552306898322,
              37.29204299587914
            ],
            [
              126.97551901721414,
              37.2920239097317
            ],
            [
              126.97554108231837,
              37.29202172333862
            ],
            [
              126.97555376447556,
              37.292080901467
            ],
            [
              126.97556099868973,
              37.292079913808436
            ],
            [
              126.97557089073689,
              37.29212607254929
            ]
          ]
        ]
      }
    },
    {
      "type": "Feature",
      "properties": {
        "indoor": "corridor",
        "level": "2"
      },
      "geometry": {
        "type": "Polygon",
        "coordinates": [
          [
            [
              126.97551901721414,
              37.2920239097317
            ],
            [
              126.97546663137238,
              37.2920310151421
            ],
            [
              126.9754606178932,
              37.29200295472618
            ],
            [
              126.97540578395763,
              37.29201039218851
            ],
            [
              126.97541179743689,
              37.29203845260129
            ],
            [
              126.9753594071585,
              37.292045558612465
            ],
            [
              126.97533431315738,
              37.292058797575784
            ],
            [
              126.97533888816405,
              37.292078647550866
            ],
            [
              126.97534540752399,
              37.292109068543766
            ],
            [
              126.97536810741346,
              37.29210598962274
            ],
            [
              126.97536920456025,
              37.29210584081042
            ],
            [
              126.97536048657804,
              37.29206491631368
            ],
            [
              126.97546819373413,
              37.292050394523685
            ],
            [
              126.97552306898322,
              37.29204299587914
            ],
            [
              126.97551901721414,
              37.2920239097317
            ]
          ]
        ]
      }
    },
    {
      "type": "Feature",
      "properties": {
        "indoor": "corridor",
        "level": "2"
      },
      "geometry": {
        "type": "Polygon",
        "coordinates": [
          [
            [
              126.9753594071585,
              37.292045558612465
            ],
            [
              126.97533431315738,
              37.292058797575784
            ],
            [
              126.97532064580453,
              37.291993524057524
            ],
            [
              126.97530351546045,
              37.291913589530466
            ],
            [
              126.97529586195864,
              37.29187787632393
            ],
            [
              126.9753260953341,
              37.29189011710774
            ],
            [
              126.97534752966963,
              37.29199013524412
            ],
            [
              126.9753594071585,
              37.292045558612465
            ]
          ]
        ]
      }
    },
    {
      "type": "Feature",
      "properties": {
        "indoor": "corridor",
        "level": "2"
      },
      "geometry": {
        "type": "Polygon",
        "coordinates": [
          [
            [
              126.97543961806082,
              37.291977644727965
            ],
            [
              126.97543321677034,
              37.29194777465251
            ],
            [
              126.97542713893914,
              37.291919413922614
            ],
            [
              126.97542269703978,
              37.291898686866375
            ],
            [
              126.97541818372781,
              37.291877626574426
            ],
            [
              126.97543100552552,
              37.291860147557614
            ],
            [
              126.97534553436779,
              37.29187113893922
            ],
            [
              126.97529586195864,
              37.29187787632393
            ],
            [
              126.9753260953341,
              37.29189011710774
            ],
            [
              126.97536236869146,
              37.29188519712187
            ],
            [
              126.9753958873146,
              37.2918806507782
            ],
            [
              126.97540128400557,
              37.29190583313395
            ],
            [
              126.97540646484399,
              37.291930008266256
            ],
            [
              126.97541180181963,
              37.291954911975004
            ],
            [
              126.97541732164933,
              37.29198066892803
            ],
            [
              126.97543961806082,
              37.291977644727965
            ]
          ]
        ]
      }
    },
    {
      "type": "Feature",
      "properties": {
        "indoor": "corridor",
        "level": "2"
      },
      "geometry": {
        "type": "Polygon",
        "coordinates": [
          [
            [
              126.97533328821368,
              37.291813995152125
            ],
            [
              126.97533067568357,
              37.29180180439155
            ],
            [
              126.97550091641415,
              37.29178074893083
            ],
            [
              126.9755033774346,
              37.2917922327133
            ],
            [
              126.97549222562428,
              37.29179374530743
            ],
            [
              126.97550495298863,
              37.29185313456323
            ],
            [
              126.97550763967207,
              37.29186567133446
            ],
            [
              126.97548570539031,
              37.29186846818201
            ],
            [
              126.97545228133258,
              37.29187300169949
            ],
            [
              126.97541818372781,
              37.291877626574426
            ],
            [
              126.97543100552552,
              37.291860147557614
            ],
            [
              126.97547339678728,
              37.29185439775991
            ],
            [
              126.97546100167115,
              37.29179655886357
            ],
            [
              126.9754186104096,
              37.29180230866523
            ],
            [
              126.97533328821368,
              37.291813995152125
            ]
          ]
        ]
      }
    },
    {
      "type": "Feature",
      "properties": {
        "indoor": "corridor",
        "level": "2"
      },
      "geometry": {
        "type": "Polygon",
        "coordinates": [
          [
            [
              126.97551901721414,
              37.2920239097317
            ],
            [
              126.97550713972528,
              37.29196848634741
            ],
            [
              126.97550073843522,
              37.291938616268006
            ],
            [
              126.97548570539031,
              37.29186846818201
            ],
            [
              126.97550763967207,
              37.29186567133447
            ],
            [
              126.97551643753361,
              37.291906724454634
            ],
            [
              126.97552261411174,
              37.291935545968194
            ],
            [
              126.97552883264976,
              37.29196456326635
            ],
            [
              126.97554108231837,
              37.29202172333862
            ],
            [
              126.97551901721414,
              37.2920239097317
            ]
          ]
        ]
      }
    },
    {
      "type": "Feature",
      "properties": {
        "indoor": "corridor",
        "level": "2"
      },
      "geometry": {
        "type": "Polygon",
        "coordinates": [
          [
            [
              126.97596791773722,
              37.29177072051798
            ],
            [
              126.97595132550423,
              37.291693296127
            ],
            [
              126.97599266275299,
              37.29168768927938
            ],
            [
              126.97600925495739,
              37.2917651135426
            ],
            [
              126.97596791773722,
              37.29177072051798
            ]
          ]
        ]
      }
    }
  ]
}