{
  "type": "FeatureCollection",
  "features": [
    {
      "type": "Feature",
      "properties": {
        "indoor": "room",
        "level": [
          3
        ],
        "ref": "",
        "name": "",
        "room_type": "reserved",
        "_idx": 1,
        "_centroid": [
          126.9754049,
          37.2922091
        ],
        "_area_m2": 9.3
      },
      "geometry": {
        "type": "Polygon",
        "coordinates": [
          [
            [
              126.97541907965332,
              37.29224359284959
            ],
            [
              126.9754039202274,
              37.292172855309026
            ],
            [
              126.9753908019129,
              37.2921746346225
            ],
            [
              126.97540596133925,
              37.29224537216118
            ],
            [
              126.97541907965332,
              37.29224359284959
            ]
          ]
        ]
      }
    },
    {
      "type": "Feature",
      "properties": {
        "indoor": "room",
        "level": [
          3
        ],
        "ref": "86326",
        "name": "심리물리실험실",
        "room_type": "lab",
        "_idx": 2,
        "_centroid": [
          126.9754501,
          37.2921957
        ],
        "_area_m2": 61.2
      },
      "geometry": {
        "type": "Polygon",
        "coordinates": [
          [
            [
              126.97548996233311,
              37.29216118491683
            ],
            [
              126.975432425614,
              37.29216898895754
            ],
            [
              126.9754039202274,
              37.292172855309026
            ],
            [
              126.97541907965332,
              37.29224359284959
            ],
            [
              126.97550512175965,
              37.29223192246305
            ],
            [
              126.97548996233311,
              37.29216118491683
            ]
          ]
        ]
      }
    },
    {
      "type": "Feature",
      "properties": {
        "indoor": "room",
        "level": [
          3
        ],
        "ref": "86322",
        "name": "대학원생연구실",
        "room_type": "lab",
        "_idx": 3,
        "_centroid": [
          126.9755389,
          37.2921909
        ],
        "_area_m2": 58.9
      },
      "geometry": {
        "type": "Polygon",
        "coordinates": [
          [
            [
              126.97548996233311,
              37.29216118491683
            ],
            [
              126.97550512175965,
              37.29223192246305
            ],
            [
              126.97558790023395,
              37.29222069474173
            ],
            [
              126.97557274080808,
              37.29214995718399
            ],
            [
              126.97548996233311,
              37.29216118491683
            ]
          ]
        ]
      }
    },
    {
      "type": "Feature",
      "properties": {
        "indoor": "room",
        "level": [
          3
        ],
        "ref": "86316",
        "name": "",
        "room_type": "",
        "_idx": 4,
        "_centroid": [
          126.9756223,
          37.2921796
        ],
        "_area_m2": 59.7
      },
      "geometry": {
        "type": "Polygon",
        "coordinates": [
          [
            [
              126.97557274080808,
              37.29214995718399
            ],
            [
              126.97558790023395,
              37.29222069474173
            ],
            [
              126.97567189269678,
              37.29220930236014
            ],
            [
              126.97565673327081,
              37.292138564790825
            ],
            [
              126.97557274080808,
              37.29214995718399
            ]
          ]
        ]
      }
    },
    {
      "type": "Feature",
      "properties": {
        "indoor": "room",
        "level": [
          3
        ],
        "ref": "86331",
        "name": "학완라우교수실",
        "room_type": "office",
        "_idx": 5,
        "_centroid": [
          126.9753212,
          37.2921694
        ],
        "_area_m2": 20.1
      },
      "geometry": {
        "type": "Polygon",
        "coordinates": [
          [
            [
              126.97529370179986,
              37.2921525872297
            ],
            [
              126.97530013353101,
              37.29218320024565
            ],
            [
              126.9753009403824,
              37.2921870406034
            ],
            [
              126.97535918929474,
              37.29217929506972
            ],
            [
              126.97535195072467,
              37.292144841690764
            ],
            [
              126.97529370179986,
              37.2921525872297
            ]
          ]
        ]
      }
    },
    {
      "type": "Feature",
      "properties": {
        "indoor": "room",
        "level": [
          3
        ],
        "ref": "86314",
        "name": "다목적실",
        "room_type": "office",
        "_idx": 6,
        "_centroid": [
          126.975706,
          37.2921683
        ],
        "_area_m2": 59.2
      },
      "geometry": {
        "type": "Polygon",
        "coordinates": [
          [
            [
              126.97565673327081,
              37.292138564790825
            ],
            [
              126.97567189269678,
              37.29220930236014
            ],
            [
              126.97575522018847,
              37.29219800017243
            ],
            [
              126.97574006076239,
              37.29212726259163
            ],
            [
              126.97565673327081,
              37.292138564790825
            ]
          ]
        ]
      }
    },
    {
      "type": "Feature",
      "properties": {
        "indoor": "room",
        "level": [
          3
        ],
        "ref": "86322",
        "name": "대학원생연구실",
        "room_type": "lab",
        "_idx": 7,
        "_centroid": [
          126.9753808,
          37.2921641
        ],
        "_area_m2": 10.5
      },
      "geometry": {
        "type": "Polygon",
        "coordinates": [
          [
            [
              126.97535918929474,
              37.292179295069715
            ],
            [
              126.9753908019129,
              37.2921746346225
            ],
            [
              126.9754039202274,
              37.292172855309026
            ],
            [
              126.97539850994244,
              37.292149446712436
            ],
            [
              126.97537806481434,
              37.29215243728792
            ],
            [
              126.97535427108879,
              37.29215588021341
            ],
            [
              126.97535918929474,
              37.292179295069715
            ]
          ]
        ]
      }
    },
    {
      "type": "Feature",
      "properties": {
        "indoor": "room",
        "level": [
          3
        ],
        "ref": "86310",
        "name": "집적 신경보철 연구실",
        "room_type": "lab",
        "_idx": 8,
        "_centroid": [
          126.9757886,
          37.2921571
        ],
        "_area_m2": 58.3
      },
      "geometry": {
        "type": "Polygon",
        "coordinates": [
          [
            [
              126.97574006076239,
              37.29212726259163
            ],
            [
              126.97575522018847,
              37.29219800017243
            ],
            [
              126.97583715384019,
              37.29218688703926
            ],
            [
              126.97582199441315,
              37.29211614944728
            ],
            [
              126.97574006076239,
              37.29212726259163
            ]
          ]
        ]
      }
    },
    {
      "type": "Feature",
      "properties": {
        "indoor": "room",
        "level": [
          3
        ],
        "ref": "86306",
        "name": "MR첨단영상연구실",
        "room_type": "lab",
        "_idx": 9,
        "_centroid": [
          126.9758707,
          37.2921459
        ],
        "_area_m2": 58.5
      },
      "geometry": {
        "type": "Polygon",
        "coordinates": [
          [
            [
              126.97582199441315,
              37.29211614944728
            ],
            [
              126.97583715384019,
              37.29218688703926
            ],
            [
              126.97591935726811,
              37.292175737314786
            ],
            [
              126.97590419784089,
              37.29210499971148
            ],
            [
              126.97582199441315,
              37.29211614944728
            ]
          ]
        ]
      }
    },
    {
      "type": "Feature",
      "properties": {
        "indoor": "room",
        "level": [
          3
        ],
        "ref": "",
        "name": "",
        "room_type": "reserved",
        "_idx": 10,
        "_centroid": [
          126.9760758,
          37.2921439
        ],
        "_area_m2": 7.1
      },
      "geometry": {
        "type": "Polygon",
        "coordinates": [
          [
            [
              126.97605660558004,
              37.292135864768305
            ],
            [
              126.97606103233768,
              37.29215652109996
            ],
            [
              126.97609509323043,
              37.292151901223455
            ],
            [
              126.97609066647465,
              37.29213124488792
            ],
            [
              126.97605660558004,
              37.292135864768305
            ]
          ]
        ]
      }
    },
    {
      "type": "Feature",
      "properties": {
        "indoor": "room",
        "level": [
          3
        ],
        "ref": "86302",
        "name": "의료영상신호연구실",
        "room_type": "lab",
        "_idx": 11,
        "_centroid": [
          126.975954,
          37.2921346
        ],
        "_area_m2": 60
      },
      "geometry": {
        "type": "Polygon",
        "coordinates": [
          [
            [
              126.97590419784089,
              37.29210499971148
            ],
            [
              126.97591935726811,
              37.292175737314786
            ],
            [
              126.97600371612698,
              37.292164295236795
            ],
            [
              126.97598855670108,
              37.292093557621676
            ],
            [
              126.97590419784089,
              37.29210499971148
            ]
          ]
        ]
      }
    },
    {
      "type": "Feature",
      "properties": {
        "indoor": "room",
        "level": [
          3
        ],
        "ref": "86333",
        "name": "손한샘교수실",
        "room_type": "office",
        "_idx": 12,
        "_centroid": [
          126.9753191,
          37.2921309
        ],
        "_area_m2": 20.9
      },
      "geometry": {
        "type": "Polygon",
        "coordinates": [
          [
            [
              126.97529370179986,
              37.2921525872297
            ],
            [
              126.97535195072467,
              37.292144841690764
            ],
            [
              126.97534445726193,
              37.29210917510055
            ],
            [
              126.97528620833874,
              37.292116920642826
            ],
            [
              126.97529370179986,
              37.2921525872297
            ]
          ]
        ]
      }
    },
    {
      "type": "Feature",
      "properties": {
        "indoor": "room",
        "level": [
          3
        ],
        "ref": "",
        "name": "",
        "room_type": "reserved",
        "_idx": 13,
        "_centroid": [
          126.9753841,
          37.2921277
        ],
        "_area_m2": 10.2
      },
      "geometry": {
        "type": "Polygon",
        "coordinates": [
          [
            [
              126.97539996904291,
              37.292149255666004
            ],
            [
              126.97539005883986,
              37.292103012220515
            ],
            [
              126.97536810741344,
              37.29210598962275
            ],
            [
              126.97537806481434,
              37.29215243728792
            ],
            [
              126.97539996904291,
              37.292149255666004
            ]
          ]
        ]
      }
    },
    {
      "type": "Feature",
      "properties": {
        "indoor": "room",
        "level": [
          3
        ],
        "ref": "",
        "name": "",
        "room_type": "restroom",
        "_idx": 14,
        "_centroid": [
          126.9754384,
          37.2921203
        ],
        "_area_m2": 40.3
      },
      "geometry": {
        "type": "Polygon",
        "coordinates": [
          [
            [
              126.97539005883986,
              37.292103012220515
            ],
            [
              126.97539996904291,
              37.292149255666004
            ],
            [
              126.97548680376421,
              37.29213747776142
            ],
            [
              126.97547691171637,
              37.29209131902833
            ],
            [
              126.97539005883986,
              37.292103012220515
            ]
          ]
        ]
      }
    },
    {
      "type": "Feature",
      "properties": {
        "indoor": "room",
        "level": [
          3
        ],
        "ref": "",
        "name": "",
        "room_type": "stairs",
        "_idx": 15,
        "_centroid": [
          126.9755303,
          37.2921079
        ],
        "_area_m2": 5.9
      },
      "geometry": {
        "type": "Polygon",
        "coordinates": [
          [
            [
              126.97553178696546,
              37.29208392038781
            ],
            [
              126.97551901074094,
              37.29208560888578
            ],
            [
              126.97552890278827,
              37.292131767622884
            ],
            [
              126.97554143227029,
              37.292130111735275
            ],
            [
              126.97553178696546,
              37.29208392038781
            ]
          ]
        ]
      }
    },
    {
      "type": "Feature",
      "properties": {
        "indoor": "room",
        "level": [
          3
        ],
        "ref": "",
        "name": "",
        "room_type": "stairs",
        "_idx": 16,
        "_centroid": [
          126.9754997,
          37.2921072
        ],
        "_area_m2": 19.5
      },
      "geometry": {
        "type": "Polygon",
        "coordinates": [
          [
            [
              126.97548667258938,
              37.29208999510278
            ],
            [
              126.97547691171637,
              37.29209131902833
            ],
            [
              126.97548680376421,
              37.29213747776142
            ],
            [
              126.97552890278827,
              37.292131767622884
            ],
            [
              126.97551901074094,
              37.29208560888578
            ],
            [
              126.97548667258938,
              37.29208999510278
            ]
          ]
        ]
      }
    },
    {
      "type": "Feature",
      "properties": {
        "indoor": "room",
        "level": [
          3
        ],
        "ref": "",
        "name": "",
        "room_type": "elevator",
        "_idx": 17,
        "_centroid": [
          126.9755875,
          37.2921048
        ],
        "_area_m2": 19.9
      },
      "geometry": {
        "type": "Polygon",
        "coordinates": [
          [
            [
              126.97557089073689,
              37.29212607254929
            ],
            [
              126.97558794871104,
              37.29212375887532
            ],
            [
              126.97561375457003,
              37.292120258673854
            ],
            [
              126.97560386252269,
              37.29207409992969
            ],
            [
              126.97556099868974,
              37.29207991380844
            ],
            [
              126.97557089073689,
              37.29212607254929
            ]
          ]
        ]
      }
    },
    {
      "type": "Feature",
      "properties": {
        "indoor": "room",
        "level": [
          3
        ],
        "ref": "86334",
        "name": "카유엣리우교수실",
        "room_type": "office",
        "_idx": 18,
        "_centroid": [
          126.9753123,
          37.2920988
        ],
        "_area_m2": 16.7
      },
      "geometry": {
        "type": "Polygon",
        "coordinates": [
          [
            [
              126.97528620833874,
              37.292116920642826
            ],
            [
              126.97534445726193,
              37.29210917510055
            ],
            [
              126.9753384522698,
              37.29208059317519
            ],
            [
              126.97528020334796,
              37.292088338720255
            ],
            [
              126.97528620833874,
              37.292116920642826
            ]
          ]
        ]
      }
    },
    {
      "type": "Feature",
      "properties": {
        "indoor": "room",
        "level": [
          3
        ],
        "ref": "86315",
        "name": "지능형정밀헬스케어연구소/글로벌바이오메디컬공학과/지능형정밀헬스케어융합전공사무실",
        "room_type": "lab",
        "_idx": 19,
        "_centroid": [
          126.9757134,
          37.2920844
        ],
        "_area_m2": 17.9
      },
      "geometry": {
        "type": "Polygon",
        "coordinates": [
          [
            [
              126.97572783346162,
              37.29205876400789
            ],
            [
              126.97568912046009,
              37.29206401488716
            ],
            [
              126.97569893823895,
              37.29210982708288
            ],
            [
              126.97573775776141,
              37.29210507324468
            ],
            [
              126.97572783346162,
              37.29205876400789
            ]
          ]
        ]
      }
    },
    {
      "type": "Feature",
      "properties": {
        "indoor": "room",
        "level": [
          3
        ],
        "ref": "86313",
        "name": "박한규교수실",
        "room_type": "office",
        "_idx": 20,
        "_centroid": [
          126.975756,
          37.2920789
        ],
        "_area_m2": 21.7
      },
      "geometry": {
        "type": "Polygon",
        "coordinates": [
          [
            [
              126.97572783346162,
              37.29205876400789
            ],
            [
              126.97573775776141,
              37.29210507324468
            ],
            [
              126.97578415249738,
              37.29209939174592
            ],
            [
              126.97577410089839,
              37.29205248847423
            ],
            [
              126.97572783346162,
              37.29205876400789
            ]
          ]
        ]
      }
    },
    {
      "type": "Feature",
      "properties": {
        "indoor": "room",
        "level": [
          3
        ],
        "ref": "86311",
        "name": "박장연교수실",
        "room_type": "office",
        "_idx": 21,
        "_centroid": [
          126.9757999,
          37.2920731
        ],
        "_area_m2": 19.6
      },
      "geometry": {
        "type": "Polygon",
        "coordinates": [
          [
            [
              126.97582567543941,
              37.292093759741256
            ],
            [
              126.97581562384111,
              37.29204685646658
            ],
            [
              126.97577410089839,
              37.29205248847423
            ],
            [
              126.97578415249738,
              37.29209939174592
            ],
            [
              126.97582567543941,
              37.292093759741256
            ]
          ]
        ]
      }
    },
    {
      "type": "Feature",
      "properties": {
        "indoor": "room",
        "level": [
          3
        ],
        "ref": "86335",
        "name": "우충완교수실",
        "room_type": "office",
        "_idx": 22,
        "_centroid": [
          126.9753124,
          37.2920705
        ],
        "_area_m2": 16.9
      },
      "geometry": {
        "type": "Polygon",
        "coordinates": [
          [
            [
              126.97533671687954,
              37.292072333259334
            ],
            [
              126.97533236611767,
              37.29205162498651
            ],
            [
              126.97527411720503,
              37.2920593705382
            ],
            [
              126.97528020334796,
              37.292088338720255
            ],
            [
              126.9753384522698,
              37.29208059317519
            ],
            [
              126.97533671687954,
              37.292072333259334
            ]
          ]
        ]
      }
    },
    {
      "type": "Feature",
      "properties": {
        "indoor": "room",
        "level": [
          3
        ],
        "ref": "86309",
        "name": "박재석교수실",
        "room_type": "office",
        "_idx": 23,
        "_centroid": [
          126.9758424,
          37.2920674
        ],
        "_area_m2": 20.5
      },
      "geometry": {
        "type": "Polygon",
        "coordinates": [
          [
            [
              126.97586917555212,
              37.29208785956112
            ],
            [
              126.97585912395407,
              37.29204095628337
            ],
            [
              126.97581562384111,
              37.29204685646658
            ],
            [
              126.97582567543941,
              37.292093759741256
            ],
            [
              126.97586917555212,
              37.29208785956112
            ]
          ]
        ]
      }
    },
    {
      "type": "Feature",
      "properties": {
        "indoor": "room",
        "level": [
          3
        ],
        "ref": "86346",
        "name": "회의실1",
        "room_type": "lounge",
        "_idx": 24,
        "_centroid": [
          126.9754168,
          37.292062
        ],
        "_area_m2": 45.2
      },
      "geometry": {
        "type": "Polygon",
        "coordinates": [
          [
            [
              126.97546701875513,
              37.29203409276979
            ],
            [
              126.97542643248302,
              37.292039489661676
            ],
            [
              126.9753578949816,
              37.29204860332085
            ],
            [
              126.97536656440455,
              37.29208986708215
            ],
            [
              126.97540721158103,
              37.292084462094984
            ],
            [
              126.97547568817822,
              37.292075356538106
            ],
            [
              126.97546701875513,
              37.29203409276979
            ]
          ]
        ]
      }
    },
    {
      "type": "Feature",
      "properties": {
        "indoor": "room",
        "level": [
          3
        ],
        "ref": "86307",
        "name": "박진형교수실",
        "room_type": "office",
        "_idx": 25,
        "_centroid": [
          126.9758847,
          37.2920616
        ],
        "_area_m2": 19.4
      },
      "geometry": {
        "type": "Polygon",
        "coordinates": [
          [
            [
              126.97591029027988,
              37.292082282924994
            ],
            [
              126.97590023868082,
              37.29203537964452
            ],
            [
              126.97585912395407,
              37.29204095628337
            ],
            [
              126.97586917555212,
              37.29208785956112
            ],
            [
              126.97591029027988,
              37.292082282924994
            ]
          ]
        ]
      }
    },
    {
      "type": "Feature",
      "properties": {
        "indoor": "room",
        "level": [
          3
        ],
        "ref": "",
        "name": "",
        "room_type": "reserved",
        "_idx": 26,
        "_centroid": [
          126.9754911,
          37.2920521
        ],
        "_area_m2": 16.4
      },
      "geometry": {
        "type": "Polygon",
        "coordinates": [
          [
            [
              126.97546701875513,
              37.29203409276979
            ],
            [
              126.97547568817822,
              37.292075356538106
            ],
            [
              126.9755152349729,
              37.292070097871594
            ],
            [
              126.97550656555846,
              37.29202883409914
            ],
            [
              126.97546701875513,
              37.29203409276979
            ]
          ]
        ]
      }
    },
    {
      "type": "Feature",
      "properties": {
        "indoor": "room",
        "level": [
          3
        ],
        "ref": "86355",
        "name": "휴게실",
        "room_type": "lounge",
        "_idx": 27,
        "_centroid": [
          126.9755668,
          37.2920487
        ],
        "_area_m2": 23
      },
      "geometry": {
        "type": "Polygon",
        "coordinates": [
          [
            [
              126.97554108231837,
              37.29202172333862
            ],
            [
              126.9755798012183,
              37.292016471658116
            ],
            [
              126.9755924833755,
              37.292075649790625
            ],
            [
              126.97555376447556,
              37.292080901467
            ],
            [
              126.97554108231837,
              37.29202172333862
            ]
          ]
        ]
      }
    },
    {
      "type": "Feature",
      "properties": {
        "indoor": "room",
        "level": [
          3
        ],
        "ref": "86301",
        "name": "박진형교수실험실",
        "room_type": "lab",
        "_idx": 28,
        "_centroid": [
          126.9759704,
          37.2920452
        ],
        "_area_m2": 57.1
      },
      "geometry": {
        "type": "Polygon",
        "coordinates": [
          [
            [
              126.97598852033823,
              37.29202340546748
            ],
            [
              126.97590023868082,
              37.29203537964452
            ],
            [
              126.97591029027988,
              37.292082282924994
            ],
            [
              126.97603141823029,
              37.292065853617515
            ],
            [
              126.9760213666313,
              37.29201895032492
            ],
            [
              126.97598852033823,
              37.29202340546748
            ]
          ]
        ]
      }
    },
    {
      "type": "Feature",
      "properties": {
        "indoor": "room",
        "level": [
          3
        ],
        "ref": "86336",
        "name": "아우렐리오코르테제교수실",
        "room_type": "office",
        "_idx": 29,
        "_centroid": [
          126.9753003,
          37.2920414
        ],
        "_area_m2": 16.5
      },
      "geometry": {
        "type": "Polygon",
        "coordinates": [
          [
            [
              126.97527411720503,
              37.2920593705382
            ],
            [
              126.97533236611767,
              37.29205162498651
            ],
            [
              126.9753264504006,
              37.29202346797767
            ],
            [
              126.97526820148819,
              37.292031213532304
            ],
            [
              126.97527411720503,
              37.2920593705382
            ]
          ]
        ]
      }
    },
    {
      "type": "Feature",
      "properties": {
        "indoor": "room",
        "level": [
          3
        ],
        "ref": "",
        "name": "",
        "room_type": "stairs",
        "_idx": 30,
        "_centroid": [
          126.9760482,
          37.2920394
        ],
        "_area_m2": 20.5
      },
      "geometry": {
        "type": "Polygon",
        "coordinates": [
          [
            [
              126.97602136663129,
              37.29201895032493
            ],
            [
              126.97603141823029,
              37.29206585361752
            ],
            [
              126.97607499532455,
              37.29205994299507
            ],
            [
              126.97606494372486,
              37.29201303969907
            ],
            [
              126.97602136663129,
              37.29201895032493
            ]
          ]
        ]
      }
    },
    {
      "type": "Feature",
      "properties": {
        "indoor": "room",
        "level": [
          3
        ],
        "ref": "86337",
        "name": "홍석준교수실",
        "room_type": "office",
        "_idx": 31,
        "_centroid": [
          126.9752943,
          37.292013
        ],
        "_area_m2": 16.7
      },
      "geometry": {
        "type": "Polygon",
        "coordinates": [
          [
            [
              126.97526820148819,
              37.292031213532304
            ],
            [
              126.9753264504006,
              37.29202346797767
            ],
            [
              126.97532043959487,
              37.29199485837575
            ],
            [
              126.97526219068267,
              37.29200260393335
            ],
            [
              126.97526820148819,
              37.292031213532304
            ]
          ]
        ]
      }
    },
    {
      "type": "Feature",
      "properties": {
        "indoor": "room",
        "level": [
          3
        ],
        "ref": "86364",
        "name": "행정지원팀",
        "room_type": "office",
        "_idx": 32,
        "_centroid": [
          126.9755543,
          37.2919905
        ],
        "_area_m2": 22.2
      },
      "geometry": {
        "type": "Polygon",
        "coordinates": [
          [
            [
              126.9755675515497,
              37.29195931158185
            ],
            [
              126.97552883264976,
              37.29196456326635
            ],
            [
              126.97554108231837,
              37.29202172333862
            ],
            [
              126.9755798012183,
              37.292016471658116
            ],
            [
              126.9755675515497,
              37.29195931158185
            ]
          ]
        ]
      }
    },
    {
      "type": "Feature",
      "properties": {
        "indoor": "room",
        "level": [
          3
        ],
        "ref": "86348",
        "name": "뇌과학이미징연구단대학원생연구실3",
        "room_type": "lab",
        "_idx": 33,
        "_centroid": [
          126.9754064,
          37.2919884
        ],
        "_area_m2": 169.9
      },
      "geometry": {
        "type": "Polygon",
        "coordinates": [
          [
            [
              126.97535081161644,
              37.292014888685266
            ],
            [
              126.9753578949816,
              37.29204860332085
            ],
            [
              126.97550656555846,
              37.29202883409914
            ],
            [
              126.97548264833375,
              37.29191499539368
            ],
            [
              126.97533397775793,
              37.29193476464521
            ],
            [
              126.97535081161644,
              37.292014888685266
            ]
          ]
        ]
      }
    },
    {
      "type": "Feature",
      "properties": {
        "indoor": "room",
        "level": [
          3
        ],
        "ref": "",
        "name": "",
        "room_type": "reserved",
        "_idx": 34,
        "_centroid": [
          126.9756192,
          37.2919878
        ],
        "_area_m2": 258.1
      },
      "geometry": {
        "type": "Polygon",
        "coordinates": [
          [
            [
              126.97568912046009,
              37.29206401488716
            ],
            [
              126.97568712721026,
              37.292054713884276
            ],
            [
              126.97564063256675,
              37.29183775790598
            ],
            [
              126.97556157326177,
              37.291848481351366
            ],
            [
              126.97556094569289,
              37.29184553991415
            ],
            [
              126.97554367188856,
              37.291847882870954
            ],
            [
              126.9755924833755,
              37.292075649790625
            ],
            [
              126.97560386252269,
              37.292074099929685
            ],
            [
              126.97561375457003,
              37.292120258673854
            ],
            [
              126.97569893823895,
              37.29210982708288
            ],
            [
              126.97568912046009,
              37.29206401488716
            ]
          ]
        ]
      }
    },
    {
      "type": "Feature",
      "properties": {
        "indoor": "room",
        "level": [
          3
        ],
        "ref": "86338",
        "name": "심원목교수실",
        "room_type": "office",
        "_idx": 35,
        "_centroid": [
          126.9752883,
          37.2919846
        ],
        "_area_m2": 16.5
      },
      "geometry": {
        "type": "Polygon",
        "coordinates": [
          [
            [
              126.97526219068267,
              37.29200260393335
            ],
            [
              126.97532043959487,
              37.29199485837575
            ],
            [
              126.97531450368702,
              37.29196660526492
            ],
            [
              126.97525625477502,
              37.29197435082539
            ],
            [
              126.97526219068267,
              37.29200260393335
            ]
          ]
        ]
      }
    },
    {
      "type": "Feature",
      "properties": {
        "indoor": "room",
        "level": [
          3
        ],
        "ref": "86339",
        "name": "유승범교수실",
        "room_type": "office",
        "_idx": 36,
        "_centroid": [
          126.9752823,
          37.291956
        ],
        "_area_m2": 16.9
      },
      "geometry": {
        "type": "Polygon",
        "coordinates": [
          [
            [
              126.97525625477502,
              37.29197435082539
            ],
            [
              126.97531450368702,
              37.29196660526492
            ],
            [
              126.97530842187764,
              37.29193765770736
            ],
            [
              126.97525017296586,
              37.29194540327074
            ],
            [
              126.97525625477502,
              37.29197435082539
            ]
          ]
        ]
      }
    },
    {
      "type": "Feature",
      "properties": {
        "indoor": "room",
        "level": [
          3
        ],
        "ref": "86363",
        "name": "서민아교수실",
        "room_type": "office",
        "_idx": 37,
        "_centroid": [
          126.9755451,
          37.2919474
        ],
        "_area_m2": 11.3
      },
      "geometry": {
        "type": "Polygon",
        "coordinates": [
          [
            [
              126.97556133301167,
              37.29193029428167
            ],
            [
              126.97552261411174,
              37.291935545968194
            ],
            [
              126.97552883264976,
              37.291964563266355
            ],
            [
              126.9755675515497,
              37.291959311581856
            ],
            [
              126.97556133301167,
              37.29193029428167
            ]
          ]
        ]
      }
    },
    {
      "type": "Feature",
      "properties": {
        "indoor": "room",
        "level": [
          3
        ],
        "ref": "86340",
        "name": "연구교수실",
        "room_type": "office",
        "_idx": 38,
        "_centroid": [
          126.9752762,
          37.2919266
        ],
        "_area_m2": 17.4
      },
      "geometry": {
        "type": "Polygon",
        "coordinates": [
          [
            [
              126.97525017296586,
              37.29194540327074
            ],
            [
              126.97530842187764,
              37.29193765770736
            ],
            [
              126.975302163328,
              37.291907868920056
            ],
            [
              126.97524391441644,
              37.291915614486435
            ],
            [
              126.97525017296586,
              37.29194540327074
            ]
          ]
        ]
      }
    },
    {
      "type": "Feature",
      "properties": {
        "indoor": "room",
        "level": [
          3
        ],
        "ref": "86362",
        "name": "이준열교수실",
        "room_type": "office",
        "_idx": 39,
        "_centroid": [
          126.9755389,
          37.2919185
        ],
        "_area_m2": 11.2
      },
      "geometry": {
        "type": "Polygon",
        "coordinates": [
          [
            [
              126.97555515643357,
              37.29190147276609
            ],
            [
              126.97551643753361,
              37.291906724454634
            ],
            [
              126.97552261411174,
              37.291935545968194
            ],
            [
              126.97556133301167,
              37.29193029428167
            ],
            [
              126.97555515643357,
              37.29190147276609
            ]
          ]
        ]
      }
    },
    {
      "type": "Feature",
      "properties": {
        "indoor": "room",
        "level": [
          3
        ],
        "ref": "86351",
        "name": "회의실3",
        "room_type": "lounge",
        "_idx": 40,
        "_centroid": [
          126.975351,
          37.2919103
        ],
        "_area_m2": 22.8
      },
      "geometry": {
        "type": "Polygon",
        "coordinates": [
          [
            [
              126.97538796404673,
              37.291927585898314
            ],
            [
              126.9753791428469,
              37.29188559963403
            ],
            [
              126.97532515655799,
              37.29189277838565
            ],
            [
              126.97532888726643,
              37.291910535438994
            ],
            [
              126.97533397775793,
              37.29193476464521
            ],
            [
              126.97538796404673,
              37.291927585898314
            ]
          ]
        ]
      }
    },
    {
      "type": "Feature",
      "properties": {
        "indoor": "room",
        "level": [
          3
        ],
        "ref": "86352",
        "name": "회의실2",
        "room_type": "lounge",
        "_idx": 41,
        "_centroid": [
          126.975437,
          37.2919038
        ],
        "_area_m2": 39.9
      },
      "geometry": {
        "type": "Polygon",
        "coordinates": [
          [
            [
              126.97538796404673,
              37.291927585898314
            ],
            [
              126.97546149034869,
              37.291917808845994
            ],
            [
              126.97548264833375,
              37.29191499539368
            ],
            [
              126.97547382712446,
              37.291873009124004
            ],
            [
              126.9753791428469,
              37.29188559963403
            ],
            [
              126.97538796404673,
              37.291927585898314
            ]
          ]
        ]
      }
    },
    {
      "type": "Feature",
      "properties": {
        "indoor": "room",
        "level": [
          3
        ],
        "ref": "86341",
        "name": "김형구교수실",
        "room_type": "office",
        "_idx": 42,
        "_centroid": [
          126.9752699,
          37.2918967
        ],
        "_area_m2": 17.5
      },
      "geometry": {
        "type": "Polygon",
        "coordinates": [
          [
            [
              126.97524391441644,
              37.291915614486435
            ],
            [
              126.975302163328,
              37.291907868920056
            ],
            [
              126.97529586195864,
              37.29187787632393
            ],
            [
              126.9752376130463,
              37.29188562188864
            ],
            [
              126.97524391441644,
              37.291915614486435
            ]
          ]
        ]
      }
    },
    {
      "type": "Feature",
      "properties": {
        "indoor": "room",
        "level": [
          3
        ],
        "ref": "86361",
        "name": "김성기교수실",
        "room_type": "office",
        "_idx": 43,
        "_centroid": [
          126.9755314,
          37.2918836
        ],
        "_area_m2": 16
      },
      "geometry": {
        "type": "Polygon",
        "coordinates": [
          [
            [
              126.975546358572,
              37.291860419643065
            ],
            [
              126.97550763967207,
              37.29186567133447
            ],
            [
              126.97551643753363,
              37.291906724454634
            ],
            [
              126.97555515643357,
              37.29190147276609
            ],
            [
              126.975546358572,
              37.291860419643065
            ]
          ]
        ]
      }
    },
    {
      "type": "Feature",
      "properties": {
        "indoor": "room",
        "level": [
          3
        ],
        "ref": "86342",
        "name": "포닥연구실",
        "room_type": "lab",
        "_idx": 44,
        "_centroid": [
          126.9752664,
          37.2918723
        ],
        "_area_m2": 13.5
      },
      "geometry": {
        "type": "Polygon",
        "coordinates": [
          [
            [
              126.97529100847078,
              37.29185477515686
            ],
            [
              126.97523266506167,
              37.29186253328907
            ],
            [
              126.9752376130463,
              37.29188562188864
            ],
            [
              126.97527464325154,
              37.29188069785086
            ],
            [
              126.97529586195864,
              37.29187787632393
            ],
            [
              126.97529100847078,
              37.29185477515686
            ]
          ]
        ]
      }
    },
    {
      "type": "Feature",
      "properties": {
        "indoor": "room",
        "level": [
          3
        ],
        "ref": "86345",
        "name": "창고",
        "room_type": "storage",
        "_idx": 45,
        "_centroid": [
          126.975329,
          37.2918551
        ],
        "_area_m2": 9.1
      },
      "geometry": {
        "type": "Polygon",
        "coordinates": [
          [
            [
              126.97533791400373,
              37.29183558030648
            ],
            [
              126.9753124455527,
              37.29183896693889
            ],
            [
              126.97531993431522,
              37.291874611237134
            ],
            [
              126.97534553436779,
              37.29187113893922
            ],
            [
              126.97533791400373,
              37.29183558030648
            ]
          ]
        ]
      }
    },
    {
      "type": "Feature",
      "properties": {
        "indoor": "room",
        "level": [
          3
        ],
        "ref": "86343",
        "name": "포닥연구실",
        "room_type": "lab",
        "_idx": 46,
        "_centroid": [
          126.9752898,
          37.2918375
        ],
        "_area_m2": 43.9
      },
      "geometry": {
        "type": "Polygon",
        "coordinates": [
          [
            [
              126.9753032928947,
              37.291840184000996
            ],
            [
              126.9753124455527,
              37.29183896693889
            ],
            [
              126.97533791400373,
              37.29183558030648
            ],
            [
              126.97533067568357,
              37.29180180439155
            ],
            [
              126.97522278666283,
              37.291816438078186
            ],
            [
              126.97523266506167,
              37.29186253328907
            ],
            [
              126.97529100847078,
              37.29185477515686
            ],
            [
              126.975289010508,
              37.291845265442824
            ],
            [
              126.97528836009526,
              37.29184216966944
            ],
            [
              126.9753032928947,
              37.291840184000996
            ]
          ]
        ]
      }
    },
    {
      "type": "Feature",
      "properties": {
        "indoor": "room",
        "level": [
          3
        ],
        "ref": "",
        "name": "",
        "room_type": "restroom",
        "_idx": 47,
        "_centroid": [
          126.9753821,
          37.2918369
        ],
        "_area_m2": 49.3
      },
      "geometry": {
        "type": "Polygon",
        "coordinates": [
          [
            [
              126.97543100552552,
              37.291860147557614
            ],
            [
              126.9754186104096,
              37.29180230866523
            ],
            [
              126.97533328821368,
              37.291813995152125
            ],
            [
              126.97534553436779,
              37.29187113893922
            ],
            [
              126.97543100552552,
              37.291860147557614
            ]
          ]
        ]
      }
    },
    {
      "type": "Feature",
      "properties": {
        "indoor": "room",
        "level": [
          3
        ],
        "ref": "",
        "name": "",
        "room_type": "stairs",
        "_idx": 48,
        "_centroid": [
          126.975446,
          37.2918284
        ],
        "_area_m2": 24.6
      },
      "geometry": {
        "type": "Polygon",
        "coordinates": [
          [
            [
              126.9754186104096,
              37.29180230866523
            ],
            [
              126.97543100552552,
              37.291860147557614
            ],
            [
              126.97547339678728,
              37.29185439775992
            ],
            [
              126.97546100167115,
              37.29179655886357
            ],
            [
              126.9754186104096,
              37.29180230866523
            ]
          ]
        ]
      }
    },
    {
      "type": "Feature",
      "properties": {
        "indoor": "room",
        "level": [
          3
        ],
        "ref": "86387",
        "name": "이차원양자헤테로구조체연구단휴게실",
        "room_type": "lounge",
        "_idx": 49,
        "_centroid": [
          126.9755952,
          37.2918234
        ],
        "_area_m2": 39.5
      },
      "geometry": {
        "type": "Polygon",
        "coordinates": [
          [
            [
              126.97559302474728,
              37.291844215387286
            ],
            [
              126.97564063256675,
              37.29183775790598
            ],
            [
              126.97562996903717,
              37.29178800001933
            ],
            [
              126.97555090991447,
              37.29179872331695
            ],
            [
              126.97556157326177,
              37.29184848135137
            ],
            [
              126.97559302474728,
              37.291844215387286
            ]
          ]
        ]
      }
    },
    {
      "type": "Feature",
      "properties": {
        "indoor": "room",
        "level": [
          3
        ],
        "ref": "",
        "name": "",
        "room_type": "elevator",
        "_idx": 50,
        "_centroid": [
          126.9755266,
          37.2918196
        ],
        "_area_m2": 33.4
      },
      "geometry": {
        "type": "Polygon",
        "coordinates": [
          [
            [
              126.97556094569289,
              37.29184553991415
            ],
            [
              126.97554821832858,
              37.29178615065235
            ],
            [
              126.9754922256243,
              37.29179374530743
            ],
            [
              126.97550495298863,
              37.29185313456325
            ],
            [
              126.97556094569289,
              37.29184553991415
            ]
          ]
        ]
      }
    },
    {
      "type": "Feature",
      "properties": {
        "indoor": "room",
        "level": [
          3
        ],
        "ref": "",
        "name": "",
        "room_type": "reserved",
        "_idx": 51,
        "_centroid": [
          126.9756561,
          37.2918101
        ],
        "_area_m2": 20.9
      },
      "geometry": {
        "type": "Polygon",
        "coordinates": [
          [
            [
              126.97562996903717,
              37.29178800001933
            ],
            [
              126.97564063256675,
              37.29183775790598
            ],
            [
              126.97568231415484,
              37.291832104433546
            ],
            [
              126.97567165061078,
              37.29178234647925
            ],
            [
              126.97562996903717,
              37.29178800001933
            ]
          ]
        ]
      }
    },
    {
      "type": "Feature",
      "properties": {
        "indoor": "room",
        "level": [
          3
        ],
        "ref": "86389",
        "name": "연구원실2",
        "room_type": "lab",
        "_idx": 52,
        "_centroid": [
          126.9756973,
          37.2918045
        ],
        "_area_m2": 20.3
      },
      "geometry": {
        "type": "Polygon",
        "coordinates": [
          [
            [
              126.97567165061078,
              37.29178234647925
            ],
            [
              126.97568231415484,
              37.291832104433546
            ],
            [
              126.97572299145041,
              37.29182658717809
            ],
            [
              126.9757123281031,
              37.29177682912918
            ],
            [
              126.97567165061078,
              37.29178234647925
            ]
          ]
        ]
      }
    },
    {
      "type": "Feature",
      "properties": {
        "indoor": "room",
        "level": [
          3
        ],
        "ref": "86390",
        "name": "연구원실3",
        "room_type": "lab",
        "_idx": 53,
        "_centroid": [
          126.9757393,
          37.2917988
        ],
        "_area_m2": 21.7
      },
      "geometry": {
        "type": "Polygon",
        "coordinates": [
          [
            [
              126.97575566446494,
              37.29177093114485
            ],
            [
              126.97571232810307,
              37.29177682912918
            ],
            [
              126.97572299145041,
              37.29182658717809
            ],
            [
              126.97576633002319,
              37.291820708750386
            ],
            [
              126.97575566446494,
              37.29177093114485
            ]
          ]
        ]
      }
    },
    {
      "type": "Feature",
      "properties": {
        "indoor": "room",
        "level": [
          3
        ],
        "ref": "",
        "name": "",
        "room_type": "reserved",
        "_idx": 54,
        "_centroid": [
          126.9759909,
          37.2917789
        ],
        "_area_m2": 9.2
      },
      "geometry": {
        "type": "Polygon",
        "coordinates": [
          [
            [
              126.97597263383736,
              37.291792726564395
            ],
            [
              126.97601397105751,
              37.29178711959067
            ],
            [
              126.97600925495739,
              37.29176511354261
            ],
            [
              126.97596791773724,
              37.29177072051798
            ],
            [
              126.97597263383736,
              37.291792726564395
            ]
          ]
        ]
      }
    },
    {
      "type": "Feature",
      "properties": {
        "indoor": "room",
        "level": [
          3
        ],
        "ref": "86371",
        "name": "이차원양자헤테로구조체연구단행정실",
        "room_type": "office",
        "_idx": 55,
        "_centroid": [
          126.9753864,
          37.2917642
        ],
        "_area_m2": 136.2
      },
      "geometry": {
        "type": "Polygon",
        "coordinates": [
          [
            [
              126.97531541586036,
              37.29180387418037
            ],
            [
              126.97533067568357,
              37.29180180439155
            ],
            [
              126.97550080834807,
              37.29177873411468
            ],
            [
              126.97548515352237,
              37.29170566571077
            ],
            [
              126.97529972956538,
              37.29173080953681
            ],
            [
              126.97531541586036,
              37.29180387418037
            ]
          ]
        ]
      }
    },
    {
      "type": "Feature",
      "properties": {
        "indoor": "room",
        "level": [
          3
        ],
        "ref": "86391",
        "name": "화학재료합성실험실/물리기상증착실험실",
        "room_type": "lab",
        "_idx": 56,
        "_centroid": [
          126.9758562,
          37.291762
        ],
        "_area_m2": 308.7
      },
      "geometry": {
        "type": "Polygon",
        "coordinates": [
          [
            [
              126.97575080691482,
              37.29174827377411
            ],
            [
              126.975753435864,
              37.29176054115926
            ],
            [
              126.97576633002319,
              37.291820708750386
            ],
            [
              126.97581086664083,
              37.291814667961184
            ],
            [
              126.97593106118862,
              37.29179836519727
            ],
            [
              126.97593370322312,
              37.291798006839315
            ],
            [
              126.97597263383746,
              37.291792726564374
            ],
            [
              126.97596791773722,
              37.29177072051798
            ],
            [
              126.975940733794,
              37.29164387229732
            ],
            [
              126.97573443000924,
              37.291671854671094
            ],
            [
              126.97575080691482,
              37.29174827377411
            ]
          ]
        ]
      }
    },
    {
      "type": "Feature",
      "properties": {
        "indoor": "room",
        "level": [
          3
        ],
        "ref": "86375",
        "name": "이차원양자헤테로구조체연구단학생연구실",
        "room_type": "lab",
        "_idx": 57,
        "_centroid": [
          126.9755987,
          37.2917515
        ],
        "_area_m2": 145.9
      },
      "geometry": {
        "type": "Polygon",
        "coordinates": [
          [
            [
              126.97554821832858,
              37.29178615065235
            ],
            [
              126.97555090991447,
              37.29179872331695
            ],
            [
              126.97575566446494,
              37.29177093114485
            ],
            [
              126.9757427039034,
              37.291710462915326
            ],
            [
              126.97569936529922,
              37.29171634121777
            ],
            [
              126.97566054248047,
              37.29172160701382
            ],
            [
              126.97561785997732,
              37.29172739632442
            ],
            [
              126.97557626722532,
              37.29173303782487
            ],
            [
              126.97553495134694,
              37.2917386417711
            ],
            [
              126.97549342376453,
              37.29174427443113
            ],
            [
              126.97550080834807,
              37.29177873411468
            ],
            [
              126.97550385762032,
              37.291792167584134
            ],
            [
              126.97554821832858,
              37.29178615065235
            ]
          ]
        ]
      }
    },
    {
      "type": "Feature",
      "properties": {
        "indoor": "room",
        "level": [
          3
        ],
        "ref": "86381",
        "name": "김세정교수실",
        "room_type": "office",
        "_idx": 58,
        "_centroid": [
          126.9755101,
          37.2917222
        ],
        "_area_m2": 16.1
      },
      "geometry": {
        "type": "Polygon",
        "coordinates": [
          [
            [
              126.97549342376453,
              37.29174427443113
            ],
            [
              126.97553495134694,
              37.291738641771104
            ],
            [
              126.9755266774555,
              37.29170003354188
            ],
            [
              126.97548514987226,
              37.291705666205736
            ],
            [
              126.97549342376453,
              37.29174427443113
            ]
          ]
        ]
      }
    },
    {
      "type": "Feature",
      "properties": {
        "indoor": "room",
        "level": [
          3
        ],
        "ref": "86382",
        "name": "박준영교수실",
        "room_type": "office",
        "_idx": 59,
        "_centroid": [
          126.9755515,
          37.2917165
        ],
        "_area_m2": 16
      },
      "geometry": {
        "type": "Polygon",
        "coordinates": [
          [
            [
              126.9755266774555,
              37.29170003354188
            ],
            [
              126.97553495134694,
              37.291738641771104
            ],
            [
              126.97557626722532,
              37.29173303782487
            ],
            [
              126.97556799333303,
              37.29169442959309
            ],
            [
              126.9755266774555,
              37.29170003354188
            ]
          ]
        ]
      }
    },
    {
      "type": "Feature",
      "properties": {
        "indoor": "room",
        "level": [
          3
        ],
        "ref": "86383",
        "name": "송승욱교수실",
        "room_type": "office",
        "_idx": 60,
        "_centroid": [
          126.9755929,
          37.2917109
        ],
        "_area_m2": 16.1
      },
      "geometry": {
        "type": "Polygon",
        "coordinates": [
          [
            [
              126.97556799333303,
              37.29169442959309
            ],
            [
              126.97557626722532,
              37.29173303782487
            ],
            [
              126.97561785997732,
              37.291727396324426
            ],
            [
              126.9756095860854,
              37.291688788089914
            ],
            [
              126.97556799333303,
              37.29169442959309
            ]
          ]
        ]
      }
    },
    {
      "type": "Feature",
      "properties": {
        "indoor": "room",
        "level": [
          3
        ],
        "ref": "86384",
        "name": "연구원실1",
        "room_type": "lab",
        "_idx": 61,
        "_centroid": [
          126.9756351,
          37.2917052
        ],
        "_area_m2": 16.6
      },
      "geometry": {
        "type": "Polygon",
        "coordinates": [
          [
            [
              126.9756095860854,
              37.291688788089914
            ],
            [
              126.97561785997732,
              37.291727396324426
            ],
            [
              126.97566054248047,
              37.29172160701382
            ],
            [
              126.97565226858842,
              37.291682998776565
            ],
            [
              126.9756095860854,
              37.291688788089914
            ]
          ]
        ]
      }
    },
    {
      "type": "Feature",
      "properties": {
        "indoor": "room",
        "level": [
          3
        ],
        "ref": "86385",
        "name": "이차원양자헤테로구조체연구단장신현석교수실",
        "room_type": "office",
        "_idx": 62,
        "_centroid": [
          126.9756758,
          37.2916997
        ],
        "_area_m2": 15.1
      },
      "geometry": {
        "type": "Polygon",
        "coordinates": [
          [
            [
              126.97565226858842,
              37.291682998776565
            ],
            [
              126.97566054248047,
              37.29172160701382
            ],
            [
              126.97569936529922,
              37.29171634121777
            ],
            [
              126.97569109140694,
              37.29167773297804
            ],
            [
              126.97565226858842,
              37.291682998776565
            ]
          ]
        ]
      }
    },
    {
      "type": "Feature",
      "properties": {
        "indoor": "room",
        "level": [
          3
        ],
        "ref": "86386",
        "name": "이차원양자헤테로구조체연구단장신현석교수실",
        "room_type": "office",
        "_idx": 63,
        "_centroid": [
          126.9757169,
          37.2916941
        ],
        "_area_m2": 16.8
      },
      "geometry": {
        "type": "Polygon",
        "coordinates": [
          [
            [
              126.97569936529922,
              37.29171634121777
            ],
            [
              126.9757427039034,
              37.29171046291533
            ],
            [
              126.97573443000924,
              37.291671854671094
            ],
            [
              126.97569109140694,
              37.29167773297802
            ],
            [
              126.97569936529922,
              37.29171634121777
            ]
          ]
        ]
      }
    },
    {
      "type": "Feature",
      "properties": {
        "indoor": "room",
        "level": [
          3
        ],
        "ref": "",
        "name": "",
        "room_type": "stairs",
        "_idx": 64,
        "_centroid": [
          126.9759667,
          37.2916658
        ],
        "_area_m2": 20.5
      },
      "geometry": {
        "type": "Polygon",
        "coordinates": [
          [
            [
              126.975940733794,
              37.29164387229732
            ],
            [
              126.97595132550425,
              37.291693296127
            ],
            [
              126.97599266275301,
              37.29168768927938
            ],
            [
              126.97598207104275,
              37.29163826544602
            ],
            [
              126.975940733794,
              37.29164387229732
            ]
          ]
        ]
      }
    }
  ]
}