{
  "type": "FeatureCollection",
  "features": [
    {
      "type": "Feature",
      "properties": {
        "indoor": "corridor",
        "level": "5"
      },
      "geometry": {
        "type": "Polygon",
        "coordinates": [
          [
            [
              126.97609066647462,
              37.29213124488791
            ],
            [
              126.97607499532455,
              37.29205994299506
            ],
            [
              126.97603141823029,
              37.292065853617515
            ],
            [
              126.97598855670108,
              37.29209355762167
            ],
            [
              126.97600371612698,
              37.29216429523679
            ],
            [
              126.97606103233768,
              37.29215652109996
            ],
            [
              126.97605660558004,
              37.292135864768305
            ],
            [
              126.97609066647462,
              37.29213124488791
            ]
          ]
        ]
      }
    },
    {
      "type": "Feature",
      "properties": {
        "indoor": "corridor",
        "level": "5"
      },
      "geometry": {
        "type": "Polygon",
        "coordinates": [
          [
            [
              126.97603141823029,
              37.292065853617515
            ],
            [
              126.97557089073689,
              37.29212607254929
            ],
            [
              126.97556099868973,
              37.292079913808436
            ],
            [
              126.97553178696546,
              37.29208392038781
            ],
            [
              126.97554143227029,
              37.292130111735275
            ],
            [
              126.97539996904291,
              37.292149255666004
            ],
            [
              126.9754039202274,
              37.292172855309026
            ],
            [
              126.97598855670108,
              37.29209355762167
            ],
            [
              126.97603141823029,
              37.292065853617515
            ]
          ]
        ]
      }
    },
    {
      "type": "Feature",
      "properties": {
        "indoor": "corridor",
        "level": "5"
      },
      "geometry": {
        "type": "Polygon",
        "coordinates": [
          [
            [
              126.97550385762032,
              37.291792167584134
            ],
            [
              126.97550080834807,
              37.29177873411468
            ],
            [
              126.97533067568357,
              37.29180180439155
            ],
            [
              126.97533328821368,
              37.291813995152125
            ],
            [
              126.97546100167115,
              37.29179655886357
            ],
            [
              126.97547339678728,
              37.291854397759906
            ],
            [
              126.97550495298863,
              37.29185313456323
            ],
            [
              126.97549222562428,
              37.29179374530743
            ],
            [
              126.97550385762032,
              37.291792167584134
            ]
          ]
        ]
      }
    },
    {
      "type": "Feature",
      "properties": {
        "indoor": "corridor",
        "level": "5"
      },
      "geometry": {
        "type": "Polygon",
        "coordinates": [
          [
            [
              126.97596791773722,
              37.29177072051798
            ],
            [
              126.97595132550423,
              37.291693296127
            ],
            [
              126.97599266275299,
              37.29168768927938
            ],
            [
              126.97600925495739,
              37.2917651135426
            ],
            [
              126.97596791773722,
              37.29177072051798
            ]
          ]
        ]
      }
    }
  ]
}