{
  "type": "FeatureCollection",
  "features": [
    {
      "type": "Feature",
      "properties": {
        "indoor": "corridor",
        "level": "1"
      },
      "geometry": {
        "type": "Polygon",
        "coordinates": [
          [
            [
              126.97595132550423,
              37.291693296127
            ],
            [
              126.97596791782091,
              37.291770720369236
            ],
            [
              126.97600925506966,
              37.291765113527376
            ],
            [
              126.97599266275299,
              37.29168768927938
            ],
            [
              126.97595132550423,
              37.291693296127
            ]
          ]
        ]
      }
    },
    {
      "type": "Feature",
      "properties": {
        "indoor": "corridor",
        "level": "1"
      },
      "geometry": {
        "type": "Polygon",
        "coordinates": [
          [
            [
              126.97558705441914,
              37.291775815844936
            ],
            [
              126.97576416381538,
              37.29175179333377
            ],
            [
              126.97583422003325,
              37.2917422911465
            ],
            [
              126.97586240686346,
              37.29173846798365
            ],
            [
              126.97585904018659,
              37.29172275815749
            ],
            [
              126.97555398121658,
              37.29176413531713
            ],
            [
              126.9755441314585,
              37.29171817368019
            ],
            [
              126.97557343138281,
              37.291714199537154
            ],
            [
              126.97556916067597,
              37.291694271259736
            ],
            [
              126.97548514987226,
              37.291705666205736
            ],
            [
              126.97548941571169,
              37.29172557177065
            ],
            [
              126.97551786519155,
              37.29172171297906
            ],
            [
              126.97552925685082,
              37.29177486953422
            ],
            [
              126.97558705441914,
              37.291775815844936
            ]
          ]
        ]
      }
    },
    {
      "type": "Feature",
      "properties": {
        "indoor": "corridor",
        "level": "1"
      },
      "geometry": {
        "type": "Polygon",
        "coordinates": [
          [
            [
              126.97552925685082,
              37.29177486953422
            ],
            [
              126.97533293026841,
              37.291801498587574
            ],
            [
              126.97533551912366,
              37.291813578875086
            ],
            [
              126.97546100167115,
              37.29179655886357
            ],
            [
              126.97547339678728,
              37.29185439775991
            ],
            [
              126.97549379321032,
              37.291862891540625
            ],
            [
              126.97550495298863,
              37.29185313456324
            ],
            [
              126.97549222562428,
              37.29179374530743
            ],
            [
              126.97554821832858,
              37.29178615065235
            ],
            [
              126.97558705441914,
              37.291775815844936
            ],
            [
              126.97552925685082,
              37.29177486953422
            ]
          ]
        ]
      }
    },
    {
      "type": "Feature",
      "properties": {
        "indoor": "corridor",
        "level": "1"
      },
      "geometry": {
        "type": "Polygon",
        "coordinates": [
          [
            [
              126.97550495298863,
              37.29185313456323
            ],
            [
              126.97549379321032,
              37.291862891540625
            ],
            [
              126.97550804583261,
              37.29192939799611
            ],
            [
              126.97552050727177,
              37.291927707773226
            ],
            [
              126.97550495298863,
              37.29185313456323
            ]
          ]
        ]
      }
    },
    {
      "type": "Feature",
      "properties": {
        "indoor": "corridor",
        "level": "1"
      },
      "geometry": {
        "type": "Polygon",
        "coordinates": [
          [
            [
              126.97549379321032,
              37.291862891540625
            ],
            [
              126.97547339678728,
              37.29185439775991
            ],
            [
              126.97534791423979,
              37.291871417758365
            ],
            [
              126.97537046129699,
              37.29197662816399
            ],
            [
              126.97538380302657,
              37.29198521526544
            ],
            [
              126.97536143580196,
              37.29188084401826
            ],
            [
              126.97549379321032,
              37.291862891540625
            ]
          ]
        ]
      }
    },
    {
      "type": "Feature",
      "properties": {
        "indoor": "corridor",
        "level": "1"
      },
      "geometry": {
        "type": "Polygon",
        "coordinates": [
          [
            [
              126.97532438481171,
              37.292012469413685
            ],
            [
              126.97537327056315,
              37.2920058387402
            ],
            [
              126.97538787409759,
              37.292004211907646
            ],
            [
              126.97554330144786,
              37.29198313034086
            ],
            [
              126.97553923037903,
              37.2919641336929
            ],
            [
              126.97538380302657,
              37.29198521526544
            ],
            [
              126.97537046129699,
              37.29197662816399
            ],
            [
              126.97531822231966,
              37.29198371365869
            ],
            [
              126.97532438481171,
              37.292012469413685
            ]
          ]
        ]
      }
    },
    {
      "type": "Feature",
      "properties": {
        "indoor": "corridor",
        "level": "1"
      },
      "geometry": {
        "type": "Polygon",
        "coordinates": [
          [
            [
              126.97538514723246,
              37.29206125827287
            ],
            [
              126.97535719984539,
              37.29206504894519
            ],
            [
              126.97536379261626,
              37.292095738926406
            ],
            [
              126.97538780046906,
              37.292092474102894
            ],
            [
              126.97539007699558,
              37.29210309693963
            ],
            [
              126.97540631269847,
              37.29209025106056
            ],
            [
              126.97538787409759,
              37.292004211907646
            ],
            [
              126.97537327056315,
              37.2920058387402
            ],
            [
              126.97538514723246,
              37.29206125827287
            ]
          ]
        ]
      }
    },
    {
      "type": "Feature",
      "properties": {
        "indoor": "corridor",
        "level": "1"
      },
      "geometry": {
        "type": "Polygon",
        "coordinates": [
          [
            [
              126.97560753926834,
              37.292062957493705
            ],
            [
              126.975519979281,
              37.29207483378114
            ],
            [
              126.9755094997448,
              37.29202593363696
            ],
            [
              126.97547858442198,
              37.292030126870294
            ],
            [
              126.97548906395797,
              37.29207902701212
            ],
            [
              126.97546333146045,
              37.29208251726487
            ],
            [
              126.97543336153512,
              37.29208658226513
            ],
            [
              126.97540631269847,
              37.29209025106056
            ],
            [
              126.97539007699558,
              37.29210309693963
            ],
            [
              126.97547691171637,
              37.29209131902833
            ],
            [
              126.97551901074094,
              37.29208560888578
            ],
            [
              126.97556099868973,
              37.292079913808436
            ],
            [
              126.97560386252269,
              37.292074099929685
            ],
            [
              126.97560753926834,
              37.292062957493705
            ]
          ]
        ]
      }
    },
    {
      "type": "Feature",
      "properties": {
        "indoor": "corridor",
        "level": "1"
      },
      "geometry": {
        "type": "Polygon",
        "coordinates": [
          [
            [
              126.97551901074094,
              37.29208560888578
            ],
            [
              126.97552890278827,
              37.292131767622884
            ],
            [
              126.97539996904291,
              37.292149255666004
            ],
            [
              126.97540499531739,
              37.29217270948831
            ],
            [
              126.97565965731813,
              37.292138168190924
            ],
            [
              126.97561375457003,
              37.292120258673854
            ],
            [
              126.97557089073689,
              37.29212607254929
            ],
            [
              126.97556099868973,
              37.292079913808436
            ],
            [
              126.97551901074094,
              37.29208560888578
            ]
          ]
        ]
      }
    },
    {
      "type": "Feature",
      "properties": {
        "indoor": "corridor",
        "level": "1"
      },
      "geometry": {
        "type": "Polygon",
        "coordinates": [
          [
            [
              126.97561375457003,
              37.292120258673854
            ],
            [
              126.97565965731813,
              37.292138168190924
            ],
            [
              126.97569403637588,
              37.29208695377303
            ],
            [
              126.97568912046009,
              37.29206401488716
            ],
            [
              126.97568143003963,
              37.292028124527064
            ],
            [
              126.9756422647936,
              37.29203343688484
            ],
            [
              126.97558705441914,
              37.291775815844936
            ],
            [
              126.97554821832858,
              37.29178615065235
            ],
            [
              126.97560753926834,
              37.292062957493705
            ],
            [
              126.97560386252269,
              37.292074099929685
            ],
            [
              126.97561375457003,
              37.292120258673854
            ]
          ]
        ]
      }
    },
    {
      "type": "Feature",
      "properties": {
        "indoor": "corridor",
        "level": "1"
      },
      "geometry": {
        "type": "Polygon",
        "coordinates": [
          [
            [
              126.97566484360225,
              37.29216236866234
            ],
            [
              126.97578620773369,
              37.29214590733466
            ],
            [
              126.97578093233523,
              37.292121291028394
            ],
            [
              126.9758537095199,
              37.2921114198278
            ],
            [
              126.97591133261521,
              37.29210360406458
            ],
            [
              126.97599505056972,
              37.292092248900374
            ],
            [
              126.97601046654657,
              37.29216418364374
            ],
            [
              126.97609488090389,
              37.29215273403089
            ],
            [
              126.97607499532455,
              37.29205994299506
            ],
            [
              126.97603141823029,
              37.292065853617515
            ],
            [
              126.9759900917035,
              37.29207145898202
            ],
            [
              126.9758633274039,
              37.2920886527837
            ],
            [
              126.97582281434518,
              37.29209414781265
            ],
            [
              126.97578058442595,
              37.29209987570835
            ],
            [
              126.97577544874133,
              37.29207591132673
            ],
            [
              126.97573415712039,
              37.29208151195657
            ],
            [
              126.97569403637588,
              37.29208695377303
            ],
            [
              126.97565965731813,
              37.292138168190924
            ],
            [
              126.97566484360225,
              37.29216236866234
            ]
          ]
        ]
      }
    }
  ]
}