{
  "type": "FeatureCollection",
  "features": [
    {
      "type": "Feature",
      "properties": {
        "indoor": "corridor",
        "level": "8"
      },
      "geometry": {
        "type": "Polygon",
        "coordinates": [
          [
            [
              126.97609066647462,
              37.29213124488791
            ],
            [
              126.97607499532455,
              37.29205994299506
            ],
            [
              126.97603141823029,
              37.292065853617515
            ],
            [
              126.97598855670108,
              37.29209355762167
            ],
            [
              126.97600371612698,
              37.29216429523679
            ],
            [
              126.97606103233768,
              37.29215652109996
            ],
            [
              126.97605660558004,
              37.292135864768305
            ],
            [
              126.97609066647462,
              37.29213124488791
            ]
          ]
        ]
      }
    },
    {
      "type": "Feature",
      "properties": {
        "indoor": "corridor",
        "level": "8"
      },
      "geometry": {
        "type": "Polygon",
        "coordinates": [
          [
            [
              126.97603141823029,
              37.292065853617515
            ],
            [
              126.97557089073689,
              37.29212607254929
            ],
            [
              126.97556099868973,
              37.292079913808436
            ],
            [
              126.97553178696546,
              37.29208392038781
            ],
            [
              126.97554143227029,
              37.292130111735275
            ],
            [
              126.97539996904291,
              37.292149255666004
            ],
            [
              126.9754039202274,
              37.292172855309026
            ],
            [
              126.97598855670108,
              37.29209355762167
            ],
            [
              126.97603141823029,
              37.292065853617515
            ]
          ]
        ]
      }
    }
  ]
}