{
  "type": "FeatureCollection",
  "features": [
    {
      "type": "Feature",
      "properties": {
        "indoor": "room",
        "level": [
          2
        ],
        "ref": "86224",
        "name": "뇌과학이미징연구단대학원생연구실2",
        "room_type": "lab",
        "_idx": 1,
        "_centroid": [
          126.9754535,
          37.2922098
        ],
        "_area_m2": 60.5
      },
      "geometry": {
        "type": "Polygon",
        "coordinates": [
          [
            [
              126.97541907965332,
              37.29224359284959
            ],
            [
              126.97545124564554,
              37.292239229992795
            ],
            [
              126.97550414005227,
              37.292232055622506
            ],
            [
              126.97548898062591,
              37.2921613180713
            ],
            [
              126.9754039202274,
              37.292172855309026
            ],
            [
              126.97541907965332,
              37.29224359284959
            ]
          ]
        ]
      }
    },
    {
      "type": "Feature",
      "properties": {
        "indoor": "room",
        "level": [
          2
        ],
        "ref": "",
        "name": "",
        "room_type": "reserved",
        "_idx": 2,
        "_centroid": [
          126.9754049,
          37.2922091
        ],
        "_area_m2": 9.3
      },
      "geometry": {
        "type": "Polygon",
        "coordinates": [
          [
            [
              126.97541907965332,
              37.29224359284959
            ],
            [
              126.9754039202274,
              37.292172855309026
            ],
            [
              126.9753908019129,
              37.2921746346225
            ],
            [
              126.97540596133925,
              37.29224537216118
            ],
            [
              126.97541907965332,
              37.29224359284959
            ]
          ]
        ]
      }
    },
    {
      "type": "Feature",
      "properties": {
        "indoor": "room",
        "level": [
          2
        ],
        "ref": "86220",
        "name": "아임뉴런바이오사이언스연구소1",
        "room_type": "lab",
        "_idx": 3,
        "_centroid": [
          126.9755604,
          37.292188
        ],
        "_area_m2": 90.8
      },
      "geometry": {
        "type": "Polygon",
        "coordinates": [
          [
            [
              126.97563179532128,
              37.292214741006944
            ],
            [
              126.97561663589492,
              37.29214400343945
            ],
            [
              126.97548898062591,
              37.2921613180713
            ],
            [
              126.97550414005227,
              37.29223205562251
            ],
            [
              126.97563179532128,
              37.292214741006944
            ]
          ]
        ]
      }
    },
    {
      "type": "Feature",
      "properties": {
        "indoor": "room",
        "level": [
          2
        ],
        "ref": "86231",
        "name": "뇌과학이미징연구단대학원생연구실1",
        "room_type": "lab",
        "_idx": 4,
        "_centroid": [
          126.9753651,
          37.2921534
        ],
        "_area_m2": 59.3
      },
      "geometry": {
        "type": "Polygon",
        "coordinates": [
          [
            [
              126.97539996904291,
              37.292149255666004
            ],
            [
              126.97537801761636,
              37.29215223306684
            ],
            [
              126.97536810741344,
              37.29210598962275
            ],
            [
              126.97528719091237,
              37.29211696480796
            ],
            [
              126.97530150424406,
              37.29218375431788
            ],
            [
              126.975390178768,
              37.2921717268768
            ],
            [
              126.97539080191285,
              37.29217463462236
            ],
            [
              126.97540499531638,
              37.29217270948844
            ],
            [
              126.97539996904291,
              37.292149255666004
            ]
          ]
        ]
      }
    },
    {
      "type": "Feature",
      "properties": {
        "indoor": "room",
        "level": [
          2
        ],
        "ref": "86206",
        "name": "지능형정밀헬스케어연구소실험실1",
        "room_type": "lab",
        "_idx": 5,
        "_centroid": [
          126.9758428,
          37.2921512
        ],
        "_area_m2": 96.4
      },
      "geometry": {
        "type": "Polygon",
        "coordinates": [
          [
            [
              126.9757810214495,
              37.292121706855234
            ],
            [
              126.97578996335918,
              37.29216343200166
            ],
            [
              126.97579634831206,
              37.292193225743986
            ],
            [
              126.97593097097862,
              37.29217416207671
            ],
            [
              126.975915811552,
              37.292103424477084
            ],
            [
              126.9757810214495,
              37.292121706855234
            ]
          ]
        ]
      }
    },
    {
      "type": "Feature",
      "properties": {
        "indoor": "room",
        "level": [
          2
        ],
        "ref": "",
        "name": "",
        "room_type": "reserved",
        "_idx": 6,
        "_centroid": [
          126.9760758,
          37.2921439
        ],
        "_area_m2": 7.1
      },
      "geometry": {
        "type": "Polygon",
        "coordinates": [
          [
            [
              126.97605660558004,
              37.292135864768305
            ],
            [
              126.97606103233768,
              37.29215652109996
            ],
            [
              126.97609509323043,
              37.292151901223455
            ],
            [
              126.97609066647465,
              37.29213124488792
            ],
            [
              126.97605660558004,
              37.292135864768305
            ]
          ]
        ]
      }
    },
    {
      "type": "Feature",
      "properties": {
        "indoor": "room",
        "level": [
          2
        ],
        "ref": "",
        "name": "",
        "room_type": "reserved",
        "_idx": 7,
        "_centroid": [
          126.9757176,
          37.2921414
        ],
        "_area_m2": 40
      },
      "geometry": {
        "type": "Polygon",
        "coordinates": [
          [
            [
              126.97578620773369,
              37.29214590733466
            ],
            [
              126.9757821541782,
              37.29212699244684
            ],
            [
              126.9757810214495,
              37.292121706855234
            ],
            [
              126.97561663589492,
              37.29214400343945
            ],
            [
              126.97562181452038,
              37.292168186910864
            ],
            [
              126.97578620773369,
              37.29214590733466
            ]
          ]
        ]
      }
    },
    {
      "type": "Feature",
      "properties": {
        "indoor": "room",
        "level": [
          2
        ],
        "ref": "86202",
        "name": "신미경교수실험실",
        "room_type": "lab",
        "_idx": 8,
        "_centroid": [
          126.9759663,
          37.292133
        ],
        "_area_m2": 61
      },
      "geometry": {
        "type": "Polygon",
        "coordinates": [
          [
            [
              126.97600160192735,
              37.29209178821746
            ],
            [
              126.975915811552,
              37.292103424477084
            ],
            [
              126.97593097097862,
              37.29217416207671
            ],
            [
              126.97601676135446,
              37.29216252583028
            ],
            [
              126.97600160192735,
              37.29209178821746
            ]
          ]
        ]
      }
    },
    {
      "type": "Feature",
      "properties": {
        "indoor": "room",
        "level": [
          2
        ],
        "ref": "",
        "name": "",
        "room_type": "reserved",
        "_idx": 9,
        "_centroid": [
          126.975384,
          37.2921276
        ],
        "_area_m2": 10.2
      },
      "geometry": {
        "type": "Polygon",
        "coordinates": [
          [
            [
              126.97539996904291,
              37.292149255666004
            ],
            [
              126.97539005883986,
              37.292103012220515
            ],
            [
              126.97536810741344,
              37.29210598962275
            ],
            [
              126.97537801761636,
              37.29215223306684
            ],
            [
              126.97539996904291,
              37.292149255666004
            ]
          ]
        ]
      }
    },
    {
      "type": "Feature",
      "properties": {
        "indoor": "room",
        "level": [
          2
        ],
        "ref": "",
        "name": "",
        "room_type": "restroom",
        "_idx": 10,
        "_centroid": [
          126.9754384,
          37.2921203
        ],
        "_area_m2": 40.3
      },
      "geometry": {
        "type": "Polygon",
        "coordinates": [
          [
            [
              126.97539005883986,
              37.292103012220515
            ],
            [
              126.97539996904291,
              37.292149255666004
            ],
            [
              126.97548680376421,
              37.29213747776142
            ],
            [
              126.97547691171637,
              37.29209131902833
            ],
            [
              126.97539005883986,
              37.292103012220515
            ]
          ]
        ]
      }
    },
    {
      "type": "Feature",
      "properties": {
        "indoor": "room",
        "level": [
          2
        ],
        "ref": "",
        "name": "",
        "room_type": "reserved",
        "_idx": 11,
        "_centroid": [
          126.9755303,
          37.2921079
        ],
        "_area_m2": 5.9
      },
      "geometry": {
        "type": "Polygon",
        "coordinates": [
          [
            [
              126.97553178696546,
              37.29208392038781
            ],
            [
              126.97551901074094,
              37.29208560888578
            ],
            [
              126.97552890278827,
              37.292131767622884
            ],
            [
              126.97554143227029,
              37.292130111735275
            ],
            [
              126.97553178696546,
              37.29208392038781
            ]
          ]
        ]
      }
    },
    {
      "type": "Feature",
      "properties": {
        "indoor": "room",
        "level": [
          2
        ],
        "ref": "",
        "name": "",
        "room_type": "stairs",
        "_idx": 12,
        "_centroid": [
          126.9754997,
          37.2921072
        ],
        "_area_m2": 19.5
      },
      "geometry": {
        "type": "Polygon",
        "coordinates": [
          [
            [
              126.97548667258938,
              37.29208999510278
            ],
            [
              126.97547691171637,
              37.29209131902833
            ],
            [
              126.97548680376421,
              37.29213747776142
            ],
            [
              126.97552890278827,
              37.292131767622884
            ],
            [
              126.97551901074094,
              37.29208560888578
            ],
            [
              126.97548667258938,
              37.29208999510278
            ]
          ]
        ]
      }
    },
    {
      "type": "Feature",
      "properties": {
        "indoor": "room",
        "level": [
          2
        ],
        "ref": "",
        "name": "",
        "room_type": "reserved",
        "_idx": 13,
        "_centroid": [
          126.9755875,
          37.2921048
        ],
        "_area_m2": 19.9
      },
      "geometry": {
        "type": "Polygon",
        "coordinates": [
          [
            [
              126.97557089073689,
              37.29212607254929
            ],
            [
              126.97558794871104,
              37.29212375887532
            ],
            [
              126.97561375457003,
              37.292120258673854
            ],
            [
              126.97560386252269,
              37.29207409992969
            ],
            [
              126.97556099868974,
              37.29207991380844
            ],
            [
              126.97557089073689,
              37.29212607254929
            ]
          ]
        ]
      }
    },
    {
      "type": "Feature",
      "properties": {
        "indoor": "room",
        "level": [
          2
        ],
        "ref": "86233",
        "name": "연구교수실",
        "room_type": "office",
        "_idx": 14,
        "_centroid": [
          126.975313,
          37.2920978
        ],
        "_area_m2": 17.8
      },
      "geometry": {
        "type": "Polygon",
        "coordinates": [
          [
            [
              126.97528067154403,
              37.292086543819515
            ],
            [
              126.97528719091237,
              37.29211696480796
            ],
            [
              126.97534540752399,
              37.29210906854377
            ],
            [
              126.97533888816407,
              37.292078647550866
            ],
            [
              126.97528067154403,
              37.292086543819515
            ]
          ]
        ]
      }
    },
    {
      "type": "Feature",
      "properties": {
        "indoor": "room",
        "level": [
          2
        ],
        "ref": "86249",
        "name": "뇌신경-혈류기전연구실2",
        "room_type": "lab",
        "_idx": 15,
        "_centroid": [
          126.9754187,
          37.2920781
        ],
        "_area_m2": 44.3
      },
      "geometry": {
        "type": "Polygon",
        "coordinates": [
          [
            [
              126.97536920456025,
              37.29210584081042
            ],
            [
              126.97547691171637,
              37.29209131902833
            ],
            [
              126.97546819373413,
              37.292050394523685
            ],
            [
              126.97536048657804,
              37.29206491631368
            ],
            [
              126.97536920456025,
              37.29210584081042
            ]
          ]
        ]
      }
    },
    {
      "type": "Feature",
      "properties": {
        "indoor": "room",
        "level": [
          2
        ],
        "ref": "86211",
        "name": "이정승교수실",
        "room_type": "office",
        "_idx": 16,
        "_centroid": [
          126.9757999,
          37.2920731
        ],
        "_area_m2": 19.6
      },
      "geometry": {
        "type": "Polygon",
        "coordinates": [
          [
            [
              126.97582567543941,
              37.292093759741256
            ],
            [
              126.97581562384111,
              37.29204685646658
            ],
            [
              126.97577410089839,
              37.29205248847423
            ],
            [
              126.97578415249738,
              37.29209939174592
            ],
            [
              126.97582567543941,
              37.292093759741256
            ]
          ]
        ]
      }
    },
    {
      "type": "Feature",
      "properties": {
        "indoor": "room",
        "level": [
          2
        ],
        "ref": "86209",
        "name": "박천권교수연구실",
        "room_type": "lab",
        "_idx": 17,
        "_centroid": [
          126.9758424,
          37.2920674
        ],
        "_area_m2": 20.5
      },
      "geometry": {
        "type": "Polygon",
        "coordinates": [
          [
            [
              126.97586917555212,
              37.29208785956112
            ],
            [
              126.97585912395407,
              37.29204095628337
            ],
            [
              126.97581562384111,
              37.29204685646658
            ],
            [
              126.97582567543941,
              37.292093759741256
            ],
            [
              126.97586917555212,
              37.29208785956112
            ]
          ]
        ]
      }
    },
    {
      "type": "Feature",
      "properties": {
        "indoor": "room",
        "level": [
          2
        ],
        "ref": "86251",
        "name": "나노신경시스템이미징연구실",
        "room_type": "lab",
        "_idx": 18,
        "_centroid": [
          126.9755,
          37.2920672
        ],
        "_area_m2": 22.6
      },
      "geometry": {
        "type": "Polygon",
        "coordinates": [
          [
            [
              126.97547691171637,
              37.29209131902833
            ],
            [
              126.97546819373413,
              37.292050394523685
            ],
            [
              126.97552306898322,
              37.29204299587915
            ],
            [
              126.97553178696546,
              37.29208392038782
            ],
            [
              126.97547691171637,
              37.29209131902833
            ]
          ]
        ]
      }
    },
    {
      "type": "Feature",
      "properties": {
        "indoor": "room",
        "level": [
          2
        ],
        "ref": "86207",
        "name": "신미경교수실",
        "room_type": "office",
        "_idx": 19,
        "_centroid": [
          126.9758847,
          37.2920616
        ],
        "_area_m2": 19.4
      },
      "geometry": {
        "type": "Polygon",
        "coordinates": [
          [
            [
              126.97591029027988,
              37.292082282924994
            ],
            [
              126.97590023868082,
              37.29203537964452
            ],
            [
              126.97585912395407,
              37.29204095628337
            ],
            [
              126.97586917555212,
              37.29208785956112
            ],
            [
              126.97591029027988,
              37.292082282924994
            ]
          ]
        ]
      }
    },
    {
      "type": "Feature",
      "properties": {
        "indoor": "room",
        "level": [
          2
        ],
        "ref": "86252",
        "name": "뇌신경-혈류기전연구실3",
        "room_type": "lab",
        "_idx": 20,
        "_centroid": [
          126.9755668,
          37.2920487
        ],
        "_area_m2": 23
      },
      "geometry": {
        "type": "Polygon",
        "coordinates": [
          [
            [
              126.97554108231837,
              37.29202172333862
            ],
            [
              126.9755798012183,
              37.292016471658116
            ],
            [
              126.9755924833755,
              37.292075649790625
            ],
            [
              126.97555376447556,
              37.292080901467
            ],
            [
              126.97554108231837,
              37.29202172333862
            ]
          ]
        ]
      }
    },
    {
      "type": "Feature",
      "properties": {
        "indoor": "room",
        "level": [
          2
        ],
        "ref": "86201",
        "name": "박천권교수연구실",
        "room_type": "lab",
        "_idx": 21,
        "_centroid": [
          126.9759704,
          37.2920452
        ],
        "_area_m2": 57.1
      },
      "geometry": {
        "type": "Polygon",
        "coordinates": [
          [
            [
              126.97598852033823,
              37.29202340546748
            ],
            [
              126.97590023868082,
              37.29203537964452
            ],
            [
              126.97591029027988,
              37.292082282924994
            ],
            [
              126.97603141823029,
              37.292065853617515
            ],
            [
              126.9760213666313,
              37.29201895032492
            ],
            [
              126.97598852033823,
              37.29202340546748
            ]
          ]
        ]
      }
    },
    {
      "type": "Feature",
      "properties": {
        "indoor": "room",
        "level": [
          2
        ],
        "ref": "86234",
        "name": "연구교수실",
        "room_type": "office",
        "_idx": 22,
        "_centroid": [
          126.9752948,
          37.2920406
        ],
        "_area_m2": 49.8
      },
      "geometry": {
        "type": "Polygon",
        "coordinates": [
          [
            [
              126.9752624291744,
              37.292001420336454
            ],
            [
              126.97527129481739,
              37.29204278966748
            ],
            [
              126.97528067154403,
              37.292086543819515
            ],
            [
              126.97533888816407,
              37.292078647550866
            ],
            [
              126.97532064580453,
              37.291993524057524
            ],
            [
              126.9752624291744,
              37.292001420336454
            ]
          ]
        ]
      }
    },
    {
      "type": "Feature",
      "properties": {
        "indoor": "room",
        "level": [
          2
        ],
        "ref": "",
        "name": "",
        "room_type": "stairs",
        "_idx": 23,
        "_centroid": [
          126.9760482,
          37.2920394
        ],
        "_area_m2": 20.5
      },
      "geometry": {
        "type": "Polygon",
        "coordinates": [
          [
            [
              126.97602136663129,
              37.29201895032493
            ],
            [
              126.97603141823029,
              37.29206585361752
            ],
            [
              126.97607499532455,
              37.29205994299507
            ],
            [
              126.97606494372486,
              37.29201303969907
            ],
            [
              126.97602136663129,
              37.29201895032493
            ]
          ]
        ]
      }
    },
    {
      "type": "Feature",
      "properties": {
        "indoor": "room",
        "level": [
          2
        ],
        "ref": "86253",
        "name": "뇌신경-혈류기전연구실1",
        "room_type": "lab",
        "_idx": 24,
        "_centroid": [
          126.9754095,
          37.2920101
        ],
        "_area_m2": 44.3
      },
      "geometry": {
        "type": "Polygon",
        "coordinates": [
          [
            [
              126.97542667440003,
              37.29200755869002
            ],
            [
              126.9754606178932,
              37.29200295472618
            ],
            [
              126.97545475388367,
              37.29197559176235
            ],
            [
              126.97534752966963,
              37.29199013524412
            ],
            [
              126.9753594071585,
              37.292045558612465
            ],
            [
              126.9754117974369,
              37.2920384526013
            ],
            [
              126.97540578395763,
              37.29201039218851
            ],
            [
              126.97542667440003,
              37.29200755869002
            ]
          ]
        ]
      }
    },
    {
      "type": "Feature",
      "properties": {
        "indoor": "room",
        "level": [
          2
        ],
        "ref": "86255",
        "name": "생체광학이미징연구실",
        "room_type": "lab",
        "_idx": 25,
        "_centroid": [
          126.9754835,
          37.2920049
        ],
        "_area_m2": 29.2
      },
      "geometry": {
        "type": "Polygon",
        "coordinates": [
          [
            [
              126.97545475388367,
              37.29197559176235
            ],
            [
              126.9754606178932,
              37.29200295472618
            ],
            [
              126.97546663137238,
              37.2920310151421
            ],
            [
              126.97549312172657,
              37.29202742209429
            ],
            [
              126.97551901721414,
              37.2920239097317
            ],
            [
              126.97550713972528,
              37.29196848634741
            ],
            [
              126.97545475388367,
              37.29197559176235
            ]
          ]
        ]
      }
    },
    {
      "type": "Feature",
      "properties": {
        "indoor": "room",
        "level": [
          2
        ],
        "ref": "86256",
        "name": "마우스생리실험실",
        "room_type": "lab",
        "_idx": 26,
        "_centroid": [
          126.9755543,
          37.2919905
        ],
        "_area_m2": 22.2
      },
      "geometry": {
        "type": "Polygon",
        "coordinates": [
          [
            [
              126.9755675515497,
              37.29195931158185
            ],
            [
              126.97552883264976,
              37.29196456326635
            ],
            [
              126.97554108231837,
              37.29202172333862
            ],
            [
              126.9755798012183,
              37.292016471658116
            ],
            [
              126.9755675515497,
              37.29195931158185
            ]
          ]
        ]
      }
    },
    {
      "type": "Feature",
      "properties": {
        "indoor": "room",
        "level": [
          2
        ],
        "ref": "",
        "name": "",
        "room_type": "reserved",
        "_idx": 27,
        "_centroid": [
          126.9756364,
          37.2919866
        ],
        "_area_m2": 297.7
      },
      "geometry": {
        "type": "Polygon",
        "coordinates": [
          [
            [
              126.97578415249738,
              37.29209939174592
            ],
            [
              126.97561375457003,
              37.292120258673854
            ],
            [
              126.97560386252269,
              37.292074099929685
            ],
            [
              126.9755924833755,
              37.292075649790625
            ],
            [
              126.97554367188856,
              37.291847882870954
            ],
            [
              126.97556094569289,
              37.29184553991415
            ],
            [
              126.97556157326177,
              37.291848481351366
            ],
            [
              126.97564063256675,
              37.29183775790598
            ],
            [
              126.97568912046009,
              37.29206401488716
            ],
            [
              126.97577410089839,
              37.29205248847423
            ],
            [
              126.97578415249738,
              37.29209939174592
            ]
          ]
        ]
      }
    },
    {
      "type": "Feature",
      "properties": {
        "indoor": "room",
        "level": [
          2
        ],
        "ref": "86258",
        "name": "신경시스템연구실1",
        "room_type": "lab",
        "_idx": 28,
        "_centroid": [
          126.9753959,
          37.291973
        ],
        "_area_m2": 8.7
      },
      "geometry": {
        "type": "Polygon",
        "coordinates": [
          [
            [
              126.9753782831941,
              37.29195945831423
            ],
            [
              126.97538380302657,
              37.29198521526544
            ],
            [
              126.97538839651241,
              37.29198459222265
            ],
            [
              126.97541732164933,
              37.29198066892803
            ],
            [
              126.97541180181965,
              37.29195491197501
            ],
            [
              126.9753782831941,
              37.29195945831423
            ]
          ]
        ]
      }
    },
    {
      "type": "Feature",
      "properties": {
        "indoor": "room",
        "level": [
          2
        ],
        "ref": "86262",
        "name": "신경시스템연구실5",
        "room_type": "lab",
        "_idx": 29,
        "_centroid": [
          126.9754571,
          37.2919611
        ],
        "_area_m2": 10.2
      },
      "geometry": {
        "type": "Polygon",
        "coordinates": [
          [
            [
              126.97547171486947,
              37.29196368361887
            ],
            [
              126.97546731437524,
              37.29194314978187
            ],
            [
              126.97543321677034,
              37.291947774652506
            ],
            [
              126.97543961806085,
              37.29197764472797
            ],
            [
              126.9754737156682,
              37.291973019858794
            ],
            [
              126.97547171486947,
              37.29196368361887
            ]
          ]
        ]
      }
    },
    {
      "type": "Feature",
      "properties": {
        "indoor": "room",
        "level": [
          2
        ],
        "ref": "86237",
        "name": "조직학연구실",
        "room_type": "lab",
        "_idx": 30,
        "_centroid": [
          126.9752888,
          37.2919568
        ],
        "_area_m2": 46.8
      },
      "geometry": {
        "type": "Polygon",
        "coordinates": [
          [
            [
              126.97531219511451,
              37.291954091006716
            ],
            [
              126.97530351546045,
              37.291913589530466
            ],
            [
              126.97524529884832,
              37.291921485821135
            ],
            [
              126.9752624291744,
              37.292001420336454
            ],
            [
              126.97532064580453,
              37.291993524057524
            ],
            [
              126.97531219511451,
              37.291954091006716
            ]
          ]
        ]
      }
    },
    {
      "type": "Feature",
      "properties": {
        "indoor": "room",
        "level": [
          2
        ],
        "ref": "86266",
        "name": "대동물연구실2",
        "room_type": "lab",
        "_idx": 31,
        "_centroid": [
          126.9754872,
          37.2919558
        ],
        "_area_m2": 10
      },
      "geometry": {
        "type": "Polygon",
        "coordinates": [
          [
            [
              126.97550073843523,
              37.291938616268006
            ],
            [
              126.97546731437524,
              37.29194314978187
            ],
            [
              126.97547371566837,
              37.29197301985877
            ],
            [
              126.97550713972528,
              37.29196848634741
            ],
            [
              126.97550073843523,
              37.291938616268006
            ]
          ]
        ]
      }
    },
    {
      "type": "Feature",
      "properties": {
        "indoor": "room",
        "level": [
          2
        ],
        "ref": "86268",
        "name": "소화약제저장실1",
        "room_type": "storage",
        "_idx": 32,
        "_centroid": [
          126.9755451,
          37.2919474
        ],
        "_area_m2": 11.3
      },
      "geometry": {
        "type": "Polygon",
        "coordinates": [
          [
            [
              126.97556133301167,
              37.29193029428167
            ],
            [
              126.97552261411174,
              37.291935545968194
            ],
            [
              126.97552883264976,
              37.291964563266355
            ],
            [
              126.9755675515497,
              37.291959311581856
            ],
            [
              126.97556133301167,
              37.29193029428167
            ]
          ]
        ]
      }
    },
    {
      "type": "Feature",
      "properties": {
        "indoor": "room",
        "level": [
          2
        ],
        "ref": "86259",
        "name": "신경시스템연구실2",
        "room_type": "lab",
        "_idx": 33,
        "_centroid": [
          126.9753924,
          37.2919447
        ],
        "_area_m2": 8.4
      },
      "geometry": {
        "type": "Polygon",
        "coordinates": [
          [
            [
              126.9753782831941,
              37.29195945831423
            ],
            [
              126.97541180181965,
              37.29195491197501
            ],
            [
              126.97540646484401,
              37.29193000826626
            ],
            [
              126.97537294621925,
              37.291934554606854
            ],
            [
              126.9753782831941,
              37.29195945831423
            ]
          ]
        ]
      }
    },
    {
      "type": "Feature",
      "properties": {
        "indoor": "room",
        "level": [
          2
        ],
        "ref": "86257",
        "name": "대동물연구실1",
        "room_type": "lab",
        "_idx": 34,
        "_centroid": [
          126.9753501,
          37.2919326
        ],
        "_area_m2": 36.5
      },
      "geometry": {
        "type": "Polygon",
        "coordinates": [
          [
            [
              126.9753260953341,
              37.29189011710774
            ],
            [
              126.9753308931361,
              37.29191250490062
            ],
            [
              126.97534752966963,
              37.29199013524412
            ],
            [
              126.97538380302657,
              37.29198521526544
            ],
            [
              126.9753623686915,
              37.29188519712188
            ],
            [
              126.9753260953341,
              37.29189011710774
            ]
          ]
        ]
      }
    },
    {
      "type": "Feature",
      "properties": {
        "indoor": "room",
        "level": [
          2
        ],
        "ref": "86263",
        "name": "신경시스템연구실6",
        "room_type": "lab",
        "_idx": 35,
        "_centroid": [
          126.9754472,
          37.2919313
        ],
        "_area_m2": 9.7
      },
      "geometry": {
        "type": "Polygon",
        "coordinates": [
          [
            [
              126.97543321677034,
              37.29194777465251
            ],
            [
              126.97546731437524,
              37.29194314978187
            ],
            [
              126.97546123654404,
              37.291914789050246
            ],
            [
              126.97542713893914,
              37.29191941392262
            ],
            [
              126.97543321677034,
              37.29194777465251
            ]
          ]
        ]
      }
    },
    {
      "type": "Feature",
      "properties": {
        "indoor": "room",
        "level": [
          2
        ],
        "ref": "86260",
        "name": "신경시스템연구실3",
        "room_type": "lab",
        "_idx": 36,
        "_centroid": [
          126.9753838,
          37.2919209
        ],
        "_area_m2": 8.2
      },
      "geometry": {
        "type": "Polygon",
        "coordinates": [
          [
            [
              126.9753677653803,
              37.291910379478296
            ],
            [
              126.97537065476456,
              37.29192386208837
            ],
            [
              126.97537294621925,
              37.291934554606854
            ],
            [
              126.97540646484401,
              37.29193000826626
            ],
            [
              126.97540128400556,
              37.29190583313396
            ],
            [
              126.9753677653803,
              37.291910379478296
            ]
          ]
        ]
      }
    },
    {
      "type": "Feature",
      "properties": {
        "indoor": "room",
        "level": [
          2
        ],
        "ref": "86269",
        "name": "뇌과학이미징연구단실험실2",
        "room_type": "lab",
        "_idx": 37,
        "_centroid": [
          126.9755389,
          37.2919185
        ],
        "_area_m2": 11.2
      },
      "geometry": {
        "type": "Polygon",
        "coordinates": [
          [
            [
              126.97555515643357,
              37.29190147276609
            ],
            [
              126.97551643753361,
              37.291906724454634
            ],
            [
              126.97552261411174,
              37.291935545968194
            ],
            [
              126.97556133301167,
              37.29193029428167
            ],
            [
              126.97555515643357,
              37.29190147276609
            ]
          ]
        ]
      }
    },
    {
      "type": "Feature",
      "properties": {
        "indoor": "room",
        "level": [
          2
        ],
        "ref": "86264",
        "name": "신경시스템연구실7",
        "room_type": "lab",
        "_idx": 38,
        "_centroid": [
          126.975442,
          37.2919067
        ],
        "_area_m2": 7.1
      },
      "geometry": {
        "type": "Polygon",
        "coordinates": [
          [
            [
              126.97542713893914,
              37.291919413922614
            ],
            [
              126.97546123654404,
              37.291914789050246
            ],
            [
              126.97545679464467,
              37.29189406199273
            ],
            [
              126.97542269703978,
              37.291898686866375
            ],
            [
              126.97542713893914,
              37.291919413922614
            ]
          ]
        ]
      }
    },
    {
      "type": "Feature",
      "properties": {
        "indoor": "room",
        "level": [
          2
        ],
        "ref": "86267",
        "name": "대동물연구실3",
        "room_type": "lab",
        "_idx": 39,
        "_centroid": [
          126.9754765,
          37.2919058
        ],
        "_area_m2": 23.6
      },
      "geometry": {
        "type": "Polygon",
        "coordinates": [
          [
            [
              126.97546731437524,
              37.29194314978187
            ],
            [
              126.97550073843523,
              37.291938616268006
            ],
            [
              126.97548570539031,
              37.29186846818202
            ],
            [
              126.97545228133258,
              37.29187300169949
            ],
            [
              126.97546731437524,
              37.29194314978187
            ]
          ]
        ]
      }
    },
    {
      "type": "Feature",
      "properties": {
        "indoor": "room",
        "level": [
          2
        ],
        "ref": "86240",
        "name": "청각중추연구실",
        "room_type": "lab",
        "_idx": 40,
        "_centroid": [
          126.9752706,
          37.2918996
        ],
        "_area_m2": 21
      },
      "geometry": {
        "type": "Polygon",
        "coordinates": [
          [
            [
              126.97524529884832,
              37.291921485821135
            ],
            [
              126.97530351546045,
              37.291913589530466
            ],
            [
              126.9752958296579,
              37.291877725600166
            ],
            [
              126.9752376130463,
              37.29188562188864
            ],
            [
              126.97524529884832,
              37.291921485821135
            ]
          ]
        ]
      }
    },
    {
      "type": "Feature",
      "properties": {
        "indoor": "room",
        "level": [
          2
        ],
        "ref": "86261",
        "name": "신경시스템연구실4",
        "room_type": "lab",
        "_idx": 41,
        "_centroid": [
          126.975383,
          37.2918928
        ],
        "_area_m2": 8.5
      },
      "geometry": {
        "type": "Polygon",
        "coordinates": [
          [
            [
              126.9753677653803,
              37.291910379478296
            ],
            [
              126.97540128400556,
              37.29190583313396
            ],
            [
              126.97539588731463,
              37.29188065077819
            ],
            [
              126.97538766833173,
              37.291881765571006
            ],
            [
              126.9753623686915,
              37.29188519712188
            ],
            [
              126.9753677653803,
              37.291910379478296
            ]
          ]
        ]
      }
    },
    {
      "type": "Feature",
      "properties": {
        "indoor": "room",
        "level": [
          2
        ],
        "ref": "86265",
        "name": "신경시스템연구실8",
        "room_type": "lab",
        "_idx": 42,
        "_centroid": [
          126.9754375,
          37.2918858
        ],
        "_area_m2": 7.2
      },
      "geometry": {
        "type": "Polygon",
        "coordinates": [
          [
            [
              126.97542269703978,
              37.291898686866375
            ],
            [
              126.97545679464466,
              37.29189406199273
            ],
            [
              126.97545228133268,
              37.29187300169948
            ],
            [
              126.97541818372781,
              37.291877626574426
            ],
            [
              126.97542269703978,
              37.291898686866375
            ]
          ]
        ]
      }
    },
    {
      "type": "Feature",
      "properties": {
        "indoor": "room",
        "level": [
          2
        ],
        "ref": "86270",
        "name": "대동물처치실",
        "room_type": "lab",
        "_idx": 43,
        "_centroid": [
          126.9755314,
          37.2918836
        ],
        "_area_m2": 16
      },
      "geometry": {
        "type": "Polygon",
        "coordinates": [
          [
            [
              126.975546358572,
              37.291860419643065
            ],
            [
              126.97550763967207,
              37.29186567133447
            ],
            [
              126.97551643753363,
              37.291906724454634
            ],
            [
              126.97555515643357,
              37.29190147276609
            ],
            [
              126.975546358572,
              37.291860419643065
            ]
          ]
        ]
      }
    },
    {
      "type": "Feature",
      "properties": {
        "indoor": "room",
        "level": [
          2
        ],
        "ref": "86241",
        "name": "뇌과학이미징연구단실험실1",
        "room_type": "lab",
        "_idx": 44,
        "_centroid": [
          126.9752865,
          37.2918506
        ],
        "_area_m2": 75.1
      },
      "geometry": {
        "type": "Polygon",
        "coordinates": [
          [
            [
              126.9752376130463,
              37.29188562188864
            ],
            [
              126.97522278666283,
              37.291816438078186
            ],
            [
              126.97533067568357,
              37.29180180439155
            ],
            [
              126.97534553436779,
              37.29187113893922
            ],
            [
              126.97529586195864,
              37.29187787632393
            ],
            [
              126.9752376130463,
              37.29188562188864
            ]
          ]
        ]
      }
    },
    {
      "type": "Feature",
      "properties": {
        "indoor": "room",
        "level": [
          2
        ],
        "ref": "",
        "name": "",
        "room_type": "restroom",
        "_idx": 45,
        "_centroid": [
          126.9753821,
          37.2918369
        ],
        "_area_m2": 49.3
      },
      "geometry": {
        "type": "Polygon",
        "coordinates": [
          [
            [
              126.97543100552552,
              37.291860147557614
            ],
            [
              126.9754186104096,
              37.29180230866523
            ],
            [
              126.97533328821368,
              37.291813995152125
            ],
            [
              126.97534553436779,
              37.29187113893922
            ],
            [
              126.97543100552552,
              37.291860147557614
            ]
          ]
        ]
      }
    },
    {
      "type": "Feature",
      "properties": {
        "indoor": "room",
        "level": [
          2
        ],
        "ref": "",
        "name": "",
        "room_type": "stairs",
        "_idx": 46,
        "_centroid": [
          126.975446,
          37.2918284
        ],
        "_area_m2": 24.6
      },
      "geometry": {
        "type": "Polygon",
        "coordinates": [
          [
            [
              126.9754186104096,
              37.29180230866523
            ],
            [
              126.97543100552552,
              37.291860147557614
            ],
            [
              126.97547339678728,
              37.29185439775992
            ],
            [
              126.97546100167115,
              37.29179655886357
            ],
            [
              126.9754186104096,
              37.29180230866523
            ]
          ]
        ]
      }
    },
    {
      "type": "Feature",
      "properties": {
        "indoor": "room",
        "level": [
          2
        ],
        "ref": "86284",
        "name": "광분석실험실",
        "room_type": "lab",
        "_idx": 47,
        "_centroid": [
          126.9755952,
          37.2918234
        ],
        "_area_m2": 39.5
      },
      "geometry": {
        "type": "Polygon",
        "coordinates": [
          [
            [
              126.97559302474728,
              37.291844215387286
            ],
            [
              126.97564063256675,
              37.29183775790598
            ],
            [
              126.97562996903717,
              37.29178800001933
            ],
            [
              126.97555090991447,
              37.29179872331695
            ],
            [
              126.97556157326177,
              37.29184848135137
            ],
            [
              126.97559302474728,
              37.291844215387286
            ]
          ]
        ]
      }
    },
    {
      "type": "Feature",
      "properties": {
        "indoor": "room",
        "level": [
          2
        ],
        "ref": "",
        "name": "",
        "room_type": "elevator",
        "_idx": 48,
        "_centroid": [
          126.9755266,
          37.2918196
        ],
        "_area_m2": 33.4
      },
      "geometry": {
        "type": "Polygon",
        "coordinates": [
          [
            [
              126.97556094569289,
              37.29184553991415
            ],
            [
              126.97554821832858,
              37.29178615065235
            ],
            [
              126.9754922256243,
              37.29179374530743
            ],
            [
              126.97550495298863,
              37.29185313456325
            ],
            [
              126.97556094569289,
              37.29184553991415
            ]
          ]
        ]
      }
    },
    {
      "type": "Feature",
      "properties": {
        "indoor": "room",
        "level": [
          2
        ],
        "ref": "86285",
        "name": "엑스선광전자분광실험실",
        "room_type": "lab",
        "_idx": 49,
        "_centroid": [
          126.9756561,
          37.2918101
        ],
        "_area_m2": 20.9
      },
      "geometry": {
        "type": "Polygon",
        "coordinates": [
          [
            [
              126.97562996903717,
              37.29178800001933
            ],
            [
              126.97564063256675,
              37.29183775790598
            ],
            [
              126.97568231415484,
              37.291832104433546
            ],
            [
              126.97567165061078,
              37.29178234647925
            ],
            [
              126.97562996903717,
              37.29178800001933
            ]
          ]
        ]
      }
    },
    {
      "type": "Feature",
      "properties": {
        "indoor": "room",
        "level": [
          2
        ],
        "ref": "86286",
        "name": "연구원실8",
        "room_type": "lab",
        "_idx": 50,
        "_centroid": [
          126.9756973,
          37.2918045
        ],
        "_area_m2": 20.3
      },
      "geometry": {
        "type": "Polygon",
        "coordinates": [
          [
            [
              126.97567165061078,
              37.29178234647925
            ],
            [
              126.97568231415484,
              37.291832104433546
            ],
            [
              126.97572299145041,
              37.29182658717809
            ],
            [
              126.9757123281031,
              37.29177682912918
            ],
            [
              126.97567165061078,
              37.29178234647925
            ]
          ]
        ]
      }
    },
    {
      "type": "Feature",
      "properties": {
        "indoor": "room",
        "level": [
          2
        ],
        "ref": "86287",
        "name": "소화약제저장실",
        "room_type": "office",
        "_idx": 51,
        "_centroid": [
          126.9757382,
          37.2917936
        ],
        "_area_m2": 26.2
      },
      "geometry": {
        "type": "Polygon",
        "coordinates": [
          [
            [
              126.975753435864,
              37.29176054115926
            ],
            [
              126.97571009726995,
              37.29176641945698
            ],
            [
              126.97572299145041,
              37.29182658717809
            ],
            [
              126.97576633002319,
              37.291820708750386
            ],
            [
              126.975753435864,
              37.29176054115926
            ]
          ]
        ]
      }
    },
    {
      "type": "Feature",
      "properties": {
        "indoor": "room",
        "level": [
          2
        ],
        "ref": "86299",
        "name": "서버실",
        "room_type": "facility",
        "_idx": 52,
        "_centroid": [
          126.9759463,
          37.2917872
        ],
        "_area_m2": 9.2
      },
      "geometry": {
        "type": "Polygon",
        "coordinates": [
          [
            [
              126.97596791773722,
              37.29177072051798
            ],
            [
              126.97592634514535,
              37.29177635941871
            ],
            [
              126.97593106118862,
              37.29179836519727
            ],
            [
              126.97593370322312,
              37.291798006839315
            ],
            [
              126.97597263383746,
              37.291792726564374
            ],
            [
              126.97596791773722,
              37.29177072051798
            ]
          ]
        ]
      }
    },
    {
      "type": "Feature",
      "properties": {
        "indoor": "room",
        "level": [
          2
        ],
        "ref": "86271",
        "name": "물리특성측정실험실",
        "room_type": "lab",
        "_idx": 53,
        "_centroid": [
          126.9754974,
          37.2917806
        ],
        "_area_m2": 184.6
      },
      "geometry": {
        "type": "Polygon",
        "coordinates": [
          [
            [
              126.97531812152863,
              37.291803507193016
            ],
            [
              126.97531073792409,
              37.291769053311114
            ],
            [
              126.97569936530176,
              37.29171634122961
            ],
            [
              126.97571232809373,
              37.291776829130434
            ],
            [
              126.97555090991601,
              37.29179872332404
            ],
            [
              126.97554821562068,
              37.29178615101963
            ],
            [
              126.9755033774346,
              37.2917922327133
            ],
            [
              126.97550091641415,
              37.29178074893083
            ],
            [
              126.97533293026841,
              37.291801498587574
            ],
            [
              126.97531812152863,
              37.291803507193016
            ]
          ]
        ]
      }
    },
    {
      "type": "Feature",
      "properties": {
        "indoor": "room",
        "level": [
          2
        ],
        "ref": "",
        "name": "",
        "room_type": "reserved",
        "_idx": 54,
        "_centroid": [
          126.9759909,
          37.2917789
        ],
        "_area_m2": 9.2
      },
      "geometry": {
        "type": "Polygon",
        "coordinates": [
          [
            [
              126.97597263383736,
              37.291792726564395
            ],
            [
              126.97601397105751,
              37.29178711959067
            ],
            [
              126.97600925495739,
              37.29176511354261
            ],
            [
              126.97596791773724,
              37.29177072051798
            ],
            [
              126.97597263383736,
              37.291792726564395
            ]
          ]
        ]
      }
    },
    {
      "type": "Feature",
      "properties": {
        "indoor": "room",
        "level": [
          2
        ],
        "ref": "86288",
        "name": "기자재실",
        "room_type": "storage",
        "_idx": 55,
        "_centroid": [
          126.9757305,
          37.2917573
        ],
        "_area_m2": 5.3
      },
      "geometry": {
        "type": "Polygon",
        "coordinates": [
          [
            [
              126.97571009726995,
              37.29176641945698
            ],
            [
              126.975753435864,
              37.29176054115926
            ],
            [
              126.97575080691482,
              37.29174827377413
            ],
            [
              126.97570746832102,
              37.29175415207276
            ],
            [
              126.97571009726995,
              37.29176641945698
            ]
          ]
        ]
      }
    },
    {
      "type": "Feature",
      "properties": {
        "indoor": "room",
        "level": [
          2
        ],
        "ref": "86291",
        "name": "이차원소재합성실험실",
        "room_type": "lab",
        "_idx": 56,
        "_centroid": [
          126.9758325,
          37.2917561
        ],
        "_area_m2": 332.8
      },
      "geometry": {
        "type": "Polygon",
        "coordinates": [
          [
            [
              126.97576633002319,
              37.291820708750386
            ],
            [
              126.97581086664083,
              37.291814667961184
            ],
            [
              126.97593106118862,
              37.29179836519727
            ],
            [
              126.97592634514535,
              37.29177635941871
            ],
            [
              126.97596791773722,
              37.29177072051798
            ],
            [
              126.975940733794,
              37.29164387229732
            ],
            [
              126.97569109140694,
              37.29167773297802
            ],
            [
              126.97570746832102,
              37.29175415207276
            ],
            [
              126.97575080691482,
              37.29174827377413
            ],
            [
              126.97576633002319,
              37.291820708750386
            ]
          ]
        ]
      }
    },
    {
      "type": "Feature",
      "properties": {
        "indoor": "room",
        "level": [
          2
        ],
        "ref": "86275",
        "name": "장비실",
        "room_type": "lab",
        "_idx": 57,
        "_centroid": [
          126.9753296,
          37.2917466
        ],
        "_area_m2": 17.9
      },
      "geometry": {
        "type": "Polygon",
        "coordinates": [
          [
            [
              126.97535679964435,
              37.291762805658344
            ],
            [
              126.975348525753,
              37.29172419744233
            ],
            [
              126.97530246403022,
              37.291730445099674
            ],
            [
              126.97531073792413,
              37.291769053311114
            ],
            [
              126.97535679964435,
              37.291762805658344
            ]
          ]
        ]
      }
    },
    {
      "type": "Feature",
      "properties": {
        "indoor": "room",
        "level": [
          2
        ],
        "ref": "86276",
        "name": "기술원실",
        "room_type": "lab",
        "_idx": 58,
        "_centroid": [
          126.9753789,
          37.2917439
        ],
        "_area_m2": 17.5
      },
      "geometry": {
        "type": "Polygon",
        "coordinates": [
          [
            [
              126.97535679964435,
              37.291762805658344
            ],
            [
              126.97539357311776,
              37.29175781783094
            ],
            [
              126.97540193911549,
              37.29175668309575
            ],
            [
              126.9753936652245,
              37.291718074876044
            ],
            [
              126.975348525753,
              37.29172419744233
            ],
            [
              126.97535679964435,
              37.291762805658344
            ]
          ]
        ]
      }
    },
    {
      "type": "Feature",
      "properties": {
        "indoor": "room",
        "level": [
          2
        ],
        "ref": "86277",
        "name": "연구원실1",
        "room_type": "lab",
        "_idx": 59,
        "_centroid": [
          126.9754205,
          37.2917343
        ],
        "_area_m2": 17.6
      },
      "geometry": {
        "type": "Polygon",
        "coordinates": [
          [
            [
              126.97540193911549,
              37.29175668309575
            ],
            [
              126.97544726316984,
              37.29175053549639
            ],
            [
              126.97543898927853,
              37.29171192727361
            ],
            [
              126.9753936652245,
              37.291718074876044
            ],
            [
              126.97540193911549,
              37.29175668309575
            ]
          ]
        ]
      }
    },
    {
      "type": "Feature",
      "properties": {
        "indoor": "room",
        "level": [
          2
        ],
        "ref": "86278",
        "name": "연구원실2",
        "room_type": "lab",
        "_idx": 60,
        "_centroid": [
          126.9754692,
          37.2917319
        ],
        "_area_m2": 17.9
      },
      "geometry": {
        "type": "Polygon",
        "coordinates": [
          [
            [
              126.97544726316984,
              37.29175053549639
            ],
            [
              126.9754540625767,
              37.29174961324815
            ],
            [
              126.97547816606867,
              37.29174634393291
            ],
            [
              126.97549342376453,
              37.29174427443113
            ],
            [
              126.97548714964984,
              37.291714997712056
            ],
            [
              126.97548514987226,
              37.291705666205736
            ],
            [
              126.97543898927853,
              37.29171192727361
            ],
            [
              126.97544726316984,
              37.29175053549639
            ]
          ]
        ]
      }
    },
    {
      "type": "Feature",
      "properties": {
        "indoor": "room",
        "level": [
          2
        ],
        "ref": "86279",
        "name": "연구원실3",
        "room_type": "lab",
        "_idx": 61,
        "_centroid": [
          126.9755101,
          37.2917222
        ],
        "_area_m2": 16.1
      },
      "geometry": {
        "type": "Polygon",
        "coordinates": [
          [
            [
              126.97549342376453,
              37.29174427443113
            ],
            [
              126.97553495134694,
              37.291738641771104
            ],
            [
              126.9755266774555,
              37.29170003354188
            ],
            [
              126.97548514987226,
              37.291705666205736
            ],
            [
              126.97549342376453,
              37.29174427443113
            ]
          ]
        ]
      }
    },
    {
      "type": "Feature",
      "properties": {
        "indoor": "room",
        "level": [
          2
        ],
        "ref": "86280",
        "name": "연구원실4",
        "room_type": "lab",
        "_idx": 62,
        "_centroid": [
          126.9755515,
          37.2917165
        ],
        "_area_m2": 16
      },
      "geometry": {
        "type": "Polygon",
        "coordinates": [
          [
            [
              126.9755266774555,
              37.29170003354188
            ],
            [
              126.97553495134694,
              37.291738641771104
            ],
            [
              126.97557626722532,
              37.29173303782487
            ],
            [
              126.97556799333303,
              37.29169442959309
            ],
            [
              126.9755266774555,
              37.29170003354188
            ]
          ]
        ]
      }
    },
    {
      "type": "Feature",
      "properties": {
        "indoor": "room",
        "level": [
          2
        ],
        "ref": "86281",
        "name": "연구원실5",
        "room_type": "lab",
        "_idx": 63,
        "_centroid": [
          126.9755929,
          37.2917109
        ],
        "_area_m2": 16.1
      },
      "geometry": {
        "type": "Polygon",
        "coordinates": [
          [
            [
              126.97556799333303,
              37.29169442959309
            ],
            [
              126.97557626722532,
              37.29173303782487
            ],
            [
              126.97561785997732,
              37.291727396324426
            ],
            [
              126.9756095860854,
              37.291688788089914
            ],
            [
              126.97556799333303,
              37.29169442959309
            ]
          ]
        ]
      }
    },
    {
      "type": "Feature",
      "properties": {
        "indoor": "room",
        "level": [
          2
        ],
        "ref": "86282",
        "name": "연구원실6",
        "room_type": "lab",
        "_idx": 64,
        "_centroid": [
          126.9756351,
          37.2917052
        ],
        "_area_m2": 16.6
      },
      "geometry": {
        "type": "Polygon",
        "coordinates": [
          [
            [
              126.9756095860854,
              37.291688788089914
            ],
            [
              126.97561785997732,
              37.291727396324426
            ],
            [
              126.97566054248047,
              37.29172160701382
            ],
            [
              126.97565226858842,
              37.291682998776565
            ],
            [
              126.9756095860854,
              37.291688788089914
            ]
          ]
        ]
      }
    },
    {
      "type": "Feature",
      "properties": {
        "indoor": "room",
        "level": [
          2
        ],
        "ref": "86283",
        "name": "연구원실7",
        "room_type": "lab",
        "_idx": 65,
        "_centroid": [
          126.9756758,
          37.2916997
        ],
        "_area_m2": 15.1
      },
      "geometry": {
        "type": "Polygon",
        "coordinates": [
          [
            [
              126.97565226858842,
              37.291682998776565
            ],
            [
              126.97566054248047,
              37.29172160701382
            ],
            [
              126.97569936529922,
              37.29171634121777
            ],
            [
              126.97569109140694,
              37.29167773297804
            ],
            [
              126.97565226858842,
              37.291682998776565
            ]
          ]
        ]
      }
    },
    {
      "type": "Feature",
      "properties": {
        "indoor": "room",
        "level": [
          2
        ],
        "ref": "",
        "name": "",
        "room_type": "stairs",
        "_idx": 66,
        "_centroid": [
          126.9759667,
          37.2916658
        ],
        "_area_m2": 20.5
      },
      "geometry": {
        "type": "Polygon",
        "coordinates": [
          [
            [
              126.975940733794,
              37.29164387229732
            ],
            [
              126.97595132550425,
              37.291693296127
            ],
            [
              126.97599266275301,
              37.29168768927938
            ],
            [
              126.97598207104275,
              37.29163826544602
            ],
            [
              126.975940733794,
              37.29164387229732
            ]
          ]
        ]
      }
    }
  ]
}