{
  "type": "FeatureCollection",
  "features": [
    {
      "type": "Feature",
      "properties": {
        "indoor": "room",
        "level": "6",
        "ref": "",
        "name": "",
        "room_type": "",
        "_idx": 1,
        "_centroid": [
          126.9754501,
          37.2921957
        ],
        "_area_m2": 61.2
      },
      "geometry": {
        "type": "Polygon",
        "coordinates": [
          [
            [
              126.97548996233311,
              37.29216118491683
            ],
            [
              126.975432425614,
              37.29216898895754
            ],
            [
              126.9754039202274,
              37.292172855309026
            ],
            [
              126.97541907965332,
              37.29224359284959
            ],
            [
              126.97550512175965,
              37.29223192246305
            ],
            [
              126.97548996233311,
              37.29216118491683
            ]
          ]
        ]
      }
    },
    {
      "type": "Feature",
      "properties": {
        "indoor": "room",
        "level": "6",
        "ref": "",
        "name": "",
        "room_type": "",
        "_idx": 2,
        "_centroid": [
          126.9755389,
          37.2921909
        ],
        "_area_m2": 58.9
      },
      "geometry": {
        "type": "Polygon",
        "coordinates": [
          [
            [
              126.97548996233311,
              37.29216118491683
            ],
            [
              126.97550512175965,
              37.29223192246305
            ],
            [
              126.97558790023395,
              37.29222069474173
            ],
            [
              126.97557274080808,
              37.29214995718399
            ],
            [
              126.97548996233311,
              37.29216118491683
            ]
          ]
        ]
      }
    },
    {
      "type": "Feature",
      "properties": {
        "indoor": "room",
        "level": "6",
        "ref": "",
        "name": "",
        "room_type": "",
        "_idx": 3,
        "_centroid": [
          126.9756223,
          37.2921796
        ],
        "_area_m2": 59.7
      },
      "geometry": {
        "type": "Polygon",
        "coordinates": [
          [
            [
              126.97557274080808,
              37.29214995718399
            ],
            [
              126.97558790023395,
              37.29222069474173
            ],
            [
              126.97567189269678,
              37.29220930236014
            ],
            [
              126.97565673327081,
              37.292138564790825
            ],
            [
              126.97557274080808,
              37.29214995718399
            ]
          ]
        ]
      }
    },
    {
      "type": "Feature",
      "properties": {
        "indoor": "room",
        "level": "6",
        "ref": "",
        "name": "",
        "room_type": "",
        "_idx": 4,
        "_centroid": [
          126.975706,
          37.2921683
        ],
        "_area_m2": 59.2
      },
      "geometry": {
        "type": "Polygon",
        "coordinates": [
          [
            [
              126.97565673327081,
              37.292138564790825
            ],
            [
              126.97567189269678,
              37.29220930236014
            ],
            [
              126.97575522018847,
              37.29219800017243
            ],
            [
              126.97574006076239,
              37.29212726259163
            ],
            [
              126.97565673327081,
              37.292138564790825
            ]
          ]
        ]
      }
    },
    {
      "type": "Feature",
      "properties": {
        "indoor": "room",
        "level": "6",
        "ref": "",
        "name": "",
        "room_type": "",
        "_idx": 5,
        "_centroid": [
          126.9757886,
          37.2921571
        ],
        "_area_m2": 58.3
      },
      "geometry": {
        "type": "Polygon",
        "coordinates": [
          [
            [
              126.97574006076239,
              37.29212726259163
            ],
            [
              126.97575522018847,
              37.29219800017243
            ],
            [
              126.97583715384019,
              37.29218688703926
            ],
            [
              126.97582199441315,
              37.29211614944728
            ],
            [
              126.97574006076239,
              37.29212726259163
            ]
          ]
        ]
      }
    },
    {
      "type": "Feature",
      "properties": {
        "indoor": "room",
        "level": "6",
        "ref": "",
        "name": "",
        "room_type": "",
        "_idx": 6,
        "_centroid": [
          126.9758707,
          37.2921459
        ],
        "_area_m2": 58.5
      },
      "geometry": {
        "type": "Polygon",
        "coordinates": [
          [
            [
              126.97582199441315,
              37.29211614944728
            ],
            [
              126.97583715384019,
              37.29218688703926
            ],
            [
              126.97591935726811,
              37.292175737314786
            ],
            [
              126.97590419784089,
              37.29210499971148
            ],
            [
              126.97582199441315,
              37.29211614944728
            ]
          ]
        ]
      }
    },
    {
      "type": "Feature",
      "properties": {
        "indoor": "room",
        "level": "6",
        "ref": "",
        "name": "",
        "room_type": "",
        "_idx": 7,
        "_centroid": [
          126.9760758,
          37.2921439
        ],
        "_area_m2": 7.1
      },
      "geometry": {
        "type": "Polygon",
        "coordinates": [
          [
            [
              126.97605660558004,
              37.292135864768305
            ],
            [
              126.97606103233768,
              37.29215652109996
            ],
            [
              126.97609509323043,
              37.292151901223455
            ],
            [
              126.97609066647465,
              37.29213124488792
            ],
            [
              126.97605660558004,
              37.292135864768305
            ]
          ]
        ]
      }
    },
    {
      "type": "Feature",
      "properties": {
        "indoor": "room",
        "level": "6",
        "ref": "",
        "name": "",
        "room_type": "",
        "_idx": 8,
        "_centroid": [
          126.975954,
          37.2921346
        ],
        "_area_m2": 60.0
      },
      "geometry": {
        "type": "Polygon",
        "coordinates": [
          [
            [
              126.97590419784089,
              37.29210499971148
            ],
            [
              126.97591935726811,
              37.292175737314786
            ],
            [
              126.97600371612698,
              37.292164295236795
            ],
            [
              126.97598855670108,
              37.292093557621676
            ],
            [
              126.97590419784089,
              37.29210499971148
            ]
          ]
        ]
      }
    },
    {
      "type": "Feature",
      "properties": {
        "indoor": "room",
        "level": "6",
        "ref": "",
        "name": "",
        "room_type": "",
        "_idx": 9,
        "_centroid": [
          126.9754384,
          37.2921203
        ],
        "_area_m2": 40.3
      },
      "geometry": {
        "type": "Polygon",
        "coordinates": [
          [
            [
              126.97539005883986,
              37.292103012220515
            ],
            [
              126.97539996904291,
              37.292149255666004
            ],
            [
              126.97548680376421,
              37.29213747776142
            ],
            [
              126.97547691171637,
              37.29209131902833
            ],
            [
              126.97539005883986,
              37.292103012220515
            ]
          ]
        ]
      }
    },
    {
      "type": "Feature",
      "properties": {
        "indoor": "room",
        "level": "6",
        "ref": "",
        "name": "",
        "room_type": "",
        "_idx": 10,
        "_centroid": [
          126.9755303,
          37.2921079
        ],
        "_area_m2": 5.9
      },
      "geometry": {
        "type": "Polygon",
        "coordinates": [
          [
            [
              126.97553178696546,
              37.29208392038781
            ],
            [
              126.97551901074094,
              37.29208560888578
            ],
            [
              126.97552890278827,
              37.292131767622884
            ],
            [
              126.97554143227029,
              37.292130111735275
            ],
            [
              126.97553178696546,
              37.29208392038781
            ]
          ]
        ]
      }
    },
    {
      "type": "Feature",
      "properties": {
        "indoor": "room",
        "level": "6",
        "ref": "",
        "name": "",
        "room_type": "",
        "_idx": 11,
        "_centroid": [
          126.9754997,
          37.2921072
        ],
        "_area_m2": 19.5
      },
      "geometry": {
        "type": "Polygon",
        "coordinates": [
          [
            [
              126.97548667258938,
              37.29208999510278
            ],
            [
              126.97547691171637,
              37.29209131902833
            ],
            [
              126.97548680376421,
              37.29213747776142
            ],
            [
              126.97552890278827,
              37.292131767622884
            ],
            [
              126.97551901074094,
              37.29208560888578
            ],
            [
              126.97548667258938,
              37.29208999510278
            ]
          ]
        ]
      }
    },
    {
      "type": "Feature",
      "properties": {
        "indoor": "room",
        "level": "6",
        "ref": "",
        "name": "",
        "room_type": "",
        "_idx": 12,
        "_centroid": [
          126.9755875,
          37.2921048
        ],
        "_area_m2": 19.9
      },
      "geometry": {
        "type": "Polygon",
        "coordinates": [
          [
            [
              126.97557089073689,
              37.29212607254929
            ],
            [
              126.97558794871104,
              37.29212375887532
            ],
            [
              126.97561375457003,
              37.292120258673854
            ],
            [
              126.97560386252269,
              37.29207409992969
            ],
            [
              126.97556099868974,
              37.29207991380844
            ],
            [
              126.97557089073689,
              37.29212607254929
            ]
          ]
        ]
      }
    },
    {
      "type": "Feature",
      "properties": {
        "indoor": "room",
        "level": "6",
        "ref": "",
        "name": "",
        "room_type": "",
        "_idx": 13,
        "_centroid": [
          126.9756514,
          37.2920921
        ],
        "_area_m2": 39.3
      },
      "geometry": {
        "type": "Polygon",
        "coordinates": [
          [
            [
              126.97568912046009,
              37.29206401488716
            ],
            [
              126.97560386252269,
              37.292074099929685
            ],
            [
              126.97561375457003,
              37.292120258673854
            ],
            [
              126.97569893823895,
              37.29210982708288
            ],
            [
              126.97568912046009,
              37.29206401488716
            ]
          ]
        ]
      }
    },
    {
      "type": "Feature",
      "properties": {
        "indoor": "room",
        "level": "6",
        "ref": "",
        "name": "",
        "room_type": "",
        "_idx": 14,
        "_centroid": [
          126.9757134,
          37.2920844
        ],
        "_area_m2": 17.9
      },
      "geometry": {
        "type": "Polygon",
        "coordinates": [
          [
            [
              126.97572783346162,
              37.29205876400789
            ],
            [
              126.97568912046009,
              37.29206401488716
            ],
            [
              126.97569893823895,
              37.29210982708288
            ],
            [
              126.97573775776141,
              37.29210507324468
            ],
            [
              126.97572783346162,
              37.29205876400789
            ]
          ]
        ]
      }
    },
    {
      "type": "Feature",
      "properties": {
        "indoor": "room",
        "level": "6",
        "ref": "",
        "name": "",
        "room_type": "",
        "_idx": 15,
        "_centroid": [
          126.975756,
          37.2920789
        ],
        "_area_m2": 21.7
      },
      "geometry": {
        "type": "Polygon",
        "coordinates": [
          [
            [
              126.97572783346162,
              37.29205876400789
            ],
            [
              126.97573775776141,
              37.29210507324468
            ],
            [
              126.97578415249738,
              37.29209939174592
            ],
            [
              126.97577410089839,
              37.29205248847423
            ],
            [
              126.97572783346162,
              37.29205876400789
            ]
          ]
        ]
      }
    },
    {
      "type": "Feature",
      "properties": {
        "indoor": "room",
        "level": "6",
        "ref": "",
        "name": "",
        "room_type": "",
        "_idx": 16,
        "_centroid": [
          126.9757999,
          37.2920731
        ],
        "_area_m2": 19.6
      },
      "geometry": {
        "type": "Polygon",
        "coordinates": [
          [
            [
              126.97582567543941,
              37.292093759741256
            ],
            [
              126.97581562384111,
              37.29204685646658
            ],
            [
              126.97577410089839,
              37.29205248847423
            ],
            [
              126.97578415249738,
              37.29209939174592
            ],
            [
              126.97582567543941,
              37.292093759741256
            ]
          ]
        ]
      }
    },
    {
      "type": "Feature",
      "properties": {
        "indoor": "room",
        "level": "6",
        "ref": "",
        "name": "",
        "room_type": "",
        "_idx": 17,
        "_centroid": [
          126.9758424,
          37.2920674
        ],
        "_area_m2": 20.5
      },
      "geometry": {
        "type": "Polygon",
        "coordinates": [
          [
            [
              126.97586917555212,
              37.29208785956112
            ],
            [
              126.97585912395407,
              37.29204095628337
            ],
            [
              126.97581562384111,
              37.29204685646658
            ],
            [
              126.97582567543941,
              37.292093759741256
            ],
            [
              126.97586917555212,
              37.29208785956112
            ]
          ]
        ]
      }
    },
    {
      "type": "Feature",
      "properties": {
        "indoor": "room",
        "level": "6",
        "ref": "",
        "name": "",
        "room_type": "",
        "_idx": 18,
        "_centroid": [
          126.9758847,
          37.2920616
        ],
        "_area_m2": 19.4
      },
      "geometry": {
        "type": "Polygon",
        "coordinates": [
          [
            [
              126.97591029027988,
              37.292082282924994
            ],
            [
              126.97590023868082,
              37.29203537964452
            ],
            [
              126.97585912395407,
              37.29204095628337
            ],
            [
              126.97586917555212,
              37.29208785956112
            ],
            [
              126.97591029027988,
              37.292082282924994
            ]
          ]
        ]
      }
    },
    {
      "type": "Feature",
      "properties": {
        "indoor": "room",
        "level": "6",
        "ref": "",
        "name": "",
        "room_type": "",
        "_idx": 19,
        "_centroid": [
          126.9759704,
          37.2920452
        ],
        "_area_m2": 57.1
      },
      "geometry": {
        "type": "Polygon",
        "coordinates": [
          [
            [
              126.97598852033823,
              37.29202340546748
            ],
            [
              126.97590023868082,
              37.29203537964452
            ],
            [
              126.97591029027988,
              37.292082282924994
            ],
            [
              126.97603141823029,
              37.292065853617515
            ],
            [
              126.9760213666313,
              37.29201895032492
            ],
            [
              126.97598852033823,
              37.29202340546748
            ]
          ]
        ]
      }
    },
    {
      "type": "Feature",
      "properties": {
        "indoor": "room",
        "level": "6",
        "ref": "",
        "name": "",
        "room_type": "",
        "_idx": 20,
        "_centroid": [
          126.9760482,
          37.2920394
        ],
        "_area_m2": 20.5
      },
      "geometry": {
        "type": "Polygon",
        "coordinates": [
          [
            [
              126.97602136663129,
              37.29201895032493
            ],
            [
              126.97603141823029,
              37.29206585361752
            ],
            [
              126.97607499532455,
              37.29205994299507
            ],
            [
              126.97606494372486,
              37.29201303969907
            ],
            [
              126.97602136663129,
              37.29201895032493
            ]
          ]
        ]
      }
    },
    {
      "type": "Feature",
      "properties": {
        "indoor": "room",
        "level": "6",
        "ref": "",
        "name": "",
        "room_type": "",
        "_idx": 21,
        "_centroid": [
          126.9753821,
          37.2918369
        ],
        "_area_m2": 49.3
      },
      "geometry": {
        "type": "Polygon",
        "coordinates": [
          [
            [
              126.97543100552552,
              37.291860147557614
            ],
            [
              126.9754186104096,
              37.29180230866523
            ],
            [
              126.97533328821368,
              37.291813995152125
            ],
            [
              126.97534553436779,
              37.29187113893922
            ],
            [
              126.97543100552552,
              37.291860147557614
            ]
          ]
        ]
      }
    },
    {
      "type": "Feature",
      "properties": {
        "indoor": "room",
        "level": "6",
        "ref": "",
        "name": "",
        "room_type": "",
        "_idx": 22,
        "_centroid": [
          126.975446,
          37.2918284
        ],
        "_area_m2": 24.6
      },
      "geometry": {
        "type": "Polygon",
        "coordinates": [
          [
            [
              126.9754186104096,
              37.29180230866523
            ],
            [
              126.97543100552552,
              37.291860147557614
            ],
            [
              126.97547339678728,
              37.29185439775992
            ],
            [
              126.97546100167115,
              37.29179655886357
            ],
            [
              126.9754186104096,
              37.29180230866523
            ]
          ]
        ]
      }
    },
    {
      "type": "Feature",
      "properties": {
        "indoor": "room",
        "level": "6",
        "ref": "",
        "name": "",
        "room_type": "",
        "_idx": 23,
        "_centroid": [
          126.9755952,
          37.2918234
        ],
        "_area_m2": 39.5
      },
      "geometry": {
        "type": "Polygon",
        "coordinates": [
          [
            [
              126.97559302474728,
              37.291844215387286
            ],
            [
              126.97564063256675,
              37.29183775790598
            ],
            [
              126.97562996903717,
              37.29178800001933
            ],
            [
              126.97555090991447,
              37.29179872331695
            ],
            [
              126.97556157326177,
              37.29184848135137
            ],
            [
              126.97559302474728,
              37.291844215387286
            ]
          ]
        ]
      }
    },
    {
      "type": "Feature",
      "properties": {
        "indoor": "room",
        "level": "6",
        "ref": "",
        "name": "",
        "room_type": "",
        "_idx": 24,
        "_centroid": [
          126.9755266,
          37.2918196
        ],
        "_area_m2": 33.4
      },
      "geometry": {
        "type": "Polygon",
        "coordinates": [
          [
            [
              126.97556094569289,
              37.29184553991415
            ],
            [
              126.97554821832858,
              37.29178615065235
            ],
            [
              126.9754922256243,
              37.29179374530743
            ],
            [
              126.97550495298863,
              37.29185313456325
            ],
            [
              126.97556094569289,
              37.29184553991415
            ]
          ]
        ]
      }
    },
    {
      "type": "Feature",
      "properties": {
        "indoor": "room",
        "level": "6",
        "ref": "",
        "name": "",
        "room_type": "",
        "_idx": 25,
        "_centroid": [
          126.9756583,
          37.2918149
        ],
        "_area_m2": 21.0
      },
      "geometry": {
        "type": "Polygon",
        "coordinates": [
          [
            [
              126.97566611190693,
              37.29183430202169
            ],
            [
              126.97568231415164,
              37.291832104417686
            ],
            [
              126.97567228583243,
              37.29178233740325
            ],
            [
              126.97562996903717,
              37.29178800001933
            ],
            [
              126.97564063256675,
              37.29183775790598
            ],
            [
              126.97566611190693,
              37.29183430202169
            ]
          ]
        ]
      }
    },
    {
      "type": "Feature",
      "properties": {
        "indoor": "room",
        "level": "6",
        "ref": "",
        "name": "",
        "room_type": "",
        "_idx": 26,
        "_centroid": [
          126.975696,
          37.2918047
        ],
        "_area_m2": 18.7
      },
      "geometry": {
        "type": "Polygon",
        "coordinates": [
          [
            [
              126.9757094066527,
              37.291777370085434
            ],
            [
              126.97567228583243,
              37.29178233740325
            ],
            [
              126.97568231415165,
              37.29183210441768
            ],
            [
              126.97572003979658,
              37.29182698747062
            ],
            [
              126.9757094066527,
              37.291777370085434
            ]
          ]
        ]
      }
    },
    {
      "type": "Feature",
      "properties": {
        "indoor": "room",
        "level": "6",
        "ref": "",
        "name": "",
        "room_type": "",
        "_idx": 27,
        "_centroid": [
          126.9757326,
          37.2917882
        ],
        "_area_m2": 29.4
      },
      "geometry": {
        "type": "Polygon",
        "coordinates": [
          [
            [
              126.97576057703506,
              37.291821489151964
            ],
            [
              126.97574511273085,
              37.29174932819734
            ],
            [
              126.97570457549818,
              37.29175482649951
            ],
            [
              126.97572003979658,
              37.29182698747062
            ],
            [
              126.97576057703506,
              37.291821489151964
            ]
          ]
        ]
      }
    },
    {
      "type": "Feature",
      "properties": {
        "indoor": "room",
        "level": "6",
        "ref": "",
        "name": "",
        "room_type": "",
        "_idx": 28,
        "_centroid": [
          126.9757938,
          37.2917799
        ],
        "_area_m2": 59.4
      },
      "geometry": {
        "type": "Polygon",
        "coordinates": [
          [
            [
              126.97582696830086,
              37.291738225646
            ],
            [
              126.97574511273085,
              37.29174932819734
            ],
            [
              126.97576057703506,
              37.291821489151964
            ],
            [
              126.97584243259509,
              37.291810386571484
            ],
            [
              126.97582696830086,
              37.291738225646
            ]
          ]
        ]
      }
    },
    {
      "type": "Feature",
      "properties": {
        "indoor": "room",
        "level": "6",
        "ref": "",
        "name": "",
        "room_type": "",
        "_idx": 29,
        "_centroid": [
          126.9759909,
          37.2917789
        ],
        "_area_m2": 9.2
      },
      "geometry": {
        "type": "Polygon",
        "coordinates": [
          [
            [
              126.97597263383736,
              37.291792726564395
            ],
            [
              126.97601397105751,
              37.29178711959067
            ],
            [
              126.97600925495739,
              37.29176511354261
            ],
            [
              126.97596791773724,
              37.29177072051798
            ],
            [
              126.97597263383736,
              37.291792726564395
            ]
          ]
        ]
      }
    },
    {
      "type": "Feature",
      "properties": {
        "indoor": "room",
        "level": "6",
        "ref": "",
        "name": "",
        "room_type": "",
        "_idx": 30,
        "_centroid": [
          126.9755466,
          37.2917727
        ],
        "_area_m2": 182.1
      },
      "geometry": {
        "type": "Polygon",
        "coordinates": [
          [
            [
              126.9757094066527,
              37.291777370085434
            ],
            [
              126.97569641378871,
              37.29171674155029
            ],
            [
              126.97566054248047,
              37.29172160701382
            ],
            [
              126.97530801931173,
              37.291769422055765
            ],
            [
              126.97531541586036,
              37.29180387418036
            ],
            [
              126.97550080834807,
              37.29177873411468
            ],
            [
              126.97550385762032,
              37.291792167584134
            ],
            [
              126.97554821832858,
              37.29178615065235
            ],
            [
              126.97555090991447,
              37.29179872331695
            ],
            [
              126.97567228583243,
              37.29178233740325
            ],
            [
              126.9757094066527,
              37.291777370085434
            ]
          ]
        ]
      }
    },
    {
      "type": "Feature",
      "properties": {
        "indoor": "room",
        "level": "6",
        "ref": "",
        "name": "",
        "room_type": "",
        "_idx": 31,
        "_centroid": [
          126.9759083,
          37.2917605
        ],
        "_area_m2": 94.4
      },
      "geometry": {
        "type": "Polygon",
        "coordinates": [
          [
            [
              126.97588276213659,
              37.29173065799969
            ],
            [
              126.97582696830086,
              37.291738225646
            ],
            [
              126.97584243259509,
              37.291810386571484
            ],
            [
              126.97597263383746,
              37.291792726564374
            ],
            [
              126.97596791773722,
              37.29177072051798
            ],
            [
              126.97595716943884,
              37.291720565698185
            ],
            [
              126.97588276213659,
              37.29173065799969
            ]
          ]
        ]
      }
    },
    {
      "type": "Feature",
      "properties": {
        "indoor": "room",
        "level": "6",
        "ref": "",
        "name": "",
        "room_type": "",
        "_idx": 32,
        "_centroid": [
          126.975334,
          37.291746
        ],
        "_area_m2": 23.4
      },
      "geometry": {
        "type": "Polygon",
        "coordinates": [
          [
            [
              126.97536823818263,
              37.29176125417539
            ],
            [
              126.97535996338156,
              37.291722641721705
            ],
            [
              126.97529972956538,
              37.29173080953681
            ],
            [
              126.97530801931173,
              37.29176942205576
            ],
            [
              126.97536823818263,
              37.29176125417539
            ]
          ]
        ]
      }
    },
    {
      "type": "Feature",
      "properties": {
        "indoor": "room",
        "level": "6",
        "ref": "",
        "name": "",
        "room_type": "",
        "_idx": 33,
        "_centroid": [
          126.9753837,
          37.2917393
        ],
        "_area_m2": 15.2
      },
      "geometry": {
        "type": "Polygon",
        "coordinates": [
          [
            [
              126.97535996338156,
              37.291722641721705
            ],
            [
              126.97536823818263,
              37.29176125417539
            ],
            [
              126.97540741685798,
              37.29175594011347
            ],
            [
              126.97539914234235,
              37.29171732898332
            ],
            [
              126.97535996338156,
              37.291722641721705
            ]
          ]
        ]
      }
    },
    {
      "type": "Feature",
      "properties": {
        "indoor": "room",
        "level": "6",
        "ref": "",
        "name": "",
        "room_type": "",
        "_idx": 34,
        "_centroid": [
          126.9754266,
          37.2917335
        ],
        "_area_m2": 18.1
      },
      "geometry": {
        "type": "Polygon",
        "coordinates": [
          [
            [
              126.9754540625767,
              37.29174961324815
            ],
            [
              126.97544578839961,
              37.29171100369306
            ],
            [
              126.97539914234235,
              37.29171732898332
            ],
            [
              126.97540741685798,
              37.29175594011347
            ],
            [
              126.9754540625767,
              37.29174961324815
            ]
          ]
        ]
      }
    },
    {
      "type": "Feature",
      "properties": {
        "indoor": "room",
        "level": "6",
        "ref": "",
        "name": "",
        "room_type": "",
        "_idx": 35,
        "_centroid": [
          126.9754696,
          37.2917276
        ],
        "_area_m2": 15.3
      },
      "geometry": {
        "type": "Polygon",
        "coordinates": [
          [
            [
              126.9754540625767,
              37.29174961324815
            ],
            [
              126.97549342376453,
              37.29174427443113
            ],
            [
              126.97548515352237,
              37.29170566571077
            ],
            [
              126.97544578839961,
              37.29171100369306
            ],
            [
              126.9754540625767,
              37.29174961324815
            ]
          ]
        ]
      }
    },
    {
      "type": "Feature",
      "properties": {
        "indoor": "room",
        "level": "6",
        "ref": "",
        "name": "",
        "room_type": "",
        "_idx": 36,
        "_centroid": [
          126.9755101,
          37.2917222
        ],
        "_area_m2": 16.1
      },
      "geometry": {
        "type": "Polygon",
        "coordinates": [
          [
            [
              126.97549342376453,
              37.29174427443113
            ],
            [
              126.97553495134689,
              37.29173864177083
            ],
            [
              126.9755266774555,
              37.29170003354188
            ],
            [
              126.97548514987226,
              37.291705666205736
            ],
            [
              126.97549342376453,
              37.29174427443113
            ]
          ]
        ]
      }
    },
    {
      "type": "Feature",
      "properties": {
        "indoor": "room",
        "level": "6",
        "ref": "",
        "name": "",
        "room_type": "",
        "_idx": 37,
        "_centroid": [
          126.9755519,
          37.2917204
        ],
        "_area_m2": 16.0
      },
      "geometry": {
        "type": "Polygon",
        "coordinates": [
          [
            [
              126.97553495134689,
              37.29173864177083
            ],
            [
              126.97555365172984,
              37.291736105314364
            ],
            [
              126.97557626722532,
              37.29173303782487
            ],
            [
              126.97556799333303,
              37.29169442959309
            ],
            [
              126.9755266774555,
              37.29170003354188
            ],
            [
              126.97553495134689,
              37.29173864177083
            ]
          ]
        ]
      }
    },
    {
      "type": "Feature",
      "properties": {
        "indoor": "room",
        "level": "6",
        "ref": "",
        "name": "",
        "room_type": "",
        "_idx": 38,
        "_centroid": [
          126.9755929,
          37.2917109
        ],
        "_area_m2": 16.1
      },
      "geometry": {
        "type": "Polygon",
        "coordinates": [
          [
            [
              126.97556799333303,
              37.29169442959309
            ],
            [
              126.97557626722532,
              37.29173303782487
            ],
            [
              126.97561785997732,
              37.291727396324426
            ],
            [
              126.9756095860854,
              37.291688788089914
            ],
            [
              126.97556799333303,
              37.29169442959309
            ]
          ]
        ]
      }
    },
    {
      "type": "Feature",
      "properties": {
        "indoor": "room",
        "level": "6",
        "ref": "",
        "name": "",
        "room_type": "",
        "_idx": 39,
        "_centroid": [
          126.9756351,
          37.2917052
        ],
        "_area_m2": 16.6
      },
      "geometry": {
        "type": "Polygon",
        "coordinates": [
          [
            [
              126.9756095860854,
              37.291688788089914
            ],
            [
              126.97561785997732,
              37.291727396324426
            ],
            [
              126.97566054248047,
              37.29172160701382
            ],
            [
              126.97565226858842,
              37.291682998776565
            ],
            [
              126.9756095860854,
              37.291688788089914
            ]
          ]
        ]
      }
    },
    {
      "type": "Feature",
      "properties": {
        "indoor": "room",
        "level": "6",
        "ref": "",
        "name": "",
        "room_type": "",
        "_idx": 40,
        "_centroid": [
          126.9758234,
          37.2917026
        ],
        "_area_m2": 194.7
      },
      "geometry": {
        "type": "Polygon",
        "coordinates": [
          [
            [
              126.97569819339014,
              37.29172504569827
            ],
            [
              126.97570457549818,
              37.29175482649951
            ],
            [
              126.97595716943884,
              37.291720565698185
            ],
            [
              126.97595132550423,
              37.291693296127
            ],
            [
              126.975940733794,
              37.29164387229732
            ],
            [
              126.97568813993404,
              37.291678133304295
            ],
            [
              126.97569819339014,
              37.29172504569827
            ]
          ]
        ]
      }
    },
    {
      "type": "Feature",
      "properties": {
        "indoor": "room",
        "level": "6",
        "ref": "",
        "name": "",
        "room_type": "",
        "_idx": 41,
        "_centroid": [
          126.9756743,
          37.2916999
        ],
        "_area_m2": 13.9
      },
      "geometry": {
        "type": "Polygon",
        "coordinates": [
          [
            [
              126.97566054248047,
              37.29172160701382
            ],
            [
              126.97569641378871,
              37.29171674155029
            ],
            [
              126.97568813993404,
              37.291678133304295
            ],
            [
              126.97565226858842,
              37.291682998776565
            ],
            [
              126.97566054248047,
              37.29172160701382
            ]
          ]
        ]
      }
    },
    {
      "type": "Feature",
      "properties": {
        "indoor": "room",
        "level": "6",
        "ref": "",
        "name": "",
        "room_type": "",
        "_idx": 42,
        "_centroid": [
          126.9759667,
          37.2916658
        ],
        "_area_m2": 20.5
      },
      "geometry": {
        "type": "Polygon",
        "coordinates": [
          [
            [
              126.975940733794,
              37.29164387229732
            ],
            [
              126.97595132550425,
              37.291693296127
            ],
            [
              126.97599266275301,
              37.29168768927938
            ],
            [
              126.97598207104275,
              37.29163826544602
            ],
            [
              126.975940733794,
              37.29164387229732
            ]
          ]
        ]
      }
    }
  ]
}