{
  "type": "FeatureCollection",
  "features": [
    {
      "type": "Feature",
      "properties": {
        "indoor": "room",
        "level": "3",
        "ref": "",
        "name": "",
        "room_type": "",
        "_idx": 1,
        "_centroid": [
          126.9730953,
          37.2923704
        ],
        "_area_m2": 100.3
      },
      "geometry": {
        "type": "Polygon",
        "coordinates": [
          [
            [
              126.973223533448,
              37.292341588658324
            ],
            [
              126.97319713931617,
              37.292344966880485
            ],
            [
              126.97313931186372,
              37.29235236829717
            ],
            [
              126.97314286736771,
              37.29236994996496
            ],
            [
              126.97302283651474,
              37.29238531287613
            ],
            [
              126.97301960389807,
              37.29236932786264
            ],
            [
              126.97289861636504,
              37.2923848132202
            ],
            [
              126.97290662308143,
              37.2924244057551
            ],
            [
              126.97320546891973,
              37.29238615608611
            ],
            [
              126.97319713931616,
              37.2923449668805
            ],
            [
              126.973223533448,
              37.292341588658324
            ]
          ]
        ]
      }
    },
    {
      "type": "Feature",
      "properties": {
        "indoor": "room",
        "level": "3",
        "ref": "",
        "name": "",
        "room_type": "",
        "_idx": 2,
        "_centroid": [
          126.9730294,
          37.2923574
        ],
        "_area_m2": 17.3
      },
      "geometry": {
        "type": "Polygon",
        "coordinates": [
          [
            [
              126.97304095503102,
              37.292323642353985
            ],
            [
              126.97301113681513,
              37.29232745883014
            ],
            [
              126.97301960389807,
              37.29236932786264
            ],
            [
              126.97302283651474,
              37.29238531287613
            ],
            [
              126.97305265473264,
              37.2923814964024
            ],
            [
              126.97304095503102,
              37.292323642353985
            ]
          ]
        ]
      }
    },
    {
      "type": "Feature",
      "properties": {
        "indoor": "room",
        "level": "3",
        "ref": "",
        "name": "",
        "room_type": "",
        "_idx": 3,
        "_centroid": [
          126.9731256,
          37.2923443
        ],
        "_area_m2": 17.4
      },
      "geometry": {
        "type": "Polygon",
        "coordinates": [
          [
            [
              126.97313092432584,
              37.2923108926016
            ],
            [
              126.97310147182168,
              37.292314662270535
            ],
            [
              126.97311341486517,
              37.29237371963088
            ],
            [
              126.97314286736771,
              37.29236994996496
            ],
            [
              126.97313931186372,
              37.29235236829717
            ],
            [
              126.97313092432584,
              37.2923108926016
            ]
          ]
        ]
      }
    },
    {
      "type": "Feature",
      "properties": {
        "indoor": "room",
        "level": "3",
        "ref": "",
        "name": "",
        "room_type": "",
        "_idx": 4,
        "_centroid": [
          126.9729212,
          37.292343
        ],
        "_area_m2": 46.1
      },
      "geometry": {
        "type": "Polygon",
        "coordinates": [
          [
            [
              126.97289861636504,
              37.292384813220195
            ],
            [
              126.97295916751351,
              37.29237706319742
            ],
            [
              126.97294380671644,
              37.29230110531956
            ],
            [
              126.97288325556269,
              37.29230885535268
            ],
            [
              126.97289861636504,
              37.292384813220195
            ]
          ]
        ]
      }
    },
    {
      "type": "Feature",
      "properties": {
        "indoor": "room",
        "level": "3",
        "ref": "",
        "name": "",
        "room_type": "",
        "_idx": 5,
        "_centroid": [
          126.9729817,
          37.2923352
        ],
        "_area_m2": 46.0
      },
      "geometry": {
        "type": "Polygon",
        "coordinates": [
          [
            [
              126.97295916751351,
              37.29237706319742
            ],
            [
              126.97301960389807,
              37.29236932786264
            ],
            [
              126.97300424310066,
              37.29229336997596
            ],
            [
              126.97294380671644,
              37.29230110531956
            ],
            [
              126.97295916751351,
              37.29237706319742
            ]
          ]
        ]
      }
    },
    {
      "type": "Feature",
      "properties": {
        "indoor": "room",
        "level": "3",
        "ref": "",
        "name": "",
        "room_type": "",
        "_idx": 6,
        "_centroid": [
          126.9730581,
          37.2923336
        ],
        "_area_m2": 27.2
      },
      "geometry": {
        "type": "Polygon",
        "coordinates": [
          [
            [
              126.97305265473264,
              37.2923814964024
            ],
            [
              126.97308222029007,
              37.29237771226682
            ],
            [
              126.97306362687566,
              37.29228576935739
            ],
            [
              126.97303406131803,
              37.292289553497525
            ],
            [
              126.97305265473264,
              37.2923814964024
            ]
          ]
        ]
      }
    },
    {
      "type": "Feature",
      "properties": {
        "indoor": "room",
        "level": "3",
        "ref": "",
        "name": "",
        "room_type": "",
        "_idx": 7,
        "_centroid": [
          126.9730885,
          37.2923297
        ],
        "_area_m2": 28.7
      },
      "geometry": {
        "type": "Polygon",
        "coordinates": [
          [
            [
              126.97308222029007,
              37.29237771226682
            ],
            [
              126.97311341486517,
              37.29237371963088
            ],
            [
              126.9730948214507,
              37.29228177671688
            ],
            [
              126.97306362687566,
              37.29228576935739
            ],
            [
              126.97308222029007,
              37.29237771226682
            ]
          ]
        ]
      }
    },
    {
      "type": "Feature",
      "properties": {
        "indoor": "room",
        "level": "3",
        "ref": "",
        "name": "",
        "room_type": "",
        "_idx": 8,
        "_centroid": [
          126.9731954,
          37.2923198
        ],
        "_area_m2": 43.1
      },
      "geometry": {
        "type": "Polygon",
        "coordinates": [
          [
            [
              126.97313931186372,
              37.29235236829717
            ],
            [
              126.97319713931617,
              37.292344966880485
            ],
            [
              126.973223533448,
              37.292341588658324
            ],
            [
              126.97325659685585,
              37.29233735682568
            ],
            [
              126.97325659685585,
              37.292337356825676
            ],
            [
              126.97319713931617,
              37.29234496688048
            ],
            [
              126.97318210140557,
              37.29227060562435
            ],
            [
              126.973182101401,
              37.292270605624935
            ],
            [
              126.97312427395309,
              37.29227800704685
            ],
            [
              126.97313931186372,
              37.29235236829717
            ]
          ]
        ]
      }
    },
    {
      "type": "Feature",
      "properties": {
        "indoor": "room",
        "level": "3",
        "ref": "",
        "name": "",
        "room_type": "",
        "_idx": 9,
        "_centroid": [
          126.9730226,
          37.2923085
        ],
        "_area_m2": 10.2
      },
      "geometry": {
        "type": "Polygon",
        "coordinates": [
          [
            [
              126.97301113681513,
              37.29232745883014
            ],
            [
              126.97304095503102,
              37.292323642353985
            ],
            [
              126.97303406131803,
              37.292289553497525
            ],
            [
              126.97300424310066,
              37.29229336997596
            ],
            [
              126.97301113681513,
              37.29232745883014
            ]
          ]
        ]
      }
    },
    {
      "type": "Feature",
      "properties": {
        "indoor": "room",
        "level": "3",
        "ref": "",
        "name": "",
        "room_type": "",
        "_idx": 10,
        "_centroid": [
          126.9732193,
          37.292304
        ],
        "_area_m2": 44.3
      },
      "geometry": {
        "type": "Polygon",
        "coordinates": [
          [
            [
              126.97318210140557,
              37.29227060562435
            ],
            [
              126.97319713931617,
              37.29234496688048
            ],
            [
              126.97325659685585,
              37.292337356825676
            ],
            [
              126.97324155894366,
              37.29226299556167
            ],
            [
              126.97318210140557,
              37.29227060562435
            ]
          ]
        ]
      }
    },
    {
      "type": "Feature",
      "properties": {
        "indoor": "room",
        "level": "3",
        "ref": "",
        "name": "",
        "room_type": "",
        "_idx": 11,
        "_centroid": [
          126.9732785,
          37.2922964
        ],
        "_area_m2": 43.9
      },
      "geometry": {
        "type": "Polygon",
        "coordinates": [
          [
            [
              126.97331548815562,
              37.29232981924438
            ],
            [
              126.97330045024503,
              37.2922554579725
            ],
            [
              126.97324155894366,
              37.29226299556167
            ],
            [
              126.97325659685585,
              37.29233735682568
            ],
            [
              126.97331548815562,
              37.29232981924438
            ]
          ]
        ]
      }
    },
    {
      "type": "Feature",
      "properties": {
        "indoor": "room",
        "level": "3",
        "ref": "",
        "name": "",
        "room_type": "",
        "_idx": 12,
        "_centroid": [
          126.9731129,
          37.2922963
        ],
        "_area_m2": 9.7
      },
      "geometry": {
        "type": "Polygon",
        "coordinates": [
          [
            [
              126.9730948214507,
              37.29228177671688
            ],
            [
              126.97310147182168,
              37.292314662270535
            ],
            [
              126.97313092432584,
              37.2923108926016
            ],
            [
              126.97312427395309,
              37.29227800704685
            ],
            [
              126.9730948214507,
              37.29228177671688
            ]
          ]
        ]
      }
    },
    {
      "type": "Feature",
      "properties": {
        "indoor": "room",
        "level": "3",
        "ref": "",
        "name": "",
        "room_type": "",
        "_idx": 13,
        "_centroid": [
          126.9737294,
          37.2922895
        ],
        "_area_m2": 90.9
      },
      "geometry": {
        "type": "Polygon",
        "coordinates": [
          [
            [
              126.97391066920011,
              37.29225509310259
            ],
            [
              126.97378634636884,
              37.29227100615014
            ],
            [
              126.97378952966228,
              37.292286746518286
            ],
            [
              126.97367141676249,
              37.29230186470118
            ],
            [
              126.9736679468587,
              37.29228470713963
            ],
            [
              126.97360445882367,
              37.29229283346521
            ],
            [
              126.97360445813327,
              37.29229283355358
            ],
            [
              126.9736119111002,
              37.29232968788919
            ],
            [
              126.97391783594666,
              37.29229053211929
            ],
            [
              126.97391066920011,
              37.29225509310259
            ]
          ]
        ]
      }
    },
    {
      "type": "Feature",
      "properties": {
        "indoor": "room",
        "level": "3",
        "ref": "",
        "name": "",
        "room_type": "",
        "_idx": 14,
        "_centroid": [
          126.9733373,
          37.2922889
        ],
        "_area_m2": 43.8
      },
      "geometry": {
        "type": "Polygon",
        "coordinates": [
          [
            [
              126.97331548815562,
              37.29232981924438
            ],
            [
              126.97337423003512,
              37.29232230078663
            ],
            [
              126.97335919212397,
              37.29224793950815
            ],
            [
              126.97330045024503,
              37.2922554579725
            ],
            [
              126.97331548815562,
              37.29232981924438
            ]
          ]
        ]
      }
    },
    {
      "type": "Feature",
      "properties": {
        "indoor": "room",
        "level": "3",
        "ref": "",
        "name": "",
        "room_type": "",
        "_idx": 15,
        "_centroid": [
          126.9733954,
          37.2922814
        ],
        "_area_m2": 42.7
      },
      "geometry": {
        "type": "Polygon",
        "coordinates": [
          [
            [
              126.97343159680905,
              37.292314958329904
            ],
            [
              126.97341655889792,
              37.29224059704416
            ],
            [
              126.973359192124,
              37.29224793950815
            ],
            [
              126.97337423003512,
              37.29232230078663
            ],
            [
              126.97343159680905,
              37.292314958329904
            ]
          ]
        ]
      }
    },
    {
      "type": "Feature",
      "properties": {
        "indoor": "room",
        "level": "3",
        "ref": "",
        "name": "",
        "room_type": "",
        "_idx": 16,
        "_centroid": [
          126.9734542,
          37.2922751
        ],
        "_area_m2": 43.1
      },
      "geometry": {
        "type": "Polygon",
        "coordinates": [
          [
            [
              126.97347683531729,
              37.292235318646725
            ],
            [
              126.97341703856912,
              37.29224297250171
            ],
            [
              126.97343159702231,
              37.29231495938447
            ],
            [
              126.97349139377097,
              37.292307305536006
            ],
            [
              126.97347683531729,
              37.292235318646725
            ]
          ]
        ]
      }
    },
    {
      "type": "Feature",
      "properties": {
        "indoor": "room",
        "level": "3",
        "ref": "",
        "name": "",
        "room_type": "",
        "_idx": 17,
        "_centroid": [
          126.9734994,
          37.2922694
        ],
        "_area_m2": 22.1
      },
      "geometry": {
        "type": "Polygon",
        "coordinates": [
          [
            [
              126.97347683531729,
              37.292235318646725
            ],
            [
              126.97349139377097,
              37.292307305536006
            ],
            [
              126.9735220479857,
              37.29230338186591
            ],
            [
              126.97350748953296,
              37.29223139497255
            ],
            [
              126.97347683531729,
              37.292235318646725
            ]
          ]
        ]
      }
    },
    {
      "type": "Feature",
      "properties": {
        "indoor": "room",
        "level": "3",
        "ref": "",
        "name": "",
        "room_type": "",
        "_idx": 18,
        "_centroid": [
          126.9735292,
          37.2922655
        ],
        "_area_m2": 20.8
      },
      "geometry": {
        "type": "Polygon",
        "coordinates": [
          [
            [
              126.97350748953296,
              37.29223139497255
            ],
            [
              126.9735220479857,
              37.29230338186591
            ],
            [
              126.97355086150804,
              37.29229969380028
            ],
            [
              126.97353630305464,
              37.29222770690329
            ],
            [
              126.97350748953296,
              37.29223139497255
            ]
          ]
        ]
      }
    },
    {
      "type": "Feature",
      "properties": {
        "indoor": "room",
        "level": "3",
        "ref": "",
        "name": "",
        "room_type": "",
        "_idx": 19,
        "_centroid": [
          126.973601,
          37.2922616
        ],
        "_area_m2": 84.5
      },
      "geometry": {
        "type": "Polygon",
        "coordinates": [
          [
            [
              126.97355086150804,
              37.29229969380028
            ],
            [
              126.97360445813327,
              37.29229283355358
            ],
            [
              126.97360445882367,
              37.29229283346521
            ],
            [
              126.9736679468587,
              37.29228470713963
            ],
            [
              126.97365338848603,
              37.292212720612476
            ],
            [
              126.97358990037051,
              37.29222084656128
            ],
            [
              126.97353630305464,
              37.29222770690329
            ],
            [
              126.97355086150804,
              37.29229969380028
            ]
          ]
        ]
      }
    },
    {
      "type": "Feature",
      "properties": {
        "indoor": "room",
        "level": "3",
        "ref": "",
        "name": "",
        "room_type": "",
        "_idx": 20,
        "_centroid": [
          126.9736927,
          37.2922574
        ],
        "_area_m2": 79.1
      },
      "geometry": {
        "type": "Polygon",
        "coordinates": [
          [
            [
              126.97375996413919,
              37.29229053083836
            ],
            [
              126.97374193597271,
              37.29220138727336
            ],
            [
              126.97365338848603,
              37.292212720612476
            ],
            [
              126.97366151850348,
              37.292252920974114
            ],
            [
              126.9736679468587,
              37.29228470713963
            ],
            [
              126.97367141676249,
              37.29230186470118
            ],
            [
              126.97375996413919,
              37.29229053083836
            ]
          ]
        ]
      }
    },
    {
      "type": "Feature",
      "properties": {
        "indoor": "room",
        "level": "3",
        "ref": "",
        "name": "",
        "room_type": "",
        "_idx": 21,
        "_centroid": [
          126.9737923,
          37.2922505
        ],
        "_area_m2": 69.9
      },
      "geometry": {
        "type": "Polygon",
        "coordinates": [
          [
            [
              126.97375996413919,
              37.29229053083836
            ],
            [
              126.97378952966228,
              37.292286746518286
            ],
            [
              126.97378634636884,
              37.29227100615014
            ],
            [
              126.97384550496885,
              37.29226343398053
            ],
            [
              126.97383066020437,
              37.29219003131236
            ],
            [
              126.97374193597271,
              37.29220138727336
            ],
            [
              126.97375996413919,
              37.29229053083836
            ]
          ]
        ]
      }
    },
    {
      "type": "Feature",
      "properties": {
        "indoor": "room",
        "level": "3",
        "ref": "",
        "name": "",
        "room_type": "",
        "_idx": 22,
        "_centroid": [
          126.9729298,
          37.292247
        ],
        "_area_m2": 11.9
      },
      "geometry": {
        "type": "Polygon",
        "coordinates": [
          [
            [
              126.97294613134277,
              37.29222919622437
            ],
            [
              126.97290690154765,
              37.29223455298929
            ],
            [
              126.97291340897219,
              37.292264715231006
            ],
            [
              126.9729526387653,
              37.29225935846933
            ],
            [
              126.97294613134277,
              37.29222919622437
            ]
          ]
        ]
      }
    },
    {
      "type": "Feature",
      "properties": {
        "indoor": "room",
        "level": "3",
        "ref": "",
        "name": "",
        "room_type": "",
        "_idx": 23,
        "_centroid": [
          126.9730438,
          37.2922422
        ],
        "_area_m2": 8.1
      },
      "geometry": {
        "type": "Polygon",
        "coordinates": [
          [
            [
              126.97305556209969,
              37.292241061397185
            ],
            [
              126.97305245090337,
              37.292226640836375
            ],
            [
              126.97302336757322,
              37.292230612117535
            ],
            [
              126.97302936068998,
              37.29225839052181
            ],
            [
              126.97305844401843,
              37.29225441924288
            ],
            [
              126.97305556209969,
              37.292241061397185
            ]
          ]
        ]
      }
    },
    {
      "type": "Feature",
      "properties": {
        "indoor": "room",
        "level": "3",
        "ref": "",
        "name": "",
        "room_type": "",
        "_idx": 24,
        "_centroid": [
          126.9729875,
          37.2922397
        ],
        "_area_m2": 33.6
      },
      "geometry": {
        "type": "Polygon",
        "coordinates": [
          [
            [
              126.97302936068998,
              37.29225839052182
            ],
            [
              126.97301756841833,
              37.292203732726364
            ],
            [
              126.97295639813879,
              37.29221208542954
            ],
            [
              126.97296619772276,
              37.29225750701674
            ],
            [
              126.97296819040925,
              37.29226674321964
            ],
            [
              126.97302936068998,
              37.29225839052182
            ]
          ]
        ]
      }
    },
    {
      "type": "Feature",
      "properties": {
        "indoor": "room",
        "level": "3",
        "ref": "",
        "name": "",
        "room_type": "",
        "_idx": 25,
        "_centroid": [
          126.9728896,
          37.2922327
        ],
        "_area_m2": 22.7
      },
      "geometry": {
        "type": "Polygon",
        "coordinates": [
          [
            [
              126.97289861972916,
              37.2921961663246
            ],
            [
              126.97286573773525,
              37.292200656309014
            ],
            [
              126.972880526977,
              37.29226920521165
            ],
            [
              126.97291340897219,
              37.292264715231006
            ],
            [
              126.97289861972916,
              37.2921961663246
            ]
          ]
        ]
      }
    },
    {
      "type": "Feature",
      "properties": {
        "indoor": "room",
        "level": "3",
        "ref": "",
        "name": "",
        "room_type": "",
        "_idx": 26,
        "_centroid": [
          126.9730677,
          37.292225
        ],
        "_area_m2": 8.5
      },
      "geometry": {
        "type": "Polygon",
        "coordinates": [
          [
            [
              126.97304953548344,
              37.292213127709594
            ],
            [
              126.97305556209969,
              37.292241061397185
            ],
            [
              126.97308577226208,
              37.29223693625022
            ],
            [
              126.97307974564275,
              37.29220900256072
            ],
            [
              126.97304953548344,
              37.292213127709594
            ]
          ]
        ]
      }
    },
    {
      "type": "Feature",
      "properties": {
        "indoor": "room",
        "level": "3",
        "ref": "",
        "name": "",
        "room_type": "",
        "_idx": 27,
        "_centroid": [
          126.9738707,
          37.2922226
        ],
        "_area_m2": 47.9
      },
      "geometry": {
        "type": "Polygon",
        "coordinates": [
          [
            [
              126.97384550496885,
              37.29226343398053
            ],
            [
              126.97391066920011,
              37.292255093102575
            ],
            [
              126.97389582521697,
              37.29218169073473
            ],
            [
              126.97383066020437,
              37.29219003131236
            ],
            [
              126.97384550496885,
              37.29226343398053
            ]
          ]
        ]
      }
    },
    {
      "type": "Feature",
      "properties": {
        "indoor": "room",
        "level": "3",
        "ref": "",
        "name": "",
        "room_type": "",
        "_idx": 28,
        "_centroid": [
          126.9731277,
          37.2922163
        ],
        "_area_m2": 8.7
      },
      "geometry": {
        "type": "Polygon",
        "coordinates": [
          [
            [
              126.97313970801741,
              37.292199878637696
            ],
            [
              126.97310960523733,
              37.29220398912509
            ],
            [
              126.97311578851549,
              37.29223264894268
            ],
            [
              126.97314589129601,
              37.29222853845677
            ],
            [
              126.97313970801741,
              37.292199878637696
            ]
          ]
        ]
      }
    },
    {
      "type": "Feature",
      "properties": {
        "indoor": "room",
        "level": "3",
        "ref": "",
        "name": "",
        "room_type": "",
        "_idx": 29,
        "_centroid": [
          126.9730379,
          37.2922148
        ],
        "_area_m2": 7.9
      },
      "geometry": {
        "type": "Polygon",
        "coordinates": [
          [
            [
              126.97305245090337,
              37.292226640836375
            ],
            [
              126.97304953548344,
              37.292213127709594
            ],
            [
              126.97304665174867,
              37.29219976144401
            ],
            [
              126.97301756841833,
              37.292203732726364
            ],
            [
              126.97302336757322,
              37.292230612117535
            ],
            [
              126.97305245090337,
              37.292226640836375
            ]
          ]
        ]
      }
    },
    {
      "type": "Feature",
      "properties": {
        "indoor": "room",
        "level": "3",
        "ref": "",
        "name": "",
        "room_type": "",
        "_idx": 30,
        "_centroid": [
          126.9731569,
          37.2922128
        ],
        "_area_m2": 15.4
      },
      "geometry": {
        "type": "Polygon",
        "coordinates": [
          [
            [
              126.97313702047552,
              37.292187421736216
            ],
            [
              126.9731488127485,
              37.29224207954156
            ],
            [
              126.97317676186778,
              37.29223826313463
            ],
            [
              126.97316496959543,
              37.292183605326706
            ],
            [
              126.97313702047552,
              37.292187421736216
            ]
          ]
        ]
      }
    },
    {
      "type": "Feature",
      "properties": {
        "indoor": "room",
        "level": "3",
        "ref": "",
        "name": "",
        "room_type": "",
        "_idx": 31,
        "_centroid": [
          126.9729224,
          37.2922127
        ],
        "_area_m2": 15.1
      },
      "geometry": {
        "type": "Polygon",
        "coordinates": [
          [
            [
              126.97289861972916,
              37.2921961663246
            ],
            [
              126.97290690154765,
              37.29223455298929
            ],
            [
              126.97294613134277,
              37.29222919622437
            ],
            [
              126.97293784952356,
              37.29219080955772
            ],
            [
              126.97289861972916,
              37.2921961663246
            ]
          ]
        ]
      }
    },
    {
      "type": "Feature",
      "properties": {
        "indoor": "room",
        "level": "3",
        "ref": "",
        "name": "",
        "room_type": "",
        "_idx": 32,
        "_centroid": [
          126.9731868,
          37.2922088
        ],
        "_area_m2": 17.5
      },
      "geometry": {
        "type": "Polygon",
        "coordinates": [
          [
            [
              126.97316496959543,
              37.292183605326706
            ],
            [
              126.97317676186778,
              37.29223826313463
            ],
            [
              126.97320869169516,
              37.29223390316846
            ],
            [
              126.97319689942256,
              37.292179245357715
            ],
            [
              126.97316496959543,
              37.292183605326706
            ]
          ]
        ]
      }
    },
    {
      "type": "Feature",
      "properties": {
        "indoor": "room",
        "level": "3",
        "ref": "",
        "name": "",
        "room_type": "",
        "_idx": 33,
        "_centroid": [
          126.9732164,
          37.2922047
        ],
        "_area_m2": 14.9
      },
      "geometry": {
        "type": "Polygon",
        "coordinates": [
          [
            [
              126.97319689942256,
              37.292179245357715
            ],
            [
              126.97320869169516,
              37.29223390316846
            ],
            [
              126.97323585290346,
              37.29223019434949
            ],
            [
              126.97322406063097,
              37.29217553653631
            ],
            [
              126.97319689942256,
              37.292179245357715
            ]
          ]
        ]
      }
    },
    {
      "type": "Feature",
      "properties": {
        "indoor": "room",
        "level": "3",
        "ref": "",
        "name": "",
        "room_type": "",
        "_idx": 34,
        "_centroid": [
          126.9732586,
          37.2921989
        ],
        "_area_m2": 31.5
      },
      "geometry": {
        "type": "Polygon",
        "coordinates": [
          [
            [
              126.97322406063097,
              37.29217553653631
            ],
            [
              126.97323585290346,
              37.29223019434949
            ],
            [
              126.97329322107448,
              37.292222360818734
            ],
            [
              126.97328142880171,
              37.29216770300047
            ],
            [
              126.97322406063097,
              37.29217553653631
            ]
          ]
        ]
      }
    },
    {
      "type": "Feature",
      "properties": {
        "indoor": "room",
        "level": "3",
        "ref": "",
        "name": "",
        "room_type": "",
        "_idx": 35,
        "_centroid": [
          126.9733766,
          37.2921888
        ],
        "_area_m2": 17.0
      },
      "geometry": {
        "type": "Polygon",
        "coordinates": [
          [
            [
              126.97334498417835,
              37.29217768227582
            ],
            [
              126.9733509483974,
              37.29220717490264
            ],
            [
              126.97340831517292,
              37.292199832434385
            ],
            [
              126.97340235095228,
              37.29217033980497
            ],
            [
              126.97334498417835,
              37.29217768227582
            ]
          ]
        ]
      }
    },
    {
      "type": "Feature",
      "properties": {
        "indoor": "room",
        "level": "3",
        "ref": "",
        "name": "",
        "room_type": "",
        "_idx": 36,
        "_centroid": [
          126.9734927,
          37.292167
        ],
        "_area_m2": 32.6
      },
      "geometry": {
        "type": "Polygon",
        "coordinates": [
          [
            [
              126.9735164161772,
              37.29213561583282
            ],
            [
              126.97345715000031,
              37.29214370854127
            ],
            [
              126.9734689422689,
              37.29219836636622
            ],
            [
              126.97352820844594,
              37.292190273664524
            ],
            [
              126.9735164161772,
              37.29213561583282
            ]
          ]
        ]
      }
    },
    {
      "type": "Feature",
      "properties": {
        "indoor": "room",
        "level": "3",
        "ref": "",
        "name": "",
        "room_type": "",
        "_idx": 37,
        "_centroid": [
          126.9729393,
          37.2921593
        ],
        "_area_m2": 48.9
      },
      "geometry": {
        "type": "Polygon",
        "coordinates": [
          [
            [
              126.97290476112997,
              37.29211880907895
            ],
            [
              126.97292089166503,
              37.29219313871883
            ],
            [
              126.9729377581016,
              37.2921908221145
            ],
            [
              126.97293886392825,
              37.29219594768376
            ],
            [
              126.97298425344994,
              37.292189749814696
            ],
            [
              126.97296708191027,
              37.29211028567311
            ],
            [
              126.97292172106181,
              37.29211648952548
            ],
            [
              126.97290476112997,
              37.29211880907895
            ]
          ]
        ]
      }
    },
    {
      "type": "Feature",
      "properties": {
        "indoor": "room",
        "level": "3",
        "ref": "",
        "name": "",
        "room_type": "",
        "_idx": 38,
        "_centroid": [
          126.9731023,
          37.2921581
        ],
        "_area_m2": 36.7
      },
      "geometry": {
        "type": "Polygon",
        "coordinates": [
          [
            [
              126.97315936782176,
              37.292134690799195
            ],
            [
              126.97303872450381,
              37.292151164467235
            ],
            [
              126.97304525216357,
              37.29218142053459
            ],
            [
              126.97316589547964,
              37.29216494687616
            ],
            [
              126.97315936782176,
              37.292134690799195
            ]
          ]
        ]
      }
    },
    {
      "type": "Feature",
      "properties": {
        "indoor": "room",
        "level": "3",
        "ref": "",
        "name": "",
        "room_type": "",
        "_idx": 39,
        "_centroid": [
          126.9735454,
          37.2921542
        ],
        "_area_m2": 32.3
      },
      "geometry": {
        "type": "Polygon",
        "coordinates": [
          [
            [
              126.9735164161772,
              37.29213561583282
            ],
            [
              126.97352820844594,
              37.292190273664524
            ],
            [
              126.97358690595523,
              37.29218225861351
            ],
            [
              126.97357511368637,
              37.292127600772886
            ],
            [
              126.97352028528056,
              37.29213508751247
            ],
            [
              126.9735164161772,
              37.29213561583282
            ]
          ]
        ]
      }
    },
    {
      "type": "Feature",
      "properties": {
        "indoor": "room",
        "level": "3",
        "ref": "",
        "name": "",
        "room_type": "",
        "_idx": 40,
        "_centroid": [
          126.9736115,
          37.2921508
        ],
        "_area_m2": 33.6
      },
      "geometry": {
        "type": "Polygon",
        "coordinates": [
          [
            [
              126.97357511368637,
              37.292127600772886
            ],
            [
              126.97358690595523,
              37.29218225861351
            ],
            [
              126.97364797949531,
              37.29217391911928
            ],
            [
              126.97363618722548,
              37.29211926126938
            ],
            [
              126.97357511368637,
              37.292127600772886
            ]
          ]
        ]
      }
    },
    {
      "type": "Feature",
      "properties": {
        "indoor": "room",
        "level": "3",
        "ref": "",
        "name": "",
        "room_type": "",
        "_idx": 41,
        "_centroid": [
          126.9730062,
          37.2921459
        ],
        "_area_m2": 48.8
      },
      "geometry": {
        "type": "Polygon",
        "coordinates": [
          [
            [
              126.97302810722314,
              37.29210195275269
            ],
            [
              126.97296708191027,
              37.29211028567311
            ],
            [
              126.97298425344994,
              37.292189749814696
            ],
            [
              126.97304525216357,
              37.29218142053459
            ],
            [
              126.97302810722314,
              37.29210195275269
            ]
          ]
        ]
      }
    },
    {
      "type": "Feature",
      "properties": {
        "indoor": "room",
        "level": "3",
        "ref": "",
        "name": "",
        "room_type": "",
        "_idx": 42,
        "_centroid": [
          126.973656,
          37.2921447
        ],
        "_area_m2": 15.3
      },
      "geometry": {
        "type": "Polygon",
        "coordinates": [
          [
            [
              126.97363618722548,
              37.29211926126938
            ],
            [
              126.97364797949531,
              37.29217391911928
            ],
            [
              126.97367579084693,
              37.2921701215237
            ],
            [
              126.97366399857692,
              37.29211546366953
            ],
            [
              126.97363618722548,
              37.29211926126938
            ]
          ]
        ]
      }
    },
    {
      "type": "Feature",
      "properties": {
        "indoor": "room",
        "level": "3",
        "ref": "",
        "name": "",
        "room_type": "",
        "_idx": 43,
        "_centroid": [
          126.9737243,
          37.2921354
        ],
        "_area_m2": 59.8
      },
      "geometry": {
        "type": "Polygon",
        "coordinates": [
          [
            [
              126.97366399857692,
              37.29211546366953
            ],
            [
              126.97367579084693,
              37.2921701215237
            ],
            [
              126.9737846494697,
              37.29215525705285
            ],
            [
              126.97377285719874,
              37.292100599182035
            ],
            [
              126.97366399857692,
              37.29211546366953
            ]
          ]
        ]
      }
    },
    {
      "type": "Feature",
      "properties": {
        "indoor": "room",
        "level": "3",
        "ref": "",
        "name": "",
        "room_type": "",
        "_idx": 44,
        "_centroid": [
          126.973185,
          37.2921214
        ],
        "_area_m2": 44.2
      },
      "geometry": {
        "type": "Polygon",
        "coordinates": [
          [
            [
              126.97322116838485,
              37.292157399442395
            ],
            [
              126.97320402344486,
              37.29207793163549
            ],
            [
              126.97314875053988,
              37.29208547907519
            ],
            [
              126.97316589547964,
              37.29216494687616
            ],
            [
              126.97322116838485,
              37.292157399442395
            ]
          ]
        ]
      }
    },
    {
      "type": "Feature",
      "properties": {
        "indoor": "room",
        "level": "3",
        "ref": "",
        "name": "",
        "room_type": "",
        "_idx": 45,
        "_centroid": [
          126.973043,
          37.2921153
        ],
        "_area_m2": 18.0
      },
      "geometry": {
        "type": "Polygon",
        "coordinates": [
          [
            [
              126.97306793299556,
              37.29214717609088
            ],
            [
              126.97305473745568,
              37.29208601398276
            ],
            [
              126.97302552896328,
              37.29209000236251
            ],
            [
              126.97302810722314,
              37.292101952752695
            ],
            [
              126.97303872450381,
              37.292151164467235
            ],
            [
              126.97306793299556,
              37.29214717609088
            ]
          ]
        ]
      }
    },
    {
      "type": "Feature",
      "properties": {
        "indoor": "room",
        "level": "3",
        "ref": "",
        "name": "",
        "room_type": "",
        "_idx": 46,
        "_centroid": [
          126.9730764,
          37.2921145
        ],
        "_area_m2": 18.5
      },
      "geometry": {
        "type": "Polygon",
        "coordinates": [
          [
            [
              126.97306793299556,
              37.29214717609088
            ],
            [
              126.97309798933789,
              37.292143071941545
            ],
            [
              126.97308479379808,
              37.29208190983026
            ],
            [
              126.97305473745568,
              37.29208601398276
            ],
            [
              126.97306793299556,
              37.29214717609088
            ]
          ]
        ]
      }
    },
    {
      "type": "Feature",
      "properties": {
        "indoor": "room",
        "level": "3",
        "ref": "",
        "name": "",
        "room_type": "",
        "_idx": 47,
        "_centroid": [
          126.9732427,
          37.2921136
        ],
        "_area_m2": 48.2
      },
      "geometry": {
        "type": "Polygon",
        "coordinates": [
          [
            [
              126.97320402344486,
              37.29207793163549
            ],
            [
              126.97322116838485,
              37.292157399442395
            ],
            [
              126.97328143683407,
              37.29214916987445
            ],
            [
              126.97326429189548,
              37.29206970205826
            ],
            [
              126.97320402344486,
              37.29207793163549
            ]
          ]
        ]
      }
    },
    {
      "type": "Feature",
      "properties": {
        "indoor": "room",
        "level": "3",
        "ref": "",
        "name": "",
        "room_type": "",
        "_idx": 48,
        "_centroid": [
          126.9731062,
          37.2921105
        ],
        "_area_m2": 18.2
      },
      "geometry": {
        "type": "Polygon",
        "coordinates": [
          [
            [
              126.97309798933789,
              37.292143071941545
            ],
            [
              126.97312759743797,
              37.292139028998825
            ],
            [
              126.97311440189873,
              37.292077866884554
            ],
            [
              126.97308479379808,
              37.29208190983026
            ],
            [
              126.97309798933789,
              37.292143071941545
            ]
          ]
        ]
      }
    },
    {
      "type": "Feature",
      "properties": {
        "indoor": "room",
        "level": "3",
        "ref": "",
        "name": "",
        "room_type": "",
        "_idx": 49,
        "_centroid": [
          126.9733018,
          37.2921055
        ],
        "_area_m2": 46.2
      },
      "geometry": {
        "type": "Polygon",
        "coordinates": [
          [
            [
              126.97326429189548,
              37.29206970205826
            ],
            [
              126.97328143683407,
              37.29214916987445
            ],
            [
              126.97333927162887,
              37.29214127261843
            ],
            [
              126.97332212668967,
              37.29206180479358
            ],
            [
              126.97326429189548,
              37.29206970205826
            ]
          ]
        ]
      }
    },
    {
      "type": "Feature",
      "properties": {
        "indoor": "room",
        "level": "3",
        "ref": "",
        "name": "",
        "room_type": "",
        "_idx": 50,
        "_centroid": [
          126.9738621,
          37.2921023
        ],
        "_area_m2": 24.1
      },
      "geometry": {
        "type": "Polygon",
        "coordinates": [
          [
            [
              126.97383769976958,
              37.29206984073412
            ],
            [
              126.97385173841207,
              37.29213926086948
            ],
            [
              126.9738854493131,
              37.29213494615204
            ],
            [
              126.97387333831401,
              37.29206527928986
            ],
            [
              126.97383769976958,
              37.29206984073412
            ]
          ]
        ]
      }
    },
    {
      "type": "Feature",
      "properties": {
        "indoor": "room",
        "level": "3",
        "ref": "",
        "name": "",
        "room_type": "",
        "_idx": 51,
        "_centroid": [
          126.9731393,
          37.2921021
        ],
        "_area_m2": 19.5
      },
      "geometry": {
        "type": "Polygon",
        "coordinates": [
          [
            [
              126.97312759743797,
              37.292139028998825
            ],
            [
              126.97315936782176,
              37.29213469079917
            ],
            [
              126.97314875053988,
              37.29208547907518
            ],
            [
              126.97314617228005,
              37.29207352868238
            ],
            [
              126.97311440189873,
              37.292077866884554
            ],
            [
              126.97312759743797,
              37.292139028998825
            ]
          ]
        ]
      }
    },
    {
      "type": "Feature",
      "properties": {
        "indoor": "room",
        "level": "3",
        "ref": "",
        "name": "",
        "room_type": "",
        "_idx": 52,
        "_centroid": [
          126.973821,
          37.2921005
        ],
        "_area_m2": 28.4
      },
      "geometry": {
        "type": "Polygon",
        "coordinates": [
          [
            [
              126.97385173841207,
              37.29213926086948
            ],
            [
              126.97383769976958,
              37.29206984073412
            ],
            [
              126.9738077045466,
              37.29207367987888
            ],
            [
              126.97379684357227,
              37.292075069995256
            ],
            [
              126.9738108822137,
              37.292144490126084
            ],
            [
              126.97385173841207,
              37.29213926086948
            ]
          ]
        ]
      }
    },
    {
      "type": "Feature",
      "properties": {
        "indoor": "room",
        "level": "3",
        "ref": "",
        "name": "",
        "room_type": "",
        "_idx": 53,
        "_centroid": [
          126.9733596,
          37.2920976
        ],
        "_area_m2": 46.3
      },
      "geometry": {
        "type": "Polygon",
        "coordinates": [
          [
            [
              126.97332212668967,
              37.29206180479358
            ],
            [
              126.97333927162887,
              37.29214127261843
            ],
            [
              126.9733971535739,
              37.29213336892412
            ],
            [
              126.97338000863495,
              37.2920539010905
            ],
            [
              126.97332212668967,
              37.29206180479358
            ]
          ]
        ]
      }
    },
    {
      "type": "Feature",
      "properties": {
        "indoor": "room",
        "level": "3",
        "ref": "",
        "name": "",
        "room_type": "",
        "_idx": 54,
        "_centroid": [
          126.9734182,
          37.2920896
        ],
        "_area_m2": 47.4
      },
      "geometry": {
        "type": "Polygon",
        "coordinates": [
          [
            [
              126.97345648655879,
              37.29212526709245
            ],
            [
              126.97343934162089,
              37.29204579925016
            ],
            [
              126.97338000863495,
              37.2920539010905
            ],
            [
              126.9733971535739,
              37.29213336892412
            ],
            [
              126.97345648655879,
              37.29212526709245
            ]
          ]
        ]
      }
    },
    {
      "type": "Feature",
      "properties": {
        "indoor": "room",
        "level": "3",
        "ref": "",
        "name": "",
        "room_type": "",
        "_idx": 55,
        "_centroid": [
          126.9736297,
          37.2920874
        ],
        "_area_m2": 33.4
      },
      "geometry": {
        "type": "Polygon",
        "coordinates": [
          [
            [
              126.97368692577918,
              37.29206543346614
            ],
            [
              126.97356646821832,
              37.292081881784135
            ],
            [
              126.97357241327009,
              37.29210943746799
            ],
            [
              126.97369287083313,
              37.292092989154966
            ],
            [
              126.97368692577918,
              37.29206543346614
            ]
          ]
        ]
      }
    },
    {
      "type": "Feature",
      "properties": {
        "indoor": "room",
        "level": "3",
        "ref": "",
        "name": "",
        "room_type": "",
        "_idx": 56,
        "_centroid": [
          126.9734778,
          37.2920815
        ],
        "_area_m2": 47.7
      },
      "geometry": {
        "type": "Polygon",
        "coordinates": [
          [
            [
              126.97343934162089,
              37.29204579925016
            ],
            [
              126.97345648655879,
              37.29212526709245
            ],
            [
              126.9735161974421,
              37.292117113659316
            ],
            [
              126.97349905250233,
              37.292037645807824
            ],
            [
              126.97343934162089,
              37.29204579925016
            ]
          ]
        ]
      }
    },
    {
      "type": "Feature",
      "properties": {
        "indoor": "room",
        "level": "3",
        "ref": "",
        "name": "",
        "room_type": "",
        "_idx": 57,
        "_centroid": [
          126.9735357,
          37.2920735
        ],
        "_area_m2": 44.9
      },
      "geometry": {
        "type": "Polygon",
        "coordinates": [
          [
            [
              126.97355526833034,
              37.292029969608386
            ],
            [
              126.97349905250233,
              37.292037645807824
            ],
            [
              126.9735161974421,
              37.292117113659316
            ],
            [
              126.97357241327009,
              37.29210943746799
            ],
            [
              126.97355526833034,
              37.292029969608386
            ]
          ]
        ]
      }
    },
    {
      "type": "Feature",
      "properties": {
        "indoor": "room",
        "level": "3",
        "ref": "",
        "name": "",
        "room_type": "",
        "_idx": 58,
        "_centroid": [
          126.9737797,
          37.2920527
        ],
        "_area_m2": 45.7
      },
      "geometry": {
        "type": "Polygon",
        "coordinates": [
          [
            [
              126.97373366554596,
              37.29200560969154
            ],
            [
              126.97375081048631,
              37.29208507757575
            ],
            [
              126.97379758624221,
              37.292078724543096
            ],
            [
              126.97379680317589,
              37.292075075481854
            ],
            [
              126.9738076868207,
              37.29207359727683
            ],
            [
              126.9737914391218,
              37.29199788353649
            ],
            [
              126.97373366554596,
              37.29200560969154
            ]
          ]
        ]
      }
    },
    {
      "type": "Feature",
      "properties": {
        "indoor": "room",
        "level": "3",
        "ref": "",
        "name": "",
        "room_type": "",
        "_idx": 59,
        "_centroid": [
          126.9737133,
          37.2920493
        ],
        "_area_m2": 46.3
      },
      "geometry": {
        "type": "Polygon",
        "coordinates": [
          [
            [
              126.97367572589272,
              37.29201352127965
            ],
            [
              126.97369287083313,
              37.292092989154966
            ],
            [
              126.97375081048632,
              37.29208507757575
            ],
            [
              126.97373366554596,
              37.29200560969154
            ],
            [
              126.97367572589272,
              37.29201352127965
            ]
          ]
        ]
      }
    },
    {
      "type": "Feature",
      "properties": {
        "indoor": "room",
        "level": "3",
        "ref": "",
        "name": "",
        "room_type": "",
        "_idx": 60,
        "_centroid": [
          126.9735713,
          37.2920452
        ],
        "_area_m2": 19.1
      },
      "geometry": {
        "type": "Polygon",
        "coordinates": [
          [
            [
              126.97356646821832,
              37.292081881784135
            ],
            [
              126.97359743131088,
              37.29207765381581
            ],
            [
              126.97358416288883,
              37.29201615383459
            ],
            [
              126.97355319979366,
              37.29202038180686
            ],
            [
              126.97355526833034,
              37.29202996960839
            ],
            [
              126.97356646821832,
              37.292081881784135
            ]
          ]
        ]
      }
    },
    {
      "type": "Feature",
      "properties": {
        "indoor": "room",
        "level": "3",
        "ref": "",
        "name": "",
        "room_type": "",
        "_idx": 61,
        "_centroid": [
          126.9736054,
          37.2920449
        ],
        "_area_m2": 18.1
      },
      "geometry": {
        "type": "Polygon",
        "coordinates": [
          [
            [
              126.97359743131088,
              37.29207765381581
            ],
            [
              126.97362667597407,
              37.292073660496484
            ],
            [
              126.9736134075516,
              37.29201216051213
            ],
            [
              126.97358416288883,
              37.29201615383459
            ],
            [
              126.97359743131088,
              37.29207765381581
            ]
          ]
        ]
      }
    },
    {
      "type": "Feature",
      "properties": {
        "indoor": "room",
        "level": "3",
        "ref": "",
        "name": "",
        "room_type": "",
        "_idx": 62,
        "_centroid": [
          126.973635,
          37.2920409
        ],
        "_area_m2": 18.5
      },
      "geometry": {
        "type": "Polygon",
        "coordinates": [
          [
            [
              126.97362667597407,
              37.292073660496484
            ],
            [
              126.97365655463389,
              37.292069580605535
            ],
            [
              126.97364328621126,
              37.29200808061819
            ],
            [
              126.9736134075516,
              37.29201216051213
            ],
            [
              126.97362667597407,
              37.292073660496484
            ]
          ]
        ]
      }
    },
    {
      "type": "Feature",
      "properties": {
        "indoor": "room",
        "level": "3",
        "ref": "",
        "name": "",
        "room_type": "",
        "_idx": 63,
        "_centroid": [
          126.9736672,
          37.2920321
        ],
        "_area_m2": 18.8
      },
      "geometry": {
        "type": "Polygon",
        "coordinates": [
          [
            [
              126.97364328621126,
              37.29200808061819
            ],
            [
              126.97365655463389,
              37.292069580605535
            ],
            [
              126.97368692577918,
              37.29206543346614
            ],
            [
              126.97367572589272,
              37.29201352127965
            ],
            [
              126.97367365735603,
              37.29200393347601
            ],
            [
              126.97364328621126,
              37.29200808061819
            ]
          ]
        ]
      }
    }
  ]
}