{
  "type": "FeatureCollection",
  "features": [
    {
      "type": "Feature",
      "properties": {
        "indoor": "room",
        "level": "1",
        "ref": "",
        "name": "",
        "room_type": "",
        "_idx": 1,
        "_centroid": [
          126.972977,
          37.292408
        ],
        "_area_m2": 99.2
      },
      "geometry": {
        "type": "Polygon",
        "coordinates": [
          [
            [
              126.97291811418883,
              37.29245379417118
            ],
            [
              126.97305094793312,
              37.2924367926159
            ],
            [
              126.9730358840681,
              37.29236230311089
            ],
            [
              126.97290305032382,
              37.292379304682996
            ],
            [
              126.97291811418883,
              37.29245379417118
            ]
          ]
        ]
      }
    },
    {
      "type": "Feature",
      "properties": {
        "indoor": "room",
        "level": "1",
        "ref": "",
        "name": "",
        "room_type": "",
        "_idx": 2,
        "_centroid": [
          126.9731397,
          37.2923889
        ],
        "_area_m2": 92.3
      },
      "geometry": {
        "type": "Polygon",
        "coordinates": [
          [
            [
              126.97321155206075,
              37.29241623668979
            ],
            [
              126.97319713931215,
              37.29234496688098
            ],
            [
              126.97306786394088,
              37.29236151301594
            ],
            [
              126.9730822766895,
              37.29243278280907
            ],
            [
              126.97321155206075,
              37.29241623668979
            ]
          ]
        ]
      }
    },
    {
      "type": "Feature",
      "properties": {
        "indoor": "room",
        "level": "1",
        "ref": "",
        "name": "",
        "room_type": "",
        "_idx": 3,
        "_centroid": [
          126.972962,
          37.2923341
        ],
        "_area_m2": 97.7
      },
      "geometry": {
        "type": "Polygon",
        "coordinates": [
          [
            [
              126.9730358840681,
              37.29236230311089
            ],
            [
              126.9730210476529,
              37.292288938253336
            ],
            [
              126.97288821390862,
              37.29230593984202
            ],
            [
              126.97290305032382,
              37.292379304682996
            ],
            [
              126.9730358840681,
              37.29236230311089
            ]
          ]
        ]
      }
    },
    {
      "type": "Feature",
      "properties": {
        "indoor": "room",
        "level": "1",
        "ref": "",
        "name": "",
        "room_type": "",
        "_idx": 4,
        "_centroid": [
          126.9737531,
          37.2923234
        ],
        "_area_m2": 12.5
      },
      "geometry": {
        "type": "Polygon",
        "coordinates": [
          [
            [
              126.97377232699404,
              37.29234236532071
            ],
            [
              126.97376388820099,
              37.29230063618307
            ],
            [
              126.97373392295472,
              37.292304471479376
            ],
            [
              126.9737423617469,
              37.292346200615405
            ],
            [
              126.97377232699404,
              37.29234236532071
            ]
          ]
        ]
      }
    },
    {
      "type": "Feature",
      "properties": {
        "indoor": "room",
        "level": "1",
        "ref": "",
        "name": "",
        "room_type": "",
        "_idx": 5,
        "_centroid": [
          126.9737836,
          37.2923195
        ],
        "_area_m2": 13.0
      },
      "geometry": {
        "type": "Polygon",
        "coordinates": [
          [
            [
              126.97376388820099,
              37.29230063618307
            ],
            [
              126.97377232699404,
              37.29234236532071
            ],
            [
              126.97380331772756,
              37.29233839877254
            ],
            [
              126.97379487893477,
              37.292296669632904
            ],
            [
              126.97376388820099,
              37.29230063618307
            ]
          ]
        ]
      }
    },
    {
      "type": "Feature",
      "properties": {
        "indoor": "room",
        "level": "1",
        "ref": "",
        "name": "",
        "room_type": "",
        "_idx": 6,
        "_centroid": [
          126.973089,
          37.2923192
        ],
        "_area_m2": 44.8
      },
      "geometry": {
        "type": "Polygon",
        "coordinates": [
          [
            [
              126.97312573432278,
              37.29235410610553
            ],
            [
              126.97311010826424,
              37.29227683651175
            ],
            [
              126.97305223788169,
              37.29228424343064
            ],
            [
              126.97306786394088,
              37.29236151301593
            ],
            [
              126.97312573432278,
              37.29235410610553
            ]
          ]
        ]
      }
    },
    {
      "type": "Feature",
      "properties": {
        "indoor": "room",
        "level": "1",
        "ref": "",
        "name": "",
        "room_type": "",
        "_idx": 7,
        "_centroid": [
          126.9736724,
          37.2923146
        ],
        "_area_m2": 98.1
      },
      "geometry": {
        "type": "Polygon",
        "coordinates": [
          [
            [
              126.97361845819417,
              37.29236205920362
            ],
            [
              126.9737423617469,
              37.292346200615405
            ],
            [
              126.97372637852902,
              37.29226716489266
            ],
            [
              126.9736024749834,
              37.29228302349653
            ],
            [
              126.97361845819417,
              37.29236205920362
            ]
          ]
        ]
      }
    },
    {
      "type": "Feature",
      "properties": {
        "indoor": "room",
        "level": "1",
        "ref": "",
        "name": "",
        "room_type": "",
        "_idx": 8,
        "_centroid": [
          126.9731822,
          37.2923072
        ],
        "_area_m2": 99.5
      },
      "geometry": {
        "type": "Polygon",
        "coordinates": [
          [
            [
              126.97311010826424,
              37.29227683651175
            ],
            [
              126.97312573432278,
              37.29235410610553
            ],
            [
              126.97325422401995,
              37.29233766052851
            ],
            [
              126.97323859796076,
              37.29226039091873
            ],
            [
              126.97311010826424,
              37.29227683651175
            ]
          ]
        ]
      }
    },
    {
      "type": "Feature",
      "properties": {
        "indoor": "room",
        "level": "1",
        "ref": "",
        "name": "",
        "room_type": "",
        "_idx": 9,
        "_centroid": [
          126.9738611,
          37.2923053
        ],
        "_area_m2": 50.6
      },
      "geometry": {
        "type": "Polygon",
        "coordinates": [
          [
            [
              126.97386708786975,
              37.292287427502984
            ],
            [
              126.97379487893477,
              37.292296669632904
            ],
            [
              126.97380331772756,
              37.29233839877254
            ],
            [
              126.97392438234672,
              37.292322903539336
            ],
            [
              126.97391594356026,
              37.292281174389224
            ],
            [
              126.97386708786975,
              37.292287427502984
            ]
          ]
        ]
      }
    },
    {
      "type": "Feature",
      "properties": {
        "indoor": "room",
        "level": "1",
        "ref": "",
        "name": "",
        "room_type": "",
        "_idx": 10,
        "_centroid": [
          126.9732773,
          37.2922951
        ],
        "_area_m2": 47.8
      },
      "geometry": {
        "type": "Polygon",
        "coordinates": [
          [
            [
              126.97325422401995,
              37.29233766052851
            ],
            [
              126.97331598166173,
              37.29232975607981
            ],
            [
              126.97330035560253,
              37.292252486461905
            ],
            [
              126.97323859796076,
              37.29226039091872
            ],
            [
              126.97325422401995,
              37.29233766052851
            ]
          ]
        ]
      }
    },
    {
      "type": "Feature",
      "properties": {
        "indoor": "room",
        "level": "1",
        "ref": "",
        "name": "",
        "room_type": "",
        "_idx": 11,
        "_centroid": [
          126.9733954,
          37.2922814
        ],
        "_area_m2": 42.7
      },
      "geometry": {
        "type": "Polygon",
        "coordinates": [
          [
            [
              126.97343159680905,
              37.292314958329904
            ],
            [
              126.97341655889792,
              37.29224059704416
            ],
            [
              126.973359192124,
              37.29224793950815
            ],
            [
              126.97337423003512,
              37.29232230078663
            ],
            [
              126.97343159680905,
              37.292314958329904
            ]
          ]
        ]
      }
    },
    {
      "type": "Feature",
      "properties": {
        "indoor": "room",
        "level": "1",
        "ref": "",
        "name": "",
        "room_type": "",
        "_idx": 12,
        "_centroid": [
          126.9735113,
          37.2922645
        ],
        "_area_m2": 47.7
      },
      "geometry": {
        "type": "Polygon",
        "coordinates": [
          [
            [
              126.97354956783684,
              37.29229985904444
            ],
            [
              126.9735336917298,
              37.292221352928145
            ],
            [
              126.97347305093298,
              37.29222911444146
            ],
            [
              126.97348892704,
              37.29230762054966
            ],
            [
              126.97354956783684,
              37.29229985904444
            ]
          ]
        ]
      }
    },
    {
      "type": "Feature",
      "properties": {
        "indoor": "room",
        "level": "1",
        "ref": "",
        "name": "",
        "room_type": "",
        "_idx": 13,
        "_centroid": [
          126.973621,
          37.2922627
        ],
        "_area_m2": 15.5
      },
      "geometry": {
        "type": "Polygon",
        "coordinates": [
          [
            [
              126.97364660976432,
              37.29227737461894
            ],
            [
              126.97363953640655,
              37.29224239741059
            ],
            [
              126.9735954016228,
              37.292248046290574
            ],
            [
              126.9736024749834,
              37.29228302349653
            ],
            [
              126.97364660976432,
              37.29227737461894
            ]
          ]
        ]
      }
    },
    {
      "type": "Feature",
      "properties": {
        "indoor": "room",
        "level": "1",
        "ref": "",
        "name": "",
        "room_type": "",
        "_idx": 14,
        "_centroid": [
          126.9735691,
          37.2922571
        ],
        "_area_m2": 43.2
      },
      "geometry": {
        "type": "Polygon",
        "coordinates": [
          [
            [
              126.97360445882367,
              37.29229283346521
            ],
            [
              126.97358858271666,
              37.29221432734159
            ],
            [
              126.97353369172981,
              37.29222135292815
            ],
            [
              126.97354956783684,
              37.29229985904444
            ],
            [
              126.97360445882367,
              37.29229283346521
            ]
          ]
        ]
      }
    },
    {
      "type": "Feature",
      "properties": {
        "indoor": "room",
        "level": "1",
        "ref": "",
        "name": "",
        "room_type": "",
        "_idx": 15,
        "_centroid": [
          126.9729298,
          37.292247
        ],
        "_area_m2": 11.9
      },
      "geometry": {
        "type": "Polygon",
        "coordinates": [
          [
            [
              126.97294613134277,
              37.29222919622437
            ],
            [
              126.97290690154765,
              37.29223455298929
            ],
            [
              126.97291340897219,
              37.292264715231006
            ],
            [
              126.9729526387653,
              37.29225935846933
            ],
            [
              126.97294613134277,
              37.29222919622437
            ]
          ]
        ]
      }
    },
    {
      "type": "Feature",
      "properties": {
        "indoor": "room",
        "level": "1",
        "ref": "",
        "name": "",
        "room_type": "",
        "_idx": 16,
        "_centroid": [
          126.9737733,
          37.2922368
        ],
        "_area_m2": 230.3
      },
      "geometry": {
        "type": "Polygon",
        "coordinates": [
          [
            [
              126.97382915659526,
              37.29218353589209
            ],
            [
              126.9737401915604,
              37.29219492267529
            ],
            [
              126.97363271750571,
              37.292208678456525
            ],
            [
              126.97364660976432,
              37.29227737461894
            ],
            [
              126.97372637852902,
              37.29226716489266
            ],
            [
              126.97373392295472,
              37.292304471479376
            ],
            [
              126.97391594356026,
              37.292281174389224
            ],
            [
              126.97390004871207,
              37.29220257558718
            ],
            [
              126.97383469843363,
              37.2922109398766
            ],
            [
              126.97382915659526,
              37.29218353589209
            ]
          ]
        ]
      }
    },
    {
      "type": "Feature",
      "properties": {
        "indoor": "room",
        "level": "1",
        "ref": "",
        "name": "",
        "room_type": "",
        "_idx": 17,
        "_centroid": [
          126.9728896,
          37.2922327
        ],
        "_area_m2": 22.7
      },
      "geometry": {
        "type": "Polygon",
        "coordinates": [
          [
            [
              126.97289861972916,
              37.2921961663246
            ],
            [
              126.97286573773525,
              37.292200656309014
            ],
            [
              126.972880526977,
              37.29226920521165
            ],
            [
              126.97291340897219,
              37.292264715231006
            ],
            [
              126.97289861972916,
              37.2921961663246
            ]
          ]
        ]
      }
    },
    {
      "type": "Feature",
      "properties": {
        "indoor": "room",
        "level": "1",
        "ref": "",
        "name": "",
        "room_type": "",
        "_idx": 18,
        "_centroid": [
          126.9736141,
          37.2922284
        ],
        "_area_m2": 14.9
      },
      "geometry": {
        "type": "Polygon",
        "coordinates": [
          [
            [
              126.9735954016228,
              37.292248046290574
            ],
            [
              126.97363953640655,
              37.29224239741059
            ],
            [
              126.97363271750571,
              37.292208678456525
            ],
            [
              126.97358858271666,
              37.29221432734159
            ],
            [
              126.9735954016228,
              37.292248046290574
            ]
          ]
        ]
      }
    },
    {
      "type": "Feature",
      "properties": {
        "indoor": "room",
        "level": "1",
        "ref": "",
        "name": "",
        "room_type": "",
        "_idx": 19,
        "_centroid": [
          126.9729224,
          37.2922127
        ],
        "_area_m2": 15.1
      },
      "geometry": {
        "type": "Polygon",
        "coordinates": [
          [
            [
              126.97289861972916,
              37.2921961663246
            ],
            [
              126.97290690154765,
              37.29223455298929
            ],
            [
              126.97294613134277,
              37.29222919622437
            ],
            [
              126.97293784952356,
              37.29219080955772
            ],
            [
              126.97289861972916,
              37.2921961663246
            ]
          ]
        ]
      }
    },
    {
      "type": "Feature",
      "properties": {
        "indoor": "room",
        "level": "1",
        "ref": "",
        "name": "",
        "room_type": "",
        "_idx": 20,
        "_centroid": [
          126.9731106,
          37.2922106
        ],
        "_area_m2": 100.1
      },
      "geometry": {
        "type": "Polygon",
        "coordinates": [
          [
            [
              126.97316064284551,
              37.292160387471306
            ],
            [
              126.97304234449038,
              37.29217654093204
            ],
            [
              126.97306050622477,
              37.29226072153108
            ],
            [
              126.97317880456905,
              37.292244568090425
            ],
            [
              126.97316064284551,
              37.292160387471306
            ]
          ]
        ]
      }
    },
    {
      "type": "Feature",
      "properties": {
        "indoor": "room",
        "level": "1",
        "ref": "",
        "name": "",
        "room_type": "",
        "_idx": 21,
        "_centroid": [
          126.9738646,
          37.2921931
        ],
        "_area_m2": 17.9
      },
      "geometry": {
        "type": "Polygon",
        "coordinates": [
          [
            [
              126.97382915659526,
              37.29218353589209
            ],
            [
              126.97383469843363,
              37.2922109398766
            ],
            [
              126.97390004871207,
              37.29220257558718
            ],
            [
              126.97389450686921,
              37.29217517160043
            ],
            [
              126.97382915659526,
              37.29218353589209
            ]
          ]
        ]
      }
    },
    {
      "type": "Feature",
      "properties": {
        "indoor": "room",
        "level": "1",
        "ref": "",
        "name": "",
        "room_type": "",
        "_idx": 22,
        "_centroid": [
          126.9733766,
          37.2921888
        ],
        "_area_m2": 17.0
      },
      "geometry": {
        "type": "Polygon",
        "coordinates": [
          [
            [
              126.97334498417835,
              37.29217768227582
            ],
            [
              126.9733509483974,
              37.29220717490264
            ],
            [
              126.97340831517292,
              37.292199832434385
            ],
            [
              126.97340235095228,
              37.29217033980497
            ],
            [
              126.97334498417835,
              37.29217768227582
            ]
          ]
        ]
      }
    },
    {
      "type": "Feature",
      "properties": {
        "indoor": "room",
        "level": "1",
        "ref": "",
        "name": "",
        "room_type": "",
        "_idx": 23,
        "_centroid": [
          126.973497,
          37.2921756
        ],
        "_area_m2": 31.4
      },
      "geometry": {
        "type": "Polygon",
        "coordinates": [
          [
            [
              126.97352093126153,
              37.29214518038873
            ],
            [
              126.97346165525538,
              37.29215327443448
            ],
            [
              126.9734730144765,
              37.29220592508989
            ],
            [
              126.97353229048323,
              37.29219783104416
            ],
            [
              126.97352093126153,
              37.29214518038873
            ]
          ]
        ]
      }
    },
    {
      "type": "Feature",
      "properties": {
        "indoor": "room",
        "level": "1",
        "ref": "",
        "name": "",
        "room_type": "",
        "_idx": 24,
        "_centroid": [
          126.9729078,
          37.2921651
        ],
        "_area_m2": 56.2
      },
      "geometry": {
        "type": "Polygon",
        "coordinates": [
          [
            [
              126.9728532539025,
              37.29214279304822
            ],
            [
              126.97286573773525,
              37.292200656309014
            ],
            [
              126.9729622616131,
              37.29218747612498
            ],
            [
              126.97294977777861,
              37.2921296128543
            ],
            [
              126.9728532539025,
              37.29214279304822
            ]
          ]
        ]
      }
    },
    {
      "type": "Feature",
      "properties": {
        "indoor": "room",
        "level": "1",
        "ref": "",
        "name": "",
        "room_type": "",
        "_idx": 25,
        "_centroid": [
          126.9736154,
          37.2921596
        ],
        "_area_m2": 33.9
      },
      "geometry": {
        "type": "Polygon",
        "coordinates": [
          [
            [
              126.9736421656003,
              37.29212915270547
            ],
            [
              126.97357742514153,
              37.29213799292051
            ],
            [
              126.97358867398266,
              37.292190131965775
            ],
            [
              126.97365341444878,
              37.29218129175669
            ],
            [
              126.9736421656003,
              37.29212915270547
            ]
          ]
        ]
      }
    },
    {
      "type": "Feature",
      "properties": {
        "indoor": "room",
        "level": "1",
        "ref": "",
        "name": "",
        "room_type": "",
        "_idx": 26,
        "_centroid": [
          126.9732212,
          37.2921572
        ],
        "_area_m2": 189.8
      },
      "geometry": {
        "type": "Polygon",
        "coordinates": [
          [
            [
              126.97314460374129,
              37.292086045313084
            ],
            [
              126.97317880456905,
              37.292244568090425
            ],
            [
              126.97329789600154,
              37.29222830635142
            ],
            [
              126.97326369516999,
              37.29206978354207
            ],
            [
              126.97314460374129,
              37.292086045313084
            ]
          ]
        ]
      }
    },
    {
      "type": "Feature",
      "properties": {
        "indoor": "room",
        "level": "1",
        "ref": "",
        "name": "",
        "room_type": "",
        "_idx": 27,
        "_centroid": [
          126.9729342,
          37.2921524
        ],
        "_area_m2": 35.5
      },
      "geometry": {
        "type": "Polygon",
        "coordinates": [
          [
            [
              126.9728532539025,
              37.29214279304822
            ],
            [
              126.97294977777861,
              37.2921296128543
            ],
            [
              126.9729622616131,
              37.29218747612498
            ],
            [
              126.97296337095972,
              37.29218732464544
            ],
            [
              126.97298842641038,
              37.29218390336242
            ],
            [
              126.9729723873132,
              37.29210956122786
            ],
            [
              126.97284969863803,
              37.29212631419084
            ],
            [
              126.9728532539025,
              37.29214279304822
            ]
          ]
        ]
      }
    },
    {
      "type": "Feature",
      "properties": {
        "indoor": "room",
        "level": "1",
        "ref": "",
        "name": "",
        "room_type": "",
        "_idx": 28,
        "_centroid": [
          126.9730143,
          37.2921496
        ],
        "_area_m2": 40.3
      },
      "geometry": {
        "type": "Polygon",
        "coordinates": [
          [
            [
              126.97304234449038,
              37.29217654093204
            ],
            [
              126.97304213647426,
              37.29217557676516
            ],
            [
              126.97302630539319,
              37.29210219879003
            ],
            [
              126.9729723873132,
              37.29210956122786
            ],
            [
              126.97298842641038,
              37.29218390336242
            ],
            [
              126.97304234449038,
              37.29217654093204
            ]
          ]
        ]
      }
    },
    {
      "type": "Feature",
      "properties": {
        "indoor": "room",
        "level": "1",
        "ref": "",
        "name": "",
        "room_type": "",
        "_idx": 29,
        "_centroid": [
          126.9735491,
          37.2921414
        ],
        "_area_m2": 59.7
      },
      "geometry": {
        "type": "Polygon",
        "coordinates": [
          [
            [
              126.9735659716792,
              37.292084905443865
            ],
            [
              126.97350958818537,
              37.29209260453198
            ],
            [
              126.97353229048323,
              37.29219783104416
            ],
            [
              126.97358867398266,
              37.292190131965775
            ],
            [
              126.9735659716792,
              37.292084905443865
            ]
          ]
        ]
      }
    },
    {
      "type": "Feature",
      "properties": {
        "indoor": "room",
        "level": "1",
        "ref": "",
        "name": "",
        "room_type": "",
        "_idx": 30,
        "_centroid": [
          126.9730628,
          37.2921355
        ],
        "_area_m2": 42.6
      },
      "geometry": {
        "type": "Polygon",
        "coordinates": [
          [
            [
              126.97304234449038,
              37.29217654093204
            ],
            [
              126.97309935609111,
              37.29216875608495
            ],
            [
              126.97308331699635,
              37.292094413933924
            ],
            [
              126.97302630539541,
              37.29210219878973
            ],
            [
              126.97304234449038,
              37.29217654093204
            ]
          ]
        ]
      }
    },
    {
      "type": "Feature",
      "properties": {
        "indoor": "room",
        "level": "1",
        "ref": "",
        "name": "",
        "room_type": "",
        "_idx": 31,
        "_centroid": [
          126.9736651,
          37.2921342
        ],
        "_area_m2": 45.1
      },
      "geometry": {
        "type": "Polygon",
        "coordinates": [
          [
            [
              126.97363520582178,
              37.29209689371421
            ],
            [
              126.9736421656003,
              37.29212915270547
            ],
            [
              126.97365341444878,
              37.29218129175669
            ],
            [
              126.97370649850498,
              37.29217404321056
            ],
            [
              126.97368828987706,
              37.292089645160075
            ],
            [
              126.97363520582178,
              37.29209689371421
            ]
          ]
        ]
      }
    },
    {
      "type": "Feature",
      "properties": {
        "indoor": "room",
        "level": "1",
        "ref": "",
        "name": "",
        "room_type": "",
        "_idx": 32,
        "_centroid": [
          126.973122,
          37.2921274
        ],
        "_area_m2": 45.8
      },
      "geometry": {
        "type": "Polygon",
        "coordinates": [
          [
            [
              126.97308331699635,
              37.292094413933924
            ],
            [
              126.97309935609111,
              37.29216875608497
            ],
            [
              126.97316064284551,
              37.292160387471306
            ],
            [
              126.97314460374129,
              37.292086045313084
            ],
            [
              126.97308331699635,
              37.292094413933924
            ]
          ]
        ]
      }
    },
    {
      "type": "Feature",
      "properties": {
        "indoor": "room",
        "level": "1",
        "ref": "",
        "name": "",
        "room_type": "",
        "_idx": 33,
        "_centroid": [
          126.9734856,
          37.2921229
        ],
        "_area_m2": 31.3
      },
      "geometry": {
        "type": "Polygon",
        "coordinates": [
          [
            [
              126.97352093126153,
              37.29214518038873
            ],
            [
              126.97350958818534,
              37.29209260453199
            ],
            [
              126.97345031217434,
              37.292100698589316
            ],
            [
              126.97346165525538,
              37.29215327443448
            ],
            [
              126.97352093126153,
              37.29214518038873
            ]
          ]
        ]
      }
    },
    {
      "type": "Feature",
      "properties": {
        "indoor": "room",
        "level": "1",
        "ref": "",
        "name": "",
        "room_type": "",
        "_idx": 34,
        "_centroid": [
          126.9728307,
          37.2921085
        ],
        "_area_m2": 12.3
      },
      "geometry": {
        "type": "Polygon",
        "coordinates": [
          [
            [
              126.97285044867625,
              37.29212621177419
            ],
            [
              126.97284188142196,
              37.29208650203822
            ],
            [
              126.97281097126606,
              37.2920907227774
            ],
            [
              126.97281953852037,
              37.292130432511144
            ],
            [
              126.97285044867625,
              37.29212621177419
            ]
          ]
        ]
      }
    },
    {
      "type": "Feature",
      "properties": {
        "indoor": "room",
        "level": "1",
        "ref": "",
        "name": "",
        "room_type": "",
        "_idx": 35,
        "_centroid": [
          126.9726944,
          37.292108
        ],
        "_area_m2": 41.9
      },
      "geometry": {
        "type": "Polygon",
        "coordinates": [
          [
            [
              126.97271441419085,
              37.29206698469807
            ],
            [
              126.97265885093358,
              37.292074616872526
            ],
            [
              126.97267396899144,
              37.29214889548611
            ],
            [
              126.97273053061234,
              37.29214168527738
            ],
            [
              126.97271441419085,
              37.29206698469807
            ]
          ]
        ]
      }
    },
    {
      "type": "Feature",
      "properties": {
        "indoor": "room",
        "level": "1",
        "ref": "",
        "name": "",
        "room_type": "",
        "_idx": 36,
        "_centroid": [
          126.9736041,
          37.292107
        ],
        "_area_m2": 34.6
      },
      "geometry": {
        "type": "Polygon",
        "coordinates": [
          [
            [
              126.9736421656003,
              37.29212915270547
            ],
            [
              126.97363071213876,
              37.29207606522364
            ],
            [
              126.9735659716792,
              37.292084905443865
            ],
            [
              126.97357742514153,
              37.29213799292051
            ],
            [
              126.9736421656003,
              37.29212915270547
            ]
          ]
        ]
      }
    },
    {
      "type": "Feature",
      "properties": {
        "indoor": "room",
        "level": "1",
        "ref": "",
        "name": "",
        "room_type": "",
        "_idx": 37,
        "_centroid": [
          126.9738621,
          37.2921023
        ],
        "_area_m2": 24.1
      },
      "geometry": {
        "type": "Polygon",
        "coordinates": [
          [
            [
              126.97383769976958,
              37.29206984073412
            ],
            [
              126.97385173841207,
              37.29213926086948
            ],
            [
              126.9738854493131,
              37.29213494615204
            ],
            [
              126.97387333831401,
              37.29206527928986
            ],
            [
              126.97383769976958,
              37.29206984073412
            ]
          ]
        ]
      }
    },
    {
      "type": "Feature",
      "properties": {
        "indoor": "room",
        "level": "1",
        "ref": "",
        "name": "",
        "room_type": "",
        "_idx": 38,
        "_centroid": [
          126.973821,
          37.2921005
        ],
        "_area_m2": 28.4
      },
      "geometry": {
        "type": "Polygon",
        "coordinates": [
          [
            [
              126.97385173841207,
              37.29213926086948
            ],
            [
              126.97383769976958,
              37.29206984073412
            ],
            [
              126.9738077045466,
              37.29207367987888
            ],
            [
              126.97379684357227,
              37.292075069995256
            ],
            [
              126.9738108822137,
              37.292144490126084
            ],
            [
              126.97385173841207,
              37.29213926086948
            ]
          ]
        ]
      }
    },
    {
      "type": "Feature",
      "properties": {
        "indoor": "room",
        "level": "1",
        "ref": "",
        "name": "",
        "room_type": "",
        "_idx": 39,
        "_centroid": [
          126.9729359,
          37.2920967
        ],
        "_area_m2": 22.9
      },
      "geometry": {
        "type": "Polygon",
        "coordinates": [
          [
            [
              126.97296488925932,
              37.29207480722819
            ],
            [
              126.97289943804762,
              37.292083744502456
            ],
            [
              126.97290693611502,
              37.29211849849573
            ],
            [
              126.9729723873132,
              37.29210956122786
            ],
            [
              126.97296488925932,
              37.29207480722819
            ]
          ]
        ]
      }
    },
    {
      "type": "Feature",
      "properties": {
        "indoor": "room",
        "level": "1",
        "ref": "",
        "name": "",
        "room_type": "",
        "_idx": 40,
        "_centroid": [
          126.972902,
          37.2920813
        ],
        "_area_m2": 69.8
      },
      "geometry": {
        "type": "Polygon",
        "coordinates": [
          [
            [
              126.97295608206367,
              37.2920339852657
            ],
            [
              126.97283414340154,
              37.292050635832865
            ],
            [
              126.97285044867628,
              37.29212621177418
            ],
            [
              126.97290693611502,
              37.29211849849573
            ],
            [
              126.97289943804762,
              37.292083744502456
            ],
            [
              126.97296488925932,
              37.29207480722819
            ],
            [
              126.97295608206367,
              37.2920339852657
            ]
          ]
        ]
      }
    },
    {
      "type": "Feature",
      "properties": {
        "indoor": "room",
        "level": "1",
        "ref": "",
        "name": "",
        "room_type": "",
        "_idx": 41,
        "_centroid": [
          126.9728091,
          37.2920725
        ],
        "_area_m2": 20.8
      },
      "geometry": {
        "type": "Polygon",
        "coordinates": [
          [
            [
              126.97283414340154,
              37.29205063583288
            ],
            [
              126.97277633060688,
              37.29205853009388
            ],
            [
              126.97278406862729,
              37.292094396295454
            ],
            [
              126.97284188142196,
              37.29208650203822
            ],
            [
              126.97283414340154,
              37.29205063583288
            ]
          ]
        ]
      }
    },
    {
      "type": "Feature",
      "properties": {
        "indoor": "room",
        "level": "1",
        "ref": "",
        "name": "",
        "room_type": "",
        "_idx": 42,
        "_centroid": [
          126.973474,
          37.2920693
        ],
        "_area_m2": 32.7
      },
      "geometry": {
        "type": "Polygon",
        "coordinates": [
          [
            [
              126.97345031217434,
              37.292100698589316
            ],
            [
              126.97350958818537,
              37.29209260453198
            ],
            [
              126.97349776882585,
              37.292037821091775
            ],
            [
              126.97343849281259,
              37.292045915155136
            ],
            [
              126.97345031217434,
              37.292100698589316
            ]
          ]
        ]
      }
    },
    {
      "type": "Feature",
      "properties": {
        "indoor": "room",
        "level": "1",
        "ref": "",
        "name": "",
        "room_type": "",
        "_idx": 43,
        "_centroid": [
          126.9735319,
          37.2920614
        ],
        "_area_m2": 31.1
      },
      "geometry": {
        "type": "Polygon",
        "coordinates": [
          [
            [
              126.97350958818537,
              37.29209260453198
            ],
            [
              126.9735659716792,
              37.292084905443865
            ],
            [
              126.97355415231677,
              37.29203012199862
            ],
            [
              126.97349776882585,
              37.292037821091775
            ],
            [
              126.97350958818537,
              37.29209260453198
            ]
          ]
        ]
      }
    },
    {
      "type": "Feature",
      "properties": {
        "indoor": "room",
        "level": "1",
        "ref": "",
        "name": "",
        "room_type": "",
        "_idx": 44,
        "_centroid": [
          126.9736737,
          37.2920562
        ],
        "_area_m2": 87.3
      },
      "geometry": {
        "type": "Polygon",
        "coordinates": [
          [
            [
              126.97363071213876,
              37.29207606522364
            ],
            [
              126.97363520582178,
              37.29209689371421
            ],
            [
              126.97374997858198,
              37.29208122165208
            ],
            [
              126.97373366554596,
              37.29200560969154
            ],
            [
              126.97361889278484,
              37.29202128176954
            ],
            [
              126.97363071213876,
              37.29207606522364
            ]
          ]
        ]
      }
    },
    {
      "type": "Feature",
      "properties": {
        "indoor": "room",
        "level": "1",
        "ref": "",
        "name": "",
        "room_type": "",
        "_idx": 45,
        "_centroid": [
          126.9735924,
          37.2920531
        ],
        "_area_m2": 35.7
      },
      "geometry": {
        "type": "Polygon",
        "coordinates": [
          [
            [
              126.97363071213876,
              37.29207606522364
            ],
            [
              126.97361889278484,
              37.29202128176954
            ],
            [
              126.97355415231677,
              37.29203012199862
            ],
            [
              126.9735659716792,
              37.292084905443865
            ],
            [
              126.97363071213876,
              37.29207606522364
            ]
          ]
        ]
      }
    },
    {
      "type": "Feature",
      "properties": {
        "indoor": "room",
        "level": "1",
        "ref": "",
        "name": "",
        "room_type": "",
        "_idx": 46,
        "_centroid": [
          126.9726279,
          37.2920377
        ],
        "_area_m2": 37.0
      },
      "geometry": {
        "type": "Polygon",
        "coordinates": [
          [
            [
              126.97265885093358,
              37.292074616872526
            ],
            [
              126.97264240740635,
              37.29199382712617
            ],
            [
              126.97259554103444,
              37.292000949277224
            ],
            [
              126.9726148350002,
              37.29208130470599
            ],
            [
              126.97265885093358,
              37.292074616872526
            ]
          ]
        ]
      }
    },
    {
      "type": "Feature",
      "properties": {
        "indoor": "room",
        "level": "1",
        "ref": "",
        "name": "",
        "room_type": "",
        "_idx": 47,
        "_centroid": [
          126.9727385,
          37.2920305
        ],
        "_area_m2": 40.1
      },
      "geometry": {
        "type": "Polygon",
        "coordinates": [
          [
            [
              126.97277633060688,
              37.29205853009388
            ],
            [
              126.97276241600797,
              37.29199403502735
            ],
            [
              126.97270081234812,
              37.292002449612625
            ],
            [
              126.97271441419085,
              37.29206698469806
            ],
            [
              126.97277633060688,
              37.29205853009388
            ]
          ]
        ]
      }
    },
    {
      "type": "Feature",
      "properties": {
        "indoor": "room",
        "level": "1",
        "ref": "",
        "name": "",
        "room_type": "",
        "_idx": 48,
        "_centroid": [
          126.9726782,
          37.2920303
        ],
        "_area_m2": 44.9
      },
      "geometry": {
        "type": "Polygon",
        "coordinates": [
          [
            [
              126.97265885093358,
              37.292074616872526
            ],
            [
              126.97271441419085,
              37.29206698469806
            ],
            [
              126.97269732318951,
              37.29198589499758
            ],
            [
              126.97264240740635,
              37.29199382712617
            ],
            [
              126.97265885093358,
              37.292074616872526
            ]
          ]
        ]
      }
    },
    {
      "type": "Feature",
      "properties": {
        "indoor": "room",
        "level": "1",
        "ref": "",
        "name": "",
        "room_type": "",
        "_idx": 49,
        "_centroid": [
          126.9727646,
          37.29201
        ],
        "_area_m2": 57.9
      },
      "geometry": {
        "type": "Polygon",
        "coordinates": [
          [
            [
              126.97277633060688,
              37.29205853009388
            ],
            [
              126.97283414340154,
              37.292050635832865
            ],
            [
              126.97281646262937,
              37.2919686842915
            ],
            [
              126.97269732318951,
              37.29198589499758
            ],
            [
              126.97270081234812,
              37.292002449612625
            ],
            [
              126.97276241600797,
              37.29199403502735
            ],
            [
              126.97277633060688,
              37.29205853009388
            ]
          ]
        ]
      }
    },
    {
      "type": "Feature",
      "properties": {
        "indoor": "room",
        "level": "1",
        "ref": "",
        "name": "",
        "room_type": "",
        "_idx": 50,
        "_centroid": [
          126.9737594,
          37.2920076
        ],
        "_area_m2": 27.0
      },
      "geometry": {
        "type": "Polygon",
        "coordinates": [
          [
            [
              126.97378859662011,
              37.29197339984397
            ],
            [
              126.97373302920671,
              37.29199891749082
            ],
            [
              126.97373366554596,
              37.29200560969154
            ],
            [
              126.9737398743272,
              37.29203438779684
            ],
            [
              126.97380179287926,
              37.29202593289732
            ],
            [
              126.97378859662011,
              37.29197339984397
            ]
          ]
        ]
      }
    },
    {
      "type": "Feature",
      "properties": {
        "indoor": "room",
        "level": "1",
        "ref": "",
        "name": "",
        "room_type": "",
        "_idx": 51,
        "_centroid": [
          126.9728559,
          37.2920072
        ],
        "_area_m2": 47.9
      },
      "geometry": {
        "type": "Polygon",
        "coordinates": [
          [
            [
              126.97287770851511,
              37.29196370774998
            ],
            [
              126.97281717234968,
              37.29197197389181
            ],
            [
              126.97283414340154,
              37.292050635832865
            ],
            [
              126.97289467956435,
              37.292042369698294
            ],
            [
              126.97287770851511,
              37.29196370774998
            ]
          ]
        ]
      }
    },
    {
      "type": "Feature",
      "properties": {
        "indoor": "room",
        "level": "1",
        "ref": "",
        "name": "",
        "room_type": "",
        "_idx": 52,
        "_centroid": [
          126.9737581,
          37.2919705
        ],
        "_area_m2": 17.6
      },
      "geometry": {
        "type": "Polygon",
        "coordinates": [
          [
            [
              126.97373302920671,
              37.29199891749082
            ],
            [
              126.97378859662011,
              37.29197339984397
            ],
            [
              126.97378049677083,
              37.29194115509566
            ],
            [
              126.97373016328265,
              37.29196845963359
            ],
            [
              126.97373302920671,
              37.29199891749082
            ]
          ]
        ]
      }
    },
    {
      "type": "Feature",
      "properties": {
        "indoor": "room",
        "level": "1",
        "ref": "",
        "name": "",
        "room_type": "",
        "_idx": 53,
        "_centroid": [
          126.9738547,
          37.291964
        ],
        "_area_m2": 283.0
      },
      "geometry": {
        "type": "Polygon",
        "coordinates": [
          [
            [
              126.97380770454659,
              37.29207367987883
            ],
            [
              126.97383769976958,
              37.29206984073412
            ],
            [
              126.97399369462792,
              37.29204987465701
            ],
            [
              126.97396186382623,
              37.291892473208456
            ],
            [
              126.97393492251176,
              37.291895921485875
            ],
            [
              126.97393394153652,
              37.29189605231495
            ],
            [
              126.97393531323691,
              37.291902561970666
            ],
            [
              126.97380793201268,
              37.291919550334356
            ],
            [
              126.9738057501914,
              37.2919110192217
            ],
            [
              126.97377826852787,
              37.2919175191171
            ],
            [
              126.97378049768764,
              37.2919411549499
            ],
            [
              126.97378859662011,
              37.29197339984397
            ],
            [
              126.97380179927393,
              37.29202596454151
            ],
            [
              126.97379815635036,
              37.29202643046902
            ],
            [
              126.97380770454659,
              37.29207367987883
            ]
          ]
        ]
      }
    },
    {
      "type": "Feature",
      "properties": {
        "indoor": "room",
        "level": "1",
        "ref": "",
        "name": "",
        "room_type": "",
        "_idx": 54,
        "_centroid": [
          126.9729078,
          37.2919569
        ],
        "_area_m2": 100.4
      },
      "geometry": {
        "type": "Polygon",
        "coordinates": [
          [
            [
              126.97285958872125,
              37.2918797212026
            ],
            [
              126.97289467956435,
              37.292042369698294
            ],
            [
              126.97295608206367,
              37.2920339852657
            ],
            [
              126.97292099121586,
              37.29187133675299
            ],
            [
              126.97285958872125,
              37.2918797212026
            ]
          ]
        ]
      }
    },
    {
      "type": "Feature",
      "properties": {
        "indoor": "room",
        "level": "1",
        "ref": "",
        "name": "",
        "room_type": "",
        "_idx": 55,
        "_centroid": [
          126.972834,
          37.2919344
        ],
        "_area_m2": 51.1
      },
      "geometry": {
        "type": "Polygon",
        "coordinates": [
          [
            [
              126.97287770851511,
              37.29196370774998
            ],
            [
              126.97285958872122,
              37.291879721202605
            ],
            [
              126.97279905255313,
              37.29188798735618
            ],
            [
              126.97281646262937,
              37.2919686842915
            ],
            [
              126.97281717234968,
              37.29197197389181
            ],
            [
              126.97287770851511,
              37.29196370774998
            ]
          ]
        ]
      }
    },
    {
      "type": "Feature",
      "properties": {
        "indoor": "room",
        "level": "1",
        "ref": "",
        "name": "",
        "room_type": "",
        "_idx": 56,
        "_centroid": [
          126.97273,
          37.2918988
        ],
        "_area_m2": 277.9
      },
      "geometry": {
        "type": "Polygon",
        "coordinates": [
          [
            [
              126.97281646262937,
              37.2919686842915
            ],
            [
              126.97279905255313,
              37.29188798735618
            ],
            [
              126.97278222325188,
              37.29180998227154
            ],
            [
              126.97260978122247,
              37.2918335290765
            ],
            [
              126.97264240740635,
              37.29199382712617
            ],
            [
              126.97281646262937,
              37.2919686842915
            ]
          ]
        ]
      }
    },
    {
      "type": "Feature",
      "properties": {
        "indoor": "room",
        "level": "1",
        "ref": "",
        "name": "",
        "room_type": "",
        "_idx": 57,
        "_centroid": [
          126.9738681,
          37.2918888
        ],
        "_area_m2": 53.7
      },
      "geometry": {
        "type": "Polygon",
        "coordinates": [
          [
            [
              126.9738057501914,
              37.2919110192217
            ],
            [
              126.97380793201268,
              37.291919550334356
            ],
            [
              126.97393531323691,
              37.291902561970666
            ],
            [
              126.97393394153652,
              37.29189605231495
            ],
            [
              126.97392928476951,
              37.29186804314802
            ],
            [
              126.97388596693904,
              37.291863156338266
            ],
            [
              126.9738443730699,
              37.291867883537996
            ],
            [
              126.97380203645308,
              37.29188206513536
            ],
            [
              126.9738057501914,
              37.2919110192217
            ]
          ]
        ]
      }
    },
    {
      "type": "Feature",
      "properties": {
        "indoor": "room",
        "level": "1",
        "ref": "",
        "name": "",
        "room_type": "",
        "_idx": 58,
        "_centroid": [
          126.9728516,
          37.2918407
        ],
        "_area_m2": 95.6
      },
      "geometry": {
        "type": "Polygon",
        "coordinates": [
          [
            [
              126.97278222325188,
              37.29180998227154
            ],
            [
              126.97279905255313,
              37.29188798735618
            ],
            [
              126.97292099121586,
              37.29187133675299
            ],
            [
              126.9729041618888,
              37.29179333165522
            ],
            [
              126.97278222325188,
              37.29180998227154
            ]
          ]
        ]
      }
    }
  ]
}