{
  "type": "FeatureCollection",
  "features": [
    {
      "type": "Feature",
      "properties": {
        "indoor": "room",
        "level": "-1",
        "ref": "",
        "name": "",
        "room_type": "",
        "_idx": 1,
        "_centroid": [
          126.9730799,
          37.2923554
        ],
        "_area_m2": 683.6
      },
      "geometry": {
        "type": "Polygon",
        "coordinates": [
          [
            [
              126.97326192167351,
              37.2923366752949
            ],
            [
              126.97324529450043,
              37.29225445524932
            ],
            [
              126.97278467089774,
              37.29231614617247
            ],
            [
              126.9728315380303,
              37.2924632977237
            ],
            [
              126.9732760234688,
              37.29240640747466
            ],
            [
              126.97326192167351,
              37.2923366752949
            ]
          ]
        ]
      }
    },
    {
      "type": "Feature",
      "properties": {
        "indoor": "room",
        "level": "-1",
        "ref": "",
        "name": "",
        "room_type": "",
        "_idx": 2,
        "_centroid": [
          126.9733017,
          37.2922977
        ],
        "_area_m2": 76.5
      },
      "geometry": {
        "type": "Polygon",
        "coordinates": [
          [
            [
              126.97326192167351,
              37.2923366752949
            ],
            [
              126.97330924091133,
              37.29233061883811
            ],
            [
              126.97335496239295,
              37.292324766879965
            ],
            [
              126.97333727515922,
              37.29224213635876
            ],
            [
              126.97324529450043,
              37.29225445524932
            ],
            [
              126.97326192167351,
              37.2923366752949
            ]
          ]
        ]
      }
    },
    {
      "type": "Feature",
      "properties": {
        "indoor": "room",
        "level": "-1",
        "ref": "",
        "name": "",
        "room_type": "",
        "_idx": 3,
        "_centroid": [
          126.9735042,
          37.2922828
        ],
        "_area_m2": 10.8
      },
      "geometry": {
        "type": "Polygon",
        "coordinates": [
          [
            [
              126.97351181942747,
              37.29225897011459
            ],
            [
              126.97348755716835,
              37.29226207547901
            ],
            [
              126.9734965698225,
              37.2923066423379
            ],
            [
              126.97352083207957,
              37.292303536975766
            ],
            [
              126.97351181942747,
              37.29225897011459
            ]
          ]
        ]
      }
    },
    {
      "type": "Feature",
      "properties": {
        "indoor": "room",
        "level": "-1",
        "ref": "",
        "name": "",
        "room_type": "",
        "_idx": 4,
        "_centroid": [
          126.9733954,
          37.2922814
        ],
        "_area_m2": 42.7
      },
      "geometry": {
        "type": "Polygon",
        "coordinates": [
          [
            [
              126.97343159680905,
              37.292314958329904
            ],
            [
              126.97341655889792,
              37.29224059704416
            ],
            [
              126.973359192124,
              37.29224793950815
            ],
            [
              126.97337423003512,
              37.29232230078663
            ],
            [
              126.97343159680905,
              37.292314958329904
            ]
          ]
        ]
      }
    },
    {
      "type": "Feature",
      "properties": {
        "indoor": "room",
        "level": "-1",
        "ref": "",
        "name": "",
        "room_type": "",
        "_idx": 5,
        "_centroid": [
          126.9736697,
          37.2922806
        ],
        "_area_m2": 136.0
      },
      "geometry": {
        "type": "Polygon",
        "coordinates": [
          [
            [
              126.9737466215232,
              37.29234565539815
            ],
            [
              126.97371634166511,
              37.29219592389785
            ],
            [
              126.97365796939073,
              37.29220339506143
            ],
            [
              126.97367424987124,
              37.292283900804996
            ],
            [
              126.97360445882367,
              37.29229283346521
            ],
            [
              126.97361845819417,
              37.292362059203604
            ],
            [
              126.9737466215232,
              37.29234565539815
            ]
          ]
        ]
      }
    },
    {
      "type": "Feature",
      "properties": {
        "indoor": "room",
        "level": "-1",
        "ref": "",
        "name": "",
        "room_type": "",
        "_idx": 6,
        "_centroid": [
          126.973533,
          37.2922791
        ],
        "_area_m2": 14.9
      },
      "geometry": {
        "type": "Polygon",
        "coordinates": [
          [
            [
              126.97354507811053,
              37.292254713283825
            ],
            [
              126.97351181942747,
              37.29225897011459
            ],
            [
              126.97352083207957,
              37.292303536975766
            ],
            [
              126.97355409076236,
              37.29229928014781
            ],
            [
              126.97354507811053,
              37.292254713283825
            ]
          ]
        ]
      }
    },
    {
      "type": "Feature",
      "properties": {
        "indoor": "room",
        "level": "-1",
        "ref": "",
        "name": "",
        "room_type": "",
        "_idx": 7,
        "_centroid": [
          126.9734388,
          37.2922727
        ],
        "_area_m2": 24.8
      },
      "geometry": {
        "type": "Polygon",
        "coordinates": [
          [
            [
              126.97344610266386,
              37.292230512229985
            ],
            [
              126.9734153163264,
              37.29223445262256
            ],
            [
              126.97343159680905,
              37.292314958329904
            ],
            [
              126.97346238314779,
              37.29231101794092
            ],
            [
              126.97344610266386,
              37.292230512229985
            ]
          ]
        ]
      }
    },
    {
      "type": "Feature",
      "properties": {
        "indoor": "room",
        "level": "-1",
        "ref": "",
        "name": "",
        "room_type": "",
        "_idx": 8,
        "_centroid": [
          126.9734713,
          37.2922686
        ],
        "_area_m2": 27.6
      },
      "geometry": {
        "type": "Polygon",
        "coordinates": [
          [
            [
              126.97344610266386,
              37.292230512229985
            ],
            [
              126.97346238314779,
              37.29231101794092
            ],
            [
              126.9734965698225,
              37.2923066423379
            ],
            [
              126.97348028933932,
              37.292226136622084
            ],
            [
              126.97344610266386,
              37.292230512229985
            ]
          ]
        ]
      }
    },
    {
      "type": "Feature",
      "properties": {
        "indoor": "room",
        "level": "-1",
        "ref": "",
        "name": "",
        "room_type": "",
        "_idx": 9,
        "_centroid": [
          126.9735711,
          37.2922558
        ],
        "_area_m2": 40.6
      },
      "geometry": {
        "type": "Polygon",
        "coordinates": [
          [
            [
              126.97353781027962,
              37.292218774423866
            ],
            [
              126.97355409076236,
              37.29229928014781
            ],
            [
              126.97360445882367,
              37.29229283346521
            ],
            [
              126.97358817834103,
              37.2922123277342
            ],
            [
              126.97353781027962,
              37.292218774423866
            ]
          ]
        ]
      }
    },
    {
      "type": "Feature",
      "properties": {
        "indoor": "room",
        "level": "-1",
        "ref": "",
        "name": "",
        "room_type": "",
        "_idx": 10,
        "_centroid": [
          126.9736312,
          37.2922481
        ],
        "_area_m2": 56.3
      },
      "geometry": {
        "type": "Polygon",
        "coordinates": [
          [
            [
              126.97360445882367,
              37.29229283346521
            ],
            [
              126.97367424987124,
              37.292283900804996
            ],
            [
              126.97365796939073,
              37.29220339506143
            ],
            [
              126.97358817834103,
              37.292212327734205
            ],
            [
              126.97360445882367,
              37.29229283346521
            ]
          ]
        ]
      }
    },
    {
      "type": "Feature",
      "properties": {
        "indoor": "room",
        "level": "-1",
        "ref": "",
        "name": "",
        "room_type": "",
        "_idx": 11,
        "_centroid": [
          126.9729298,
          37.292247
        ],
        "_area_m2": 11.9
      },
      "geometry": {
        "type": "Polygon",
        "coordinates": [
          [
            [
              126.97294613134277,
              37.29222919622437
            ],
            [
              126.97290690154765,
              37.29223455298929
            ],
            [
              126.97291340897219,
              37.292264715231006
            ],
            [
              126.9729526387653,
              37.29225935846933
            ],
            [
              126.97294613134277,
              37.29222919622437
            ]
          ]
        ]
      }
    },
    {
      "type": "Feature",
      "properties": {
        "indoor": "room",
        "level": "-1",
        "ref": "",
        "name": "",
        "room_type": "",
        "_idx": 12,
        "_centroid": [
          126.9727731,
          37.2922452
        ],
        "_area_m2": 13.2
      },
      "geometry": {
        "type": "Polygon",
        "coordinates": [
          [
            [
              126.972773241857,
              37.29227912164873
            ],
            [
              126.97278990362726,
              37.29227692051112
            ],
            [
              126.9727761436899,
              37.29221099838412
            ],
            [
              126.9727530369466,
              37.29221366753827
            ],
            [
              126.972773241857,
              37.29227912164873
            ]
          ]
        ]
      }
    },
    {
      "type": "Feature",
      "properties": {
        "indoor": "room",
        "level": "-1",
        "ref": "",
        "name": "",
        "room_type": "",
        "_idx": 13,
        "_centroid": [
          126.9734936,
          37.2922426
        ],
        "_area_m2": 8.7
      },
      "geometry": {
        "type": "Polygon",
        "coordinates": [
          [
            [
              126.97348363162655,
              37.29224266397816
            ],
            [
              126.97348755716835,
              37.29226207547901
            ],
            [
              126.97351181942747,
              37.29225897011459
            ],
            [
              126.97350455159628,
              37.29222303125656
            ],
            [
              126.97348028933932,
              37.292226136622084
            ],
            [
              126.97348363162655,
              37.29224266397816
            ]
          ]
        ]
      }
    },
    {
      "type": "Feature",
      "properties": {
        "indoor": "room",
        "level": "-1",
        "ref": "",
        "name": "",
        "room_type": "",
        "_idx": 14,
        "_centroid": [
          126.9729553,
          37.2922408
        ],
        "_area_m2": 29.5
      },
      "geometry": {
        "type": "Polygon",
        "coordinates": [
          [
            [
              126.97293784952353,
              37.292190809557695
            ],
            [
              126.97297030482174,
              37.29218637691793
            ],
            [
              126.97298847153893,
              37.29227056313608
            ],
            [
              126.97294286410866,
              37.29227679204451
            ],
            [
              126.97293946973791,
              37.29226114807675
            ],
            [
              126.97295263479495,
              37.29225934017078
            ],
            [
              126.97293784952353,
              37.292190809557695
            ]
          ]
        ]
      }
    },
    {
      "type": "Feature",
      "properties": {
        "indoor": "room",
        "level": "-1",
        "ref": "",
        "name": "",
        "room_type": "",
        "_idx": 15,
        "_centroid": [
          126.9735248,
          37.2922389
        ],
        "_area_m2": 12.0
      },
      "geometry": {
        "type": "Polygon",
        "coordinates": [
          [
            [
              126.97351181942747,
              37.29225897011459
            ],
            [
              126.97354507811053,
              37.292254713283825
            ],
            [
              126.97353781027962,
              37.292218774423866
            ],
            [
              126.97350455159628,
              37.29222303125656
            ],
            [
              126.97351181942747,
              37.29225897011459
            ]
          ]
        ]
      }
    },
    {
      "type": "Feature",
      "properties": {
        "indoor": "room",
        "level": "-1",
        "ref": "",
        "name": "",
        "room_type": "",
        "_idx": 16,
        "_centroid": [
          126.972828,
          37.2922384
        ],
        "_area_m2": 58.7
      },
      "geometry": {
        "type": "Polygon",
        "coordinates": [
          [
            [
              126.9727761436899,
              37.29221099838412
            ],
            [
              126.97278990362726,
              37.29227692051112
            ],
            [
              126.97287963405768,
              37.292265066486
            ],
            [
              126.97286617758219,
              37.292200598202065
            ],
            [
              126.9727761436899,
              37.29221099838412
            ]
          ]
        ]
      }
    },
    {
      "type": "Feature",
      "properties": {
        "indoor": "room",
        "level": "-1",
        "ref": "",
        "name": "",
        "room_type": "",
        "_idx": 17,
        "_centroid": [
          126.9738149,
          37.2922354
        ],
        "_area_m2": 217.2
      },
      "geometry": {
        "type": "Polygon",
        "coordinates": [
          [
            [
              126.9738324849728,
              37.29218105852193
            ],
            [
              126.97379572929783,
              37.292185762942076
            ],
            [
              126.97378000011197,
              37.29218777614673
            ],
            [
              126.97379004956291,
              37.29223746992784
            ],
            [
              126.97372639111694,
              37.29224561767459
            ],
            [
              126.9737466215232,
              37.29234565539815
            ],
            [
              126.97392438234672,
              37.29232290353935
            ],
            [
              126.97389995299137,
              37.292202102254045
            ],
            [
              126.97383833546539,
              37.292209988781735
            ],
            [
              126.9738324849728,
              37.29218105852193
            ]
          ]
        ]
      }
    },
    {
      "type": "Feature",
      "properties": {
        "indoor": "room",
        "level": "-1",
        "ref": "",
        "name": "",
        "room_type": "",
        "_idx": 18,
        "_centroid": [
          126.9728896,
          37.2922327
        ],
        "_area_m2": 22.7
      },
      "geometry": {
        "type": "Polygon",
        "coordinates": [
          [
            [
              126.97289861972916,
              37.2921961663246
            ],
            [
              126.97286573773525,
              37.292200656309014
            ],
            [
              126.972880526977,
              37.29226920521165
            ],
            [
              126.97291340897219,
              37.292264715231006
            ],
            [
              126.97289861972916,
              37.2921961663246
            ]
          ]
        ]
      }
    },
    {
      "type": "Feature",
      "properties": {
        "indoor": "room",
        "level": "-1",
        "ref": "",
        "name": "",
        "room_type": "",
        "_idx": 19,
        "_centroid": [
          126.9730025,
          37.2922253
        ],
        "_area_m2": 39.2
      },
      "geometry": {
        "type": "Polygon",
        "coordinates": [
          [
            [
              126.97301659057804,
              37.29218005127876
            ],
            [
              126.97297030482174,
              37.29218637691793
            ],
            [
              126.97298847153981,
              37.292270563135965
            ],
            [
              126.97303476953955,
              37.292264239910736
            ],
            [
              126.97301659057804,
              37.29218005127876
            ]
          ]
        ]
      }
    },
    {
      "type": "Feature",
      "properties": {
        "indoor": "room",
        "level": "-1",
        "ref": "",
        "name": "",
        "room_type": "",
        "_idx": 20,
        "_centroid": [
          126.9737334,
          37.2922193
        ],
        "_area_m2": 15.0
      },
      "geometry": {
        "type": "Polygon",
        "coordinates": [
          [
            [
              126.97375642088261,
              37.29224177411675
            ],
            [
              126.9737463714313,
              37.292192080337834
            ],
            [
              126.97371634166511,
              37.29219592389785
            ],
            [
              126.97372139654425,
              37.29222091989569
            ],
            [
              126.97372639111694,
              37.29224561767459
            ],
            [
              126.97375642088261,
              37.29224177411675
            ]
          ]
        ]
      }
    },
    {
      "type": "Feature",
      "properties": {
        "indoor": "room",
        "level": "-1",
        "ref": "",
        "name": "",
        "room_type": "",
        "_idx": 21,
        "_centroid": [
          126.9737682,
          37.2922148
        ],
        "_area_m2": 16.7
      },
      "geometry": {
        "type": "Polygon",
        "coordinates": [
          [
            [
              126.97375642088261,
              37.29224177411675
            ],
            [
              126.97379004956291,
              37.292237469927834
            ],
            [
              126.97378000011197,
              37.29218777614673
            ],
            [
              126.9737463714313,
              37.292192080337834
            ],
            [
              126.97375642088261,
              37.29224177411675
            ]
          ]
        ]
      }
    },
    {
      "type": "Feature",
      "properties": {
        "indoor": "room",
        "level": "-1",
        "ref": "",
        "name": "",
        "room_type": "",
        "_idx": 22,
        "_centroid": [
          126.9729224,
          37.2922127
        ],
        "_area_m2": 15.1
      },
      "geometry": {
        "type": "Polygon",
        "coordinates": [
          [
            [
              126.97289861972916,
              37.2921961663246
            ],
            [
              126.97290690154765,
              37.29223455298929
            ],
            [
              126.97294613134277,
              37.29222919622437
            ],
            [
              126.97293784952356,
              37.29219080955772
            ],
            [
              126.97289861972916,
              37.2921961663246
            ]
          ]
        ]
      }
    },
    {
      "type": "Feature",
      "properties": {
        "indoor": "room",
        "level": "-1",
        "ref": "",
        "name": "",
        "room_type": "",
        "_idx": 23,
        "_centroid": [
          126.9732786,
          37.2922087
        ],
        "_area_m2": 12.7
      },
      "geometry": {
        "type": "Polygon",
        "coordinates": [
          [
            [
              126.97325935207593,
              37.2921890148864
            ],
            [
              126.9732686895211,
              37.29223229444834
            ],
            [
              126.97329789600154,
              37.29222830635142
            ],
            [
              126.97328855856225,
              37.29218502678654
            ],
            [
              126.97325935207593,
              37.2921890148864
            ]
          ]
        ]
      }
    },
    {
      "type": "Feature",
      "properties": {
        "indoor": "room",
        "level": "-1",
        "ref": "",
        "name": "",
        "room_type": "",
        "_idx": 24,
        "_centroid": [
          126.9732434,
          37.2922075
        ],
        "_area_m2": 17.0
      },
      "geometry": {
        "type": "Polygon",
        "coordinates": [
          [
            [
              126.97322518052749,
              37.29218432727361
            ],
            [
              126.97322950676522,
              37.292204379622284
            ],
            [
              126.97323647825412,
              37.29223669284368
            ],
            [
              126.9732686895211,
              37.29223229444834
            ],
            [
              126.97325739179735,
              37.29217992887493
            ],
            [
              126.97322518052749,
              37.29218432727361
            ]
          ]
        ]
      }
    },
    {
      "type": "Feature",
      "properties": {
        "indoor": "room",
        "level": "-1",
        "ref": "",
        "name": "",
        "room_type": "",
        "_idx": 25,
        "_centroid": [
          126.9732992,
          37.2921946
        ],
        "_area_m2": 10.9
      },
      "geometry": {
        "type": "Polygon",
        "coordinates": [
          [
            [
              126.97329789600154,
              37.29222830635141
            ],
            [
              126.97328382108255,
              37.292163068300184
            ],
            [
              126.97330046632248,
              37.29216079541914
            ],
            [
              126.97331454124144,
              37.29222603347234
            ],
            [
              126.97329789600154,
              37.29222830635141
            ]
          ]
        ]
      }
    },
    {
      "type": "Feature",
      "properties": {
        "indoor": "room",
        "level": "-1",
        "ref": "",
        "name": "",
        "room_type": "",
        "_idx": 26,
        "_centroid": [
          126.9738662,
          37.2921916
        ],
        "_area_m2": 17.9
      },
      "geometry": {
        "type": "Polygon",
        "coordinates": [
          [
            [
              126.9738324849728,
              37.29218105852193
            ],
            [
              126.97383833546539,
              37.292209988781735
            ],
            [
              126.97389995299137,
              37.292202102254045
            ],
            [
              126.97389410249359,
              37.29217317199202
            ],
            [
              126.9738324849728,
              37.29218105852193
            ]
          ]
        ]
      }
    },
    {
      "type": "Feature",
      "properties": {
        "indoor": "room",
        "level": "-1",
        "ref": "",
        "name": "",
        "room_type": "",
        "_idx": 27,
        "_centroid": [
          126.9731967,
          37.2921897
        ],
        "_area_m2": 59.1
      },
      "geometry": {
        "type": "Polygon",
        "coordinates": [
          [
            [
              126.97321449804427,
              37.292134813317396
            ],
            [
              126.97315682435422,
              37.292142688575744
            ],
            [
              126.97317880456905,
              37.292244568090425
            ],
            [
              126.97323647825412,
              37.292236692843694
            ],
            [
              126.97321449804427,
              37.292134813317396
            ]
          ]
        ]
      }
    },
    {
      "type": "Feature",
      "properties": {
        "indoor": "room",
        "level": "-1",
        "ref": "",
        "name": "",
        "room_type": "",
        "_idx": 28,
        "_centroid": [
          126.9733766,
          37.2921888
        ],
        "_area_m2": 17.0
      },
      "geometry": {
        "type": "Polygon",
        "coordinates": [
          [
            [
              126.97334498417835,
              37.29217768227582
            ],
            [
              126.9733509483974,
              37.29220717490264
            ],
            [
              126.97340831517292,
              37.292199832434385
            ],
            [
              126.97340235095228,
              37.29217033980497
            ],
            [
              126.97334498417835,
              37.29217768227582
            ]
          ]
        ]
      }
    },
    {
      "type": "Feature",
      "properties": {
        "indoor": "room",
        "level": "-1",
        "ref": "",
        "name": "",
        "room_type": "",
        "_idx": 29,
        "_centroid": [
          126.9734564,
          37.2921864
        ],
        "_area_m2": 6.6
      },
      "geometry": {
        "type": "Polygon",
        "coordinates": [
          [
            [
              126.97344552462728,
              37.29217122753069
            ],
            [
              126.97344793179685,
              37.29218313081014
            ],
            [
              126.97345248350334,
              37.29220563866448
            ],
            [
              126.97347152982051,
              37.29220320089492
            ],
            [
              126.97346457094571,
              37.29216878975981
            ],
            [
              126.97344552462728,
              37.29217122753069
            ]
          ]
        ]
      }
    },
    {
      "type": "Feature",
      "properties": {
        "indoor": "room",
        "level": "-1",
        "ref": "",
        "name": "",
        "room_type": "",
        "_idx": 30,
        "_centroid": [
          126.9728019,
          37.2921798
        ],
        "_area_m2": 134.8
      },
      "geometry": {
        "type": "Polygon",
        "coordinates": [
          [
            [
              126.9727530369466,
              37.29221366753827
            ],
            [
              126.97292531966141,
              37.29219251418114
            ],
            [
              126.97291086105719,
              37.29211798428876
            ],
            [
              126.97272914274848,
              37.29214030279747
            ],
            [
              126.97274220461877,
              37.29220761300326
            ],
            [
              126.97275083653992,
              37.29220655283817
            ],
            [
              126.9727530369466,
              37.29221366753827
            ]
          ]
        ]
      }
    },
    {
      "type": "Feature",
      "properties": {
        "indoor": "room",
        "level": "-1",
        "ref": "",
        "name": "",
        "room_type": "",
        "_idx": 31,
        "_centroid": [
          126.9732395,
          37.2921738
        ],
        "_area_m2": 5.4
      },
      "geometry": {
        "type": "Polygon",
        "coordinates": [
          [
            [
              126.97325380838629,
              37.29216331957414
            ],
            [
              126.97322159711962,
              37.29216771797613
            ],
            [
              126.97322518052749,
              37.29218432727361
            ],
            [
              126.97325739179735,
              37.29217992887493
            ],
            [
              126.97325380838629,
              37.29216331957414
            ]
          ]
        ]
      }
    },
    {
      "type": "Feature",
      "properties": {
        "indoor": "room",
        "level": "-1",
        "ref": "",
        "name": "",
        "room_type": "",
        "_idx": 32,
        "_centroid": [
          126.9730874,
          37.2921733
        ],
        "_area_m2": 207.4
      },
      "geometry": {
        "type": "Polygon",
        "coordinates": [
          [
            [
              126.97303476953955,
              37.292264239910736
            ],
            [
              126.97317880823432,
              37.292244567589826
            ],
            [
              126.97316064151703,
              37.29216038134186
            ],
            [
              126.97314460374126,
              37.29208604531308
            ],
            [
              126.97303030021904,
              37.292101653299554
            ],
            [
              126.97304633799386,
              37.292175989314316
            ],
            [
              126.97301659057804,
              37.29218005127876
            ],
            [
              126.97303476953955,
              37.292264239910736
            ]
          ]
        ]
      }
    },
    {
      "type": "Feature",
      "properties": {
        "indoor": "room",
        "level": "-1",
        "ref": "",
        "name": "",
        "room_type": "",
        "_idx": 33,
        "_centroid": [
          126.9729438,
          37.2921701
        ],
        "_area_m2": 17.7
      },
      "geometry": {
        "type": "Polygon",
        "coordinates": [
          [
            [
              126.97296228548241,
              37.2921475846481
            ],
            [
              126.97291696148754,
              37.29215377357289
            ],
            [
              126.97292531966141,
              37.29219251418115
            ],
            [
              126.97297064478886,
              37.29218633049593
            ],
            [
              126.97296228548241,
              37.2921475846481
            ]
          ]
        ]
      }
    },
    {
      "type": "Feature",
      "properties": {
        "indoor": "room",
        "level": "-1",
        "ref": "",
        "name": "",
        "room_type": "",
        "_idx": 34,
        "_centroid": [
          126.9732695,
          37.2921662
        ],
        "_area_m2": 12.2
      },
      "geometry": {
        "type": "Polygon",
        "coordinates": [
          [
            [
              126.97325935207593,
              37.2921890148864
            ],
            [
              126.97328855856225,
              37.29218502678654
            ],
            [
              126.97327958649153,
              37.292143440725866
            ],
            [
              126.97325038000452,
              37.292147428828024
            ],
            [
              126.97325935207593,
              37.2921890148864
            ]
          ]
        ]
      }
    },
    {
      "type": "Feature",
      "properties": {
        "indoor": "room",
        "level": "-1",
        "ref": "",
        "name": "",
        "room_type": "",
        "_idx": 35,
        "_centroid": [
          126.973236,
          37.2921576
        ],
        "_area_m2": 5.1
      },
      "geometry": {
        "type": "Polygon",
        "coordinates": [
          [
            [
              126.97322159711962,
              37.29216771797613
            ],
            [
              126.97325380838629,
              37.29216331957414
            ],
            [
              126.97325038000452,
              37.292147428828024
            ],
            [
              126.9732181687368,
              37.292151827228494
            ],
            [
              126.97322159711962,
              37.29216771797613
            ]
          ]
        ]
      }
    },
    {
      "type": "Feature",
      "properties": {
        "indoor": "room",
        "level": "-1",
        "ref": "",
        "name": "",
        "room_type": "",
        "_idx": 36,
        "_centroid": [
          126.9734522,
          37.292156
        ],
        "_area_m2": 5.4
      },
      "geometry": {
        "type": "Polygon",
        "coordinates": [
          [
            [
              126.97344552462728,
              37.29217122753069
            ],
            [
              126.97346457094571,
              37.29216878975981
            ],
            [
              126.97345890222168,
              37.29214075832748
            ],
            [
              126.97343985590452,
              37.292143196099055
            ],
            [
              126.97344552462728,
              37.29217122753069
            ]
          ]
        ]
      }
    },
    {
      "type": "Feature",
      "properties": {
        "indoor": "room",
        "level": "-1",
        "ref": "",
        "name": "",
        "room_type": "",
        "_idx": 37,
        "_centroid": [
          126.9735219,
          37.2921554
        ],
        "_area_m2": 94.7
      },
      "geometry": {
        "type": "Polygon",
        "coordinates": [
          [
            [
              126.9735885758489,
              37.292188219978875
            ],
            [
              126.97357225513022,
              37.292107515173576
            ],
            [
              126.97345520910184,
              37.2921224961057
            ],
            [
              126.97347152982051,
              37.29220320089492
            ],
            [
              126.9735885758489,
              37.292188219978875
            ]
          ]
        ]
      }
    },
    {
      "type": "Feature",
      "properties": {
        "indoor": "room",
        "level": "-1",
        "ref": "",
        "name": "",
        "room_type": "",
        "_idx": 38,
        "_centroid": [
          126.9730037,
          37.2921512
        ],
        "_area_m2": 56.6
      },
      "geometry": {
        "type": "Polygon",
        "coordinates": [
          [
            [
              126.97295460588164,
              37.29211198925613
            ],
            [
              126.97297064478886,
              37.29218633049593
            ],
            [
              126.97301659057804,
              37.29218005127876
            ],
            [
              126.97304633799395,
              37.29217598931472
            ],
            [
              126.97303030021904,
              37.292101653299554
            ],
            [
              126.97295460588164,
              37.29211198925613
            ]
          ]
        ]
      }
    },
    {
      "type": "Feature",
      "properties": {
        "indoor": "room",
        "level": "-1",
        "ref": "",
        "name": "",
        "room_type": "",
        "_idx": 39,
        "_centroid": [
          126.9727009,
          37.2921414
        ],
        "_area_m2": 78.2
      },
      "geometry": {
        "type": "Polygon",
        "coordinates": [
          [
            [
              126.97274285991219,
              37.29220753252069
            ],
            [
              126.97268762434284,
              37.292215985142896
            ],
            [
              126.97265885093358,
              37.292074616872526
            ],
            [
              126.97271428807633,
              37.29206747548244
            ],
            [
              126.97274285991219,
              37.29220753252069
            ]
          ]
        ]
      }
    },
    {
      "type": "Feature",
      "properties": {
        "indoor": "room",
        "level": "-1",
        "ref": "",
        "name": "",
        "room_type": "",
        "_idx": 40,
        "_centroid": [
          126.9729405,
          37.292133
        ],
        "_area_m2": 16.2
      },
      "geometry": {
        "type": "Polygon",
        "coordinates": [
          [
            [
              126.97296228548241,
              37.2921475846481
            ],
            [
              126.97295928014388,
              37.292133654732915
            ],
            [
              126.97295460588164,
              37.29211198925613
            ],
            [
              126.97290928188565,
              37.29211817818412
            ],
            [
              126.97291696148754,
              37.29215377357289
            ],
            [
              126.97296228548241,
              37.2921475846481
            ]
          ]
        ]
      }
    },
    {
      "type": "Feature",
      "properties": {
        "indoor": "room",
        "level": "-1",
        "ref": "",
        "name": "",
        "room_type": "",
        "_idx": 41,
        "_centroid": [
          126.9739319,
          37.2921167
        ],
        "_area_m2": 128.3
      },
      "geometry": {
        "type": "Polygon",
        "coordinates": [
          [
            [
              126.97389410249359,
              37.29217317199202
            ],
            [
              126.9738854493131,
              37.29213494615204
            ],
            [
              126.97387333831401,
              37.29206527928986
            ],
            [
              126.97399412679854,
              37.29205201306566
            ],
            [
              126.97401251238723,
              37.29215796248543
            ],
            [
              126.97389410249359,
              37.29217317199202
            ]
          ]
        ]
      }
    },
    {
      "type": "Feature",
      "properties": {
        "indoor": "room",
        "level": "-1",
        "ref": "",
        "name": "",
        "room_type": "",
        "_idx": 42,
        "_centroid": [
          126.9731652,
          37.2921124
        ],
        "_area_m2": 16.5
      },
      "geometry": {
        "type": "Polygon",
        "coordinates": [
          [
            [
              126.97315682435422,
              37.292142688575744
            ],
            [
              126.97318581084062,
              37.292138730513365
            ],
            [
              126.97317359022917,
              37.29208208724819
            ],
            [
              126.97314460374129,
              37.292086045313084
            ],
            [
              126.97315682435422,
              37.292142688575744
            ]
          ]
        ]
      }
    },
    {
      "type": "Feature",
      "properties": {
        "indoor": "room",
        "level": "-1",
        "ref": "",
        "name": "",
        "room_type": "",
        "_idx": 43,
        "_centroid": [
          126.973194,
          37.2921085
        ],
        "_area_m2": 16.3
      },
      "geometry": {
        "type": "Polygon",
        "coordinates": [
          [
            [
              126.97317359022917,
              37.29208208724819
            ],
            [
              126.97318581084062,
              37.292138730513365
            ],
            [
              126.97321449804427,
              37.292134813317396
            ],
            [
              126.97320227742523,
              37.29207817005118
            ],
            [
              126.97317359022917,
              37.29208208724819
            ]
          ]
        ]
      }
    },
    {
      "type": "Feature",
      "properties": {
        "indoor": "room",
        "level": "-1",
        "ref": "",
        "name": "",
        "room_type": "",
        "_idx": 44,
        "_centroid": [
          126.9738621,
          37.2921023
        ],
        "_area_m2": 24.1
      },
      "geometry": {
        "type": "Polygon",
        "coordinates": [
          [
            [
              126.97383769976958,
              37.29206984073412
            ],
            [
              126.97385173841207,
              37.29213926086948
            ],
            [
              126.9738854493131,
              37.29213494615204
            ],
            [
              126.97387333831401,
              37.29206527928986
            ],
            [
              126.97383769976958,
              37.29206984073412
            ]
          ]
        ]
      }
    },
    {
      "type": "Feature",
      "properties": {
        "indoor": "room",
        "level": "-1",
        "ref": "",
        "name": "",
        "room_type": "",
        "_idx": 45,
        "_centroid": [
          126.973821,
          37.2921005
        ],
        "_area_m2": 28.4
      },
      "geometry": {
        "type": "Polygon",
        "coordinates": [
          [
            [
              126.97385173841207,
              37.29213926086948
            ],
            [
              126.97383769976958,
              37.29206984073412
            ],
            [
              126.9738077045466,
              37.29207367987888
            ],
            [
              126.97379684357227,
              37.292075069995256
            ],
            [
              126.9738108822137,
              37.292144490126084
            ],
            [
              126.97385173841207,
              37.29213926086948
            ]
          ]
        ]
      }
    },
    {
      "type": "Feature",
      "properties": {
        "indoor": "room",
        "level": "-1",
        "ref": "",
        "name": "",
        "room_type": "",
        "_idx": 46,
        "_centroid": [
          126.9729404,
          37.2920996
        ],
        "_area_m2": 21.9
      },
      "geometry": {
        "type": "Polygon",
        "coordinates": [
          [
            [
              126.97290928188568,
              37.29211817818411
            ],
            [
              126.97295460588164,
              37.29211198925613
            ],
            [
              126.9729723873132,
              37.29210956122786
            ],
            [
              126.97296416431662,
              37.2920753869741
            ],
            [
              126.97290172226728,
              37.292083053254174
            ],
            [
              126.97290928188568,
              37.29211817818411
            ]
          ]
        ]
      }
    },
    {
      "type": "Feature",
      "properties": {
        "indoor": "room",
        "level": "-1",
        "ref": "",
        "name": "",
        "room_type": "",
        "_idx": 47,
        "_centroid": [
          126.9727685,
          37.292098
        ],
        "_area_m2": 68.5
      },
      "geometry": {
        "type": "Polygon",
        "coordinates": [
          [
            [
              126.97272914274848,
              37.29214030279747
            ],
            [
              126.97271428807633,
              37.292067475482426
            ],
            [
              126.97280780006679,
              37.29205540349132
            ],
            [
              126.97282279058335,
              37.29212880119093
            ],
            [
              126.97272914274848,
              37.29214030279747
            ]
          ]
        ]
      }
    },
    {
      "type": "Feature",
      "properties": {
        "indoor": "room",
        "level": "-1",
        "ref": "",
        "name": "",
        "room_type": "",
        "_idx": 48,
        "_centroid": [
          126.9736655,
          37.2920976
        ],
        "_area_m2": 293.2
      },
      "geometry": {
        "type": "Polygon",
        "coordinates": [
          [
            [
              126.97377431811432,
              37.29216444651094
            ],
            [
              126.9737424611311,
              37.29200691584051
            ],
            [
              126.97355671886567,
              37.29203068935823
            ],
            [
              126.9735885758489,
              37.292188219978875
            ],
            [
              126.97377431811432,
              37.29216444651094
            ]
          ]
        ]
      }
    },
    {
      "type": "Feature",
      "properties": {
        "indoor": "room",
        "level": "-1",
        "ref": "",
        "name": "",
        "room_type": "",
        "_idx": 49,
        "_centroid": [
          126.9729032,
          37.2920816
        ],
        "_area_m2": 67.4
      },
      "geometry": {
        "type": "Polygon",
        "coordinates": [
          [
            [
              126.97290928188565,
              37.29211817818412
            ],
            [
              126.97285090420579,
              37.29212534814578
            ],
            [
              126.97283648527736,
              37.292051045281134
            ],
            [
              126.9729565821821,
              37.29203630045847
            ],
            [
              126.97296416431662,
              37.2920753869741
            ],
            [
              126.97290172226728,
              37.292083053254174
            ],
            [
              126.97290928188565,
              37.29211817818412
            ]
          ]
        ]
      }
    },
    {
      "type": "Feature",
      "properties": {
        "indoor": "room",
        "level": "-1",
        "ref": "",
        "name": "",
        "room_type": "",
        "_idx": 50,
        "_centroid": [
          126.973812,
          37.29208
        ],
        "_area_m2": 98.4
      },
      "geometry": {
        "type": "Polygon",
        "coordinates": [
          [
            [
              126.97379787044285,
              37.291999823892304
            ],
            [
              126.9737762953799,
              37.29200258532768
            ],
            [
              126.9737424611311,
              37.29200691584051
            ],
            [
              126.97377431811432,
              37.29216444651094
            ],
            [
              126.97383041216472,
              37.292157266936705
            ],
            [
              126.97382740078672,
              37.29214237588494
            ],
            [
              126.97385173841208,
              37.29213926086948
            ],
            [
              126.97381086567273,
              37.29214449224063
            ],
            [
              126.973796843535,
              37.29207506981069
            ],
            [
              126.97386943835444,
              37.29206578949403
            ],
            [
              126.97386168625067,
              37.292027409436265
            ],
            [
              126.97380491833279,
              37.29203467527256
            ],
            [
              126.97379787044285,
              37.291999823892304
            ]
          ]
        ]
      }
    },
    {
      "type": "Feature",
      "properties": {
        "indoor": "room",
        "level": "-1",
        "ref": "",
        "name": "",
        "room_type": "",
        "_idx": 51,
        "_centroid": [
          126.9728271,
          37.292078
        ],
        "_area_m2": 21.0
      },
      "geometry": {
        "type": "Polygon",
        "coordinates": [
          [
            [
              126.97285090420579,
              37.29212534814578
            ],
            [
              126.97282279058335,
              37.29212880119093
            ],
            [
              126.97280780006679,
              37.29205540349132
            ],
            [
              126.9728102173921,
              37.29205511790521
            ],
            [
              126.97283428216745,
              37.292052017890356
            ],
            [
              126.97283648527736,
              37.292051045281134
            ],
            [
              126.97285090420579,
              37.29212534814578
            ]
          ]
        ]
      }
    },
    {
      "type": "Feature",
      "properties": {
        "indoor": "room",
        "level": "-1",
        "ref": "",
        "name": "",
        "room_type": "",
        "_idx": 52,
        "_centroid": [
          126.9726801,
          37.2920506
        ],
        "_area_m2": 21.1
      },
      "geometry": {
        "type": "Polygon",
        "coordinates": [
          [
            [
              126.97270130085361,
              37.292026639563005
            ],
            [
              126.9726504199392,
              37.29203319402519
            ],
            [
              126.97265885093358,
              37.292074616872526
            ],
            [
              126.97270973184798,
              37.29206806241326
            ],
            [
              126.97270130085361,
              37.292026639563005
            ]
          ]
        ]
      }
    },
    {
      "type": "Feature",
      "properties": {
        "indoor": "room",
        "level": "-1",
        "ref": "",
        "name": "",
        "room_type": "",
        "_idx": 53,
        "_centroid": [
          126.9727139,
          37.2920463
        ],
        "_area_m2": 6.9
      },
      "geometry": {
        "type": "Polygon",
        "coordinates": [
          [
            [
              126.97272645231529,
              37.29206590848927
            ],
            [
              126.97271802132086,
              37.29202448563794
            ],
            [
              126.97270130085361,
              37.292026639563005
            ],
            [
              126.97270973184798,
              37.29206806241326
            ],
            [
              126.97272645231529,
              37.29206590848927
            ]
          ]
        ]
      }
    },
    {
      "type": "Feature",
      "properties": {
        "indoor": "room",
        "level": "-1",
        "ref": "",
        "name": "",
        "room_type": "",
        "_idx": 54,
        "_centroid": [
          126.9727361,
          37.2920434
        ],
        "_area_m2": 11.5
      },
      "geometry": {
        "type": "Polygon",
        "coordinates": [
          [
            [
              126.972754143079,
              37.29206234137604
            ],
            [
              126.97274571208452,
              37.29202091852277
            ],
            [
              126.97271802132086,
              37.29202448563794
            ],
            [
              126.97272645231529,
              37.29206590848927
            ],
            [
              126.972754143079,
              37.29206234137604
            ]
          ]
        ]
      }
    },
    {
      "type": "Feature",
      "properties": {
        "indoor": "room",
        "level": "-1",
        "ref": "",
        "name": "",
        "room_type": "",
        "_idx": 55,
        "_centroid": [
          126.9727643,
          37.2920398
        ],
        "_area_m2": 11.9
      },
      "geometry": {
        "type": "Polygon",
        "coordinates": [
          [
            [
              126.97278291177518,
              37.292058635403976
            ],
            [
              126.97277448078076,
              37.29201721254852
            ],
            [
              126.97274571208452,
              37.29202091852277
            ],
            [
              126.972754143079,
              37.29206234137604
            ],
            [
              126.97278291177518,
              37.292058635403976
            ]
          ]
        ]
      }
    },
    {
      "type": "Feature",
      "properties": {
        "indoor": "room",
        "level": "-1",
        "ref": "",
        "name": "",
        "room_type": "",
        "_idx": 56,
        "_centroid": [
          126.9726279,
          37.2920377
        ],
        "_area_m2": 37.0
      },
      "geometry": {
        "type": "Polygon",
        "coordinates": [
          [
            [
              126.97265885093358,
              37.292074616872526
            ],
            [
              126.97264240740635,
              37.29199382712617
            ],
            [
              126.97259554103444,
              37.292000949277224
            ],
            [
              126.9726148350002,
              37.29208130470599
            ],
            [
              126.97265885093358,
              37.292074616872526
            ]
          ]
        ]
      }
    },
    {
      "type": "Feature",
      "properties": {
        "indoor": "room",
        "level": "-1",
        "ref": "",
        "name": "",
        "room_type": "",
        "_idx": 57,
        "_centroid": [
          126.9727923,
          37.2920362
        ],
        "_area_m2": 11.3
      },
      "geometry": {
        "type": "Polygon",
        "coordinates": [
          [
            [
              126.97281021739208,
              37.29205511790521
            ],
            [
              126.97280178639748,
              37.29201369504754
            ],
            [
              126.97277448078076,
              37.29201721254852
            ],
            [
              126.97278291177518,
              37.292058635403976
            ],
            [
              126.97281021739208,
              37.29205511790521
            ]
          ]
        ]
      }
    },
    {
      "type": "Feature",
      "properties": {
        "indoor": "room",
        "level": "-1",
        "ref": "",
        "name": "",
        "room_type": "",
        "_idx": 58,
        "_centroid": [
          126.9738733,
          37.2920362
        ],
        "_area_m2": 6.4
      },
      "geometry": {
        "type": "Polygon",
        "coordinates": [
          [
            [
              126.97386344734755,
              37.2920361284906
            ],
            [
              126.97386644339865,
              37.29205096170515
            ],
            [
              126.97389034885158,
              37.29204790569937
            ],
            [
              126.97388499930315,
              37.29202137129514
            ],
            [
              126.97386108416,
              37.29202442854142
            ],
            [
              126.97386344734755,
              37.2920361284906
            ]
          ]
        ]
      }
    },
    {
      "type": "Feature",
      "properties": {
        "indoor": "room",
        "level": "-1",
        "ref": "",
        "name": "",
        "room_type": "",
        "_idx": 59,
        "_centroid": [
          126.972818,
          37.2920329
        ],
        "_area_m2": 10.0
      },
      "geometry": {
        "type": "Polygon",
        "coordinates": [
          [
            [
              126.97280178639748,
              37.29201369504754
            ],
            [
              126.97281021739208,
              37.29205511790521
            ],
            [
              126.97283428216745,
              37.29205201789036
            ],
            [
              126.97282585117311,
              37.29201059503058
            ],
            [
              126.97280178639748,
              37.29201369504754
            ]
          ]
        ]
      }
    },
    {
      "type": "Feature",
      "properties": {
        "indoor": "room",
        "level": "-1",
        "ref": "",
        "name": "",
        "room_type": "",
        "_idx": 60,
        "_centroid": [
          126.9738213,
          37.2920247
        ],
        "_area_m2": 6.9
      },
      "geometry": {
        "type": "Polygon",
        "coordinates": [
          [
            [
              126.97383654305773,
              37.292010868220686
            ],
            [
              126.97380102327764,
              37.29201541446757
            ],
            [
              126.97380491833279,
              37.29203467527256
            ],
            [
              126.97382362377218,
              37.29203228112706
            ],
            [
              126.97384043811236,
              37.29203012902693
            ],
            [
              126.97383654305773,
              37.292010868220686
            ]
          ]
        ]
      }
    },
    {
      "type": "Feature",
      "properties": {
        "indoor": "room",
        "level": "-1",
        "ref": "",
        "name": "",
        "room_type": "",
        "_idx": 61,
        "_centroid": [
          126.9738475,
          37.2920113
        ],
        "_area_m2": 7.4
      },
      "geometry": {
        "type": "Polygon",
        "coordinates": [
          [
            [
              126.97383339022262,
              37.291995277644496
            ],
            [
              126.97384043811236,
              37.29203012902693
            ],
            [
              126.97386168625067,
              37.292027409436265
            ],
            [
              126.97385464666306,
              37.291992556990074
            ],
            [
              126.97383339022262,
              37.291995277644496
            ]
          ]
        ]
      }
    },
    {
      "type": "Feature",
      "properties": {
        "indoor": "room",
        "level": "-1",
        "ref": "",
        "name": "",
        "room_type": "",
        "_idx": 62,
        "_centroid": [
          126.9729101,
          37.2920077
        ],
        "_area_m2": 39.4
      },
      "geometry": {
        "type": "Polygon",
        "coordinates": [
          [
            [
              126.97290632991856,
              37.29200310832994
            ],
            [
              126.97289682799,
              37.292006084423114
            ],
            [
              126.97289208975752,
              37.2920157892857
            ],
            [
              126.9728871569443,
              37.29202589268792
            ],
            [
              126.9728892626373,
              37.292036747709055
            ],
            [
              126.97289074389496,
              37.29204438371352
            ],
            [
              126.9729565821821,
              37.29203630045847
            ],
            [
              126.97294716911667,
              37.29199267329325
            ],
            [
              126.97294009292239,
              37.29195987461665
            ],
            [
              126.97289876139665,
              37.29196547334308
            ],
            [
              126.97290578271092,
              37.291998279451214
            ],
            [
              126.97290632991856,
              37.29200310832994
            ]
          ]
        ]
      }
    },
    {
      "type": "Feature",
      "properties": {
        "indoor": "room",
        "level": "-1",
        "ref": "",
        "name": "",
        "room_type": "",
        "_idx": 63,
        "_centroid": [
          126.9738172,
          37.2920053
        ],
        "_area_m2": 5.5
      },
      "geometry": {
        "type": "Polygon",
        "coordinates": [
          [
            [
              126.97379787044285,
              37.291999823892304
            ],
            [
              126.97380102327764,
              37.29201541446757
            ],
            [
              126.97383654305773,
              37.292010868220686
            ],
            [
              126.97383339022262,
              37.291995277644496
            ],
            [
              126.97379787044285,
              37.291999823892304
            ]
          ]
        ]
      }
    },
    {
      "type": "Feature",
      "properties": {
        "indoor": "room",
        "level": "-1",
        "ref": "",
        "name": "",
        "room_type": "",
        "_idx": 64,
        "_centroid": [
          126.9726606,
          37.2920026
        ],
        "_area_m2": 4.9
      },
      "geometry": {
        "type": "Polygon",
        "coordinates": [
          [
            [
              126.9726748623784,
              37.29199273752113
            ],
            [
              126.97264312179426,
              37.291997071658
            ],
            [
              126.9726462558782,
              37.29201244500494
            ],
            [
              126.97267817389792,
              37.29200808663887
            ],
            [
              126.9726748623784,
              37.29199273752113
            ]
          ]
        ]
      }
    },
    {
      "type": "Feature",
      "properties": {
        "indoor": "room",
        "level": "-1",
        "ref": "",
        "name": "",
        "room_type": "",
        "_idx": 65,
        "_centroid": [
          126.9738228,
          37.2919793
        ],
        "_area_m2": 19.2
      },
      "geometry": {
        "type": "Polygon",
        "coordinates": [
          [
            [
              126.97379787044285,
              37.291999823892304
            ],
            [
              126.97385464666306,
              37.291992556990074
            ],
            [
              126.97384781903484,
              37.29195879477186
            ],
            [
              126.97379104281465,
              37.29196606167736
            ],
            [
              126.97379787044285,
              37.291999823892304
            ]
          ]
        ]
      }
    },
    {
      "type": "Feature",
      "properties": {
        "indoor": "room",
        "level": "-1",
        "ref": "",
        "name": "",
        "room_type": "",
        "_idx": 66,
        "_centroid": [
          126.972658,
          37.2919747
        ],
        "_area_m2": 12.4
      },
      "geometry": {
        "type": "Polygon",
        "coordinates": [
          [
            [
              126.9726748623784,
              37.29199273752113
            ],
            [
              126.97267045989872,
              37.29197233172379
            ],
            [
              126.97266640380121,
              37.29195353142683
            ],
            [
              126.97263511643688,
              37.2919578036808
            ],
            [
              126.97264312179426,
              37.291997071658
            ],
            [
              126.9726748623784,
              37.29199273752113
            ]
          ]
        ]
      }
    },
    {
      "type": "Feature",
      "properties": {
        "indoor": "room",
        "level": "-1",
        "ref": "",
        "name": "",
        "room_type": "",
        "_idx": 67,
        "_centroid": [
          126.9728532,
          37.2919579
        ],
        "_area_m2": 10.1
      },
      "geometry": {
        "type": "Polygon",
        "coordinates": [
          [
            [
              126.97282897188705,
              37.291949317530516
            ],
            [
              126.97283396091358,
              37.29197244201415
            ],
            [
              126.97287744123678,
              37.29196650482718
            ],
            [
              126.97287245221172,
              37.291943380341536
            ],
            [
              126.97282897188705,
              37.291949317530516
            ]
          ]
        ]
      }
    },
    {
      "type": "Feature",
      "properties": {
        "indoor": "room",
        "level": "-1",
        "ref": "",
        "name": "",
        "room_type": "",
        "_idx": 68,
        "_centroid": [
          126.9729167,
          37.2919507
        ],
        "_area_m2": 10.1
      },
      "geometry": {
        "type": "Polygon",
        "coordinates": [
          [
            [
              126.97293486791582,
              37.2919356563301
            ],
            [
              126.9728931931416,
              37.29194181380821
            ],
            [
              126.97289876139665,
              37.29196566630892
            ],
            [
              126.97294008348202,
              37.291959830859824
            ],
            [
              126.97293486791582,
              37.2919356563301
            ]
          ]
        ]
      }
    },
    {
      "type": "Feature",
      "properties": {
        "indoor": "room",
        "level": "-1",
        "ref": "",
        "name": "",
        "room_type": "",
        "_idx": 69,
        "_centroid": [
          126.9727863,
          37.2919495
        ],
        "_area_m2": 111.8
      },
      "geometry": {
        "type": "Polygon",
        "coordinates": [
          [
            [
              126.97287744123678,
              37.29196650482718
            ],
            [
              126.97283396091358,
              37.29197244201415
            ],
            [
              126.97281246339841,
              37.29187279949107
            ],
            [
              126.97278134315782,
              37.2918770489286
            ],
            [
              126.97279200599652,
              37.291926471962945
            ],
            [
              126.97268336392567,
              37.291941306917565
            ],
            [
              126.97269721060044,
              37.292005487200534
            ],
            [
              126.97271889120172,
              37.292002526740994
            ],
            [
              126.9728804532322,
              37.29198046563995
            ],
            [
              126.97287744123678,
              37.29196650482718
            ]
          ]
        ]
      }
    },
    {
      "type": "Feature",
      "properties": {
        "indoor": "room",
        "level": "-1",
        "ref": "",
        "name": "",
        "room_type": "",
        "_idx": 70,
        "_centroid": [
          126.972648,
          37.2919427
        ],
        "_area_m2": 8.1
      },
      "geometry": {
        "type": "Polygon",
        "coordinates": [
          [
            [
              126.9726608052051,
              37.29192758154672
            ],
            [
              126.97262981781999,
              37.29193181284033
            ],
            [
              126.97263511643688,
              37.2919578036808
            ],
            [
              126.97266640380121,
              37.29195353142683
            ],
            [
              126.9726608052051,
              37.29192758154672
            ]
          ]
        ]
      }
    },
    {
      "type": "Feature",
      "properties": {
        "indoor": "room",
        "level": "-1",
        "ref": "",
        "name": "",
        "room_type": "",
        "_idx": 71,
        "_centroid": [
          126.9728478,
          37.2919326
        ],
        "_area_m2": 12.0
      },
      "geometry": {
        "type": "Polygon",
        "coordinates": [
          [
            [
              126.97282305408875,
              37.29192188811626
            ],
            [
              126.97282897188705,
              37.291949317530516
            ],
            [
              126.97287245221172,
              37.291943380341536
            ],
            [
              126.97286653441324,
              37.291915950925144
            ],
            [
              126.97282305408875,
              37.29192188811626
            ]
          ]
        ]
      }
    },
    {
      "type": "Feature",
      "properties": {
        "indoor": "room",
        "level": "-1",
        "ref": "",
        "name": "",
        "room_type": "",
        "_idx": 72,
        "_centroid": [
          126.9726425,
          37.2919165
        ],
        "_area_m2": 8.2
      },
      "geometry": {
        "type": "Polygon",
        "coordinates": [
          [
            [
              126.97265511333548,
              37.29190119933753
            ],
            [
              126.97262443092731,
              37.29190538898832
            ],
            [
              126.97262981781999,
              37.29193181284033
            ],
            [
              126.9726608052051,
              37.29192758154672
            ],
            [
              126.97265511333548,
              37.29190119933753
            ]
          ]
        ]
      }
    },
    {
      "type": "Feature",
      "properties": {
        "indoor": "room",
        "level": "-1",
        "ref": "",
        "name": "",
        "room_type": "",
        "_idx": 73,
        "_centroid": [
          126.9726906,
          37.2919124
        ],
        "_area_m2": 16.3
      },
      "geometry": {
        "type": "Polygon",
        "coordinates": [
          [
            [
              126.97271611992862,
              37.291936834121586
            ],
            [
              126.97270545708753,
              37.29188741109584
            ],
            [
              126.9726727010869,
              37.291891883894635
            ],
            [
              126.97267539867282,
              37.291904387401964
            ],
            [
              126.97268336392567,
              37.291941306917565
            ],
            [
              126.97271611992862,
              37.291936834121586
            ]
          ]
        ]
      }
    },
    {
      "type": "Feature",
      "properties": {
        "indoor": "room",
        "level": "-1",
        "ref": "",
        "name": "",
        "room_type": "",
        "_idx": 74,
        "_centroid": [
          126.9729078,
          37.2919108
        ],
        "_area_m2": 23.8
      },
      "geometry": {
        "type": "Polygon",
        "coordinates": [
          [
            [
              126.9728931931416,
              37.29194181380821
            ],
            [
              126.97293486791582,
              37.2919356563301
            ],
            [
              126.9729228572622,
              37.29187998607456
            ],
            [
              126.9728801220123,
              37.291885821529675
            ],
            [
              126.9728931931416,
              37.29194181380821
            ]
          ]
        ]
      }
    },
    {
      "type": "Feature",
      "properties": {
        "indoor": "room",
        "level": "-1",
        "ref": "",
        "name": "",
        "room_type": "",
        "_idx": 75,
        "_centroid": [
          126.9727256,
          37.2919101
        ],
        "_area_m2": 14.7
      },
      "geometry": {
        "type": "Polygon",
        "coordinates": [
          [
            [
              126.97273511162624,
              37.29188336179831
            ],
            [
              126.97270545708753,
              37.29188741109584
            ],
            [
              126.97271611992862,
              37.291936834121586
            ],
            [
              126.97274577446706,
              37.29193278482716
            ],
            [
              126.97273511162624,
              37.29188336179831
            ]
          ]
        ]
      }
    },
    {
      "type": "Feature",
      "properties": {
        "indoor": "room",
        "level": "-1",
        "ref": "",
        "name": "",
        "room_type": "",
        "_idx": 76,
        "_centroid": [
          126.9727636,
          37.2919049
        ],
        "_area_m2": 23.0
      },
      "geometry": {
        "type": "Polygon",
        "coordinates": [
          [
            [
              126.97273511162624,
              37.29188336179831
            ],
            [
              126.97274577446706,
              37.29193278482716
            ],
            [
              126.97279200599652,
              37.291926471962945
            ],
            [
              126.97278134315782,
              37.2918770489286
            ],
            [
              126.97273511162624,
              37.29188336179831
            ]
          ]
        ]
      }
    },
    {
      "type": "Feature",
      "properties": {
        "indoor": "room",
        "level": "-1",
        "ref": "",
        "name": "",
        "room_type": "",
        "_idx": 77,
        "_centroid": [
          126.9728395,
          37.2918944
        ],
        "_area_m2": 21.5
      },
      "geometry": {
        "type": "Polygon",
        "coordinates": [
          [
            [
              126.97282305408875,
              37.29192188811626
            ],
            [
              126.97286653441324,
              37.291915950925144
            ],
            [
              126.97285594371729,
              37.29186686229688
            ],
            [
              126.97281246339841,
              37.29187279949107
            ],
            [
              126.97282305408875,
              37.29192188811626
            ]
          ]
        ]
      }
    },
    {
      "type": "Feature",
      "properties": {
        "indoor": "room",
        "level": "-1",
        "ref": "",
        "name": "",
        "room_type": "",
        "_idx": 78,
        "_centroid": [
          126.9726371,
          37.2918904
        ],
        "_area_m2": 7.9
      },
      "geometry": {
        "type": "Polygon",
        "coordinates": [
          [
            [
              126.97265511333548,
              37.29190119933753
            ],
            [
              126.97264953620167,
              37.29187534891394
            ],
            [
              126.97261915261824,
              37.29187949776191
            ],
            [
              126.97262443092731,
              37.29190538898832
            ],
            [
              126.97265511333548,
              37.29190119933753
            ]
          ]
        ]
      }
    },
    {
      "type": "Feature",
      "properties": {
        "indoor": "room",
        "level": "-1",
        "ref": "",
        "name": "",
        "room_type": "",
        "_idx": 79,
        "_centroid": [
          126.9726295,
          37.2918545
        ],
        "_area_m2": 13.9
      },
      "geometry": {
        "type": "Polygon",
        "coordinates": [
          [
            [
              126.97264953620167,
              37.29187534891394
            ],
            [
              126.97263963426094,
              37.291829452671315
            ],
            [
              126.97260978122247,
              37.2918335290765
            ],
            [
              126.97261915261824,
              37.29187949776191
            ],
            [
              126.97264953620167,
              37.29187534891394
            ]
          ]
        ]
      }
    },
    {
      "type": "Feature",
      "properties": {
        "indoor": "room",
        "level": "-1",
        "ref": "",
        "name": "",
        "room_type": "",
        "_idx": 80,
        "_centroid": [
          126.9726659,
          37.2918495
        ],
        "_area_m2": 19.7
      },
      "geometry": {
        "type": "Polygon",
        "coordinates": [
          [
            [
              126.97268233774942,
              37.291823621548275
            ],
            [
              126.97263963426094,
              37.291829452671315
            ],
            [
              126.97264953620167,
              37.29187534891394
            ],
            [
              126.97269223969091,
              37.291869517793806
            ],
            [
              126.97268233774942,
              37.291823621548275
            ]
          ]
        ]
      }
    },
    {
      "type": "Feature",
      "properties": {
        "indoor": "room",
        "level": "-1",
        "ref": "",
        "name": "",
        "room_type": "",
        "_idx": 81,
        "_centroid": [
          126.9727014,
          37.2918446
        ],
        "_area_m2": 13.0
      },
      "geometry": {
        "type": "Polygon",
        "coordinates": [
          [
            [
              126.97268233774942,
              37.291823621548275
            ],
            [
              126.97269223969091,
              37.291869517793806
            ],
            [
              126.97272049718813,
              37.2918656592599
            ],
            [
              126.97271059524729,
              37.29181976301152
            ],
            [
              126.97268233774942,
              37.291823621548275
            ]
          ]
        ]
      }
    },
    {
      "type": "Feature",
      "properties": {
        "indoor": "room",
        "level": "-1",
        "ref": "",
        "name": "",
        "room_type": "",
        "_idx": 82,
        "_centroid": [
          126.972888,
          37.2918407
        ],
        "_area_m2": 37.2
      },
      "geometry": {
        "type": "Polygon",
        "coordinates": [
          [
            [
              126.97287132858925,
              37.29184506337802
            ],
            [
              126.9728801220123,
              37.291885821529675
            ],
            [
              126.9729228572622,
              37.29187998607456
            ],
            [
              126.9729041618888,
              37.29179333165522
            ],
            [
              126.97286142664875,
              37.29179916711485
            ],
            [
              126.97287132858925,
              37.29184506337802
            ]
          ]
        ]
      }
    },
    {
      "type": "Feature",
      "properties": {
        "indoor": "room",
        "level": "-1",
        "ref": "",
        "name": "",
        "room_type": "",
        "_idx": 83,
        "_centroid": [
          126.9727419,
          37.2918391
        ],
        "_area_m2": 24.3
      },
      "geometry": {
        "type": "Polygon",
        "coordinates": [
          [
            [
              126.97271059524729,
              37.29181976301152
            ],
            [
              126.97272049718813,
              37.2918656592599
            ],
            [
              126.97277312687555,
              37.29185847272701
            ],
            [
              126.9727632249345,
              37.29181257647351
            ],
            [
              126.97271059524729,
              37.29181976301152
            ]
          ]
        ]
      }
    },
    {
      "type": "Feature",
      "properties": {
        "indoor": "room",
        "level": "-1",
        "ref": "",
        "name": "",
        "room_type": "",
        "_idx": 84,
        "_centroid": [
          126.9728173,
          37.2918288
        ],
        "_area_m2": 45.3
      },
      "geometry": {
        "type": "Polygon",
        "coordinates": [
          [
            [
              126.9727632249345,
              37.29181257647351
            ],
            [
              126.97277312687555,
              37.29185847272701
            ],
            [
              126.97287132858925,
              37.29184506337802
            ],
            [
              126.97286142664875,
              37.29179916711485
            ],
            [
              126.9727632249345,
              37.29181257647351
            ]
          ]
        ]
      }
    }
  ]
}