{
  "type": "FeatureCollection",
  "features": [
    {
      "type": "Feature",
      "properties": {
        "indoor": "corridor",
        "level": "-1"
      },
      "geometry": {
        "type": "Polygon",
        "coordinates": [
          [
            [
              126.972773241857,
              37.29227912164873
            ],
            [
              126.97278467089774,
              37.29231614617247
            ],
            [
              126.97324529450043,
              37.29225445524932
            ],
            [
              126.97333727515922,
              37.29224213635876
            ],
            [
              126.97331454124144,
              37.29222603347234
            ],
            [
              126.97329789600154,
              37.29222830635141
            ],
            [
              126.9732686895211,
              37.29223229444834
            ],
            [
              126.9732364782541,
              37.29223669284368
            ],
            [
              126.97317880823432,
              37.292244567589826
            ],
            [
              126.97303476953955,
              37.29226423991073
            ],
            [
              126.97298847153976,
              37.29227056313596
            ],
            [
              126.97294286410866,
              37.29227679204451
            ],
            [
              126.97293946973791,
              37.29226114807675
            ],
            [
              126.97291340897219,
              37.292264715231006
            ],
            [
              126.972880526977,
              37.29226920521165
            ],
            [
              126.97287963405768,
              37.292265066486
            ],
            [
              126.972773241857,
              37.29227912164873
            ]
          ]
        ]
      }
    },
    {
      "type": "Feature",
      "properties": {
        "indoor": "corridor",
        "level": "-1"
      },
      "geometry": {
        "type": "Polygon",
        "coordinates": [
          [
            [
              126.97335496239295,
              37.292324766879965
            ],
            [
              126.97337423003512,
              37.29232230078663
            ],
            [
              126.97335919212397,
              37.29224793950815
            ],
            [
              126.9733509483974,
              37.29220717490264
            ],
            [
              126.97334498417835,
              37.29217768227582
            ],
            [
              126.97340235095228,
              37.29217033980497
            ],
            [
              126.97343985590452,
              37.29214319609905
            ],
            [
              126.97345890222168,
              37.29214075832748
            ],
            [
              126.97345520910181,
              37.2921224961057
            ],
            [
              126.9735722551302,
              37.292107515173576
            ],
            [
              126.97355671886567,
              37.29203068935822
            ],
            [
              126.97320227742523,
              37.29207817005118
            ],
            [
              126.9732181687368,
              37.292151827228494
            ],
            [
              126.97327958649154,
              37.29214344072586
            ],
            [
              126.97328382108255,
              37.292163068300184
            ],
            [
              126.97330046632248,
              37.29216079541915
            ],
            [
              126.97331454124144,
              37.29222603347234
            ],
            [
              126.97333727515922,
              37.29224213635876
            ],
            [
              126.97335496239295,
              37.292324766879965
            ]
          ]
        ]
      }
    },
    {
      "type": "Feature",
      "properties": {
        "indoor": "corridor",
        "level": "-1"
      },
      "geometry": {
        "type": "Polygon",
        "coordinates": [
          [
            [
              126.9734153163264,
              37.29223445262256
            ],
            [
              126.97344610266386,
              37.292230512229985
            ],
            [
              126.97348028933929,
              37.292226136622084
            ],
            [
              126.97350455159628,
              37.292223031256555
            ],
            [
              126.97353781027961,
              37.29221877442386
            ],
            [
              126.97358817834103,
              37.2922123277342
            ],
            [
              126.97365796939073,
              37.29220339506142
            ],
            [
              126.97371634166511,
              37.29219592389785
            ],
            [
              126.9737463714313,
              37.292192080337834
            ],
            [
              126.97378000011197,
              37.29218777614673
            ],
            [
              126.9738324849728,
              37.29218105852193
            ],
            [
              126.97389410249359,
              37.29217317199202
            ],
            [
              126.9738854493131,
              37.29213494615204
            ],
            [
              126.97385173841208,
              37.29213926086948
            ],
            [
              126.97382740078672,
              37.29214237588494
            ],
            [
              126.97383041216472,
              37.292157266936705
            ],
            [
              126.97377431811432,
              37.29216444651094
            ],
            [
              126.9735885758489,
              37.292188219978875
            ],
            [
              126.97347152982051,
              37.29220320089492
            ],
            [
              126.97345248350334,
              37.29220563866448
            ],
            [
              126.97344552462728,
              37.29217122753069
            ],
            [
              126.97343985590452,
              37.29214319609905
            ],
            [
              126.97340235095228,
              37.29217033980497
            ],
            [
              126.97340831517292,
              37.292199832434385
            ],
            [
              126.9733509483974,
              37.29220717490264
            ],
            [
              126.97335919212397,
              37.29224793950815
            ],
            [
              126.97341655889792,
              37.292240597044156
            ],
            [
              126.9734153163264,
              37.29223445262256
            ]
          ]
        ]
      }
    },
    {
      "type": "Feature",
      "properties": {
        "indoor": "corridor",
        "level": "-1"
      },
      "geometry": {
        "type": "Polygon",
        "coordinates": [
          [
            [
              126.97289074389496,
              37.29204438371352
            ],
            [
              126.97289682799,
              37.29200608442311
            ],
            [
              126.97290632991856,
              37.29200310832994
            ],
            [
              126.9728804532322,
              37.291980465639945
            ],
            [
              126.97269721060044,
              37.292005487200534
            ],
            [
              126.97267817389792,
              37.292008086638866
            ],
            [
              126.97264625587819,
              37.29201244500494
            ],
            [
              126.9726504199392,
              37.29203319402519
            ],
            [
              126.97270130085361,
              37.292026639563005
            ],
            [
              126.97271802132086,
              37.29202448563793
            ],
            [
              126.97274571208452,
              37.292020918522766
            ],
            [
              126.97277448078076,
              37.29201721254852
            ],
            [
              126.97280178639748,
              37.29201369504754
            ],
            [
              126.97282585117308,
              37.292010595030575
            ],
            [
              126.97283428216745,
              37.292052017890356
            ],
            [
              126.97283648527736,
              37.292051045281134
            ],
            [
              126.97289074389496,
              37.29204438371352
            ]
          ]
        ]
      }
    },
    {
      "type": "Feature",
      "properties": {
        "indoor": "corridor",
        "level": "-1"
      },
      "geometry": {
        "type": "Polygon",
        "coordinates": [
          [
            [
              126.97290632991856,
              37.29200310832994
            ],
            [
              126.97289876139665,
              37.29196566630892
            ],
            [
              126.9728931931416,
              37.29194181380821
            ],
            [
              126.97288012201228,
              37.291885821529675
            ],
            [
              126.97287132858925,
              37.29184506337802
            ],
            [
              126.97285594371729,
              37.29186686229688
            ],
            [
              126.97286653441323,
              37.291915950925144
            ],
            [
              126.97287245221172,
              37.29194338034154
            ],
            [
              126.97287744123673,
              37.29196650482718
            ],
            [
              126.9728804532322,
              37.29198046563994
            ],
            [
              126.97290632991856,
              37.29200310832994
            ],
            [
              126.9728804532322,
              37.29198046563994
            ],
            [
              126.97290632991856,
              37.29200310832994
            ]
          ]
        ]
      }
    },
    {
      "type": "Feature",
      "properties": {
        "indoor": "corridor",
        "level": "-1"
      },
      "geometry": {
        "type": "Polygon",
        "coordinates": [
          [
            [
              126.97287132858925,
              37.29184506337802
            ],
            [
              126.97277312687554,
              37.291858472727
            ],
            [
              126.97272049718813,
              37.2918656592599
            ],
            [
              126.97269223969093,
              37.291869517793806
            ],
            [
              126.97264953620167,
              37.29187534891394
            ],
            [
              126.9726727010869,
              37.291891883894635
            ],
            [
              126.97270545708753,
              37.29188741109584
            ],
            [
              126.97273511162624,
              37.29188336179831
            ],
            [
              126.9727851903827,
              37.291876523593935
            ],
            [
              126.97281246339841,
              37.29187279949107
            ],
            [
              126.97285594371729,
              37.29186686229688
            ],
            [
              126.97287132858925,
              37.29184506337802
            ]
          ]
        ]
      }
    },
    {
      "type": "Feature",
      "properties": {
        "indoor": "corridor",
        "level": "-1"
      },
      "geometry": {
        "type": "Polygon",
        "coordinates": [
          [
            [
              126.97264953620167,
              37.29187534891394
            ],
            [
              126.97265511333548,
              37.29190119933753
            ],
            [
              126.9726608052051,
              37.29192758154673
            ],
            [
              126.97266640380118,
              37.29195353142683
            ],
            [
              126.9726748623784,
              37.29199273752113
            ],
            [
              126.97267817389792,
              37.29200808663886
            ],
            [
              126.97269721060044,
              37.292005487200534
            ],
            [
              126.97268336392567,
              37.291941306917565
            ],
            [
              126.9726727010869,
              37.291891883894635
            ],
            [
              126.97264953620167,
              37.29187534891394
            ]
          ]
        ]
      }
    }
  ]
}