{
  "type": "FeatureCollection",
  "features": [
    {
      "type": "Feature",
      "properties": {
        "building": "university",
        "name": "의학관",
        "loc_ref": "MED"
      },
      "geometry": {
        "type": "Polygon",
        "coordinates": [
          [
            [
              126.97274065004225,
              37.292476508020854
            ],
            [
              126.97321155206075,
              37.29241623668979
            ],
            [
              126.97319713931215,
              37.29234496688099
            ],
            [
              126.97360445882367,
              37.29229283346521
            ],
            [
              126.97361845819417,
              37.29236205920362
            ],
            [
              126.97392438234672,
              37.29232290353935
            ],
            [
              126.97389410249359,
              37.29217317199202
            ],
            [
              126.97401548686442,
              37.29215763579844
            ],
            [
              126.97396186382623,
              37.291892473208456
            ],
            [
              126.97393492251176,
              37.291895921485875
            ],
            [
              126.97392928476951,
              37.29186804314803
            ],
            [
              126.97388596693904,
              37.291863156338266
            ],
            [
              126.9738443730699,
              37.291867883537996
            ],
            [
              126.97380203645308,
              37.29188206513536
            ],
            [
              126.9738057501914,
              37.2919110192217
            ],
            [
              126.97377826852787,
              37.2919175191171
            ],
            [
              126.97378049677083,
              37.29194115509566
            ],
            [
              126.97373016328265,
              37.29196845963359
            ],
            [
              126.97373366554596,
              37.29200560969154
            ],
            [
              126.9729723873132,
              37.29210956122786
            ],
            [
              126.9729041618888,
              37.29179333165522
            ],
            [
              126.97260978122247,
              37.291833529076506
            ],
            [
              126.97274065004225,
              37.292476508020854
            ]
          ]
        ]
      }
    }
  ]
}