{
  "type": "FeatureCollection",
  "features": [
    {
      "type": "Feature",
      "properties": {
        "indoor": "room",
        "level": [
          2
        ],
        "ref": "712121",
        "name": "의학실습실1",
        "room_type": "classroom",
        "_idx": 1,
        "_centroid": [
          126.972977,
          37.292408
        ],
        "_area_m2": 99.2
      },
      "geometry": {
        "type": "Polygon",
        "coordinates": [
          [
            [
              126.97291811418883,
              37.29245379417118
            ],
            [
              126.97290305032382,
              37.292379304682996
            ],
            [
              126.9730358840681,
              37.29236230311088
            ],
            [
              126.97305094793312,
              37.2924367926159
            ],
            [
              126.97291811418883,
              37.29245379417118
            ]
          ]
        ]
      }
    },
    {
      "type": "Feature",
      "properties": {
        "indoor": "room",
        "level": [
          2
        ],
        "ref": "712119",
        "name": "의학실습실2",
        "room_type": "classroom",
        "_idx": 2,
        "_centroid": [
          126.9731397,
          37.2923889
        ],
        "_area_m2": 92.3
      },
      "geometry": {
        "type": "Polygon",
        "coordinates": [
          [
            [
              126.9730822766895,
              37.29243278280907
            ],
            [
              126.97321155206075,
              37.29241623668979
            ],
            [
              126.97319713931215,
              37.29234496688098
            ],
            [
              126.97306786394088,
              37.29236151301594
            ],
            [
              126.9730822766895,
              37.29243278280907
            ]
          ]
        ]
      }
    },
    {
      "type": "Feature",
      "properties": {
        "indoor": "room",
        "level": [
          2
        ],
        "ref": "712120",
        "name": "바이러스질병연구실",
        "room_type": "lab",
        "_idx": 3,
        "_centroid": [
          126.972962,
          37.2923341
        ],
        "_area_m2": 97.7
      },
      "geometry": {
        "type": "Polygon",
        "coordinates": [
          [
            [
              126.9730358840681,
              37.29236230311088
            ],
            [
              126.97290305032382,
              37.292379304682996
            ],
            [
              126.97288821390859,
              37.29230593984202
            ],
            [
              126.97302104765288,
              37.292288938253314
            ],
            [
              126.9730358840681,
              37.29236230311088
            ]
          ]
        ]
      }
    },
    {
      "type": "Feature",
      "properties": {
        "indoor": "room",
        "level": [
          2
        ],
        "ref": "712118",
        "name": "초저온냉동고보관실",
        "room_type": "facility",
        "_idx": 4,
        "_centroid": [
          126.9731283,
          37.2923141
        ],
        "_area_m2": 105.7
      },
      "geometry": {
        "type": "Polygon",
        "coordinates": [
          [
            [
              126.97306786394088,
              37.29236151301593
            ],
            [
              126.97305223788169,
              37.29228424343064
            ],
            [
              126.97318872175295,
              37.29226677465169
            ],
            [
              126.97320434781214,
              37.292344044254925
            ],
            [
              126.97306786394088,
              37.29236151301593
            ]
          ]
        ]
      }
    },
    {
      "type": "Feature",
      "properties": {
        "indoor": "room",
        "level": [
          2
        ],
        "ref": "712114-1",
        "name": "PBL1",
        "room_type": "",
        "_idx": 5,
        "_centroid": [
          126.9737664,
          37.2923111
        ],
        "_area_m2": 37.6
      },
      "geometry": {
        "type": "Polygon",
        "coordinates": [
          [
            [
              126.9737900976925,
              37.29227608600067
            ],
            [
              126.97373026076544,
              37.292283744620796
            ],
            [
              126.9737423617469,
              37.292346200615405
            ],
            [
              126.97380271467631,
              37.292338475957926
            ],
            [
              126.9737900976925,
              37.29227608600067
            ]
          ]
        ]
      }
    },
    {
      "type": "Feature",
      "properties": {
        "indoor": "room",
        "level": [
          2
        ],
        "ref": "712114-5",
        "name": "PBL5",
        "room_type": "",
        "_idx": 6,
        "_centroid": [
          126.9738799,
          37.2923085
        ],
        "_area_m2": 30.5
      },
      "geometry": {
        "type": "Polygon",
        "coordinates": [
          [
            [
              126.97384774628004,
              37.292286430177455
            ],
            [
              126.97385534609872,
              37.292324010666775
            ],
            [
              126.97385686966639,
              37.29233154458354
            ],
            [
              126.97392438234672,
              37.29232290353933
            ],
            [
              126.97391525896654,
              37.29227778912592
            ],
            [
              126.97384774628004,
              37.292286430177455
            ]
          ]
        ]
      }
    },
    {
      "type": "Feature",
      "properties": {
        "indoor": "room",
        "level": [
          2
        ],
        "ref": "712117",
        "name": "임상간호대학원장실",
        "room_type": "office",
        "_idx": 7,
        "_centroid": [
          126.9732095,
          37.2923037
        ],
        "_area_m2": 20.1
      },
      "geometry": {
        "type": "Polygon",
        "coordinates": [
          [
            [
              126.97320434781214,
              37.292344044254925
            ],
            [
              126.97318872175295,
              37.29226677465168
            ],
            [
              126.97321468904742,
              37.29226345105758
            ],
            [
              126.97323031510662,
              37.292340720664235
            ],
            [
              126.97320434781214,
              37.292344044254925
            ]
          ]
        ]
      }
    },
    {
      "type": "Feature",
      "properties": {
        "indoor": "room",
        "level": [
          2
        ],
        "ref": "712116",
        "name": "김균환교수실",
        "room_type": "office",
        "_idx": 8,
        "_centroid": [
          126.9732345,
          37.2923006
        ],
        "_area_m2": 18.5
      },
      "geometry": {
        "type": "Polygon",
        "coordinates": [
          [
            [
              126.97323031510659,
              37.292340720664235
            ],
            [
              126.9732146890474,
              37.29226345105758
            ],
            [
              126.97323859796076,
              37.29226039091872
            ],
            [
              126.97325422401995,
              37.29233766052852
            ],
            [
              126.97323031510659,
              37.292340720664235
            ]
          ]
        ]
      }
    },
    {
      "type": "Feature",
      "properties": {
        "indoor": "room",
        "level": [
          2
        ],
        "ref": "",
        "name": "",
        "room_type": "restroom",
        "_idx": 9,
        "_centroid": [
          126.9732773,
          37.2922951
        ],
        "_area_m2": 47.8
      },
      "geometry": {
        "type": "Polygon",
        "coordinates": [
          [
            [
              126.97325422401995,
              37.29233766052851
            ],
            [
              126.97331598166173,
              37.29232975607981
            ],
            [
              126.97330035560253,
              37.292252486461905
            ],
            [
              126.97323859796076,
              37.29226039091872
            ],
            [
              126.97325422401995,
              37.29233766052851
            ]
          ]
        ]
      }
    },
    {
      "type": "Feature",
      "properties": {
        "indoor": "room",
        "level": [
          2
        ],
        "ref": "",
        "name": "",
        "room_type": "reserved",
        "_idx": 10,
        "_centroid": [
          126.9733374,
          37.2922881
        ],
        "_area_m2": 44.3
      },
      "geometry": {
        "type": "Polygon",
        "coordinates": [
          [
            [
              126.9733159816617,
              37.292329756079795
            ],
            [
              126.9733003556025,
              37.292252486461905
            ],
            [
              126.97335919212397,
              37.29224793950815
            ],
            [
              126.97337423003512,
              37.29232230078663
            ],
            [
              126.9733159816617,
              37.292329756079795
            ]
          ]
        ]
      }
    },
    {
      "type": "Feature",
      "properties": {
        "indoor": "room",
        "level": [
          2
        ],
        "ref": "712115",
        "name": "의학교육연구소",
        "room_type": "classroom",
        "_idx": 11,
        "_centroid": [
          126.973627,
          37.2922868
        ],
        "_area_m2": 227.5
      },
      "geometry": {
        "type": "Polygon",
        "coordinates": [
          [
            [
              126.97360445882367,
              37.29229283346521
            ],
            [
              126.97354956783684,
              37.29229985904444
            ],
            [
              126.9735336917298,
              37.292221352928145
            ],
            [
              126.97371370807973,
              37.29219831233982
            ],
            [
              126.9737423617469,
              37.292346200615405
            ],
            [
              126.97361845819417,
              37.29236205920362
            ],
            [
              126.97360445882367,
              37.29229283346521
            ]
          ]
        ]
      }
    },
    {
      "type": "Feature",
      "properties": {
        "indoor": "room",
        "level": [
          2
        ],
        "ref": "",
        "name": "",
        "room_type": "stairs",
        "_idx": 12,
        "_centroid": [
          126.9733954,
          37.2922814
        ],
        "_area_m2": 42.7
      },
      "geometry": {
        "type": "Polygon",
        "coordinates": [
          [
            [
              126.97343159680905,
              37.292314958329904
            ],
            [
              126.97341655889792,
              37.29224059704416
            ],
            [
              126.973359192124,
              37.29224793950815
            ],
            [
              126.97337423003512,
              37.29232230078663
            ],
            [
              126.97343159680905,
              37.292314958329904
            ]
          ]
        ]
      }
    },
    {
      "type": "Feature",
      "properties": {
        "indoor": "room",
        "level": [
          2
        ],
        "ref": "",
        "name": "",
        "room_type": "storage",
        "_idx": 13,
        "_centroid": [
          126.9738798,
          37.2922735
        ],
        "_area_m2": 11.7
      },
      "geometry": {
        "type": "Polygon",
        "coordinates": [
          [
            [
              126.97384425388958,
              37.292269160582414
            ],
            [
              126.97384774628004,
              37.292286430177455
            ],
            [
              126.97391525896654,
              37.29227778912592
            ],
            [
              126.97391176657713,
              37.29226051952883
            ],
            [
              126.97384425388958,
              37.292269160582414
            ]
          ]
        ]
      }
    },
    {
      "type": "Feature",
      "properties": {
        "indoor": "room",
        "level": [
          2
        ],
        "ref": "",
        "name": "",
        "room_type": "reserved",
        "_idx": 14,
        "_centroid": [
          126.9734525,
          37.2922731
        ],
        "_area_m2": 43.9
      },
      "geometry": {
        "type": "Polygon",
        "coordinates": [
          [
            [
              126.97343159680905,
              37.292314958329904
            ],
            [
              126.97341655889792,
              37.29224059704414
            ],
            [
              126.97347305093298,
              37.29222911444146
            ],
            [
              126.97348892704,
              37.29230762054965
            ],
            [
              126.97343159680905,
              37.292314958329904
            ]
          ]
        ]
      }
    },
    {
      "type": "Feature",
      "properties": {
        "indoor": "room",
        "level": [
          2
        ],
        "ref": "",
        "name": "",
        "room_type": "restroom",
        "_idx": 15,
        "_centroid": [
          126.9735113,
          37.2922645
        ],
        "_area_m2": 47.7
      },
      "geometry": {
        "type": "Polygon",
        "coordinates": [
          [
            [
              126.97354956783684,
              37.29229985904444
            ],
            [
              126.9735336917298,
              37.292221352928145
            ],
            [
              126.97347305093298,
              37.29222911444146
            ],
            [
              126.97348892704,
              37.29230762054966
            ],
            [
              126.97354956783684,
              37.29229985904444
            ]
          ]
        ]
      }
    },
    {
      "type": "Feature",
      "properties": {
        "indoor": "room",
        "level": [
          2
        ],
        "ref": "712114",
        "name": "PBL실",
        "room_type": "classroom",
        "_idx": 16,
        "_centroid": [
          126.9738149,
          37.2922611
        ],
        "_area_m2": 80.2
      },
      "geometry": {
        "type": "Polygon",
        "coordinates": [
          [
            [
              126.97377283919464,
              37.29219074405033
            ],
            [
              126.97380271467631,
              37.292338475957926
            ],
            [
              126.97385686966639,
              37.29233154458354
            ],
            [
              126.97382699418773,
              37.29218381266186
            ],
            [
              126.97377283919464,
              37.29219074405033
            ]
          ]
        ]
      }
    },
    {
      "type": "Feature",
      "properties": {
        "indoor": "room",
        "level": [
          2
        ],
        "ref": "712114-2",
        "name": "PBL2",
        "room_type": "",
        "_idx": 17,
        "_centroid": [
          126.9737557,
          37.2922573
        ],
        "_area_m2": 27
      },
      "geometry": {
        "type": "Polygon",
        "coordinates": [
          [
            [
              126.9737900976925,
              37.29227608600067
            ],
            [
              126.97378096203548,
              37.29223091088828
            ],
            [
              126.97372149872722,
              37.29223852169295
            ],
            [
              126.97373026076544,
              37.292283744620796
            ],
            [
              126.9737900976925,
              37.29227608600067
            ]
          ]
        ]
      }
    },
    {
      "type": "Feature",
      "properties": {
        "indoor": "room",
        "level": [
          2
        ],
        "ref": "",
        "name": "",
        "room_type": "elevator",
        "_idx": 18,
        "_centroid": [
          126.9729298,
          37.292247
        ],
        "_area_m2": 11.9
      },
      "geometry": {
        "type": "Polygon",
        "coordinates": [
          [
            [
              126.97294613134277,
              37.29222919622437
            ],
            [
              126.97290690154765,
              37.29223455298929
            ],
            [
              126.97291340897219,
              37.292264715231006
            ],
            [
              126.9729526387653,
              37.29225935846933
            ],
            [
              126.97294613134277,
              37.29222919622437
            ]
          ]
        ]
      }
    },
    {
      "type": "Feature",
      "properties": {
        "indoor": "room",
        "level": [
          2
        ],
        "ref": "712114-7",
        "name": "PBL7",
        "room_type": "",
        "_idx": 19,
        "_centroid": [
          126.9738734,
          37.2922422
        ],
        "_area_m2": 30.7
      },
      "geometry": {
        "type": "Polygon",
        "coordinates": [
          [
            [
              126.97390260281027,
              37.292215205406364
            ],
            [
              126.97383509012376,
              37.29222384646535
            ],
            [
              126.97384425388958,
              37.292269160582414
            ],
            [
              126.97391176657713,
              37.29226051952883
            ],
            [
              126.97390260281027,
              37.292215205406364
            ]
          ]
        ]
      }
    },
    {
      "type": "Feature",
      "properties": {
        "indoor": "room",
        "level": [
          2
        ],
        "ref": "",
        "name": "",
        "room_type": "stairs",
        "_idx": 20,
        "_centroid": [
          126.9728896,
          37.2922327
        ],
        "_area_m2": 22.7
      },
      "geometry": {
        "type": "Polygon",
        "coordinates": [
          [
            [
              126.97289861972916,
              37.2921961663246
            ],
            [
              126.97286573773525,
              37.292200656309014
            ],
            [
              126.972880526977,
              37.29226920521165
            ],
            [
              126.97291340897219,
              37.292264715231006
            ],
            [
              126.97289861972916,
              37.2921961663246
            ]
          ]
        ]
      }
    },
    {
      "type": "Feature",
      "properties": {
        "indoor": "room",
        "level": [
          2
        ],
        "ref": "712114-3",
        "name": "PBL3",
        "room_type": "",
        "_idx": 21,
        "_centroid": [
          126.9737473,
          37.2922146
        ],
        "_area_m2": 23.9
      },
      "geometry": {
        "type": "Polygon",
        "coordinates": [
          [
            [
              126.97378096203548,
              37.29223091088828
            ],
            [
              126.97377283919464,
              37.29219074405033
            ],
            [
              126.97371370807973,
              37.29219831233982
            ],
            [
              126.97372149872722,
              37.29223852169295
            ],
            [
              126.97378096203548,
              37.29223091088828
            ]
          ]
        ]
      }
    },
    {
      "type": "Feature",
      "properties": {
        "indoor": "room",
        "level": [
          2
        ],
        "ref": "",
        "name": "",
        "room_type": "reserved",
        "_idx": 22,
        "_centroid": [
          126.9729224,
          37.2922127
        ],
        "_area_m2": 15.1
      },
      "geometry": {
        "type": "Polygon",
        "coordinates": [
          [
            [
              126.97289861972916,
              37.2921961663246
            ],
            [
              126.97290690154765,
              37.29223455298929
            ],
            [
              126.97294613134277,
              37.29222919622437
            ],
            [
              126.97293784952356,
              37.29219080955772
            ],
            [
              126.97289861972916,
              37.2921961663246
            ]
          ]
        ]
      }
    },
    {
      "type": "Feature",
      "properties": {
        "indoor": "room",
        "level": [
          2
        ],
        "ref": "712110",
        "name": "세미나실",
        "room_type": "classroom",
        "_idx": 23,
        "_centroid": [
          126.9732324,
          37.2922061
        ],
        "_area_m2": 73.1
      },
      "geometry": {
        "type": "Polygon",
        "coordinates": [
          [
            [
              126.97316575723349,
              37.29218409298743
            ],
            [
              126.97317880456905,
              37.292244568090425
            ],
            [
              126.97329897471533,
              37.29222815905732
            ],
            [
              126.97328592737975,
              37.292167683941145
            ],
            [
              126.97316575723349,
              37.29218409298743
            ]
          ]
        ]
      }
    },
    {
      "type": "Feature",
      "properties": {
        "indoor": "room",
        "level": [
          2
        ],
        "ref": "712114-8",
        "name": "PBL8",
        "room_type": "",
        "_idx": 24,
        "_centroid": [
          126.9738648,
          37.2921995
        ],
        "_area_m2": 27.1
      },
      "geometry": {
        "type": "Polygon",
        "coordinates": [
          [
            [
              126.97383509012376,
              37.29222384646535
            ],
            [
              126.97390260281027,
              37.292215205406364
            ],
            [
              126.97389450686921,
              37.29217517160043
            ],
            [
              126.97382699418773,
              37.29218381266186
            ],
            [
              126.97383509012376,
              37.29222384646535
            ]
          ]
        ]
      }
    },
    {
      "type": "Feature",
      "properties": {
        "indoor": "room",
        "level": [
          2
        ],
        "ref": "",
        "name": "",
        "room_type": "elevator",
        "_idx": 25,
        "_centroid": [
          126.9733766,
          37.2921888
        ],
        "_area_m2": 17
      },
      "geometry": {
        "type": "Polygon",
        "coordinates": [
          [
            [
              126.97334498417835,
              37.29217768227582
            ],
            [
              126.9733509483974,
              37.29220717490264
            ],
            [
              126.97340831517292,
              37.292199832434385
            ],
            [
              126.97340235095228,
              37.29217033980497
            ],
            [
              126.97334498417835,
              37.29217768227582
            ]
          ]
        ]
      }
    },
    {
      "type": "Feature",
      "properties": {
        "indoor": "room",
        "level": [
          2
        ],
        "ref": "712112-1",
        "name": "",
        "room_type": "",
        "_idx": 26,
        "_centroid": [
          126.972949,
          37.2921812
        ],
        "_area_m2": 72.1
      },
      "geometry": {
        "type": "Polygon",
        "coordinates": [
          [
            [
              126.9729723873132,
              37.29210956122786
            ],
            [
              126.97299926669604,
              37.29223414866582
            ],
            [
              126.97294868755381,
              37.29224106333677
            ],
            [
              126.97293783309424,
              37.29219081180375
            ],
            [
              126.97292582866011,
              37.2921924529301
            ],
            [
              126.97290996082322,
              37.292118991532504
            ],
            [
              126.9729723873132,
              37.29210956122786
            ]
          ]
        ]
      }
    },
    {
      "type": "Feature",
      "properties": {
        "indoor": "room",
        "level": [
          2
        ],
        "ref": "712111",
        "name": "기초의학연구실",
        "room_type": "lab",
        "_idx": 27,
        "_centroid": [
          126.9731026,
          37.2921734
        ],
        "_area_m2": 188.6
      },
      "geometry": {
        "type": "Polygon",
        "coordinates": [
          [
            [
              126.97314460374126,
              37.29208604531307
            ],
            [
              126.97302630539541,
              37.29210219878972
            ],
            [
              126.97306050674658,
              37.29226072392206
            ],
            [
              126.97317880509245,
              37.29224457047944
            ],
            [
              126.97314460374126,
              37.29208604531307
            ]
          ]
        ]
      }
    },
    {
      "type": "Feature",
      "properties": {
        "indoor": "room",
        "level": [
          2
        ],
        "ref": "712107",
        "name": "운영실",
        "room_type": "office",
        "_idx": 28,
        "_centroid": [
          126.9734959,
          37.2921706
        ],
        "_area_m2": 37.3
      },
      "geometry": {
        "type": "Polygon",
        "coordinates": [
          [
            [
              126.9734595031408,
              37.29214329393318
            ],
            [
              126.9734730144765,
              37.29220592508989
            ],
            [
              126.9735322906287,
              37.29219783171849
            ],
            [
              126.97351877063876,
              37.29213516043881
            ],
            [
              126.9734595031408,
              37.29214329393318
            ]
          ]
        ]
      }
    },
    {
      "type": "Feature",
      "properties": {
        "indoor": "room",
        "level": [
          2
        ],
        "ref": "712112",
        "name": "실습지원실",
        "room_type": "office",
        "_idx": 29,
        "_centroid": [
          126.9730128,
          37.2921682
        ],
        "_area_m2": 67.5
      },
      "geometry": {
        "type": "Polygon",
        "coordinates": [
          [
            [
              126.97302630539541,
              37.29210219878972
            ],
            [
              126.9729723873132,
              37.29210956122786
            ],
            [
              126.97299926669604,
              37.29223414866582
            ],
            [
              126.97305318477824,
              37.29222678623988
            ],
            [
              126.97302630539541,
              37.29210219878972
            ]
          ]
        ]
      }
    },
    {
      "type": "Feature",
      "properties": {
        "indoor": "room",
        "level": [
          2
        ],
        "ref": "712105",
        "name": "교수회의실",
        "room_type": "office",
        "_idx": 30,
        "_centroid": [
          126.9735977,
          37.2921456
        ],
        "_area_m2": 123.9
      },
      "geometry": {
        "type": "Polygon",
        "coordinates": [
          [
            [
              126.97366318951696,
              37.29209402745562
            ],
            [
              126.97368104297719,
              37.292176802651696
            ],
            [
              126.97353213942057,
              37.29219712945949
            ],
            [
              126.9735142859603,
              37.29211435428578
            ],
            [
              126.97366318951696,
              37.29209402745562
            ]
          ]
        ]
      }
    },
    {
      "type": "Feature",
      "properties": {
        "indoor": "room",
        "level": [
          2
        ],
        "ref": "712104",
        "name": "",
        "room_type": "",
        "_idx": 31,
        "_centroid": [
          126.9737331,
          37.2921413
        ],
        "_area_m2": 64.5
      },
      "geometry": {
        "type": "Polygon",
        "coordinates": [
          [
            [
              126.97366913493927,
              37.29212158484309
            ],
            [
              126.97378523118392,
              37.292105738776186
            ],
            [
              126.97379713922187,
              37.292160956596426
            ],
            [
              126.97368104297722,
              37.292176802651696
            ],
            [
              126.97366913493927,
              37.29212158484309
            ]
          ]
        ]
      }
    },
    {
      "type": "Feature",
      "properties": {
        "indoor": "room",
        "level": [
          2
        ],
        "ref": "",
        "name": "탕비실",
        "room_type": "lounge",
        "_idx": 32,
        "_centroid": [
          126.9738083,
          37.2921356
        ],
        "_area_m2": 11.5
      },
      "geometry": {
        "type": "Polygon",
        "coordinates": [
          [
            [
              126.97382567367578,
              37.292142596940906
            ],
            [
              126.9738108822137,
              37.292144490126084
            ],
            [
              126.97380256779257,
              37.292103375885766
            ],
            [
              126.97378523118392,
              37.292105738776186
            ],
            [
              126.97379712261463,
              37.29216095886316
            ],
            [
              126.97382837848518,
              37.29215669885212
            ],
            [
              126.97382567367578,
              37.292142596940906
            ]
          ]
        ]
      }
    },
    {
      "type": "Feature",
      "properties": {
        "indoor": "room",
        "level": [
          2
        ],
        "ref": "712109",
        "name": "이사장실",
        "room_type": "office",
        "_idx": 33,
        "_centroid": [
          126.9731881,
          37.2921306
        ],
        "_area_m2": 65
      },
      "geometry": {
        "type": "Polygon",
        "coordinates": [
          [
            [
              126.97321048356844,
              37.292077049513594
            ],
            [
              126.97314460374126,
              37.29208604531308
            ],
            [
              126.97316575723349,
              37.29218409298743
            ],
            [
              126.97323163706066,
              37.29217509719968
            ],
            [
              126.97321048356844,
              37.292077049513594
            ]
          ]
        ]
      }
    },
    {
      "type": "Feature",
      "properties": {
        "indoor": "room",
        "level": [
          2
        ],
        "ref": "712108",
        "name": "총장실",
        "room_type": "office",
        "_idx": 34,
        "_centroid": [
          126.9732458,
          37.2921138
        ],
        "_area_m2": 43.2
      },
      "geometry": {
        "type": "Polygon",
        "coordinates": [
          [
            [
              126.97321048356844,
              37.2920770495136
            ],
            [
              126.97326369516999,
              37.29206978354206
            ],
            [
              126.97328112659532,
              37.29215057924539
            ],
            [
              126.97322791499377,
              37.29215784520911
            ],
            [
              126.97321048356844,
              37.2920770495136
            ]
          ]
        ]
      }
    },
    {
      "type": "Feature",
      "properties": {
        "indoor": "room",
        "level": [
          2
        ],
        "ref": "",
        "name": "",
        "room_type": "stairs",
        "_idx": 35,
        "_centroid": [
          126.9738621,
          37.2921023
        ],
        "_area_m2": 24.1
      },
      "geometry": {
        "type": "Polygon",
        "coordinates": [
          [
            [
              126.97383769976958,
              37.29206984073412
            ],
            [
              126.97385173841207,
              37.29213926086948
            ],
            [
              126.9738854493131,
              37.29213494615204
            ],
            [
              126.97387333831401,
              37.29206527928986
            ],
            [
              126.97383769976958,
              37.29206984073412
            ]
          ]
        ]
      }
    },
    {
      "type": "Feature",
      "properties": {
        "indoor": "room",
        "level": [
          2
        ],
        "ref": "",
        "name": "",
        "room_type": "reserved",
        "_idx": 36,
        "_centroid": [
          126.973821,
          37.2921005
        ],
        "_area_m2": 28.4
      },
      "geometry": {
        "type": "Polygon",
        "coordinates": [
          [
            [
              126.97385173841207,
              37.29213926086948
            ],
            [
              126.97383769976958,
              37.29206984073412
            ],
            [
              126.9738077045466,
              37.29207367987888
            ],
            [
              126.97379684357227,
              37.292075069995256
            ],
            [
              126.9738108822137,
              37.292144490126084
            ],
            [
              126.97385173841207,
              37.29213926086948
            ]
          ]
        ]
      }
    },
    {
      "type": "Feature",
      "properties": {
        "indoor": "room",
        "level": [
          2
        ],
        "ref": "712106",
        "name": "의무부총장실",
        "room_type": "office",
        "_idx": 37,
        "_centroid": [
          126.9735093,
          37.292096
        ],
        "_area_m2": 101.5
      },
      "geometry": {
        "type": "Polygon",
        "coordinates": [
          [
            [
              126.97343849281256,
              37.292045915155136
            ],
            [
              126.97355415231677,
              37.29203012199862
            ],
            [
              126.9735707073586,
              37.292106855646054
            ],
            [
              126.97351432396093,
              37.29211458048411
            ],
            [
              126.97351877864648,
              37.29213515934546
            ],
            [
              126.9734595031408,
              37.29214329393318
            ],
            [
              126.97343849281256,
              37.292045915155136
            ]
          ]
        ]
      }
    },
    {
      "type": "Feature",
      "properties": {
        "indoor": "room",
        "level": [
          2
        ],
        "ref": "712103",
        "name": "임상간호대학원장실",
        "room_type": "office",
        "_idx": 38,
        "_centroid": [
          126.9736395,
          37.2920805
        ],
        "_area_m2": 104.9
      },
      "geometry": {
        "type": "Polygon",
        "coordinates": [
          [
            [
              126.9735707073586,
              37.292106855646054
            ],
            [
              126.97355415231677,
              37.29203012199862
            ],
            [
              126.97367876154888,
              37.29201310676457
            ],
            [
              126.97370122012336,
              37.29211720365721
            ],
            [
              126.97366913493927,
              37.29212158484309
            ],
            [
              126.97366318951696,
              37.29209402745562
            ],
            [
              126.9735707073586,
              37.292106855646054
            ]
          ]
        ]
      }
    },
    {
      "type": "Feature",
      "properties": {
        "indoor": "room",
        "level": [
          2
        ],
        "ref": "712102",
        "name": "컴퓨터실습실",
        "room_type": "classroom",
        "_idx": 39,
        "_centroid": [
          126.9737189,
          37.2920612
        ],
        "_area_m2": 60.5
      },
      "geometry": {
        "type": "Polygon",
        "coordinates": [
          [
            [
              126.97367876154888,
              37.29201310676457
            ],
            [
              126.97370122012336,
              37.29211720365721
            ],
            [
              126.9737589622289,
              37.29210931905487
            ],
            [
              126.97373650365442,
              37.29200522215132
            ],
            [
              126.97367876154888,
              37.29201310676457
            ]
          ]
        ]
      }
    },
    {
      "type": "Feature",
      "properties": {
        "indoor": "room",
        "level": [
          2
        ],
        "ref": "712101",
        "name": "초저온냉동고실",
        "room_type": "facility",
        "_idx": 40,
        "_centroid": [
          126.9737823,
          37.2920607
        ],
        "_area_m2": 54.2
      },
      "geometry": {
        "type": "Polygon",
        "coordinates": [
          [
            [
              126.9737365036544,
              37.29200522215132
            ],
            [
              126.9737589622289,
              37.29210931905487
            ],
            [
              126.9738025713226,
              37.29210337543395
            ],
            [
              126.97379648641817,
              37.29207511867294
            ],
            [
              126.97380768568465,
              37.292073592288936
            ],
            [
              126.9737913543322,
              37.29199775355412
            ],
            [
              126.9737365036544,
              37.29200522215132
            ]
          ]
        ]
      }
    }
  ]
}