{
  "type": "FeatureCollection",
  "features": [
    {
      "type": "Feature",
      "properties": {
        "indoor": "corridor",
        "level": "2"
      },
      "geometry": {
        "type": "Polygon",
        "coordinates": [
          [
            [
              126.97305094793312,
              37.2924367926159
            ],
            [
              126.9730822766895,
              37.29243278280907
            ],
            [
              126.97306786394088,
              37.29236151301593
            ],
            [
              126.97305223788169,
              37.29228424343064
            ],
            [
              126.97306050674658,
              37.29226072392207
            ],
            [
              126.97305318477824,
              37.29222678623988
            ],
            [
              126.97299926669604,
              37.29223414866582
            ],
            [
              126.97294868755381,
              37.29224106333676
            ],
            [
              126.9729526387653,
              37.29225935846933
            ],
            [
              126.97291340897219,
              37.292264715231006
            ],
            [
              126.972880526977,
              37.29226920521165
            ],
            [
              126.97288821390859,
              37.29230593984202
            ],
            [
              126.97302104765288,
              37.29228893825331
            ],
            [
              126.9730358840681,
              37.29236230311088
            ],
            [
              126.97305094793312,
              37.2924367926159
            ]
          ]
        ]
      }
    },
    {
      "type": "Feature",
      "properties": {
        "indoor": "corridor",
        "level": "2"
      },
      "geometry": {
        "type": "Polygon",
        "coordinates": [
          [
            [
              126.97305223788169,
              37.29228424343064
            ],
            [
              126.97318872175295,
              37.29226677465168
            ],
            [
              126.9732146890474,
              37.29226345105758
            ],
            [
              126.97323859796076,
              37.29226039091872
            ],
            [
              126.9733003556025,
              37.292252486461905
            ],
            [
              126.97335919212397,
              37.29224793950815
            ],
            [
              126.9733509483974,
              37.29220717490264
            ],
            [
              126.97329897471533,
              37.29222815905732
            ],
            [
              126.97317880456905,
              37.292244568090425
            ],
            [
              126.97306050674658,
              37.29226072392207
            ],
            [
              126.97305223788169,
              37.29228424343064
            ]
          ]
        ]
      }
    },
    {
      "type": "Feature",
      "properties": {
        "indoor": "corridor",
        "level": "2"
      },
      "geometry": {
        "type": "Polygon",
        "coordinates": [
          [
            [
              126.97335919212397,
              37.29224793950815
            ],
            [
              126.97341655889792,
              37.292240597044156
            ],
            [
              126.97347305093298,
              37.29222911444146
            ],
            [
              126.9734730144765,
              37.29220592508989
            ],
            [
              126.9734595031408,
              37.29214329393318
            ],
            [
              126.97340235095228,
              37.29217033980497
            ],
            [
              126.97340831517292,
              37.292199832434385
            ],
            [
              126.9733509483974,
              37.29220717490264
            ],
            [
              126.97335919212397,
              37.29224793950815
            ]
          ]
        ]
      }
    },
    {
      "type": "Feature",
      "properties": {
        "indoor": "corridor",
        "level": "2"
      },
      "geometry": {
        "type": "Polygon",
        "coordinates": [
          [
            [
              126.97329897471533,
              37.29222815905732
            ],
            [
              126.97328592737975,
              37.29216768394114
            ],
            [
              126.97323163706066,
              37.29217509719968
            ],
            [
              126.97322791499377,
              37.292157845209104
            ],
            [
              126.97328112659532,
              37.29215057924539
            ],
            [
              126.97326369516999,
              37.292069783542054
            ],
            [
              126.97343849281256,
              37.292045915155136
            ],
            [
              126.9734595031408,
              37.29214329393318
            ],
            [
              126.97340235095228,
              37.29217033980497
            ],
            [
              126.97334498417835,
              37.29217768227582
            ],
            [
              126.9733509483974,
              37.29220717490264
            ],
            [
              126.97329897471533,
              37.29222815905732
            ]
          ]
        ]
      }
    },
    {
      "type": "Feature",
      "properties": {
        "indoor": "corridor",
        "level": "2"
      },
      "geometry": {
        "type": "Polygon",
        "coordinates": [
          [
            [
              126.97347305093298,
              37.29222911444146
            ],
            [
              126.9734730144765,
              37.29220592508989
            ],
            [
              126.9735322906287,
              37.29219783171849
            ],
            [
              126.97353213942057,
              37.29219712945949
            ],
            [
              126.97368104297719,
              37.292176802651696
            ],
            [
              126.97379712261463,
              37.29216095886316
            ],
            [
              126.97382837848518,
              37.29215669885212
            ],
            [
              126.97382567367578,
              37.292142596940906
            ],
            [
              126.97385173841208,
              37.29213926086948
            ],
            [
              126.9738854493131,
              37.29213494615204
            ],
            [
              126.97389450686921,
              37.29217517160043
            ],
            [
              126.97382699418773,
              37.29218381266186
            ],
            [
              126.97377283919464,
              37.29219074405033
            ],
            [
              126.97371370807973,
              37.29219831233982
            ],
            [
              126.9735336917298,
              37.292221352928145
            ],
            [
              126.97347305093298,
              37.29222911444146
            ]
          ]
        ]
      }
    }
  ]
}