{
  "type": "FeatureCollection",
  "features": [
    {
      "type": "Feature",
      "properties": {
        "indoor": "corridor",
        "level": "5"
      },
      "geometry": {
        "type": "Polygon",
        "coordinates": [
          [
            [
              126.97288325556269,
              37.29230885535268
            ],
            [
              126.97294380671644,
              37.29230110531955
            ],
            [
              126.97300424310066,
              37.29229336997595
            ],
            [
              126.97296819040925,
              37.29226674321964
            ],
            [
              126.97295639813878,
              37.29221208542953
            ],
            [
              126.97293886392822,
              37.29219594768376
            ],
            [
              126.97294613134274,
              37.29222919622437
            ],
            [
              126.9729526387653,
              37.29225935846933
            ],
            [
              126.97291340897219,
              37.292264715231006
            ],
            [
              126.972880526977,
              37.29226920521165
            ],
            [
              126.97288325556269,
              37.29230885535268
            ]
          ]
        ]
      }
    },
    {
      "type": "Feature",
      "properties": {
        "indoor": "corridor",
        "level": "5"
      },
      "geometry": {
        "type": "Polygon",
        "coordinates": [
          [
            [
              126.97300424310066,
              37.292293369975944
            ],
            [
              126.97303406131805,
              37.292289553497525
            ],
            [
              126.97306362687564,
              37.29228576935739
            ],
            [
              126.9730948214507,
              37.29228177671688
            ],
            [
              126.97312427395306,
              37.29227800704685
            ],
            [
              126.97318210140557,
              37.29227060562435
            ],
            [
              126.97324155894366,
              37.29226299556167
            ],
            [
              126.97330045024503,
              37.292255457972495
            ],
            [
              126.97335919212397,
              37.29224793950815
            ],
            [
              126.97341655889792,
              37.292240597044156
            ],
            [
              126.97340831517292,
              37.292199832434385
            ],
            [
              126.9733509483974,
              37.29220717490264
            ],
            [
              126.97329322107448,
              37.292222360818734
            ],
            [
              126.97323585290346,
              37.29223019434949
            ],
            [
              126.97320869169515,
              37.29223390316846
            ],
            [
              126.97317676186778,
              37.292238263134635
            ],
            [
              126.9731488127485,
              37.29224207954155
            ],
            [
              126.97311870996792,
              37.292246190027456
            ],
            [
              126.97308860587158,
              37.29225007017551
            ],
            [
              126.97305844401843,
              37.29225441924288
            ],
            [
              126.97302936068996,
              37.29225839052181
            ],
            [
              126.97296819040925,
              37.29226674321964
            ],
            [
              126.97300424310066,
              37.292293369975944
            ]
          ]
        ]
      }
    },
    {
      "type": "Feature",
      "properties": {
        "indoor": "corridor",
        "level": "5"
      },
      "geometry": {
        "type": "Polygon",
        "coordinates": [
          [
            [
              126.9738854493131,
              37.29213494615204
            ],
            [
              126.97385173841208,
              37.29213926086948
            ],
            [
              126.9738108822137,
              37.292144490126084
            ],
            [
              126.9737846494697,
              37.292155257052855
            ],
            [
              126.97367579084693,
              37.2921701215237
            ],
            [
              126.97364797949531,
              37.29217391911928
            ],
            [
              126.9735869059552,
              37.29218225861351
            ],
            [
              126.97352820844594,
              37.292190273664524
            ],
            [
              126.97346894226891,
              37.29219836636622
            ],
            [
              126.97340831517292,
              37.292199832434385
            ],
            [
              126.97341655889792,
              37.29224059704414
            ],
            [
              126.97341703856912,
              37.29224297250171
            ],
            [
              126.97347683531729,
              37.292235318646725
            ],
            [
              126.97350748953295,
              37.29223139497255
            ],
            [
              126.97353630305464,
              37.29222770690329
            ],
            [
              126.97365338848603,
              37.292212720612476
            ],
            [
              126.97374193597271,
              37.29220138727335
            ],
            [
              126.97383066020434,
              37.292190031312344
            ],
            [
              126.97389582521697,
              37.29218169073473
            ],
            [
              126.97389410249359,
              37.29217317199202
            ],
            [
              126.9738854493131,
              37.29213494615204
            ]
          ]
        ]
      }
    },
    {
      "type": "Feature",
      "properties": {
        "indoor": "corridor",
        "level": "5"
      },
      "geometry": {
        "type": "Polygon",
        "coordinates": [
          [
            [
              126.9738108822137,
              37.292144490126084
            ],
            [
              126.97379758624221,
              37.292078724543096
            ],
            [
              126.97375081048631,
              37.29208507757575
            ],
            [
              126.97369287083313,
              37.292092989154966
            ],
            [
              126.97357241327009,
              37.29210943746799
            ],
            [
              126.9735161974421,
              37.292117113659316
            ],
            [
              126.97345648655877,
              37.29212526709245
            ],
            [
              126.97345715000031,
              37.29214370854127
            ],
            [
              126.9735164161772,
              37.29213561583282
            ],
            [
              126.97357511368634,
              37.292127600772886
            ],
            [
              126.97363618722548,
              37.29211926126937
            ],
            [
              126.97366399857691,
              37.29211546366953
            ],
            [
              126.97377285719874,
              37.292100599182035
            ],
            [
              126.9737846494697,
              37.292155257052855
            ],
            [
              126.9738108822137,
              37.292144490126084
            ]
          ]
        ]
      }
    },
    {
      "type": "Feature",
      "properties": {
        "indoor": "corridor",
        "level": "5"
      },
      "geometry": {
        "type": "Polygon",
        "coordinates": [
          [
            [
              126.97346894226891,
              37.29219836636622
            ],
            [
              126.97345715000031,
              37.29214370854127
            ],
            [
              126.97345648655877,
              37.29212526709245
            ],
            [
              126.97339715357391,
              37.29213336892412
            ],
            [
              126.97333927162887,
              37.29214127261843
            ],
            [
              126.97328143683409,
              37.292149169874456
            ],
            [
              126.97328142880168,
              37.29216770300047
            ],
            [
              126.97329322107448,
              37.292222360818734
            ],
            [
              126.9733509483974,
              37.29220717490264
            ],
            [
              126.97334498417835,
              37.29217768227582
            ],
            [
              126.97340235095228,
              37.29217033980497
            ],
            [
              126.97340831517292,
              37.292199832434385
            ],
            [
              126.97346894226891,
              37.29219836636622
            ]
          ]
        ]
      }
    },
    {
      "type": "Feature",
      "properties": {
        "indoor": "corridor",
        "level": "5"
      },
      "geometry": {
        "type": "Polygon",
        "coordinates": [
          [
            [
              126.97328143683409,
              37.292149169874456
            ],
            [
              126.97322116838485,
              37.29215739944239
            ],
            [
              126.97316589547964,
              37.29216494687616
            ],
            [
              126.97304525216357,
              37.292181420534575
            ],
            [
              126.97298425344994,
              37.292189749814696
            ],
            [
              126.97293886392822,
              37.29219594768376
            ],
            [
              126.97295639813878,
              37.292212085429526
            ],
            [
              126.97301756841833,
              37.292203732726364
            ],
            [
              126.97304665174867,
              37.292199761444
            ],
            [
              126.97307686191091,
              37.29219563629455
            ],
            [
              126.97307974564598,
              37.29220900256028
            ],
            [
              126.97308577226265,
              37.29223693625014
            ],
            [
              126.9730886541819,
              37.29225029409632
            ],
            [
              126.97311870996792,
              37.292246190027456
            ],
            [
              126.9731157885155,
              37.29223264894268
            ],
            [
              126.97310960523731,
              37.29220398912509
            ],
            [
              126.97310691769464,
              37.29219153222419
            ],
            [
              126.97313702047552,
              37.292187421736216
            ],
            [
              126.9731649695954,
              37.292183605326706
            ],
            [
              126.97319689942255,
              37.292179245357715
            ],
            [
              126.97322406063098,
              37.29217553653631
            ],
            [
              126.97328142880168,
              37.29216770300047
            ],
            [
              126.97328143683409,
              37.292149169874456
            ]
          ]
        ]
      }
    },
    {
      "type": "Feature",
      "properties": {
        "indoor": "corridor",
        "level": "5"
      },
      "geometry": {
        "type": "Polygon",
        "coordinates": [
          [
            [
              126.97363665990908,
              37.292175464781295
            ],
            [
              126.97362486764011,
              37.29212080694027
            ],
            [
              126.97365579446283,
              37.29211658392691
            ],
            [
              126.97366758673176,
              37.292171241771015
            ],
            [
              126.97363665990908,
              37.292175464781295
            ]
          ]
        ]
      }
    }
  ]
}