{
  "type": "FeatureCollection",
  "features": [
    {
      "type": "Feature",
      "properties": {
        "indoor": "room",
        "level": "4",
        "ref": "",
        "name": "",
        "room_type": "",
        "_idx": 1,
        "_centroid": [
          126.9730611,
          37.292348
        ],
        "_area_m2": 18.7
      },
      "geometry": {
        "type": "Polygon",
        "coordinates": [
          [
            [
              126.97306945652133,
              37.292314596477176
            ],
            [
              126.97303989122962,
              37.2923183819305
            ],
            [
              126.97305265473264,
              37.2923814964024
            ],
            [
              126.97308222029007,
              37.29237771226682
            ],
            [
              126.97306945652133,
              37.292314596477176
            ]
          ]
        ]
      }
    },
    {
      "type": "Feature",
      "properties": {
        "indoor": "room",
        "level": "4",
        "ref": "",
        "name": "",
        "room_type": "",
        "_idx": 2,
        "_centroid": [
          126.9730282,
          37.2923468
        ],
        "_area_m2": 18.9
      },
      "geometry": {
        "type": "Polygon",
        "coordinates": [
          [
            [
              126.97303989122743,
              37.29231838193078
            ],
            [
              126.9730100732793,
              37.29232219973348
            ],
            [
              126.97301113681513,
              37.29232745883014
            ],
            [
              126.97301960389807,
              37.29236932786264
            ],
            [
              126.97302283651474,
              37.29238531287613
            ],
            [
              126.97305265473264,
              37.2923814964024
            ],
            [
              126.97304095503102,
              37.292323642353985
            ],
            [
              126.97303989122743,
              37.29231838193078
            ]
          ]
        ]
      }
    },
    {
      "type": "Feature",
      "properties": {
        "indoor": "room",
        "level": "4",
        "ref": "",
        "name": "",
        "room_type": "",
        "_idx": 3,
        "_centroid": [
          126.9730914,
          37.2923442
        ],
        "_area_m2": 19.7
      },
      "geometry": {
        "type": "Polygon",
        "coordinates": [
          [
            [
              126.97310065081591,
              37.2923106024511
            ],
            [
              126.97306945652133,
              37.292314596477176
            ],
            [
              126.97308222029007,
              37.29237771226682
            ],
            [
              126.97311341486517,
              37.29237371963088
            ],
            [
              126.97310065081591,
              37.2923106024511
            ]
          ]
        ]
      }
    },
    {
      "type": "Feature",
      "properties": {
        "indoor": "room",
        "level": "4",
        "ref": "",
        "name": "",
        "room_type": "",
        "_idx": 4,
        "_centroid": [
          126.9729212,
          37.292343
        ],
        "_area_m2": 46.1
      },
      "geometry": {
        "type": "Polygon",
        "coordinates": [
          [
            [
              126.97289861636504,
              37.292384813220195
            ],
            [
              126.97295916751351,
              37.29237706319742
            ],
            [
              126.97294380671644,
              37.29230110531956
            ],
            [
              126.97288325556269,
              37.29230885535268
            ],
            [
              126.97289861636504,
              37.292384813220195
            ]
          ]
        ]
      }
    },
    {
      "type": "Feature",
      "properties": {
        "indoor": "room",
        "level": "4",
        "ref": "",
        "name": "",
        "room_type": "",
        "_idx": 5,
        "_centroid": [
          126.9729817,
          37.2923352
        ],
        "_area_m2": 46.0
      },
      "geometry": {
        "type": "Polygon",
        "coordinates": [
          [
            [
              126.97295916751351,
              37.29237706319742
            ],
            [
              126.97301960389807,
              37.29236932786264
            ],
            [
              126.97300424310066,
              37.29229336997596
            ],
            [
              126.97294380671644,
              37.29230110531956
            ],
            [
              126.97295916751351,
              37.29237706319742
            ]
          ]
        ]
      }
    },
    {
      "type": "Feature",
      "properties": {
        "indoor": "room",
        "level": "4",
        "ref": "",
        "name": "",
        "room_type": "",
        "_idx": 6,
        "_centroid": [
          126.9731227,
          37.2923341
        ],
        "_area_m2": 18.6
      },
      "geometry": {
        "type": "Polygon",
        "coordinates": [
          [
            [
              126.97313010432738,
              37.2923068313098
            ],
            [
              126.97310065081365,
              37.292310602451394
            ],
            [
              126.97310147182168,
              37.292314662270535
            ],
            [
              126.97311341486517,
              37.29237371963088
            ],
            [
              126.97314286736771,
              37.29236994996496
            ],
            [
              126.97313931186372,
              37.29235236829717
            ],
            [
              126.97313092432584,
              37.2923108926016
            ],
            [
              126.97313010432738,
              37.2923068313098
            ]
          ]
        ]
      }
    },
    {
      "type": "Feature",
      "properties": {
        "indoor": "room",
        "level": "4",
        "ref": "",
        "name": "",
        "room_type": "",
        "_idx": 7,
        "_centroid": [
          126.9731954,
          37.2923198
        ],
        "_area_m2": 43.1
      },
      "geometry": {
        "type": "Polygon",
        "coordinates": [
          [
            [
              126.97313931186372,
              37.29235236829717
            ],
            [
              126.97319713931617,
              37.292344966880485
            ],
            [
              126.973223533448,
              37.292341588658324
            ],
            [
              126.97325659685585,
              37.29233735682568
            ],
            [
              126.97325659685585,
              37.292337356825676
            ],
            [
              126.97319713931617,
              37.29234496688048
            ],
            [
              126.97318210140557,
              37.29227060562435
            ],
            [
              126.973182101401,
              37.292270605624935
            ],
            [
              126.97312427395309,
              37.29227800704685
            ],
            [
              126.97313931186372,
              37.29235236829717
            ]
          ]
        ]
      }
    },
    {
      "type": "Feature",
      "properties": {
        "indoor": "room",
        "level": "4",
        "ref": "",
        "name": "",
        "room_type": "",
        "_idx": 8,
        "_centroid": [
          126.9732193,
          37.292304
        ],
        "_area_m2": 44.3
      },
      "geometry": {
        "type": "Polygon",
        "coordinates": [
          [
            [
              126.97318210140557,
              37.29227060562435
            ],
            [
              126.97319713931617,
              37.29234496688048
            ],
            [
              126.97325659685585,
              37.292337356825676
            ],
            [
              126.97324155894366,
              37.29226299556167
            ],
            [
              126.97318210140557,
              37.29227060562435
            ]
          ]
        ]
      }
    },
    {
      "type": "Feature",
      "properties": {
        "indoor": "room",
        "level": "4",
        "ref": "",
        "name": "",
        "room_type": "",
        "_idx": 9,
        "_centroid": [
          126.9730672,
          37.2923001
        ],
        "_area_m2": 34.7
      },
      "geometry": {
        "type": "Polygon",
        "coordinates": [
          [
            [
              126.9730100732793,
              37.292322199733476
            ],
            [
              126.97313010432738,
              37.2923068313098
            ],
            [
              126.9731242732043,
              37.29227800714272
            ],
            [
              126.97300424215622,
              37.292293375572285
            ],
            [
              126.9730100732793,
              37.292322199733476
            ]
          ]
        ]
      }
    },
    {
      "type": "Feature",
      "properties": {
        "indoor": "room",
        "level": "4",
        "ref": "",
        "name": "",
        "room_type": "",
        "_idx": 10,
        "_centroid": [
          126.9732785,
          37.2922964
        ],
        "_area_m2": 43.9
      },
      "geometry": {
        "type": "Polygon",
        "coordinates": [
          [
            [
              126.97331548815562,
              37.29232981924438
            ],
            [
              126.97330045024503,
              37.2922554579725
            ],
            [
              126.97324155894366,
              37.29226299556167
            ],
            [
              126.97325659685585,
              37.29233735682568
            ],
            [
              126.97331548815562,
              37.29232981924438
            ]
          ]
        ]
      }
    },
    {
      "type": "Feature",
      "properties": {
        "indoor": "room",
        "level": "4",
        "ref": "",
        "name": "",
        "room_type": "",
        "_idx": 11,
        "_centroid": [
          126.9733373,
          37.2922889
        ],
        "_area_m2": 43.8
      },
      "geometry": {
        "type": "Polygon",
        "coordinates": [
          [
            [
              126.97331548815562,
              37.29232981924438
            ],
            [
              126.97337423003512,
              37.29232230078663
            ],
            [
              126.97335919212397,
              37.29224793950815
            ],
            [
              126.97330045024503,
              37.2922554579725
            ],
            [
              126.97331548815562,
              37.29232981924438
            ]
          ]
        ]
      }
    },
    {
      "type": "Feature",
      "properties": {
        "indoor": "room",
        "level": "4",
        "ref": "",
        "name": "",
        "room_type": "",
        "_idx": 12,
        "_centroid": [
          126.9733954,
          37.2922814
        ],
        "_area_m2": 42.7
      },
      "geometry": {
        "type": "Polygon",
        "coordinates": [
          [
            [
              126.97343159680905,
              37.292314958329904
            ],
            [
              126.97341655889792,
              37.29224059704416
            ],
            [
              126.973359192124,
              37.29224793950815
            ],
            [
              126.97337423003512,
              37.29232230078663
            ],
            [
              126.97343159680905,
              37.292314958329904
            ]
          ]
        ]
      }
    },
    {
      "type": "Feature",
      "properties": {
        "indoor": "room",
        "level": "4",
        "ref": "",
        "name": "",
        "room_type": "",
        "_idx": 13,
        "_centroid": [
          126.9734542,
          37.2922751
        ],
        "_area_m2": 43.1
      },
      "geometry": {
        "type": "Polygon",
        "coordinates": [
          [
            [
              126.97347683531729,
              37.292235318646725
            ],
            [
              126.97341703856912,
              37.29224297250171
            ],
            [
              126.97343159702231,
              37.29231495938447
            ],
            [
              126.97349139377097,
              37.292307305536006
            ],
            [
              126.97347683531729,
              37.292235318646725
            ]
          ]
        ]
      }
    },
    {
      "type": "Feature",
      "properties": {
        "indoor": "room",
        "level": "4",
        "ref": "",
        "name": "",
        "room_type": "",
        "_idx": 14,
        "_centroid": [
          126.9736761,
          37.2922696
        ],
        "_area_m2": 19.6
      },
      "geometry": {
        "type": "Polygon",
        "coordinates": [
          [
            [
              126.97369214467557,
              37.29223808623842
            ],
            [
              126.97365936671744,
              37.29224228107575
            ],
            [
              126.97366151850348,
              37.292252920974114
            ],
            [
              126.9736679468587,
              37.29228470713963
            ],
            [
              126.97367141676249,
              37.29230186470118
            ],
            [
              126.97370419401595,
              37.29229766928729
            ],
            [
              126.97369214467557,
              37.29223808623842
            ]
          ]
        ]
      }
    },
    {
      "type": "Feature",
      "properties": {
        "indoor": "room",
        "level": "4",
        "ref": "",
        "name": "",
        "room_type": "",
        "_idx": 15,
        "_centroid": [
          126.9735142,
          37.2922675
        ],
        "_area_m2": 42.9
      },
      "geometry": {
        "type": "Polygon",
        "coordinates": [
          [
            [
              126.97349139377097,
              37.292307305536006
            ],
            [
              126.9735220479857,
              37.29230338186591
            ],
            [
              126.97355086150804,
              37.29229969380028
            ],
            [
              126.97353630305464,
              37.29222770690329
            ],
            [
              126.97350748953296,
              37.29223139497255
            ],
            [
              126.97347683531729,
              37.292235318646725
            ],
            [
              126.97349139377097,
              37.292307305536006
            ]
          ]
        ]
      }
    },
    {
      "type": "Feature",
      "properties": {
        "indoor": "room",
        "level": "4",
        "ref": "",
        "name": "",
        "room_type": "",
        "_idx": 16,
        "_centroid": [
          126.9737486,
          37.2922675
        ],
        "_area_m2": 16.8
      },
      "geometry": {
        "type": "Polygon",
        "coordinates": [
          [
            [
              126.97375381156081,
              37.29223019427177
            ],
            [
              126.97372563328547,
              37.29223380045373
            ],
            [
              126.97373768305931,
              37.292293382765976
            ],
            [
              126.97375996413919,
              37.29229053083836
            ],
            [
              126.97376586065248,
              37.292289776097995
            ],
            [
              126.97375381156081,
              37.29223019427177
            ]
          ]
        ]
      }
    },
    {
      "type": "Feature",
      "properties": {
        "indoor": "room",
        "level": "4",
        "ref": "",
        "name": "",
        "room_type": "",
        "_idx": 17,
        "_centroid": [
          126.9737149,
          37.2922657
        ],
        "_area_m2": 20.0
      },
      "geometry": {
        "type": "Polygon",
        "coordinates": [
          [
            [
              126.97372563328547,
              37.29223380045373
            ],
            [
              126.97369214467557,
              37.29223808623842
            ],
            [
              126.97370419401595,
              37.29229766928729
            ],
            [
              126.97373768305931,
              37.292293382765976
            ],
            [
              126.97372563328547,
              37.29223380045373
            ]
          ]
        ]
      }
    },
    {
      "type": "Feature",
      "properties": {
        "indoor": "room",
        "level": "4",
        "ref": "",
        "name": "",
        "room_type": "",
        "_idx": 18,
        "_centroid": [
          126.9737746,
          37.292261
        ],
        "_area_m2": 14.1
      },
      "geometry": {
        "type": "Polygon",
        "coordinates": [
          [
            [
              126.9737774767692,
              37.29222716566031
            ],
            [
              126.97375381156081,
              37.29223019427177
            ],
            [
              126.97376586065248,
              37.292289776097995
            ],
            [
              126.97378952966228,
              37.292286746518286
            ],
            [
              126.97378634636884,
              37.29227100615014
            ],
            [
              126.9737774767692,
              37.29222716566031
            ]
          ]
        ]
      }
    },
    {
      "type": "Feature",
      "properties": {
        "indoor": "room",
        "level": "4",
        "ref": "",
        "name": "",
        "room_type": "",
        "_idx": 19,
        "_centroid": [
          126.9735704,
          37.2922603
        ],
        "_area_m2": 38.7
      },
      "geometry": {
        "type": "Polygon",
        "coordinates": [
          [
            [
              126.97355086150804,
              37.29229969380028
            ],
            [
              126.97360445813327,
              37.29229283355358
            ],
            [
              126.97358989968245,
              37.29222084664935
            ],
            [
              126.97353630305464,
              37.29222770690329
            ],
            [
              126.97355086150804,
              37.29229969380028
            ]
          ]
        ]
      }
    },
    {
      "type": "Feature",
      "properties": {
        "indoor": "room",
        "level": "4",
        "ref": "",
        "name": "",
        "room_type": "",
        "_idx": 20,
        "_centroid": [
          126.9736183,
          37.2922541
        ],
        "_area_m2": 45.8
      },
      "geometry": {
        "type": "Polygon",
        "coordinates": [
          [
            [
              126.97358989968245,
              37.29222084664935
            ],
            [
              126.97360445813327,
              37.29229283355358
            ],
            [
              126.97360445882367,
              37.29229283346521
            ],
            [
              126.9736679468587,
              37.29228470713963
            ],
            [
              126.97365338848603,
              37.292212720612476
            ],
            [
              126.97358990037051,
              37.29222084656128
            ],
            [
              126.97358989968245,
              37.29222084664935
            ]
          ]
        ]
      }
    },
    {
      "type": "Feature",
      "properties": {
        "indoor": "room",
        "level": "4",
        "ref": "",
        "name": "",
        "room_type": "",
        "_idx": 21,
        "_centroid": [
          126.9729298,
          37.292247
        ],
        "_area_m2": 11.9
      },
      "geometry": {
        "type": "Polygon",
        "coordinates": [
          [
            [
              126.97294613134277,
              37.29222919622437
            ],
            [
              126.97290690154765,
              37.29223455298929
            ],
            [
              126.97291340897219,
              37.292264715231006
            ],
            [
              126.9729526387653,
              37.29225935846933
            ],
            [
              126.97294613134277,
              37.29222919622437
            ]
          ]
        ]
      }
    },
    {
      "type": "Feature",
      "properties": {
        "indoor": "room",
        "level": "4",
        "ref": "",
        "name": "",
        "room_type": "",
        "_idx": 22,
        "_centroid": [
          126.9730709,
          37.2922442
        ],
        "_area_m2": 5.3
      },
      "geometry": {
        "type": "Polygon",
        "coordinates": [
          [
            [
              126.97305319913292,
              37.29223816568781
            ],
            [
              126.97305675553648,
              37.29225464980303
            ],
            [
              126.973088654177,
              37.29225029409776
            ],
            [
              126.97308509777426,
              37.29223380998153
            ],
            [
              126.97305319913292,
              37.29223816568781
            ]
          ]
        ]
      }
    },
    {
      "type": "Feature",
      "properties": {
        "indoor": "room",
        "level": "4",
        "ref": "",
        "name": "",
        "room_type": "",
        "_idx": 23,
        "_centroid": [
          126.9730066,
          37.2922334
        ],
        "_area_m2": 48.7
      },
      "geometry": {
        "type": "Polygon",
        "coordinates": [
          [
            [
              126.97296819040925,
              37.29226674321964
            ],
            [
              126.97305675553648,
              37.29225464980303
            ],
            [
              126.97304496326623,
              37.29219999200375
            ],
            [
              126.97295639813878,
              37.29221208542953
            ],
            [
              126.97296819040925,
              37.29226674321964
            ]
          ]
        ]
      }
    },
    {
      "type": "Feature",
      "properties": {
        "indoor": "room",
        "level": "4",
        "ref": "",
        "name": "",
        "room_type": "",
        "_idx": 24,
        "_centroid": [
          126.9728896,
          37.2922327
        ],
        "_area_m2": 22.7
      },
      "geometry": {
        "type": "Polygon",
        "coordinates": [
          [
            [
              126.97289861972916,
              37.2921961663246
            ],
            [
              126.97286573773525,
              37.292200656309014
            ],
            [
              126.972880526977,
              37.29226920521165
            ],
            [
              126.97291340897219,
              37.292264715231006
            ],
            [
              126.97289861972916,
              37.2921961663246
            ]
          ]
        ]
      }
    },
    {
      "type": "Feature",
      "properties": {
        "indoor": "room",
        "level": "4",
        "ref": "",
        "name": "",
        "room_type": "",
        "_idx": 25,
        "_centroid": [
          126.9738085,
          37.2922305
        ],
        "_area_m2": 43.5
      },
      "geometry": {
        "type": "Polygon",
        "coordinates": [
          [
            [
              126.97377150153177,
              37.292197603128606
            ],
            [
              126.97378634636884,
              37.29227100615014
            ],
            [
              126.97384550496885,
              37.29226343398053
            ],
            [
              126.97383066020437,
              37.29219003131236
            ],
            [
              126.97377150153177,
              37.292197603128606
            ]
          ]
        ]
      }
    },
    {
      "type": "Feature",
      "properties": {
        "indoor": "room",
        "level": "4",
        "ref": "",
        "name": "",
        "room_type": "",
        "_idx": 26,
        "_centroid": [
          126.9730666,
          37.2922242
        ],
        "_area_m2": 7.6
      },
      "geometry": {
        "type": "Polygon",
        "coordinates": [
          [
            [
              126.9730481175759,
              37.29221461240053
            ],
            [
              126.97305319913292,
              37.29223816568781
            ],
            [
              126.97308509777426,
              37.29223380998153
            ],
            [
              126.97308001621703,
              37.29221025669295
            ],
            [
              126.9730481175759,
              37.29221461240053
            ]
          ]
        ]
      }
    },
    {
      "type": "Feature",
      "properties": {
        "indoor": "room",
        "level": "4",
        "ref": "",
        "name": "",
        "room_type": "",
        "_idx": 27,
        "_centroid": [
          126.9738707,
          37.2922226
        ],
        "_area_m2": 47.9
      },
      "geometry": {
        "type": "Polygon",
        "coordinates": [
          [
            [
              126.97384550496885,
              37.29226343398053
            ],
            [
              126.97391066920011,
              37.292255093102575
            ],
            [
              126.97389582521697,
              37.29218169073473
            ],
            [
              126.97383066020437,
              37.29219003131236
            ],
            [
              126.97384550496885,
              37.29226343398053
            ]
          ]
        ]
      }
    },
    {
      "type": "Feature",
      "properties": {
        "indoor": "room",
        "level": "4",
        "ref": "",
        "name": "",
        "room_type": "",
        "_idx": 28,
        "_centroid": [
          126.97372,
          37.292218
        ],
        "_area_m2": 35.0
      },
      "geometry": {
        "type": "Polygon",
        "coordinates": [
          [
            [
              126.97373247661163,
              37.29220259799264
            ],
            [
              126.97371965486693,
              37.29220423906897
            ],
            [
              126.9736861666329,
              37.292208525283485
            ],
            [
              126.97365338848603,
              37.292212720612476
            ],
            [
              126.97365936671744,
              37.29224228107575
            ],
            [
              126.97369214467557,
              37.29223808623842
            ],
            [
              126.97372563328547,
              37.29223380045373
            ],
            [
              126.97375381156081,
              37.29223019427177
            ],
            [
              126.9737774767692,
              37.29222716566031
            ],
            [
              126.97377150153177,
              37.292197603128606
            ],
            [
              126.97374783334537,
              37.292200632458886
            ],
            [
              126.97373247661163,
              37.29220259799264
            ]
          ]
        ]
      }
    },
    {
      "type": "Feature",
      "properties": {
        "indoor": "room",
        "level": "4",
        "ref": "",
        "name": "",
        "room_type": "",
        "_idx": 29,
        "_centroid": [
          126.9731271,
          37.2922169
        ],
        "_area_m2": 15.7
      },
      "geometry": {
        "type": "Polygon",
        "coordinates": [
          [
            [
              126.97310691769464,
              37.29219153222419
            ],
            [
              126.97311870996792,
              37.292246190027456
            ],
            [
              126.97314736909163,
              37.2922422766707
            ],
            [
              126.97313557681775,
              37.292187618865185
            ],
            [
              126.97310691769464,
              37.29219153222419
            ]
          ]
        ]
      }
    },
    {
      "type": "Feature",
      "properties": {
        "indoor": "room",
        "level": "4",
        "ref": "",
        "name": "",
        "room_type": "",
        "_idx": 30,
        "_centroid": [
          126.9729224,
          37.2922127
        ],
        "_area_m2": 15.1
      },
      "geometry": {
        "type": "Polygon",
        "coordinates": [
          [
            [
              126.97289861972916,
              37.2921961663246
            ],
            [
              126.97290690154765,
              37.29223455298929
            ],
            [
              126.97294613134277,
              37.29222919622437
            ],
            [
              126.97293784952356,
              37.29219080955772
            ],
            [
              126.97289861972916,
              37.2921961663246
            ]
          ]
        ]
      }
    },
    {
      "type": "Feature",
      "properties": {
        "indoor": "room",
        "level": "4",
        "ref": "",
        "name": "",
        "room_type": "",
        "_idx": 31,
        "_centroid": [
          126.9731576,
          37.2922127
        ],
        "_area_m2": 17.7
      },
      "geometry": {
        "type": "Polygon",
        "coordinates": [
          [
            [
              126.97313557681775,
              37.292187618865185
            ],
            [
              126.97314736909163,
              37.2922422766707
            ],
            [
              126.9731796123363,
              37.29223787390806
            ],
            [
              126.9731678200628,
              37.292183216099176
            ],
            [
              126.97313557681775,
              37.292187618865185
            ]
          ]
        ]
      }
    },
    {
      "type": "Feature",
      "properties": {
        "indoor": "room",
        "level": "4",
        "ref": "",
        "name": "",
        "room_type": "",
        "_idx": 32,
        "_centroid": [
          126.9732636,
          37.2922123
        ],
        "_area_m2": 14.7
      },
      "geometry": {
        "type": "Polygon",
        "coordinates": [
          [
            [
              126.97328731493263,
              37.29219498553386
            ],
            [
              126.97323395012188,
              37.29220227241563
            ],
            [
              126.97323985626477,
              37.29222964769755
            ],
            [
              126.97329322107464,
              37.292222360819515
            ],
            [
              126.97328731493263,
              37.29219498553386
            ]
          ]
        ]
      }
    },
    {
      "type": "Feature",
      "properties": {
        "indoor": "room",
        "level": "4",
        "ref": "",
        "name": "",
        "room_type": "",
        "_idx": 33,
        "_centroid": [
          126.973189,
          37.2922085
        ],
        "_area_m2": 16.8
      },
      "geometry": {
        "type": "Polygon",
        "coordinates": [
          [
            [
              126.9731678200628,
              37.292183216099176
            ],
            [
              126.9731796123363,
              37.29223787390806
            ],
            [
              126.97321008841678,
              37.292233712448805
            ],
            [
              126.97319829614324,
              37.292179054636804
            ],
            [
              126.9731678200628,
              37.292183216099176
            ]
          ]
        ]
      }
    },
    {
      "type": "Feature",
      "properties": {
        "indoor": "room",
        "level": "4",
        "ref": "",
        "name": "",
        "room_type": "",
        "_idx": 34,
        "_centroid": [
          126.9732191,
          37.2922044
        ],
        "_area_m2": 16.4
      },
      "geometry": {
        "type": "Polygon",
        "coordinates": [
          [
            [
              126.97319829614324,
              37.292179054636804
            ],
            [
              126.97321008841678,
              37.292233712448805
            ],
            [
              126.97323985626477,
              37.29222964769755
            ],
            [
              126.97322806399143,
              37.29217498988247
            ],
            [
              126.97319829614324,
              37.292179054636804
            ]
          ]
        ]
      }
    },
    {
      "type": "Feature",
      "properties": {
        "indoor": "room",
        "level": "4",
        "ref": "",
        "name": "",
        "room_type": "",
        "_idx": 35,
        "_centroid": [
          126.9733766,
          37.2921888
        ],
        "_area_m2": 17.0
      },
      "geometry": {
        "type": "Polygon",
        "coordinates": [
          [
            [
              126.97334498417835,
              37.29217768227582
            ],
            [
              126.9733509483974,
              37.29220717490264
            ],
            [
              126.97340831517292,
              37.292199832434385
            ],
            [
              126.97340235095228,
              37.29217033980497
            ],
            [
              126.97334498417835,
              37.29217768227582
            ]
          ]
        ]
      }
    },
    {
      "type": "Feature",
      "properties": {
        "indoor": "room",
        "level": "4",
        "ref": "",
        "name": "",
        "room_type": "",
        "_idx": 36,
        "_centroid": [
          126.9732577,
          37.292185
        ],
        "_area_m2": 14.6
      },
      "geometry": {
        "type": "Polygon",
        "coordinates": [
          [
            [
              126.97323395012188,
              37.29220227241563
            ],
            [
              126.97328731493263,
              37.29219498553386
            ],
            [
              126.97328142880134,
              37.29216770299894
            ],
            [
              126.97322806399143,
              37.29217498988247
            ],
            [
              126.97323395012188,
              37.29220227241563
            ]
          ]
        ]
      }
    },
    {
      "type": "Feature",
      "properties": {
        "indoor": "room",
        "level": "4",
        "ref": "",
        "name": "",
        "room_type": "",
        "_idx": 37,
        "_centroid": [
          126.9734923,
          37.2921817
        ],
        "_area_m2": 13.8
      },
      "geometry": {
        "type": "Polygon",
        "coordinates": [
          [
            [
              126.97351569789923,
              37.29216498687268
            ],
            [
              126.97346328482521,
              37.29217214379805
            ],
            [
              126.97346894226891,
              37.29219836636622
            ],
            [
              126.97352135534398,
              37.29219120944171
            ],
            [
              126.97351569789923,
              37.29216498687268
            ]
          ]
        ]
      }
    },
    {
      "type": "Feature",
      "properties": {
        "indoor": "room",
        "level": "4",
        "ref": "",
        "name": "",
        "room_type": "",
        "_idx": 38,
        "_centroid": [
          126.9735313,
          37.2921617
        ],
        "_area_m2": 17.5
      },
      "geometry": {
        "type": "Polygon",
        "coordinates": [
          [
            [
              126.97355312363081,
              37.29218687153117
            ],
            [
              126.97354133136155,
              37.29213221369822
            ],
            [
              126.97350956307477,
              37.292136551611804
            ],
            [
              126.97352135534398,
              37.29219120944171
            ],
            [
              126.97355312363081,
              37.29218687153117
            ]
          ]
        ]
      }
    },
    {
      "type": "Feature",
      "properties": {
        "indoor": "room",
        "level": "4",
        "ref": "",
        "name": "",
        "room_type": "",
        "_idx": 39,
        "_centroid": [
          126.9729393,
          37.2921593
        ],
        "_area_m2": 48.9
      },
      "geometry": {
        "type": "Polygon",
        "coordinates": [
          [
            [
              126.97290476112997,
              37.29211880907895
            ],
            [
              126.97292089166503,
              37.29219313871883
            ],
            [
              126.9729377581016,
              37.2921908221145
            ],
            [
              126.97293886392825,
              37.29219594768376
            ],
            [
              126.97298425344994,
              37.292189749814696
            ],
            [
              126.97296708191027,
              37.29211028567311
            ],
            [
              126.97292172106181,
              37.29211648952548
            ],
            [
              126.97290476112997,
              37.29211880907895
            ]
          ]
        ]
      }
    },
    {
      "type": "Feature",
      "properties": {
        "indoor": "room",
        "level": "4",
        "ref": "",
        "name": "",
        "room_type": "",
        "_idx": 40,
        "_centroid": [
          126.9731023,
          37.2921581
        ],
        "_area_m2": 36.7
      },
      "geometry": {
        "type": "Polygon",
        "coordinates": [
          [
            [
              126.97315936782176,
              37.292134690799195
            ],
            [
              126.97303872450381,
              37.292151164467235
            ],
            [
              126.97304525216357,
              37.29218142053459
            ],
            [
              126.97316589547964,
              37.29216494687616
            ],
            [
              126.97315936782176,
              37.292134690799195
            ]
          ]
        ]
      }
    },
    {
      "type": "Feature",
      "properties": {
        "indoor": "room",
        "level": "4",
        "ref": "",
        "name": "",
        "room_type": "",
        "_idx": 41,
        "_centroid": [
          126.9735617,
          37.2921576
        ],
        "_area_m2": 16.0
      },
      "geometry": {
        "type": "Polygon",
        "coordinates": [
          [
            [
              126.97358214846352,
              37.292182908235056
            ],
            [
              126.97357035619446,
              37.29212825039929
            ],
            [
              126.97354133136155,
              37.29213221369822
            ],
            [
              126.97355312363081,
              37.29218687153117
            ],
            [
              126.97358214846352,
              37.292182908235056
            ]
          ]
        ]
      }
    },
    {
      "type": "Feature",
      "properties": {
        "indoor": "room",
        "level": "4",
        "ref": "",
        "name": "",
        "room_type": "",
        "_idx": 42,
        "_centroid": [
          126.9734864,
          37.2921543
        ],
        "_area_m2": 15.0
      },
      "geometry": {
        "type": "Polygon",
        "coordinates": [
          [
            [
              126.97346328482521,
              37.29217214379805
            ],
            [
              126.97351569789923,
              37.29216498687268
            ],
            [
              126.97350956307477,
              37.292136551611804
            ],
            [
              126.97345715000031,
              37.29214370854127
            ],
            [
              126.97346328482521,
              37.29217214379805
            ]
          ]
        ]
      }
    },
    {
      "type": "Feature",
      "properties": {
        "indoor": "room",
        "level": "4",
        "ref": "",
        "name": "",
        "room_type": "",
        "_idx": 43,
        "_centroid": [
          126.9736035,
          37.2921519
        ],
        "_area_m2": 30.0
      },
      "geometry": {
        "type": "Polygon",
        "coordinates": [
          [
            [
              126.97363665990909,
              37.29217546478129
            ],
            [
              126.97362486764014,
              37.29212080694027
            ],
            [
              126.97357035619446,
              37.29212825039929
            ],
            [
              126.97358214846352,
              37.292182908235056
            ],
            [
              126.97363665990909,
              37.29217546478129
            ]
          ]
        ]
      }
    },
    {
      "type": "Feature",
      "properties": {
        "indoor": "room",
        "level": "4",
        "ref": "",
        "name": "",
        "room_type": "",
        "_idx": 44,
        "_centroid": [
          126.9730062,
          37.2921459
        ],
        "_area_m2": 48.8
      },
      "geometry": {
        "type": "Polygon",
        "coordinates": [
          [
            [
              126.97302810722314,
              37.29210195275269
            ],
            [
              126.97296708191027,
              37.29211028567311
            ],
            [
              126.97298425344994,
              37.292189749814696
            ],
            [
              126.97304525216357,
              37.29218142053459
            ],
            [
              126.97302810722314,
              37.29210195275269
            ]
          ]
        ]
      }
    },
    {
      "type": "Feature",
      "properties": {
        "indoor": "room",
        "level": "4",
        "ref": "",
        "name": "",
        "room_type": "",
        "_idx": 45,
        "_centroid": [
          126.973769,
          37.2921442
        ],
        "_area_m2": 6.6
      },
      "geometry": {
        "type": "Polygon",
        "coordinates": [
          [
            [
              126.97377910523481,
              37.292129559195516
            ],
            [
              126.9737534348692,
              37.2921330644467
            ],
            [
              126.97375897910227,
              37.29215876228423
            ],
            [
              126.97378464946674,
              37.29215525703558
            ],
            [
              126.97377910523481,
              37.292129559195516
            ]
          ]
        ]
      }
    },
    {
      "type": "Feature",
      "properties": {
        "indoor": "room",
        "level": "4",
        "ref": "",
        "name": "",
        "room_type": "",
        "_idx": 46,
        "_centroid": [
          126.9736802,
          37.2921414
        ],
        "_area_m2": 20.4
      },
      "geometry": {
        "type": "Polygon",
        "coordinates": [
          [
            [
              126.97370467333592,
              37.29216617765282
            ],
            [
              126.97369288106678,
              37.29211151980529
            ],
            [
              126.97365579446293,
              37.292116583927374
            ],
            [
              126.973667586732,
              37.29217124177135
            ],
            [
              126.97370467333592,
              37.29216617765282
            ]
          ]
        ]
      }
    },
    {
      "type": "Feature",
      "properties": {
        "indoor": "room",
        "level": "4",
        "ref": "",
        "name": "",
        "room_type": "",
        "_idx": 47,
        "_centroid": [
          126.9737117,
          37.2921371
        ],
        "_area_m2": 14.2
      },
      "geometry": {
        "type": "Polygon",
        "coordinates": [
          [
            [
              126.97373052210632,
              37.29216264804311
            ],
            [
              126.97371872983754,
              37.29210799019305
            ],
            [
              126.97369288106678,
              37.29211151980529
            ],
            [
              126.97370467333592,
              37.29216617765282
            ],
            [
              126.97373052210632,
              37.29216264804311
            ]
          ]
        ]
      }
    },
    {
      "type": "Feature",
      "properties": {
        "indoor": "room",
        "level": "4",
        "ref": "",
        "name": "",
        "room_type": "",
        "_idx": 48,
        "_centroid": [
          126.9737389,
          37.2921334
        ],
        "_area_m2": 15.6
      },
      "geometry": {
        "type": "Polygon",
        "coordinates": [
          [
            [
              126.97375897910227,
              37.29215876228423
            ],
            [
              126.97374718683311,
              37.29210410443149
            ],
            [
              126.97371872983754,
              37.29210799019305
            ],
            [
              126.97373052210632,
              37.29216264804311
            ],
            [
              126.97375897910227,
              37.29215876228423
            ]
          ]
        ]
      }
    },
    {
      "type": "Feature",
      "properties": {
        "indoor": "room",
        "level": "4",
        "ref": "",
        "name": "",
        "room_type": "",
        "_idx": 49,
        "_centroid": [
          126.973185,
          37.2921214
        ],
        "_area_m2": 44.2
      },
      "geometry": {
        "type": "Polygon",
        "coordinates": [
          [
            [
              126.97322116838485,
              37.292157399442395
            ],
            [
              126.97320402344486,
              37.29207793163549
            ],
            [
              126.97314875053988,
              37.29208547907519
            ],
            [
              126.97316589547964,
              37.29216494687616
            ],
            [
              126.97322116838485,
              37.292157399442395
            ]
          ]
        ]
      }
    },
    {
      "type": "Feature",
      "properties": {
        "indoor": "room",
        "level": "4",
        "ref": "",
        "name": "",
        "room_type": "",
        "_idx": 50,
        "_centroid": [
          126.9737631,
          37.2921168
        ],
        "_area_m2": 7.5
      },
      "geometry": {
        "type": "Polygon",
        "coordinates": [
          [
            [
              126.9737534348692,
              37.2921330644467
            ],
            [
              126.97377910523481,
              37.292129559195516
            ],
            [
              126.97377285719816,
              37.292100599179314
            ],
            [
              126.97374718683311,
              37.29210410443149
            ],
            [
              126.9737534348692,
              37.2921330644467
            ]
          ]
        ]
      }
    },
    {
      "type": "Feature",
      "properties": {
        "indoor": "room",
        "level": "4",
        "ref": "",
        "name": "",
        "room_type": "",
        "_idx": 51,
        "_centroid": [
          126.973043,
          37.2921153
        ],
        "_area_m2": 18.0
      },
      "geometry": {
        "type": "Polygon",
        "coordinates": [
          [
            [
              126.97306793299556,
              37.29214717609088
            ],
            [
              126.97305473745568,
              37.29208601398276
            ],
            [
              126.97302552896328,
              37.29209000236251
            ],
            [
              126.97302810722314,
              37.292101952752695
            ],
            [
              126.97303872450381,
              37.292151164467235
            ],
            [
              126.97306793299556,
              37.29214717609088
            ]
          ]
        ]
      }
    },
    {
      "type": "Feature",
      "properties": {
        "indoor": "room",
        "level": "4",
        "ref": "",
        "name": "",
        "room_type": "",
        "_idx": 52,
        "_centroid": [
          126.9730764,
          37.2921145
        ],
        "_area_m2": 18.5
      },
      "geometry": {
        "type": "Polygon",
        "coordinates": [
          [
            [
              126.97306793299556,
              37.29214717609088
            ],
            [
              126.97309798933789,
              37.292143071941545
            ],
            [
              126.97308479379808,
              37.29208190983026
            ],
            [
              126.97305473745568,
              37.29208601398276
            ],
            [
              126.97306793299556,
              37.29214717609088
            ]
          ]
        ]
      }
    },
    {
      "type": "Feature",
      "properties": {
        "indoor": "room",
        "level": "4",
        "ref": "",
        "name": "",
        "room_type": "",
        "_idx": 53,
        "_centroid": [
          126.9732427,
          37.2921136
        ],
        "_area_m2": 48.2
      },
      "geometry": {
        "type": "Polygon",
        "coordinates": [
          [
            [
              126.97320402344486,
              37.29207793163549
            ],
            [
              126.97322116838485,
              37.292157399442395
            ],
            [
              126.97328143683407,
              37.29214916987445
            ],
            [
              126.97326429189548,
              37.29206970205826
            ],
            [
              126.97320402344486,
              37.29207793163549
            ]
          ]
        ]
      }
    },
    {
      "type": "Feature",
      "properties": {
        "indoor": "room",
        "level": "4",
        "ref": "",
        "name": "",
        "room_type": "",
        "_idx": 54,
        "_centroid": [
          126.9731062,
          37.2921105
        ],
        "_area_m2": 18.2
      },
      "geometry": {
        "type": "Polygon",
        "coordinates": [
          [
            [
              126.97309798933789,
              37.292143071941545
            ],
            [
              126.97312759743797,
              37.292139028998825
            ],
            [
              126.97311440189873,
              37.292077866884554
            ],
            [
              126.97308479379808,
              37.29208190983026
            ],
            [
              126.97309798933789,
              37.292143071941545
            ]
          ]
        ]
      }
    },
    {
      "type": "Feature",
      "properties": {
        "indoor": "room",
        "level": "4",
        "ref": "",
        "name": "",
        "room_type": "",
        "_idx": 55,
        "_centroid": [
          126.9733018,
          37.2921055
        ],
        "_area_m2": 46.2
      },
      "geometry": {
        "type": "Polygon",
        "coordinates": [
          [
            [
              126.97326429189548,
              37.29206970205826
            ],
            [
              126.97328143683407,
              37.29214916987445
            ],
            [
              126.97333927162887,
              37.29214127261843
            ],
            [
              126.97332212668967,
              37.29206180479358
            ],
            [
              126.97326429189548,
              37.29206970205826
            ]
          ]
        ]
      }
    },
    {
      "type": "Feature",
      "properties": {
        "indoor": "room",
        "level": "4",
        "ref": "",
        "name": "",
        "room_type": "",
        "_idx": 56,
        "_centroid": [
          126.9738621,
          37.2921023
        ],
        "_area_m2": 24.1
      },
      "geometry": {
        "type": "Polygon",
        "coordinates": [
          [
            [
              126.97383769976958,
              37.29206984073412
            ],
            [
              126.97385173841207,
              37.29213926086948
            ],
            [
              126.9738854493131,
              37.29213494615204
            ],
            [
              126.97387333831401,
              37.29206527928986
            ],
            [
              126.97383769976958,
              37.29206984073412
            ]
          ]
        ]
      }
    },
    {
      "type": "Feature",
      "properties": {
        "indoor": "room",
        "level": "4",
        "ref": "",
        "name": "",
        "room_type": "",
        "_idx": 57,
        "_centroid": [
          126.9731393,
          37.2921021
        ],
        "_area_m2": 19.5
      },
      "geometry": {
        "type": "Polygon",
        "coordinates": [
          [
            [
              126.97312759743797,
              37.292139028998825
            ],
            [
              126.97315936782176,
              37.29213469079917
            ],
            [
              126.97314875053988,
              37.29208547907518
            ],
            [
              126.97314617228005,
              37.29207352868238
            ],
            [
              126.97311440189873,
              37.292077866884554
            ],
            [
              126.97312759743797,
              37.292139028998825
            ]
          ]
        ]
      }
    },
    {
      "type": "Feature",
      "properties": {
        "indoor": "room",
        "level": "4",
        "ref": "",
        "name": "",
        "room_type": "",
        "_idx": 58,
        "_centroid": [
          126.973821,
          37.2921005
        ],
        "_area_m2": 28.4
      },
      "geometry": {
        "type": "Polygon",
        "coordinates": [
          [
            [
              126.97385173841207,
              37.29213926086948
            ],
            [
              126.97383769976958,
              37.29206984073412
            ],
            [
              126.9738077045466,
              37.29207367987888
            ],
            [
              126.97379684357227,
              37.292075069995256
            ],
            [
              126.9738108822137,
              37.292144490126084
            ],
            [
              126.97385173841207,
              37.29213926086948
            ]
          ]
        ]
      }
    },
    {
      "type": "Feature",
      "properties": {
        "indoor": "room",
        "level": "4",
        "ref": "",
        "name": "",
        "room_type": "",
        "_idx": 59,
        "_centroid": [
          126.9733596,
          37.2920976
        ],
        "_area_m2": 46.3
      },
      "geometry": {
        "type": "Polygon",
        "coordinates": [
          [
            [
              126.97332212668967,
              37.29206180479358
            ],
            [
              126.97333927162887,
              37.29214127261843
            ],
            [
              126.9733971535739,
              37.29213336892412
            ],
            [
              126.97338000863495,
              37.2920539010905
            ],
            [
              126.97332212668967,
              37.29206180479358
            ]
          ]
        ]
      }
    },
    {
      "type": "Feature",
      "properties": {
        "indoor": "room",
        "level": "4",
        "ref": "",
        "name": "",
        "room_type": "",
        "_idx": 60,
        "_centroid": [
          126.9734182,
          37.2920896
        ],
        "_area_m2": 47.4
      },
      "geometry": {
        "type": "Polygon",
        "coordinates": [
          [
            [
              126.97345648655879,
              37.29212526709245
            ],
            [
              126.97343934162089,
              37.29204579925016
            ],
            [
              126.97338000863495,
              37.2920539010905
            ],
            [
              126.9733971535739,
              37.29213336892412
            ],
            [
              126.97345648655879,
              37.29212526709245
            ]
          ]
        ]
      }
    },
    {
      "type": "Feature",
      "properties": {
        "indoor": "room",
        "level": "4",
        "ref": "",
        "name": "",
        "room_type": "",
        "_idx": 61,
        "_centroid": [
          126.9736297,
          37.2920874
        ],
        "_area_m2": 33.4
      },
      "geometry": {
        "type": "Polygon",
        "coordinates": [
          [
            [
              126.97368692577918,
              37.29206543346614
            ],
            [
              126.97356646821832,
              37.292081881784135
            ],
            [
              126.97357241327009,
              37.29210943746799
            ],
            [
              126.97369287083313,
              37.292092989154966
            ],
            [
              126.97368692577918,
              37.29206543346614
            ]
          ]
        ]
      }
    },
    {
      "type": "Feature",
      "properties": {
        "indoor": "room",
        "level": "4",
        "ref": "",
        "name": "",
        "room_type": "",
        "_idx": 62,
        "_centroid": [
          126.9734778,
          37.2920815
        ],
        "_area_m2": 47.7
      },
      "geometry": {
        "type": "Polygon",
        "coordinates": [
          [
            [
              126.97343934162089,
              37.29204579925016
            ],
            [
              126.97345648655879,
              37.29212526709245
            ],
            [
              126.9735161974421,
              37.292117113659316
            ],
            [
              126.97349905250233,
              37.292037645807824
            ],
            [
              126.97343934162089,
              37.29204579925016
            ]
          ]
        ]
      }
    },
    {
      "type": "Feature",
      "properties": {
        "indoor": "room",
        "level": "4",
        "ref": "",
        "name": "",
        "room_type": "",
        "_idx": 63,
        "_centroid": [
          126.9735357,
          37.2920735
        ],
        "_area_m2": 44.9
      },
      "geometry": {
        "type": "Polygon",
        "coordinates": [
          [
            [
              126.97355526833034,
              37.292029969608386
            ],
            [
              126.97349905250233,
              37.292037645807824
            ],
            [
              126.9735161974421,
              37.292117113659316
            ],
            [
              126.97357241327009,
              37.29210943746799
            ],
            [
              126.97355526833034,
              37.292029969608386
            ]
          ]
        ]
      }
    },
    {
      "type": "Feature",
      "properties": {
        "indoor": "room",
        "level": "4",
        "ref": "",
        "name": "",
        "room_type": "",
        "_idx": 64,
        "_centroid": [
          126.9737797,
          37.2920527
        ],
        "_area_m2": 45.7
      },
      "geometry": {
        "type": "Polygon",
        "coordinates": [
          [
            [
              126.97373366554596,
              37.29200560969154
            ],
            [
              126.97375081048631,
              37.29208507757575
            ],
            [
              126.97379758624221,
              37.292078724543096
            ],
            [
              126.97379680317589,
              37.292075075481854
            ],
            [
              126.9738076868207,
              37.29207359727683
            ],
            [
              126.9737914391218,
              37.29199788353649
            ],
            [
              126.97373366554596,
              37.29200560969154
            ]
          ]
        ]
      }
    },
    {
      "type": "Feature",
      "properties": {
        "indoor": "room",
        "level": "4",
        "ref": "",
        "name": "",
        "room_type": "",
        "_idx": 65,
        "_centroid": [
          126.9737133,
          37.2920493
        ],
        "_area_m2": 46.3
      },
      "geometry": {
        "type": "Polygon",
        "coordinates": [
          [
            [
              126.97367572589272,
              37.29201352127965
            ],
            [
              126.97369287083313,
              37.292092989154966
            ],
            [
              126.97375081048632,
              37.29208507757575
            ],
            [
              126.97373366554596,
              37.29200560969154
            ],
            [
              126.97367572589272,
              37.29201352127965
            ]
          ]
        ]
      }
    },
    {
      "type": "Feature",
      "properties": {
        "indoor": "room",
        "level": "4",
        "ref": "",
        "name": "",
        "room_type": "",
        "_idx": 66,
        "_centroid": [
          126.9735713,
          37.2920452
        ],
        "_area_m2": 19.1
      },
      "geometry": {
        "type": "Polygon",
        "coordinates": [
          [
            [
              126.97356646821832,
              37.292081881784135
            ],
            [
              126.97359743131088,
              37.29207765381581
            ],
            [
              126.97358416288883,
              37.29201615383459
            ],
            [
              126.97355319979366,
              37.29202038180686
            ],
            [
              126.97355526833034,
              37.29202996960839
            ],
            [
              126.97356646821832,
              37.292081881784135
            ]
          ]
        ]
      }
    },
    {
      "type": "Feature",
      "properties": {
        "indoor": "room",
        "level": "4",
        "ref": "",
        "name": "",
        "room_type": "",
        "_idx": 67,
        "_centroid": [
          126.9736054,
          37.2920449
        ],
        "_area_m2": 18.1
      },
      "geometry": {
        "type": "Polygon",
        "coordinates": [
          [
            [
              126.97359743131088,
              37.29207765381581
            ],
            [
              126.97362667597407,
              37.292073660496484
            ],
            [
              126.9736134075516,
              37.29201216051213
            ],
            [
              126.97358416288883,
              37.29201615383459
            ],
            [
              126.97359743131088,
              37.29207765381581
            ]
          ]
        ]
      }
    },
    {
      "type": "Feature",
      "properties": {
        "indoor": "room",
        "level": "4",
        "ref": "",
        "name": "",
        "room_type": "",
        "_idx": 68,
        "_centroid": [
          126.973635,
          37.2920409
        ],
        "_area_m2": 18.5
      },
      "geometry": {
        "type": "Polygon",
        "coordinates": [
          [
            [
              126.97362667597407,
              37.292073660496484
            ],
            [
              126.97365655463389,
              37.292069580605535
            ],
            [
              126.97364328621126,
              37.29200808061819
            ],
            [
              126.9736134075516,
              37.29201216051213
            ],
            [
              126.97362667597407,
              37.292073660496484
            ]
          ]
        ]
      }
    },
    {
      "type": "Feature",
      "properties": {
        "indoor": "room",
        "level": "4",
        "ref": "",
        "name": "",
        "room_type": "",
        "_idx": 69,
        "_centroid": [
          126.9736672,
          37.2920321
        ],
        "_area_m2": 18.8
      },
      "geometry": {
        "type": "Polygon",
        "coordinates": [
          [
            [
              126.97364328621126,
              37.29200808061819
            ],
            [
              126.97365655463389,
              37.292069580605535
            ],
            [
              126.97368692577918,
              37.29206543346614
            ],
            [
              126.97367572589272,
              37.29201352127965
            ],
            [
              126.97367365735603,
              37.29200393347601
            ],
            [
              126.97364328621126,
              37.29200808061819
            ]
          ]
        ]
      }
    }
  ]
}