{
  "type": "FeatureCollection",
  "features": [
    {
      "type": "Feature",
      "properties": {
        "indoor": "corridor",
        "level": "1"
      },
      "geometry": {
        "type": "Polygon",
        "coordinates": [
          [
            [
              126.97267396899144,
              37.2921488954861
            ],
            [
              126.97274065004225,
              37.292476508020854
            ],
            [
              126.97291811418883,
              37.29245379417118
            ],
            [
              126.97290305032382,
              37.292379304682996
            ],
            [
              126.97288821390862,
              37.29230593984202
            ],
            [
              126.972880526977,
              37.29226920521165
            ],
            [
              126.97286573773525,
              37.292200656309014
            ],
            [
              126.9728532539025,
              37.29214279304822
            ],
            [
              126.97284969863803,
              37.29212631419083
            ],
            [
              126.97281953852037,
              37.292130432511144
            ],
            [
              126.97281097126606,
              37.2920907227774
            ],
            [
              126.97278406862729,
              37.29209439629545
            ],
            [
              126.97277633060688,
              37.29205853009388
            ],
            [
              126.97271441419085,
              37.29206698469806
            ],
            [
              126.97273053061234,
              37.29214168527738
            ],
            [
              126.97267396899144,
              37.2921488954861
            ]
          ]
        ]
      }
    },
    {
      "type": "Feature",
      "properties": {
        "indoor": "corridor",
        "level": "1"
      },
      "geometry": {
        "type": "Polygon",
        "coordinates": [
          [
            [
              126.972880526977,
              37.29226920521165
            ],
            [
              126.97288821390862,
              37.29230593984202
            ],
            [
              126.9730210476529,
              37.292288938253336
            ],
            [
              126.9730358840681,
              37.29236230311089
            ],
            [
              126.97305094793312,
              37.2924367926159
            ],
            [
              126.9730822766895,
              37.29243278280907
            ],
            [
              126.97306786394088,
              37.292361513015926
            ],
            [
              126.97305223788169,
              37.29228424343064
            ],
            [
              126.97306050622477,
              37.29226072153108
            ],
            [
              126.97304234449038,
              37.29217654093204
            ],
            [
              126.97293784952353,
              37.2921908095577
            ],
            [
              126.9729526387653,
              37.29225935846933
            ],
            [
              126.972880526977,
              37.29226920521165
            ]
          ]
        ]
      }
    },
    {
      "type": "Feature",
      "properties": {
        "indoor": "corridor",
        "level": "1"
      },
      "geometry": {
        "type": "Polygon",
        "coordinates": [
          [
            [
              126.97305223788169,
              37.29228424343064
            ],
            [
              126.97311010826422,
              37.29227683651176
            ],
            [
              126.97323859796076,
              37.29226039091872
            ],
            [
              126.9733003556025,
              37.292252486461905
            ],
            [
              126.9733159816617,
              37.292329756079795
            ],
            [
              126.97337423003512,
              37.29232230078663
            ],
            [
              126.97335919212397,
              37.29224793950815
            ],
            [
              126.9733509483974,
              37.29220717490264
            ],
            [
              126.97334498417835,
              37.29217768227582
            ],
            [
              126.97329789600154,
              37.29222830635141
            ],
            [
              126.97317880456905,
              37.292244568090425
            ],
            [
              126.97306050622477,
              37.29226072153108
            ],
            [
              126.97305223788169,
              37.29228424343064
            ]
          ]
        ]
      }
    },
    {
      "type": "Feature",
      "properties": {
        "indoor": "corridor",
        "level": "1"
      },
      "geometry": {
        "type": "Polygon",
        "coordinates": [
          [
            [
              126.97329789600154,
              37.29222830635141
            ],
            [
              126.97334498417835,
              37.29217768227582
            ],
            [
              126.97340235095228,
              37.29217033980497
            ],
            [
              126.97346165525536,
              37.292153274434476
            ],
            [
              126.97345031217434,
              37.292100698589316
            ],
            [
              126.97343849281256,
              37.292045915155136
            ],
            [
              126.97326369516999,
              37.29206978354206
            ],
            [
              126.97329789600154,
              37.29222830635141
            ]
          ]
        ]
      }
    },
    {
      "type": "Feature",
      "properties": {
        "indoor": "corridor",
        "level": "1"
      },
      "geometry": {
        "type": "Polygon",
        "coordinates": [
          [
            [
              126.97335919212397,
              37.29224793950815
            ],
            [
              126.97341655889792,
              37.292240597044156
            ],
            [
              126.97343159680905,
              37.292314958329904
            ],
            [
              126.97348892704,
              37.29230762054965
            ],
            [
              126.97347305093298,
              37.29222911444146
            ],
            [
              126.9734730144765,
              37.29220592508989
            ],
            [
              126.97346165525536,
              37.292153274434476
            ],
            [
              126.97340235095228,
              37.29217033980497
            ],
            [
              126.97340831517292,
              37.292199832434385
            ],
            [
              126.9733509483974,
              37.29220717490264
            ],
            [
              126.97335919212397,
              37.29224793950815
            ]
          ]
        ]
      }
    },
    {
      "type": "Feature",
      "properties": {
        "indoor": "corridor",
        "level": "1"
      },
      "geometry": {
        "type": "Polygon",
        "coordinates": [
          [
            [
              126.97347305093298,
              37.29222911444146
            ],
            [
              126.9735336917298,
              37.292221352928145
            ],
            [
              126.97358858271666,
              37.29221432734159
            ],
            [
              126.97363271750571,
              37.29220867845652
            ],
            [
              126.97382915659526,
              37.29218353589209
            ],
            [
              126.9738108822137,
              37.292144490126084
            ],
            [
              126.97379684357227,
              37.292075069995256
            ],
            [
              126.97374997858198,
              37.29208122165208
            ],
            [
              126.97368828987706,
              37.292089645160075
            ],
            [
              126.97370649850498,
              37.29217404321056
            ],
            [
              126.97365341444878,
              37.29218129175669
            ],
            [
              126.97358867398265,
              37.292190131965775
            ],
            [
              126.97353229048322,
              37.29219783104416
            ],
            [
              126.9734730144765,
              37.29220592508989
            ],
            [
              126.97347305093298,
              37.29222911444146
            ]
          ]
        ]
      }
    },
    {
      "type": "Feature",
      "properties": {
        "indoor": "corridor",
        "level": "1"
      },
      "geometry": {
        "type": "Polygon",
        "coordinates": [
          [
            [
              126.97382915659526,
              37.29218353589209
            ],
            [
              126.97389450686921,
              37.29217517160043
            ],
            [
              126.97389410249359,
              37.29217317199202
            ],
            [
              126.97401548686442,
              37.29215763579844
            ],
            [
              126.97399369462792,
              37.29204987465701
            ],
            [
              126.97387333831401,
              37.29206527928986
            ],
            [
              126.9738854493131,
              37.29213494615204
            ],
            [
              126.97385173841208,
              37.29213926086948
            ],
            [
              126.9738108822137,
              37.292144490126084
            ],
            [
              126.97382915659526,
              37.29218353589209
            ]
          ]
        ]
      }
    },
    {
      "type": "Feature",
      "properties": {
        "indoor": "corridor",
        "level": "1"
      },
      "geometry": {
        "type": "Polygon",
        "coordinates": [
          [
            [
              126.97380770454656,
              37.29207367987883
            ],
            [
              126.97379815635036,
              37.29202643046902
            ],
            [
              126.9737398743272,
              37.29203438779684
            ],
            [
              126.97374997858198,
              37.29208122165208
            ],
            [
              126.97379684357227,
              37.292075069995256
            ],
            [
              126.97380770454656,
              37.29207367987883
            ]
          ]
        ]
      }
    }
  ]
}