{
"type": "FeatureCollection",
"name": "basic_outline",
"crs": { "type": "name", "properties": { "name": "urn:ogc:def:crs:OGC:1.3:CRS84" } },
"features": [
{ "type": "Feature", "properties": { "id": null }, "geometry": { "type": "MultiPolygon", "coordinates": [ [ [ [ 126.974701810345266, 37.295468335209385 ], [ 126.974249973814295, 37.295235616843414 ], [ 126.974043364802313, 37.295231776600318 ], [ 126.973493051078748, 37.295312421664256 ], [ 126.973593459196721, 37.29538922640667 ], [ 126.973757587851139, 37.295393066641743 ], [ 126.974134118293549, 37.2953531281875 ], [ 126.974586920287166, 37.29562194429743 ], [ 126.974701810345266, 37.295468335209385 ] ] ] ] } },
{ "type": "Feature", "properties": { "id": null }, "geometry": { "type": "MultiPolygon", "coordinates": [ [ [ [ 126.975006623187952, 37.295916343316918 ], [ 126.974440454452733, 37.295989301704864 ], [ 126.97386939441094, 37.295699413292084 ], [ 126.973757587851139, 37.295393066641743 ], [ 126.973593459196721, 37.295389226406662 ], [ 126.973661513881794, 37.295711086672583 ], [ 126.973209068024303, 37.295730542302692 ], [ 126.973330127861857, 37.295818092575999 ], [ 126.973341133301616, 37.295871595470622 ], [ 126.973737329133598, 37.295822956477082 ], [ 126.974367084854194, 37.296172183752979 ], [ 126.975027411240859, 37.296091443329097 ], [ 126.975006623187952, 37.295916343316918 ] ] ] ] } },
{ "type": "Feature", "properties": { "id": null }, "geometry": { "type": "MultiPolygon", "coordinates": [ [ [ [ 126.974043364802313, 37.295231776600318 ], [ 126.974249973814295, 37.295235616843414 ], [ 126.974162872805024, 37.294936748508036 ], [ 126.974532166450857, 37.294888108910015 ], [ 126.975070210173328, 37.295186755545529 ], [ 126.975066541693423, 37.295249986765775 ], [ 126.975207166757244, 37.295330728092814 ], [ 126.975265862436046, 37.29528500711104 ], [ 126.975263416782724, 37.295195510640738 ], [ 126.975783118105525, 37.295127415428951 ], [ 126.97575132461283, 37.29495134038131 ], [ 126.975459069045414, 37.294998034356759 ], [ 126.975472520138496, 37.295074884794886 ], [ 126.975258525476121, 37.295090449431036 ], [ 126.974625101275606, 37.294744135515607 ], [ 126.97445390554573, 37.294761645808023 ], [ 126.973939095529502, 37.294841414866355 ], [ 126.974043364802313, 37.295231776600318 ] ] ] ] } },
{ "type": "Feature", "properties": { "id": null }, "geometry": { "type": "MultiPolygon", "coordinates": [ [ [ [ 126.97445390554573, 37.294761645808023 ], [ 126.974625101275606, 37.294744135515607 ], [ 126.974584136583189, 37.294456187900103 ], [ 126.974906962816647, 37.294418248773987 ], [ 126.975443783712478, 37.294736353162108 ], [ 126.97543400109933, 37.294557358809527 ], [ 126.975391202166875, 37.294522338125503 ], [ 126.975365522807394, 37.294560277199139 ], [ 126.975238348836641, 37.294471752664258 ], [ 126.975268919502668, 37.294440623132751 ], [ 126.974910631296581, 37.294268437678816 ], [ 126.974293103842399, 37.294335560868738 ], [ 126.974399489760231, 37.294410466386793 ], [ 126.97445390554573, 37.294761645808023 ] ] ] ] } }
]
}
