{
  "type": "FeatureCollection",
  "features": [
    {
      "type": "Feature",
      "properties": {
        "indoor": "room",
        "level": "8",
        "ref": "",
        "name": "",
        "room_type": "",
        "_idx": 1,
        "_centroid": [
          126.9779863,
          37.2923554
        ],
        "_area_m2": 11.1
      },
      "geometry": {
        "type": "Polygon",
        "coordinates": [
          [
            [
              126.97801904425407,
              37.292359955921256
            ],
            [
              126.97801530175505,
              37.292342318686465
            ],
            [
              126.97795346633019,
              37.29235062308684
            ],
            [
              126.97795729583217,
              37.292368670338725
            ],
            [
              126.97801904425407,
              37.292359955921256
            ]
          ]
        ]
      }
    },
    {
      "type": "Feature",
      "properties": {
        "indoor": "room",
        "level": "8",
        "ref": "",
        "name": "",
        "room_type": "",
        "_idx": 2,
        "_centroid": [
          126.9780458,
          37.2923454
        ],
        "_area_m2": 10.0
      },
      "geometry": {
        "type": "Polygon",
        "coordinates": [
          [
            [
              126.97804642754477,
              37.29233813854149
            ],
            [
              126.97801530175505,
              37.292342318686465
            ],
            [
              126.97801904425407,
              37.292359955921256
            ],
            [
              126.97807600568952,
              37.29235191708054
            ],
            [
              126.97807234344873,
              37.29233465807585
            ],
            [
              126.97804642754477,
              37.29233813854149
            ]
          ]
        ]
      }
    },
    {
      "type": "Feature",
      "properties": {
        "indoor": "room",
        "level": "8",
        "ref": "",
        "name": "",
        "room_type": "",
        "_idx": 3,
        "_centroid": [
          126.9781,
          37.292338
        ],
        "_area_m2": 9.6
      },
      "geometry": {
        "type": "Polygon",
        "coordinates": [
          [
            [
              126.97809097671866,
              37.292332155656545
            ],
            [
              126.97807234344873,
              37.29233465807585
            ],
            [
              126.97807600568952,
              37.29235191708054
            ],
            [
              126.97813205655738,
              37.2923440067462
            ],
            [
              126.97812847329162,
              37.29232711992462
            ],
            [
              126.97809097671866,
              37.292332155656545
            ]
          ]
        ]
      }
    },
    {
      "type": "Feature",
      "properties": {
        "indoor": "room",
        "level": "8",
        "ref": "",
        "name": "",
        "room_type": "",
        "_idx": 4,
        "_centroid": [
          126.9781365,
          37.292328
        ],
        "_area_m2": 8.0
      },
      "geometry": {
        "type": "Polygon",
        "coordinates": [
          [
            [
              126.97812847329162,
              37.29232711992462
            ],
            [
              126.97813127755508,
              37.292340335549916
            ],
            [
              126.97813205655738,
              37.2923440067462
            ],
            [
              126.97815522567903,
              37.292340736939586
            ],
            [
              126.97814753396585,
              37.292306242357135
            ],
            [
              126.9781246940909,
              37.292309309718256
            ],
            [
              126.97812847329162,
              37.29232711992462
            ]
          ]
        ]
      }
    },
    {
      "type": "Feature",
      "properties": {
        "indoor": "room",
        "level": "8",
        "ref": "",
        "name": "",
        "room_type": "",
        "_idx": 5,
        "_centroid": [
          126.9781778,
          37.2922968
        ],
        "_area_m2": 50.2
      },
      "geometry": {
        "type": "Polygon",
        "coordinates": [
          [
            [
              126.97821764348811,
              37.292332390869895
            ],
            [
              126.97820084276589,
              37.2922528675233
            ],
            [
              126.97813751288619,
              37.29226133555966
            ],
            [
              126.97815522567905,
              37.29234073693959
            ],
            [
              126.97821764348811,
              37.292332390869895
            ]
          ]
        ]
      }
    },
    {
      "type": "Feature",
      "properties": {
        "indoor": "room",
        "level": "8",
        "ref": "",
        "name": "",
        "room_type": "",
        "_idx": 6,
        "_centroid": [
          126.9784228,
          37.2922924
        ],
        "_area_m2": 7.1
      },
      "geometry": {
        "type": "Polygon",
        "coordinates": [
          [
            [
              126.97843480205107,
              37.292278311156146
            ],
            [
              126.97840561659315,
              37.29228221363332
            ],
            [
              126.97841076197527,
              37.292306568426284
            ],
            [
              126.97843994743597,
              37.292302665952086
            ],
            [
              126.97843480205107,
              37.292278311156146
            ]
          ]
        ]
      }
    },
    {
      "type": "Feature",
      "properties": {
        "indoor": "room",
        "level": "8",
        "ref": "",
        "name": "",
        "room_type": "",
        "_idx": 7,
        "_centroid": [
          126.9782165,
          37.2922917
        ],
        "_area_m2": 11.6
      },
      "geometry": {
        "type": "Polygon",
        "coordinates": [
          [
            [
              126.97823217036607,
              37.29233044843811
            ],
            [
              126.9782153696439,
              37.29225092508974
            ],
            [
              126.97820084276589,
              37.2922528675233
            ],
            [
              126.97821764348811,
              37.292332390869895
            ],
            [
              126.97823217036607,
              37.29233044843811
            ]
          ]
        ]
      }
    },
    {
      "type": "Feature",
      "properties": {
        "indoor": "room",
        "level": "8",
        "ref": "",
        "name": "",
        "room_type": "",
        "_idx": 8,
        "_centroid": [
          126.9782401,
          37.2922885
        ],
        "_area_m2": 26.1
      },
      "geometry": {
        "type": "Polygon",
        "coordinates": [
          [
            [
              126.978264823277,
              37.2923260823209
            ],
            [
              126.97824802255337,
              37.29224655896871
            ],
            [
              126.9782153696439,
              37.29225092508974
            ],
            [
              126.97823217036607,
              37.29233044843811
            ],
            [
              126.978264823277,
              37.2923260823209
            ]
          ]
        ]
      }
    },
    {
      "type": "Feature",
      "properties": {
        "indoor": "room",
        "level": "8",
        "ref": "",
        "name": "",
        "room_type": "",
        "_idx": 9,
        "_centroid": [
          126.9782704,
          37.2922845
        ],
        "_area_m2": 22.3
      },
      "geometry": {
        "type": "Polygon",
        "coordinates": [
          [
            [
              126.97829273484788,
              37.292322350182275
            ],
            [
              126.97827593412393,
              37.292242826826715
            ],
            [
              126.97824802255337,
              37.29224655896871
            ],
            [
              126.978264823277,
              37.2923260823209
            ],
            [
              126.97829273484788,
              37.292322350182275
            ]
          ]
        ]
      }
    },
    {
      "type": "Feature",
      "properties": {
        "indoor": "room",
        "level": "8",
        "ref": "",
        "name": "",
        "room_type": "",
        "_idx": 10,
        "_centroid": [
          126.9783382,
          37.2922754
        ],
        "_area_m2": 22.1
      },
      "geometry": {
        "type": "Polygon",
        "coordinates": [
          [
            [
              126.97836044084762,
              37.29231329701297
            ],
            [
              126.978343640126,
              37.29223377364881
            ],
            [
              126.97831599578741,
              37.292237470058396
            ],
            [
              126.9783327965094,
              37.29231699341912
            ],
            [
              126.97836044084762,
              37.29231329701297
            ]
          ]
        ]
      }
    },
    {
      "type": "Feature",
      "properties": {
        "indoor": "room",
        "level": "8",
        "ref": "",
        "name": "",
        "room_type": "",
        "_idx": 11,
        "_centroid": [
          126.9783695,
          37.2922712
        ],
        "_area_m2": 27.8
      },
      "geometry": {
        "type": "Polygon",
        "coordinates": [
          [
            [
              126.97839528825325,
              37.29230863746338
            ],
            [
              126.97837848753146,
              37.29222911409498
            ],
            [
              126.978343640126,
              37.29223377364881
            ],
            [
              126.97836044084762,
              37.29231329701297
            ],
            [
              126.97839528825325,
              37.29230863746338
            ]
          ]
        ]
      }
    },
    {
      "type": "Feature",
      "properties": {
        "indoor": "room",
        "level": "8",
        "ref": "",
        "name": "",
        "room_type": "",
        "_idx": 12,
        "_centroid": [
          126.9784206,
          37.2922679
        ],
        "_area_m2": 6.2
      },
      "geometry": {
        "type": "Polygon",
        "coordinates": [
          [
            [
              126.97843480205107,
              37.292278311156146
            ],
            [
              126.97843114348781,
              37.29226099397019
            ],
            [
              126.97843030842466,
              37.292257041340434
            ],
            [
              126.97840112296741,
              37.292260943818604
            ],
            [
              126.97840561659315,
              37.29228221363332
            ],
            [
              126.97843480205107,
              37.292278311156146
            ]
          ]
        ]
      }
    },
    {
      "type": "Feature",
      "properties": {
        "indoor": "room",
        "level": "8",
        "ref": "",
        "name": "",
        "room_type": "",
        "_idx": 13,
        "_centroid": [
          126.9783946,
          37.2922678
        ],
        "_area_m2": 12.4
      },
      "geometry": {
        "type": "Polygon",
        "coordinates": [
          [
            [
              126.97841076197527,
              37.292306568426284
            ],
            [
              126.9783939612524,
              37.29222704505613
            ],
            [
              126.97837848753146,
              37.29222911409498
            ],
            [
              126.97839528825325,
              37.29230863746338
            ],
            [
              126.97841076197527,
              37.292306568426284
            ]
          ]
        ]
      }
    },
    {
      "type": "Feature",
      "properties": {
        "indoor": "room",
        "level": "8",
        "ref": "",
        "name": "",
        "room_type": "",
        "_idx": 14,
        "_centroid": [
          126.9784984,
          37.2922621
        ],
        "_area_m2": 53.0
      },
      "geometry": {
        "type": "Polygon",
        "coordinates": [
          [
            [
              126.97845460504637,
              37.29221893618409
            ],
            [
              126.97847140576867,
              37.29229845956546
            ],
            [
              126.97850741388272,
              37.292293644814116
            ],
            [
              126.97853772473589,
              37.29228959186037
            ],
            [
              126.97852092401598,
              37.29221006846772
            ],
            [
              126.97845460504637,
              37.29221893618409
            ]
          ]
        ]
      }
    },
    {
      "type": "Feature",
      "properties": {
        "indoor": "room",
        "level": "8",
        "ref": "",
        "name": "",
        "room_type": "",
        "_idx": 15,
        "_centroid": [
          126.9784473,
          37.2922608
        ],
        "_area_m2": 25.1
      },
      "geometry": {
        "type": "Polygon",
        "coordinates": [
          [
            [
              126.97845460504637,
              37.29221893618409
            ],
            [
              126.97842314671131,
              37.29222314257692
            ],
            [
              126.97843994743597,
              37.292302665952086
            ],
            [
              126.97847140576867,
              37.29229845956546
            ],
            [
              126.97845460504637,
              37.29221893618409
            ]
          ]
        ]
      }
    },
    {
      "type": "Feature",
      "properties": {
        "indoor": "room",
        "level": "8",
        "ref": "",
        "name": "",
        "room_type": "",
        "_idx": 16,
        "_centroid": [
          126.9780735,
          37.2922541
        ],
        "_area_m2": 322.9
      },
      "geometry": {
        "type": "Polygon",
        "coordinates": [
          [
            [
              126.97812847329162,
              37.29232711992462
            ],
            [
              126.9781246940909,
              37.292309309718256
            ],
            [
              126.97814753396585,
              37.292306242357135
            ],
            [
              126.97812341379273,
              37.29219807200783
            ],
            [
              126.97810176392795,
              37.29220096687207
            ],
            [
              126.97809258564594,
              37.29215752285351
            ],
            [
              126.9779158113952,
              37.29218262754596
            ],
            [
              126.97795346633019,
              37.29235062308684
            ],
            [
              126.97812847329162,
              37.29232711992462
            ]
          ]
        ]
      }
    },
    {
      "type": "Feature",
      "properties": {
        "indoor": "room",
        "level": "8",
        "ref": "",
        "name": "",
        "room_type": "",
        "_idx": 17,
        "_centroid": [
          126.9785549,
          37.2922464
        ],
        "_area_m2": 46.8
      },
      "geometry": {
        "type": "Polygon",
        "coordinates": [
          [
            [
              126.97857950739802,
              37.29220223510266
            ],
            [
              126.97852676421941,
              37.29220928755606
            ],
            [
              126.97852092401598,
              37.29221006846772
            ],
            [
              126.97853772473589,
              37.29228959186037
            ],
            [
              126.97856792478217,
              37.292285553722934
            ],
            [
              126.97859630811114,
              37.292281758504146
            ],
            [
              126.97857950739802,
              37.29220223510266
            ]
          ]
        ]
      }
    },
    {
      "type": "Feature",
      "properties": {
        "indoor": "room",
        "level": "8",
        "ref": "",
        "name": "",
        "room_type": "",
        "_idx": 18,
        "_centroid": [
          126.9784142,
          37.2922385
        ],
        "_area_m2": 9.9
      },
      "geometry": {
        "type": "Polygon",
        "coordinates": [
          [
            [
              126.97843030842466,
              37.292257041340434
            ],
            [
              126.97842630630026,
              37.29223809796068
            ],
            [
              126.97842314671131,
              37.29222314257692
            ],
            [
              126.97841020220625,
              37.2922248734273
            ],
            [
              126.9783939612524,
              37.29222704505613
            ],
            [
              126.97840112296741,
              37.292260943818604
            ],
            [
              126.97843030842466,
              37.292257041340434
            ]
          ]
        ]
      }
    },
    {
      "type": "Feature",
      "properties": {
        "indoor": "room",
        "level": "8",
        "ref": "",
        "name": "",
        "room_type": "",
        "_idx": 19,
        "_centroid": [
          126.9786806,
          37.2922347
        ],
        "_area_m2": 28.9
      },
      "geometry": {
        "type": "Polygon",
        "coordinates": [
          [
            [
              126.97869392435813,
              37.2921971449832
            ],
            [
              126.97865251787972,
              37.292202681574494
            ],
            [
              126.97866722103949,
              37.29227227652694
            ],
            [
              126.97870862751658,
              37.29226673994452
            ],
            [
              126.97869392435813,
              37.2921971449832
            ]
          ]
        ]
      }
    },
    {
      "type": "Feature",
      "properties": {
        "indoor": "room",
        "level": "8",
        "ref": "",
        "name": "",
        "room_type": "",
        "_idx": 20,
        "_centroid": [
          126.9786215,
          37.2922303
        ],
        "_area_m2": 56.6
      },
      "geometry": {
        "type": "Polygon",
        "coordinates": [
          [
            [
              126.97857950739802,
              37.29220223510266
            ],
            [
              126.97859630811114,
              37.292281758504146
            ],
            [
              126.97860610784943,
              37.29228044815218
            ],
            [
              126.97863279630259,
              37.29227687956024
            ],
            [
              126.97866722103949,
              37.29227227652694
            ],
            [
              126.97865251787972,
              37.292202681574494
            ],
            [
              126.97865042031903,
              37.29219275311513
            ],
            [
              126.97862949817342,
              37.29219555068163
            ],
            [
              126.97861599559113,
              37.29219735615365
            ],
            [
              126.97858504713406,
              37.29220149436743
            ],
            [
              126.97857950739802,
              37.29220223510266
            ]
          ]
        ]
      }
    },
    {
      "type": "Feature",
      "properties": {
        "indoor": "room",
        "level": "8",
        "ref": "",
        "name": "",
        "room_type": "",
        "_idx": 21,
        "_centroid": [
          126.9781559,
          37.2921917
        ],
        "_area_m2": 54.9
      },
      "geometry": {
        "type": "Polygon",
        "coordinates": [
          [
            [
              126.9781137412421,
              37.29215469407775
            ],
            [
              126.97813220580065,
              37.29223750103686
            ],
            [
              126.97819760605526,
              37.2922287248102
            ],
            [
              126.97818011379145,
              37.29214581918783
            ],
            [
              126.9781137412421,
              37.29215469407775
            ]
          ]
        ]
      }
    },
    {
      "type": "Feature",
      "properties": {
        "indoor": "room",
        "level": "8",
        "ref": "",
        "name": "",
        "room_type": "",
        "_idx": 22,
        "_centroid": [
          126.9781079,
          37.2921778
        ],
        "_area_m2": 9.3
      },
      "geometry": {
        "type": "Polygon",
        "coordinates": [
          [
            [
              126.97811374124207,
              37.292154694077745
            ],
            [
              126.97809258564594,
              37.29215752285351
            ],
            [
              126.97810176392795,
              37.29220096687207
            ],
            [
              126.97812341379273,
              37.29219807200783
            ],
            [
              126.97811374124207,
              37.292154694077745
            ]
          ]
        ]
      }
    },
    {
      "type": "Feature",
      "properties": {
        "indoor": "room",
        "level": "8",
        "ref": "",
        "name": "",
        "room_type": "",
        "_idx": 23,
        "_centroid": [
          126.9782507,
          37.2921699
        ],
        "_area_m2": 101.6
      },
      "geometry": {
        "type": "Polygon",
        "coordinates": [
          [
            [
              126.97830789805309,
              37.29213491506187
            ],
            [
              126.97824763068499,
              37.292142969467974
            ],
            [
              126.97824636124322,
              37.292136961004694
            ],
            [
              126.97824229265375,
              37.29213750505046
            ],
            [
              126.97818011379145,
              37.29214581918783
            ],
            [
              126.97819760605526,
              37.2922287248102
            ],
            [
              126.97825978490886,
              37.29222030181629
            ],
            [
              126.97832411980755,
              37.29221169939734
            ],
            [
              126.97830789805309,
              37.29213491506187
            ]
          ]
        ]
      }
    },
    {
      "type": "Feature",
      "properties": {
        "indoor": "room",
        "level": "8",
        "ref": "",
        "name": "",
        "room_type": "",
        "_idx": 24,
        "_centroid": [
          126.9783434,
          37.2921666
        ],
        "_area_m2": 46.6
      },
      "geometry": {
        "type": "Polygon",
        "coordinates": [
          [
            [
              126.97836269981836,
              37.2921214050167
            ],
            [
              126.9783066275505,
              37.292128902622736
            ],
            [
              126.97832411980755,
              37.29221169939734
            ],
            [
              126.97838019207484,
              37.29220420180047
            ],
            [
              126.97836269981836,
              37.2921214050167
            ]
          ]
        ]
      }
    },
    {
      "type": "Feature",
      "properties": {
        "indoor": "room",
        "level": "8",
        "ref": "",
        "name": "",
        "room_type": "",
        "_idx": 25,
        "_centroid": [
          126.9784135,
          37.2921633
        ],
        "_area_m2": 59.3
      },
      "geometry": {
        "type": "Polygon",
        "coordinates": [
          [
            [
              126.97845149978943,
              37.29219466701834
            ],
            [
              126.97843400752623,
              37.29211187022579
            ],
            [
              126.97839861361344,
              37.292116602864205
            ],
            [
              126.97836269981836,
              37.2921214050167
            ],
            [
              126.97838019207938,
              37.292204201799876
            ],
            [
              126.9784161058755,
              37.29219939965156
            ],
            [
              126.97845149978717,
              37.29219466701865
            ],
            [
              126.97845149978943,
              37.29219466701834
            ]
          ]
        ]
      }
    },
    {
      "type": "Feature",
      "properties": {
        "indoor": "room",
        "level": "8",
        "ref": "",
        "name": "",
        "room_type": "",
        "_idx": 26,
        "_centroid": [
          126.9784775,
          37.2921439
        ],
        "_area_m2": 54.7
      },
      "geometry": {
        "type": "Polygon",
        "coordinates": [
          [
            [
              126.97843400752623,
              37.29211187022579
            ],
            [
              126.97845149978943,
              37.29219466701834
            ],
            [
              126.9784821426904,
              37.292190569658246
            ],
            [
              126.97851604325304,
              37.29218603670581
            ],
            [
              126.97851726678326,
              37.292185873103676
            ],
            [
              126.97849977452132,
              37.29210307630099
            ],
            [
              126.97849855099255,
              37.29210323990311
            ],
            [
              126.97846465042952,
              37.29210777286074
            ],
            [
              126.97843400752625,
              37.29211187022579
            ],
            [
              126.97843400752623,
              37.29211187022579
            ]
          ]
        ]
      }
    },
    {
      "type": "Feature",
      "properties": {
        "indoor": "room",
        "level": "8",
        "ref": "",
        "name": "",
        "room_type": "",
        "_idx": 27,
        "_centroid": [
          126.9785482,
          37.2921392
        ],
        "_area_m2": 52.5
      },
      "geometry": {
        "type": "Polygon",
        "coordinates": [
          [
            [
              126.97853959132378,
              37.2920977522632
            ],
            [
              126.9785187755941,
              37.29210053560403
            ],
            [
              126.97849977452132,
              37.29210307630099
            ],
            [
              126.97851726678326,
              37.292185873103676
            ],
            [
              126.97854512616891,
              37.292182147936295
            ],
            [
              126.97857788993574,
              37.29217776698845
            ],
            [
              126.978580350008,
              37.292177438044334
            ],
            [
              126.97858035000867,
              37.29217743804424
            ],
            [
              126.97856285774756,
              37.29209464123189
            ],
            [
              126.97856039767353,
              37.29209497017661
            ],
            [
              126.97853959132378,
              37.2920977522632
            ]
          ]
        ]
      }
    },
    {
      "type": "Feature",
      "properties": {
        "indoor": "room",
        "level": "8",
        "ref": "",
        "name": "",
        "room_type": "",
        "_idx": 28,
        "_centroid": [
          126.978595,
          37.2921244
        ],
        "_area_m2": 52.3
      },
      "geometry": {
        "type": "Polygon",
        "coordinates": [
          [
            [
              126.97856285774756,
              37.29209464123189
            ],
            [
              126.97858035000867,
              37.29217743804424
            ],
            [
              126.97864324904421,
              37.292169027613426
            ],
            [
              126.97862575678319,
              37.29208623079154
            ],
            [
              126.97856285774758,
              37.29209464123189
            ],
            [
              126.97856285774756,
              37.29209464123189
            ]
          ]
        ]
      }
    }
  ]
}