{
  "type": "FeatureCollection",
  "features": [
    {
      "type": "Feature",
      "properties": {
        "indoor": "room",
        "level": "1",
        "ref": "",
        "name": "",
        "room_type": "",
        "_idx": 1,
        "_centroid": [
          126.9779832,
          37.2923229
        ],
        "_area_m2": 55.2
      },
      "geometry": {
        "type": "Polygon",
        "coordinates": [
          [
            [
              126.9780261326505,
              37.29235799834993
            ],
            [
              126.97800933192079,
              37.2922784750278
            ],
            [
              126.97794017733302,
              37.29228772190056
            ],
            [
              126.9779569780531,
              37.29236724521551
            ],
            [
              126.9780261326505,
              37.29235799834993
            ]
          ]
        ]
      }
    },
    {
      "type": "Feature",
      "properties": {
        "indoor": "room",
        "level": "1",
        "ref": "",
        "name": "",
        "room_type": "",
        "_idx": 2,
        "_centroid": [
          126.9780493,
          37.292314
        ],
        "_area_m2": 50.4
      },
      "geometry": {
        "type": "Polygon",
        "coordinates": [
          [
            [
              126.97808926669123,
              37.29234955651077
            ],
            [
              126.97807246596749,
              37.29227003318011
            ],
            [
              126.97800933192079,
              37.2922784750278
            ],
            [
              126.9780261326505,
              37.29235799834993
            ],
            [
              126.97808926669123,
              37.29234955651077
            ]
          ]
        ]
      }
    },
    {
      "type": "Feature",
      "properties": {
        "indoor": "room",
        "level": "1",
        "ref": "",
        "name": "",
        "room_type": "",
        "_idx": 3,
        "_centroid": [
          126.9781138,
          37.2923054
        ],
        "_area_m2": 52.7
      },
      "geometry": {
        "type": "Polygon",
        "coordinates": [
          [
            [
              126.97815522567905,
              37.29234073693959
            ],
            [
              126.97813842495572,
              37.292261213600796
            ],
            [
              126.97807246596749,
              37.29227003318011
            ],
            [
              126.97808926669123,
              37.29234955651077
            ],
            [
              126.97815522567905,
              37.29234073693959
            ]
          ]
        ]
      }
    },
    {
      "type": "Feature",
      "properties": {
        "indoor": "room",
        "level": "1",
        "ref": "",
        "name": "",
        "room_type": "",
        "_idx": 4,
        "_centroid": [
          126.978178,
          37.2922968
        ],
        "_area_m2": 49.9
      },
      "geometry": {
        "type": "Polygon",
        "coordinates": [
          [
            [
              126.97821764348811,
              37.292332390869895
            ],
            [
              126.97820084276589,
              37.2922528675233
            ],
            [
              126.97813842495572,
              37.292261213600796
            ],
            [
              126.97815522567905,
              37.29234073693959
            ],
            [
              126.97821764348811,
              37.292332390869895
            ]
          ]
        ]
      }
    },
    {
      "type": "Feature",
      "properties": {
        "indoor": "room",
        "level": "1",
        "ref": "",
        "name": "",
        "room_type": "",
        "_idx": 5,
        "_centroid": [
          126.9782165,
          37.2922917
        ],
        "_area_m2": 11.6
      },
      "geometry": {
        "type": "Polygon",
        "coordinates": [
          [
            [
              126.97823217036607,
              37.29233044843811
            ],
            [
              126.9782153696439,
              37.29225092508974
            ],
            [
              126.97820084276589,
              37.2922528675233
            ],
            [
              126.97821764348811,
              37.292332390869895
            ],
            [
              126.97823217036607,
              37.29233044843811
            ]
          ]
        ]
      }
    },
    {
      "type": "Feature",
      "properties": {
        "indoor": "room",
        "level": "1",
        "ref": "",
        "name": "",
        "room_type": "",
        "_idx": 6,
        "_centroid": [
          126.9782401,
          37.2922885
        ],
        "_area_m2": 26.1
      },
      "geometry": {
        "type": "Polygon",
        "coordinates": [
          [
            [
              126.978264823277,
              37.2923260823209
            ],
            [
              126.97824802255337,
              37.29224655896871
            ],
            [
              126.9782153696439,
              37.29225092508974
            ],
            [
              126.97823217036607,
              37.29233044843811
            ],
            [
              126.978264823277,
              37.2923260823209
            ]
          ]
        ]
      }
    },
    {
      "type": "Feature",
      "properties": {
        "indoor": "room",
        "level": "1",
        "ref": "",
        "name": "",
        "room_type": "",
        "_idx": 7,
        "_centroid": [
          126.9782704,
          37.2922845
        ],
        "_area_m2": 22.3
      },
      "geometry": {
        "type": "Polygon",
        "coordinates": [
          [
            [
              126.97829273484788,
              37.292322350182275
            ],
            [
              126.97827593412393,
              37.292242826826715
            ],
            [
              126.97824802255337,
              37.29224655896871
            ],
            [
              126.978264823277,
              37.2923260823209
            ],
            [
              126.97829273484788,
              37.292322350182275
            ]
          ]
        ]
      }
    },
    {
      "type": "Feature",
      "properties": {
        "indoor": "room",
        "level": "1",
        "ref": "",
        "name": "",
        "room_type": "",
        "_idx": 8,
        "_centroid": [
          126.9783382,
          37.2922754
        ],
        "_area_m2": 22.1
      },
      "geometry": {
        "type": "Polygon",
        "coordinates": [
          [
            [
              126.97836044084762,
              37.29231329701297
            ],
            [
              126.978343640126,
              37.29223377364881
            ],
            [
              126.97831599578741,
              37.292237470058396
            ],
            [
              126.9783327965094,
              37.29231699341912
            ],
            [
              126.97836044084762,
              37.29231329701297
            ]
          ]
        ]
      }
    },
    {
      "type": "Feature",
      "properties": {
        "indoor": "room",
        "level": "1",
        "ref": "",
        "name": "",
        "room_type": "",
        "_idx": 9,
        "_centroid": [
          126.9783695,
          37.2922712
        ],
        "_area_m2": 27.8
      },
      "geometry": {
        "type": "Polygon",
        "coordinates": [
          [
            [
              126.97839528825325,
              37.29230863746338
            ],
            [
              126.97837848753146,
              37.29222911409498
            ],
            [
              126.978343640126,
              37.29223377364881
            ],
            [
              126.97836044084762,
              37.29231329701297
            ],
            [
              126.97839528825325,
              37.29230863746338
            ]
          ]
        ]
      }
    },
    {
      "type": "Feature",
      "properties": {
        "indoor": "room",
        "level": "1",
        "ref": "",
        "name": "",
        "room_type": "",
        "_idx": 10,
        "_centroid": [
          126.9783946,
          37.2922678
        ],
        "_area_m2": 12.4
      },
      "geometry": {
        "type": "Polygon",
        "coordinates": [
          [
            [
              126.97841076197527,
              37.292306568426284
            ],
            [
              126.9783939612524,
              37.29222704505613
            ],
            [
              126.97837848753146,
              37.29222911409498
            ],
            [
              126.97839528825325,
              37.29230863746338
            ],
            [
              126.97841076197527,
              37.292306568426284
            ]
          ]
        ]
      }
    },
    {
      "type": "Feature",
      "properties": {
        "indoor": "room",
        "level": "1",
        "ref": "",
        "name": "",
        "room_type": "",
        "_idx": 11,
        "_centroid": [
          126.9784534,
          37.2922518
        ],
        "_area_m2": 77.2
      },
      "geometry": {
        "type": "Polygon",
        "coordinates": [
          [
            [
              126.97846416662513,
              37.2922176576753
            ],
            [
              126.9783939612524,
              37.29222704505613
            ],
            [
              126.97841076197527,
              37.292306568426284
            ],
            [
              126.97850741388272,
              37.292293644814116
            ],
            [
              126.97849061316263,
              37.292214121425445
            ],
            [
              126.97846416662513,
              37.2922176576753
            ]
          ]
        ]
      }
    },
    {
      "type": "Feature",
      "properties": {
        "indoor": "room",
        "level": "1",
        "ref": "",
        "name": "",
        "room_type": "",
        "_idx": 12,
        "_centroid": [
          126.9785293,
          37.2922498
        ],
        "_area_m2": 48.3
      },
      "geometry": {
        "type": "Polygon",
        "coordinates": [
          [
            [
              126.97856792478217,
              37.292285553722934
            ],
            [
              126.97855112406236,
              37.29220603032613
            ],
            [
              126.97849061316263,
              37.292214121425445
            ],
            [
              126.97850741388272,
              37.292293644814116
            ],
            [
              126.97856792478217,
              37.292285553722934
            ]
          ]
        ]
      }
    },
    {
      "type": "Feature",
      "properties": {
        "indoor": "room",
        "level": "1",
        "ref": "",
        "name": "",
        "room_type": "",
        "_idx": 13,
        "_centroid": [
          126.9785786,
          37.2922432
        ],
        "_area_m2": 30.5
      },
      "geometry": {
        "type": "Polygon",
        "coordinates": [
          [
            [
              126.97860610784943,
              37.29228044815218
            ],
            [
              126.97858930713068,
              37.29220092475011
            ],
            [
              126.97855112406236,
              37.29220603032613
            ],
            [
              126.97856792478217,
              37.292285553722934
            ],
            [
              126.97860610784943,
              37.29228044815218
            ]
          ]
        ]
      }
    },
    {
      "type": "Feature",
      "properties": {
        "indoor": "room",
        "level": "1",
        "ref": "",
        "name": "",
        "room_type": "",
        "_idx": 14,
        "_centroid": [
          126.9786806,
          37.2922347
        ],
        "_area_m2": 28.9
      },
      "geometry": {
        "type": "Polygon",
        "coordinates": [
          [
            [
              126.97869392435813,
              37.2921971449832
            ],
            [
              126.97865251787972,
              37.292202681574494
            ],
            [
              126.97866722103949,
              37.29227227652694
            ],
            [
              126.97870862751658,
              37.29226673994452
            ],
            [
              126.97869392435813,
              37.2921971449832
            ]
          ]
        ]
      }
    },
    {
      "type": "Feature",
      "properties": {
        "indoor": "room",
        "level": "1",
        "ref": "",
        "name": "",
        "room_type": "",
        "_idx": 15,
        "_centroid": [
          126.9786325,
          37.2922241
        ],
        "_area_m2": 48.8
      },
      "geometry": {
        "type": "Polygon",
        "coordinates": [
          [
            [
              126.97866722103949,
              37.29227227652694
            ],
            [
              126.97865251787972,
              37.292202681574494
            ],
            [
              126.97865042031903,
              37.29219275311513
            ],
            [
              126.97862949817342,
              37.29219555068163
            ],
            [
              126.97858930713068,
              37.29220092475011
            ],
            [
              126.97860610784943,
              37.29228044815218
            ],
            [
              126.97866722103949,
              37.29227227652694
            ]
          ]
        ]
      }
    },
    {
      "type": "Feature",
      "properties": {
        "indoor": "room",
        "level": "1",
        "ref": "",
        "name": "",
        "room_type": "",
        "_idx": 16,
        "_centroid": [
          126.9779481,
          37.2922195
        ],
        "_area_m2": 28.3
      },
      "geometry": {
        "type": "Polygon",
        "coordinates": [
          [
            [
              126.97795639326978,
              37.29217573358802
            ],
            [
              126.97792238622021,
              37.29218028078043
            ],
            [
              126.97793990148395,
              37.29226318636482
            ],
            [
              126.97797390853425,
              37.292258639176424
            ],
            [
              126.97795639326978,
              37.29217573358802
            ]
          ]
        ]
      }
    },
    {
      "type": "Feature",
      "properties": {
        "indoor": "room",
        "level": "1",
        "ref": "",
        "name": "",
        "room_type": "",
        "_idx": 17,
        "_centroid": [
          126.9780116,
          37.292211
        ],
        "_area_m2": 77.4
      },
      "geometry": {
        "type": "Polygon",
        "coordinates": [
          [
            [
              126.97795639326978,
              37.29217573358802
            ],
            [
              126.97797390853425,
              37.292258639176424
            ],
            [
              126.97806690023364,
              37.29224620496726
            ],
            [
              126.97804938497056,
              37.29216329936459
            ],
            [
              126.97795639326978,
              37.29217573358802
            ]
          ]
        ]
      }
    },
    {
      "type": "Feature",
      "properties": {
        "indoor": "room",
        "level": "1",
        "ref": "",
        "name": "",
        "room_type": "",
        "_idx": 18,
        "_centroid": [
          126.9780903,
          37.2922004
        ],
        "_area_m2": 53.6
      },
      "geometry": {
        "type": "Polygon",
        "coordinates": [
          [
            [
              126.97804938497056,
              37.29216329936459
            ],
            [
              126.97806690023364,
              37.29224620496726
            ],
            [
              126.97813125650555,
              37.29223759969011
            ],
            [
              126.9781137412421,
              37.29215469407775
            ],
            [
              126.97804938497056,
              37.29216329936459
            ]
          ]
        ]
      }
    },
    {
      "type": "Feature",
      "properties": {
        "indoor": "room",
        "level": "1",
        "ref": "",
        "name": "",
        "room_type": "",
        "_idx": 19,
        "_centroid": [
          126.9781557,
          37.2921917
        ],
        "_area_m2": 55.3
      },
      "geometry": {
        "type": "Polygon",
        "coordinates": [
          [
            [
              126.9781137412421,
              37.29215469407775
            ],
            [
              126.97813125650555,
              37.29223759969011
            ],
            [
              126.9781976290552,
              37.2922287248102
            ],
            [
              126.97818011379145,
              37.29214581918783
            ],
            [
              126.9781137412421,
              37.29215469407775
            ]
          ]
        ]
      }
    },
    {
      "type": "Feature",
      "properties": {
        "indoor": "room",
        "level": "1",
        "ref": "",
        "name": "",
        "room_type": "",
        "_idx": 20,
        "_centroid": [
          126.9782287,
          37.2921901
        ],
        "_area_m2": 51.4
      },
      "geometry": {
        "type": "Polygon",
        "coordinates": [
          [
            [
              126.9781976290552,
              37.2922287248102
            ],
            [
              126.97827391515723,
              37.29221852435476
            ],
            [
              126.97825973923459,
              37.29215142495661
            ],
            [
              126.97818345313256,
              37.292161625421144
            ],
            [
              126.9781976290552,
              37.2922287248102
            ]
          ]
        ]
      }
    },
    {
      "type": "Feature",
      "properties": {
        "indoor": "room",
        "level": "1",
        "ref": "",
        "name": "",
        "room_type": "",
        "_idx": 21,
        "_centroid": [
          126.9783351,
          37.2921758
        ],
        "_area_m2": 51.1
      },
      "geometry": {
        "type": "Polygon",
        "coordinates": [
          [
            [
              126.97838019207937,
              37.292204201799876
            ],
            [
              126.97836603915842,
              37.29213721124872
            ],
            [
              126.97829002300138,
              37.29214737561769
            ],
            [
              126.97830417592233,
              37.29221436615978
            ],
            [
              126.97838019207937,
              37.292204201799876
            ]
          ]
        ]
      }
    },
    {
      "type": "Feature",
      "properties": {
        "indoor": "room",
        "level": "1",
        "ref": "",
        "name": "",
        "room_type": "",
        "_idx": 22,
        "_centroid": [
          126.9783894,
          37.2921604
        ],
        "_area_m2": 29.9
      },
      "geometry": {
        "type": "Polygon",
        "coordinates": [
          [
            [
              126.97839861361344,
              37.292116602864205
            ],
            [
              126.97836269981836,
              37.2921214050167
            ],
            [
              126.97838019207938,
              37.292204201799876
            ],
            [
              126.9784161058755,
              37.29219939965156
            ],
            [
              126.97839861361344,
              37.292116602864205
            ]
          ]
        ]
      }
    },
    {
      "type": "Feature",
      "properties": {
        "indoor": "room",
        "level": "1",
        "ref": "",
        "name": "",
        "room_type": "",
        "_idx": 23,
        "_centroid": [
          126.9784251,
          37.2921556
        ],
        "_area_m2": 29.4
      },
      "geometry": {
        "type": "Polygon",
        "coordinates": [
          [
            [
              126.97839861361344,
              37.292116602864205
            ],
            [
              126.9784161058755,
              37.29219939965156
            ],
            [
              126.97845149978717,
              37.29219466701865
            ],
            [
              126.97843400752625,
              37.29211187022579
            ],
            [
              126.97839861361344,
              37.292116602864205
            ]
          ]
        ]
      }
    },
    {
      "type": "Feature",
      "properties": {
        "indoor": "room",
        "level": "1",
        "ref": "",
        "name": "",
        "room_type": "",
        "_idx": 24,
        "_centroid": [
          126.9784581,
          37.2921512
        ],
        "_area_m2": 25.5
      },
      "geometry": {
        "type": "Polygon",
        "coordinates": [
          [
            [
              126.97843400752625,
              37.29211187022579
            ],
            [
              126.97845149978717,
              37.29219466701865
            ],
            [
              126.9784821426904,
              37.292190569658246
            ],
            [
              126.97846465042952,
              37.29210777286074
            ],
            [
              126.97843400752625,
              37.29211187022579
            ]
          ]
        ]
      }
    },
    {
      "type": "Feature",
      "properties": {
        "indoor": "room",
        "level": "1",
        "ref": "",
        "name": "",
        "room_type": "",
        "_idx": 25,
        "_centroid": [
          126.9784903,
          37.2921469
        ],
        "_area_m2": 28.2
      },
      "geometry": {
        "type": "Polygon",
        "coordinates": [
          [
            [
              126.97846465042952,
              37.29210777286074
            ],
            [
              126.9784821426904,
              37.292190569658246
            ],
            [
              126.97851604325304,
              37.29218603670581
            ],
            [
              126.97849855099255,
              37.29210323990311
            ],
            [
              126.97846465042952,
              37.29210777286074
            ]
          ]
        ]
      }
    },
    {
      "type": "Feature",
      "properties": {
        "indoor": "room",
        "level": "1",
        "ref": "",
        "name": "",
        "room_type": "",
        "_idx": 26,
        "_centroid": [
          126.9785218,
          37.2921427
        ],
        "_area_m2": 24.2
      },
      "geometry": {
        "type": "Polygon",
        "coordinates": [
          [
            [
              126.97849855099255,
              37.29210323990311
            ],
            [
              126.97851604325304,
              37.29218603670581
            ],
            [
              126.97854512616891,
              37.292182147936295
            ],
            [
              126.97852763390844,
              37.29209935112919
            ],
            [
              126.97849855099255,
              37.29210323990311
            ]
          ]
        ]
      }
    },
    {
      "type": "Feature",
      "properties": {
        "indoor": "room",
        "level": "1",
        "ref": "",
        "name": "",
        "room_type": "",
        "_idx": 27,
        "_centroid": [
          126.978554,
          37.2921384
        ],
        "_area_m2": 29.3
      },
      "geometry": {
        "type": "Polygon",
        "coordinates": [
          [
            [
              126.97852763390844,
              37.29209935112919
            ],
            [
              126.97854512616891,
              37.292182147936295
            ],
            [
              126.978580350008,
              37.292177438044334
            ],
            [
              126.97856285774758,
              37.29209464123189
            ],
            [
              126.97852763390844,
              37.29209935112919
            ]
          ]
        ]
      }
    },
    {
      "type": "Feature",
      "properties": {
        "indoor": "room",
        "level": "1",
        "ref": "",
        "name": "",
        "room_type": "",
        "_idx": 28,
        "_centroid": [
          126.9786031,
          37.2921318
        ],
        "_area_m2": 52.3
      },
      "geometry": {
        "type": "Polygon",
        "coordinates": [
          [
            [
              126.97856285774758,
              37.29209464123189
            ],
            [
              126.978580350008,
              37.292177438044334
            ],
            [
              126.97864324904421,
              37.292169027613426
            ],
            [
              126.97862575678319,
              37.29208623079154
            ],
            [
              126.97856285774758,
              37.29209464123189
            ]
          ]
        ]
      }
    }
  ]
}