{
  "type": "FeatureCollection",
  "features": [
    {
      "type": "Feature",
      "properties": {
        "indoor": "corridor",
        "level": "8"
      },
      "geometry": {
        "type": "MultiPolygon",
        "coordinates": []
      }
    },
    {
      "type": "Feature",
      "properties": {
        "indoor": "corridor",
        "level": "8"
      },
      "geometry": {
        "type": "Polygon",
        "coordinates": [
          [
            [
              126.9783121472462,
              37.292213300289006
            ],
            [
              126.97830418204828,
              37.292214378133956
            ],
            [
              126.97831599578741,
              37.29223747005839
            ],
            [
              126.97865042031903,
              37.29219275311513
            ],
            [
              126.97864324904421,
              37.292169027613426
            ],
            [
              126.9783121472462,
              37.292213300289006
            ]
          ]
        ]
      }
    },
    {
      "type": "Feature",
      "properties": {
        "indoor": "corridor",
        "level": "8"
      },
      "geometry": {
        "type": "Polygon",
        "coordinates": [
          [
            [
              126.97830418204828,
              37.292214378133956
            ],
            [
              126.97827390477929,
              37.292218475232566
            ],
            [
              126.9782739151572,
              37.29221852435476
            ],
            [
              126.97827593412393,
              37.292242826826715
            ],
            [
              126.97829273484787,
              37.292322350182275
            ],
            [
              126.97833279650939,
              37.29231699341912
            ],
            [
              126.97831599578741,
              37.29223747005839
            ],
            [
              126.97830418204828,
              37.292214378133956
            ]
          ]
        ]
      }
    },
    {
      "type": "Feature",
      "properties": {
        "indoor": "corridor",
        "level": "8"
      },
      "geometry": {
        "type": "Polygon",
        "coordinates": [
          [
            [
              126.97830418204828,
              37.292214378133956
            ],
            [
              126.9783121472462,
              37.292213300289006
            ],
            [
              126.97830417592233,
              37.29221436615978
            ],
            [
              126.97830418204828,
              37.292214378133956
            ]
          ]
        ]
      }
    },
    {
      "type": "Feature",
      "properties": {
        "indoor": "corridor",
        "level": "8"
      },
      "geometry": {
        "type": "MultiPolygon",
        "coordinates": []
      }
    },
    {
      "type": "Feature",
      "properties": {
        "indoor": "corridor",
        "level": "8"
      },
      "geometry": {
        "type": "Polygon",
        "coordinates": [
          [
            [
              126.97813220580065,
              37.29223750103686
            ],
            [
              126.97813751288619,
              37.29226133555966
            ],
            [
              126.97827593412393,
              37.292242826826715
            ],
            [
              126.9782739151572,
              37.29221852435476
            ],
            [
              126.97813220580065,
              37.29223750103686
            ]
          ]
        ]
      }
    }
  ]
}