{
  "type": "FeatureCollection",
  "features": [
    {
      "type": "Feature",
      "properties": {
        "building": "university",
        "name": "제1종합연구동",
        "loc_ref": "RES1"
      },
      "geometry": {
        "type": "Polygon",
        "coordinates": [
          [
            [
              126.9779569780531,
              37.29236724521551
            ],
            [
              126.97799912281148,
              37.29236160991887
            ],
            [
              126.97870862751658,
              37.29226673994452
            ],
            [
              126.97867570812565,
              37.29211092138992
            ],
            [
              126.97863220210863,
              37.292116738723735
            ],
            [
              126.97862575678319,
              37.29208623079154
            ],
            [
              126.97840111145875,
              37.29211626886902
            ],
            [
              126.97836269981836,
              37.2921214050167
            ],
            [
              126.97836603915842,
              37.29213721124872
            ],
            [
              126.97818345313256,
              37.292161625421144
            ],
            [
              126.97818011379147,
              37.29214581918783
            ],
            [
              126.97796477684608,
              37.29217461259292
            ],
            [
              126.97792238622021,
              37.29218028078043
            ],
            [
              126.9779288015085,
              37.292210646489664
            ],
            [
              126.97788465183258,
              37.29221654988252
            ],
            [
              126.97791248942539,
              37.29234831441817
            ],
            [
              126.97795186621794,
              37.29234304923297
            ],
            [
              126.9779569780531,
              37.29236724521551
            ]
          ]
        ]
      }
    }
  ]
}