{
  "type": "FeatureCollection",
  "features": [
    {
      "type": "Feature",
      "properties": {
        "indoor": "room",
        "level": [
          6
        ],
        "ref": "81602",
        "name": "마약포렌식연구실",
        "room_type": "lab",
        "_idx": 1,
        "_centroid": [
          126.9779832,
          37.2923229
        ],
        "_area_m2": 55.2
      },
      "geometry": {
        "type": "Polygon",
        "coordinates": [
          [
            [
              126.97802613264737,
              37.29235799835035
            ],
            [
              126.97800933192076,
              37.2922784750278
            ],
            [
              126.97794017733302,
              37.29228772190056
            ],
            [
              126.9779569780531,
              37.29236724521551
            ],
            [
              126.97802613264737,
              37.29235799835035
            ]
          ]
        ]
      }
    },
    {
      "type": "Feature",
      "properties": {
        "indoor": "room",
        "level": [
          6
        ],
        "ref": "81604",
        "name": "공동기기원실험실",
        "room_type": "lab",
        "_idx": 2,
        "_centroid": [
          126.9780945,
          37.292308
        ],
        "_area_m2": 153
      },
      "geometry": {
        "type": "Polygon",
        "coordinates": [
          [
            [
              126.97800933192076,
              37.2922784750278
            ],
            [
              126.97802613264737,
              37.29235799835035
            ],
            [
              126.9780261326505,
              37.29235799834993
            ],
            [
              126.97808926669123,
              37.29234955651077
            ],
            [
              126.97815522567905,
              37.29234073693959
            ],
            [
              126.97821764348811,
              37.292332390869895
            ],
            [
              126.97820084276589,
              37.2922528675233
            ],
            [
              126.97813842495572,
              37.292261213600796
            ],
            [
              126.97807246596749,
              37.29227003318011
            ],
            [
              126.97800933192079,
              37.2922784750278
            ],
            [
              126.97800933192076,
              37.2922784750278
            ]
          ]
        ]
      }
    },
    {
      "type": "Feature",
      "properties": {
        "indoor": "room",
        "level": [
          6
        ],
        "ref": "",
        "name": "",
        "room_type": "reserved",
        "_idx": 3,
        "_centroid": [
          126.9782165,
          37.2922917
        ],
        "_area_m2": 11.6
      },
      "geometry": {
        "type": "Polygon",
        "coordinates": [
          [
            [
              126.97823217036607,
              37.29233044843811
            ],
            [
              126.9782153696439,
              37.29225092508974
            ],
            [
              126.97820084276589,
              37.2922528675233
            ],
            [
              126.97821764348811,
              37.292332390869895
            ],
            [
              126.97823217036607,
              37.29233044843811
            ]
          ]
        ]
      }
    },
    {
      "type": "Feature",
      "properties": {
        "indoor": "room",
        "level": [
          6
        ],
        "ref": "",
        "name": "",
        "room_type": "restroom",
        "_idx": 4,
        "_centroid": [
          126.9782401,
          37.2922885
        ],
        "_area_m2": 26.1
      },
      "geometry": {
        "type": "Polygon",
        "coordinates": [
          [
            [
              126.978264823277,
              37.2923260823209
            ],
            [
              126.97824802255337,
              37.29224655896871
            ],
            [
              126.9782153696439,
              37.29225092508974
            ],
            [
              126.97823217036607,
              37.29233044843811
            ],
            [
              126.978264823277,
              37.2923260823209
            ]
          ]
        ]
      }
    },
    {
      "type": "Feature",
      "properties": {
        "indoor": "room",
        "level": [
          6
        ],
        "ref": "",
        "name": "",
        "room_type": "elevator",
        "_idx": 5,
        "_centroid": [
          126.9782704,
          37.2922845
        ],
        "_area_m2": 22.3
      },
      "geometry": {
        "type": "Polygon",
        "coordinates": [
          [
            [
              126.97829273484788,
              37.292322350182275
            ],
            [
              126.97827593412393,
              37.292242826826715
            ],
            [
              126.97824802255337,
              37.29224655896871
            ],
            [
              126.978264823277,
              37.2923260823209
            ],
            [
              126.97829273484788,
              37.292322350182275
            ]
          ]
        ]
      }
    },
    {
      "type": "Feature",
      "properties": {
        "indoor": "room",
        "level": [
          6
        ],
        "ref": "",
        "name": "",
        "room_type": "reserved",
        "_idx": 6,
        "_centroid": [
          126.9784832,
          37.292277
        ],
        "_area_m2": 12.3
      },
      "geometry": {
        "type": "Polygon",
        "coordinates": [
          [
            [
              126.97849491600962,
              37.29225545785451
            ],
            [
              126.97846321638656,
              37.292259696508395
            ],
            [
              126.97847140576867,
              37.29229845956546
            ],
            [
              126.97850310539077,
              37.29229422091531
            ],
            [
              126.97849491600962,
              37.29225545785451
            ]
          ]
        ]
      }
    },
    {
      "type": "Feature",
      "properties": {
        "indoor": "room",
        "level": [
          6
        ],
        "ref": "",
        "name": "",
        "room_type": "reserved",
        "_idx": 7,
        "_centroid": [
          126.9785145,
          37.2922767
        ],
        "_area_m2": 13.5
      },
      "geometry": {
        "type": "Polygon",
        "coordinates": [
          [
            [
              126.97852953535231,
              37.29225082879596
            ],
            [
              126.97849491600962,
              37.29225545785451
            ],
            [
              126.97850310539077,
              37.29229422091531
            ],
            [
              126.97850741388272,
              37.292293644814116
            ],
            [
              126.97853772473589,
              37.29228959186037
            ],
            [
              126.97852953535231,
              37.29225082879596
            ]
          ]
        ]
      }
    },
    {
      "type": "Feature",
      "properties": {
        "indoor": "room",
        "level": [
          6
        ],
        "ref": "",
        "name": "",
        "room_type": "stairs",
        "_idx": 8,
        "_centroid": [
          126.9783382,
          37.2922754
        ],
        "_area_m2": 22.1
      },
      "geometry": {
        "type": "Polygon",
        "coordinates": [
          [
            [
              126.97836044084762,
              37.29231329701297
            ],
            [
              126.978343640126,
              37.29223377364881
            ],
            [
              126.97831599578741,
              37.292237470058396
            ],
            [
              126.9783327965094,
              37.29231699341912
            ],
            [
              126.97836044084762,
              37.29231329701297
            ]
          ]
        ]
      }
    },
    {
      "type": "Feature",
      "properties": {
        "indoor": "room",
        "level": [
          6
        ],
        "ref": "",
        "name": "",
        "room_type": "restroom",
        "_idx": 9,
        "_centroid": [
          126.9783695,
          37.2922712
        ],
        "_area_m2": 27.8
      },
      "geometry": {
        "type": "Polygon",
        "coordinates": [
          [
            [
              126.97839528825325,
              37.29230863746338
            ],
            [
              126.97837848753146,
              37.29222911409498
            ],
            [
              126.978343640126,
              37.29223377364881
            ],
            [
              126.97836044084762,
              37.29231329701297
            ],
            [
              126.97839528825325,
              37.29230863746338
            ]
          ]
        ]
      }
    },
    {
      "type": "Feature",
      "properties": {
        "indoor": "room",
        "level": [
          6
        ],
        "ref": "",
        "name": "",
        "room_type": "reserved",
        "_idx": 10,
        "_centroid": [
          126.9783946,
          37.2922678
        ],
        "_area_m2": 12.4
      },
      "geometry": {
        "type": "Polygon",
        "coordinates": [
          [
            [
              126.97841076197527,
              37.292306568426284
            ],
            [
              126.9783939612524,
              37.29222704505613
            ],
            [
              126.97837848753146,
              37.29222911409498
            ],
            [
              126.97839528825325,
              37.29230863746338
            ],
            [
              126.97841076197527,
              37.292306568426284
            ]
          ]
        ]
      }
    },
    {
      "type": "Feature",
      "properties": {
        "indoor": "room",
        "level": [
          6
        ],
        "ref": "81610",
        "name": "방사성동위원소중앙실험실",
        "room_type": "lab",
        "_idx": 11,
        "_centroid": [
          126.9785629,
          37.2922622
        ],
        "_area_m2": 35.3
      },
      "geometry": {
        "type": "Polygon",
        "coordinates": [
          [
            [
              126.97858568244493,
              37.29222325052908
            ],
            [
              126.9785254115649,
              37.292231309537065
            ],
            [
              126.97853772473589,
              37.29228959186037
            ],
            [
              126.97856792478217,
              37.292285553722934
            ],
            [
              126.97859799560953,
              37.29228153286375
            ],
            [
              126.97858568244493,
              37.29222325052908
            ]
          ]
        ]
      }
    },
    {
      "type": "Feature",
      "properties": {
        "indoor": "room",
        "level": [
          6
        ],
        "ref": "",
        "name": "",
        "room_type": "reserved",
        "_idx": 12,
        "_centroid": [
          126.9786241,
          37.2922581
        ],
        "_area_m2": 40.5
      },
      "geometry": {
        "type": "Polygon",
        "coordinates": [
          [
            [
              126.9786549078672,
              37.29221399418123
            ],
            [
              126.97858568244493,
              37.29222325052908
            ],
            [
              126.97859799560953,
              37.29228153286375
            ],
            [
              126.97860610784943,
              37.29228044815218
            ],
            [
              126.97863279630259,
              37.29227687956024
            ],
            [
              126.97866722103949,
              37.29227227652694
            ],
            [
              126.9786549078672,
              37.29221399418123
            ]
          ]
        ]
      }
    },
    {
      "type": "Feature",
      "properties": {
        "indoor": "room",
        "level": [
          6
        ],
        "ref": "81606",
        "name": "공동기기원실험실",
        "room_type": "lab",
        "_idx": 13,
        "_centroid": [
          126.9784273,
          37.2922498
        ],
        "_area_m2": 48.4
      },
      "geometry": {
        "type": "Polygon",
        "coordinates": [
          [
            [
              126.97847140576867,
              37.29229845956546
            ],
            [
              126.97845460504637,
              37.29221893618409
            ],
            [
              126.97842314671131,
              37.29222314257692
            ],
            [
              126.97841020220625,
              37.2922248734273
            ],
            [
              126.9783939612524,
              37.29222704505613
            ],
            [
              126.97841076197527,
              37.292306568426284
            ],
            [
              126.97847140576867,
              37.29229845956546
            ]
          ]
        ]
      }
    },
    {
      "type": "Feature",
      "properties": {
        "indoor": "room",
        "level": [
          6
        ],
        "ref": "",
        "name": "",
        "room_type": "reserved",
        "_idx": 14,
        "_centroid": [
          126.9784748,
          37.2922372
        ],
        "_area_m2": 13
      },
      "geometry": {
        "type": "Polygon",
        "coordinates": [
          [
            [
              126.97846321638656,
              37.292259696508395
            ],
            [
              126.97849491600962,
              37.29225545785451
            ],
            [
              126.97848630467097,
              37.29221469752874
            ],
            [
              126.97845460504637,
              37.29221893618409
            ],
            [
              126.97846321638656,
              37.292259696508395
            ]
          ]
        ]
      }
    },
    {
      "type": "Feature",
      "properties": {
        "indoor": "room",
        "level": [
          6
        ],
        "ref": "",
        "name": "",
        "room_type": "stairs",
        "_idx": 15,
        "_centroid": [
          126.9786806,
          37.2922347
        ],
        "_area_m2": 28.9
      },
      "geometry": {
        "type": "Polygon",
        "coordinates": [
          [
            [
              126.97869392435813,
              37.2921971449832
            ],
            [
              126.97865251787972,
              37.292202681574494
            ],
            [
              126.97866722103949,
              37.29227227652694
            ],
            [
              126.97870862751658,
              37.29226673994452
            ],
            [
              126.97869392435813,
              37.2921971449832
            ]
          ]
        ]
      }
    },
    {
      "type": "Feature",
      "properties": {
        "indoor": "room",
        "level": [
          6
        ],
        "ref": "81608",
        "name": "방사성동위원소중앙관리실",
        "room_type": "lab",
        "_idx": 16,
        "_centroid": [
          126.9785109,
          37.2922298
        ],
        "_area_m2": 14.2
      },
      "geometry": {
        "type": "Polygon",
        "coordinates": [
          [
            [
              126.97852953535231,
              37.29225082879596
            ],
            [
              126.97852260362643,
              37.29221801862628
            ],
            [
              126.97852092401598,
              37.29221006846772
            ],
            [
              126.97848630467097,
              37.29221469752874
            ],
            [
              126.97849491600962,
              37.29225545785451
            ],
            [
              126.97852953535231,
              37.29225082879596
            ]
          ]
        ]
      }
    },
    {
      "type": "Feature",
      "properties": {
        "indoor": "room",
        "level": [
          6
        ],
        "ref": "81601",
        "name": "공동기기원실험실",
        "room_type": "lab",
        "_idx": 17,
        "_centroid": [
          126.9779732,
          37.2922208
        ],
        "_area_m2": 56.8
      },
      "geometry": {
        "type": "Polygon",
        "coordinates": [
          [
            [
              126.97800809637812,
              37.29225406781355
            ],
            [
              126.97799058111582,
              37.292171162219894
            ],
            [
              126.97798803180878,
              37.29217150309606
            ],
            [
              126.97795639326978,
              37.29217573358802
            ],
            [
              126.97792238622021,
              37.29218028078043
            ],
            [
              126.97793990148395,
              37.29226318636482
            ],
            [
              126.97797390853425,
              37.292258639176424
            ],
            [
              126.9779739085363,
              37.292258639176154
            ],
            [
              126.97800554707575,
              37.2922544086887
            ],
            [
              126.97800809637812,
              37.29225406781355
            ]
          ]
        ]
      }
    },
    {
      "type": "Feature",
      "properties": {
        "indoor": "room",
        "level": [
          6
        ],
        "ref": "",
        "name": "",
        "room_type": "reserved",
        "_idx": 18,
        "_centroid": [
          126.9785476,
          37.2922142
        ],
        "_area_m2": 12.9
      },
      "geometry": {
        "type": "Polygon",
        "coordinates": [
          [
            [
              126.97852139949548,
              37.2922123190714
            ],
            [
              126.9785254115649,
              37.292231309537065
            ],
            [
              126.97858568244493,
              37.29222325052908
            ],
            [
              126.97858119489725,
              37.292202009461924
            ],
            [
              126.97855112406236,
              37.29220603032613
            ],
            [
              126.97852092401598,
              37.29221006846772
            ],
            [
              126.97852139949548,
              37.2922123190714
            ]
          ]
        ]
      }
    },
    {
      "type": "Feature",
      "properties": {
        "indoor": "room",
        "level": [
          6
        ],
        "ref": "",
        "name": "",
        "room_type": "reserved",
        "_idx": 19,
        "_centroid": [
          126.9786194,
          37.2922036
        ],
        "_area_m2": 14.8
      },
      "geometry": {
        "type": "Polygon",
        "coordinates": [
          [
            [
              126.97858568244493,
              37.29222325052908
            ],
            [
              126.9786549078672,
              37.29221399418123
            ],
            [
              126.97865251787972,
              37.292202681574494
            ],
            [
              126.97865042031903,
              37.29219275311513
            ],
            [
              126.97862949817342,
              37.29219555068163
            ],
            [
              126.97861599559113,
              37.29219735615365
            ],
            [
              126.97858504713406,
              37.29220149436743
            ],
            [
              126.97858119489725,
              37.292202009461924
            ],
            [
              126.97858568244493,
              37.29222325052908
            ]
          ]
        ]
      }
    },
    {
      "type": "Feature",
      "properties": {
        "indoor": "room",
        "level": [
          6
        ],
        "ref": "81605",
        "name": "공동기기원원장실/회의실",
        "room_type": "lab",
        "_idx": 20,
        "_centroid": [
          126.9780927,
          37.2922001
        ],
        "_area_m2": 49.7
      },
      "geometry": {
        "type": "Polygon",
        "coordinates": [
          [
            [
              126.97805408142531,
              37.29216267138633
            ],
            [
              126.97807159668996,
              37.292245576989494
            ],
            [
              126.97813125650555,
              37.29223759969011
            ],
            [
              126.9781137412421,
              37.29215469407775
            ],
            [
              126.97805408142531,
              37.29216267138633
            ]
          ]
        ]
      }
    },
    {
      "type": "Feature",
      "properties": {
        "indoor": "room",
        "level": [
          6
        ],
        "ref": "81603",
        "name": "공동기기원실험실",
        "room_type": "lab",
        "_idx": 21,
        "_centroid": [
          126.9780401,
          37.2921965
        ],
        "_area_m2": 52.9
      },
      "geometry": {
        "type": "Polygon",
        "coordinates": [
          [
            [
              126.97807159668996,
              37.292245576989494
            ],
            [
              126.97805408142531,
              37.29216267138633
            ],
            [
              126.97804938497056,
              37.29216329936459
            ],
            [
              126.97804354294665,
              37.29216408052069
            ],
            [
              126.97803665339761,
              37.29216500174479
            ],
            [
              126.97799058111582,
              37.292171162219894
            ],
            [
              126.97800809637812,
              37.29225406781355
            ],
            [
              126.97806690023364,
              37.29224620496726
            ],
            [
              126.97807159668996,
              37.292245576989494
            ]
          ]
        ]
      }
    },
    {
      "type": "Feature",
      "properties": {
        "indoor": "room",
        "level": [
          6
        ],
        "ref": "81607",
        "name": "기기분석실Ⅲ",
        "room_type": "lab",
        "_idx": 22,
        "_centroid": [
          126.9781557,
          37.2921917
        ],
        "_area_m2": 55.3
      },
      "geometry": {
        "type": "Polygon",
        "coordinates": [
          [
            [
              126.9781137412421,
              37.29215469407775
            ],
            [
              126.97813125650555,
              37.29223759969011
            ],
            [
              126.9781976290552,
              37.2922287248102
            ],
            [
              126.97818011379145,
              37.29214581918783
            ],
            [
              126.9781137412421,
              37.29215469407775
            ]
          ]
        ]
      }
    },
    {
      "type": "Feature",
      "properties": {
        "indoor": "room",
        "level": [
          6
        ],
        "ref": "81609",
        "name": "공동기기원실험실",
        "room_type": "lab",
        "_idx": 23,
        "_centroid": [
          126.9782199,
          37.2921831
        ],
        "_area_m2": 51.7
      },
      "geometry": {
        "type": "Polygon",
        "coordinates": [
          [
            [
              126.97825978490886,
              37.29222030181629
            ],
            [
              126.97824229265375,
              37.29213750505046
            ],
            [
              126.97818011379145,
              37.29214581918783
            ],
            [
              126.97819760605526,
              37.29222861594377
            ],
            [
              126.97825978490886,
              37.29222030181629
            ]
          ]
        ]
      }
    },
    {
      "type": "Feature",
      "properties": {
        "indoor": "room",
        "level": [
          6
        ],
        "ref": "81611",
        "name": "공동기기원실험실",
        "room_type": "lab",
        "_idx": 24,
        "_centroid": [
          126.9782832,
          37.2921746
        ],
        "_area_m2": 53.5
      },
      "geometry": {
        "type": "Polygon",
        "coordinates": [
          [
            [
              126.97832411980755,
              37.29221169939734
            ],
            [
              126.9783066275505,
              37.292128902622736
            ],
            [
              126.97824229265375,
              37.29213750505046
            ],
            [
              126.97825978490886,
              37.29222030181629
            ],
            [
              126.97832411980755,
              37.29221169939734
            ]
          ]
        ]
      }
    },
    {
      "type": "Feature",
      "properties": {
        "indoor": "room",
        "level": [
          6
        ],
        "ref": "81613",
        "name": "",
        "room_type": "",
        "_idx": 25,
        "_centroid": [
          126.978394,
          37.2921598
        ],
        "_area_m2": 130.8
      },
      "geometry": {
        "type": "Polygon",
        "coordinates": [
          [
            [
              126.9784813810516,
              37.29219067150019
            ],
            [
              126.97846388879566,
              37.29210787470438
            ],
            [
              126.9783066275505,
              37.292128902622736
            ],
            [
              126.97832411980752,
              37.292211699397335
            ],
            [
              126.9784813810516,
              37.29219067150019
            ]
          ]
        ]
      }
    },
    {
      "type": "Feature",
      "properties": {
        "indoor": "room",
        "level": [
          6
        ],
        "ref": "81615A",
        "name": "무기분석실Ⅱ",
        "room_type": "lab",
        "_idx": 26,
        "_centroid": [
          126.9784979,
          37.2921459
        ],
        "_area_m2": 42
      },
      "geometry": {
        "type": "Polygon",
        "coordinates": [
          [
            [
              126.97853187309636,
              37.29218392004957
            ],
            [
              126.97851438083897,
              37.292101123247186
            ],
            [
              126.97846388879566,
              37.29210787470438
            ],
            [
              126.9784813810516,
              37.29219067150019
            ],
            [
              126.97853187309636,
              37.29218392004957
            ]
          ]
        ]
      }
    },
    {
      "type": "Feature",
      "properties": {
        "indoor": "room",
        "level": [
          6
        ],
        "ref": "81615B",
        "name": "공동기기원실험실",
        "room_type": "lab",
        "_idx": 27,
        "_centroid": [
          126.9785785,
          37.2921266
        ],
        "_area_m2": 92.6
      },
      "geometry": {
        "type": "Polygon",
        "coordinates": [
          [
            [
              126.97857700009466,
              37.292092750218536
            ],
            [
              126.97851438083897,
              37.292101123247186
            ],
            [
              126.97853187309636,
              37.29218392004957
            ],
            [
              126.97864324904559,
              37.29216902761998
            ],
            [
              126.97862575678856,
              37.29208623079841
            ],
            [
              126.97857700009466,
              37.292092750218536
            ]
          ]
        ]
      }
    }
  ]
}