{
  "type": "FeatureCollection",
  "features": [
    {
      "type": "Feature",
      "properties": {
        "indoor": "room",
        "level": [
          3
        ],
        "ref": "81302",
        "name": "예비",
        "room_type": "reserved",
        "_idx": 1,
        "_centroid": [
          126.9780157,
          37.2923185
        ],
        "_area_m2": 105.7
      },
      "geometry": {
        "type": "Polygon",
        "coordinates": [
          [
            [
              126.97807246596749,
              37.29227003318011
            ],
            [
              126.97800933192079,
              37.2922784750278
            ],
            [
              126.97794017733302,
              37.29228772190056
            ],
            [
              126.9779569780531,
              37.29236724521551
            ],
            [
              126.9780261326505,
              37.29235799834993
            ],
            [
              126.97808926669123,
              37.29234955651077
            ],
            [
              126.97807246596749,
              37.29227003318011
            ]
          ]
        ]
      }
    },
    {
      "type": "Feature",
      "properties": {
        "indoor": "room",
        "level": [
          3
        ],
        "ref": "81304",
        "name": "이준엽교수연구실",
        "room_type": "lab",
        "_idx": 2,
        "_centroid": [
          126.9781138,
          37.2923054
        ],
        "_area_m2": 52.7
      },
      "geometry": {
        "type": "Polygon",
        "coordinates": [
          [
            [
              126.97815522567905,
              37.29234073693959
            ],
            [
              126.97813842495572,
              37.292261213600796
            ],
            [
              126.97807246596749,
              37.29227003318011
            ],
            [
              126.97808926669123,
              37.29234955651077
            ],
            [
              126.97815522567905,
              37.29234073693959
            ]
          ]
        ]
      }
    },
    {
      "type": "Feature",
      "properties": {
        "indoor": "room",
        "level": [
          3
        ],
        "ref": "81306",
        "name": "실험실",
        "room_type": "lab",
        "_idx": 3,
        "_centroid": [
          126.978178,
          37.2922968
        ],
        "_area_m2": 49.9
      },
      "geometry": {
        "type": "Polygon",
        "coordinates": [
          [
            [
              126.97821764348811,
              37.292332390869895
            ],
            [
              126.97820084276589,
              37.2922528675233
            ],
            [
              126.97813842495572,
              37.292261213600796
            ],
            [
              126.97815522567905,
              37.29234073693959
            ],
            [
              126.97821764348811,
              37.292332390869895
            ]
          ]
        ]
      }
    },
    {
      "type": "Feature",
      "properties": {
        "indoor": "room",
        "level": [
          3
        ],
        "ref": "",
        "name": "",
        "room_type": "reserved",
        "_idx": 4,
        "_centroid": [
          126.9782165,
          37.2922917
        ],
        "_area_m2": 11.6
      },
      "geometry": {
        "type": "Polygon",
        "coordinates": [
          [
            [
              126.97823217036607,
              37.29233044843811
            ],
            [
              126.9782153696439,
              37.29225092508974
            ],
            [
              126.97820084276589,
              37.2922528675233
            ],
            [
              126.97821764348811,
              37.292332390869895
            ],
            [
              126.97823217036607,
              37.29233044843811
            ]
          ]
        ]
      }
    },
    {
      "type": "Feature",
      "properties": {
        "indoor": "room",
        "level": [
          3
        ],
        "ref": "",
        "name": "",
        "room_type": "restroom",
        "_idx": 5,
        "_centroid": [
          126.9782401,
          37.2922885
        ],
        "_area_m2": 26.1
      },
      "geometry": {
        "type": "Polygon",
        "coordinates": [
          [
            [
              126.978264823277,
              37.2923260823209
            ],
            [
              126.97824802255337,
              37.29224655896871
            ],
            [
              126.9782153696439,
              37.29225092508974
            ],
            [
              126.97823217036607,
              37.29233044843811
            ],
            [
              126.978264823277,
              37.2923260823209
            ]
          ]
        ]
      }
    },
    {
      "type": "Feature",
      "properties": {
        "indoor": "room",
        "level": [
          3
        ],
        "ref": "",
        "name": "",
        "room_type": "elevator",
        "_idx": 6,
        "_centroid": [
          126.9782704,
          37.2922845
        ],
        "_area_m2": 22.3
      },
      "geometry": {
        "type": "Polygon",
        "coordinates": [
          [
            [
              126.97829273484788,
              37.292322350182275
            ],
            [
              126.97827593412393,
              37.292242826826715
            ],
            [
              126.97824802255337,
              37.29224655896871
            ],
            [
              126.978264823277,
              37.2923260823209
            ],
            [
              126.97829273484788,
              37.292322350182275
            ]
          ]
        ]
      }
    },
    {
      "type": "Feature",
      "properties": {
        "indoor": "room",
        "level": [
          3
        ],
        "ref": "",
        "name": "",
        "room_type": "stairs",
        "_idx": 7,
        "_centroid": [
          126.9783382,
          37.2922754
        ],
        "_area_m2": 22.1
      },
      "geometry": {
        "type": "Polygon",
        "coordinates": [
          [
            [
              126.97836044084762,
              37.29231329701297
            ],
            [
              126.978343640126,
              37.29223377364881
            ],
            [
              126.97831599578741,
              37.292237470058396
            ],
            [
              126.9783327965094,
              37.29231699341912
            ],
            [
              126.97836044084762,
              37.29231329701297
            ]
          ]
        ]
      }
    },
    {
      "type": "Feature",
      "properties": {
        "indoor": "room",
        "level": [
          3
        ],
        "ref": "",
        "name": "",
        "room_type": "restroom",
        "_idx": 8,
        "_centroid": [
          126.9783695,
          37.2922712
        ],
        "_area_m2": 27.8
      },
      "geometry": {
        "type": "Polygon",
        "coordinates": [
          [
            [
              126.97839528825325,
              37.29230863746338
            ],
            [
              126.97837848753146,
              37.29222911409498
            ],
            [
              126.978343640126,
              37.29223377364881
            ],
            [
              126.97836044084762,
              37.29231329701297
            ],
            [
              126.97839528825325,
              37.29230863746338
            ]
          ]
        ]
      }
    },
    {
      "type": "Feature",
      "properties": {
        "indoor": "room",
        "level": [
          3
        ],
        "ref": "",
        "name": "",
        "room_type": "reserved",
        "_idx": 9,
        "_centroid": [
          126.9783946,
          37.2922678
        ],
        "_area_m2": 12.4
      },
      "geometry": {
        "type": "Polygon",
        "coordinates": [
          [
            [
              126.97841076197527,
              37.292306568426284
            ],
            [
              126.9783939612524,
              37.29222704505613
            ],
            [
              126.97837848753146,
              37.29222911409498
            ],
            [
              126.97839528825325,
              37.29230863746338
            ],
            [
              126.97841076197527,
              37.292306568426284
            ]
          ]
        ]
      }
    },
    {
      "type": "Feature",
      "properties": {
        "indoor": "room",
        "level": [
          3
        ],
        "ref": "81310",
        "name": "양자정보연구지원센터 클린룸",
        "room_type": "lab",
        "_idx": 10,
        "_centroid": [
          126.9784984,
          37.2922621
        ],
        "_area_m2": 53
      },
      "geometry": {
        "type": "Polygon",
        "coordinates": [
          [
            [
              126.97845460504637,
              37.29221893618409
            ],
            [
              126.97847140576867,
              37.29229845956546
            ],
            [
              126.97850741388272,
              37.292293644814116
            ],
            [
              126.97853772473589,
              37.29228959186037
            ],
            [
              126.97852092401598,
              37.29221006846772
            ],
            [
              126.97845460504637,
              37.29221893618409
            ]
          ]
        ]
      }
    },
    {
      "type": "Feature",
      "properties": {
        "indoor": "room",
        "level": [
          3
        ],
        "ref": "81306",
        "name": "실험실",
        "room_type": "lab",
        "_idx": 11,
        "_centroid": [
          126.9784273,
          37.2922498
        ],
        "_area_m2": 48.4
      },
      "geometry": {
        "type": "Polygon",
        "coordinates": [
          [
            [
              126.97847140576867,
              37.29229845956546
            ],
            [
              126.97845460504637,
              37.29221893618409
            ],
            [
              126.97842314671131,
              37.29222314257692
            ],
            [
              126.97841020220625,
              37.2922248734273
            ],
            [
              126.9783939612524,
              37.29222704505613
            ],
            [
              126.97841076197527,
              37.292306568426284
            ],
            [
              126.97847140576867,
              37.29229845956546
            ]
          ]
        ]
      }
    },
    {
      "type": "Feature",
      "properties": {
        "indoor": "room",
        "level": [
          3
        ],
        "ref": "",
        "name": "",
        "room_type": "elevator",
        "_idx": 12,
        "_centroid": [
          126.9786806,
          37.2922347
        ],
        "_area_m2": 28.9
      },
      "geometry": {
        "type": "Polygon",
        "coordinates": [
          [
            [
              126.97869392435813,
              37.2921971449832
            ],
            [
              126.97865251787972,
              37.292202681574494
            ],
            [
              126.97866722103949,
              37.29227227652694
            ],
            [
              126.97870862751658,
              37.29226673994452
            ],
            [
              126.97869392435813,
              37.2921971449832
            ]
          ]
        ]
      }
    },
    {
      "type": "Feature",
      "properties": {
        "indoor": "room",
        "level": [
          3
        ],
        "ref": "81312",
        "name": "양자정보연구지원센터 클린룸",
        "room_type": "lab",
        "_idx": 13,
        "_centroid": [
          126.9786014,
          37.2922342
        ],
        "_area_m2": 103.4
      },
      "geometry": {
        "type": "Polygon",
        "coordinates": [
          [
            [
              126.97858504713406,
              37.29220149436743
            ],
            [
              126.97855112406236,
              37.29220603032613
            ],
            [
              126.97852092401598,
              37.29221006846772
            ],
            [
              126.97853772473589,
              37.29228959186037
            ],
            [
              126.97856792478217,
              37.292285553722934
            ],
            [
              126.97860610784943,
              37.29228044815218
            ],
            [
              126.97863279630259,
              37.29227687956024
            ],
            [
              126.97866722103949,
              37.29227227652694
            ],
            [
              126.97865251787972,
              37.292202681574494
            ],
            [
              126.97865042031903,
              37.29219275311513
            ],
            [
              126.97862949817342,
              37.29219555068163
            ],
            [
              126.97861599559113,
              37.29219735615365
            ],
            [
              126.97858504713406,
              37.29220149436743
            ]
          ]
        ]
      }
    },
    {
      "type": "Feature",
      "properties": {
        "indoor": "room",
        "level": [
          3
        ],
        "ref": "81301",
        "name": "SNL연구실",
        "room_type": "lab",
        "_idx": 14,
        "_centroid": [
          126.9779533,
          37.2922273
        ],
        "_area_m2": 28.3
      },
      "geometry": {
        "type": "Polygon",
        "coordinates": [
          [
            [
              126.9779739085363,
              37.292258639176154
            ],
            [
              126.97795639326978,
              37.29217573358802
            ],
            [
              126.97792238622021,
              37.29218028078043
            ],
            [
              126.97793990148395,
              37.29226318636482
            ],
            [
              126.97797390853425,
              37.292258639176424
            ],
            [
              126.9779739085363,
              37.292258639176154
            ]
          ]
        ]
      }
    },
    {
      "type": "Feature",
      "properties": {
        "indoor": "room",
        "level": [
          3
        ],
        "ref": "81303",
        "name": "SNL연구실",
        "room_type": "lab",
        "_idx": 15,
        "_centroid": [
          126.9780365,
          37.2921991
        ],
        "_area_m2": 131
      },
      "geometry": {
        "type": "Polygon",
        "coordinates": [
          [
            [
              126.97795639326978,
              37.29217573358802
            ],
            [
              126.9779739085363,
              37.292258639176154
            ],
            [
              126.97800554707575,
              37.2922544086887
            ],
            [
              126.97806690023364,
              37.29224620496726
            ],
            [
              126.97813125650555,
              37.29223759969011
            ],
            [
              126.9781137412421,
              37.29215469407775
            ],
            [
              126.97804938497056,
              37.29216329936459
            ],
            [
              126.97804354294665,
              37.29216408052069
            ],
            [
              126.97803665339761,
              37.29216500174479
            ],
            [
              126.97798803180878,
              37.29217150309606
            ],
            [
              126.97795639326978,
              37.29217573358802
            ]
          ]
        ]
      }
    },
    {
      "type": "Feature",
      "properties": {
        "indoor": "room",
        "level": [
          3
        ],
        "ref": "81305",
        "name": "복합재료동시설계산업기술거점센터",
        "room_type": "lab",
        "_idx": 16,
        "_centroid": [
          126.9781557,
          37.2921917
        ],
        "_area_m2": 55.3
      },
      "geometry": {
        "type": "Polygon",
        "coordinates": [
          [
            [
              126.9781137412421,
              37.29215469407775
            ],
            [
              126.97813125650555,
              37.29223759969011
            ],
            [
              126.9781976290552,
              37.2922287248102
            ],
            [
              126.97818011379145,
              37.29214581918783
            ],
            [
              126.9781137412421,
              37.29215469407775
            ]
          ]
        ]
      }
    },
    {
      "type": "Feature",
      "properties": {
        "indoor": "room",
        "level": [
          3
        ],
        "ref": "81307",
        "name": "복합재료동시설계산업기술거점센터",
        "room_type": "lab",
        "_idx": 17,
        "_centroid": [
          126.9782199,
          37.2921831
        ],
        "_area_m2": 51.7
      },
      "geometry": {
        "type": "Polygon",
        "coordinates": [
          [
            [
              126.97825978490886,
              37.29222030181629
            ],
            [
              126.97824229265375,
              37.29213750505046
            ],
            [
              126.97818011379145,
              37.29214581918783
            ],
            [
              126.97819760605526,
              37.29222861594377
            ],
            [
              126.97825978490886,
              37.29222030181629
            ]
          ]
        ]
      }
    },
    {
      "type": "Feature",
      "properties": {
        "indoor": "room",
        "level": [
          3
        ],
        "ref": "81309",
        "name": "양자정보연구지원센터",
        "room_type": "lab",
        "_idx": 18,
        "_centroid": [
          126.9782832,
          37.2921746
        ],
        "_area_m2": 53.5
      },
      "geometry": {
        "type": "Polygon",
        "coordinates": [
          [
            [
              126.97832411980755,
              37.29221169939734
            ],
            [
              126.9783066275505,
              37.292128902622736
            ],
            [
              126.97824229265375,
              37.29213750505046
            ],
            [
              126.97825978490886,
              37.29222030181629
            ],
            [
              126.97832411980755,
              37.29221169939734
            ]
          ]
        ]
      }
    },
    {
      "type": "Feature",
      "properties": {
        "indoor": "room",
        "level": [
          3
        ],
        "ref": "81311",
        "name": "양자정보지원센터",
        "room_type": "lab",
        "_idx": 19,
        "_centroid": [
          126.9783434,
          37.2921666
        ],
        "_area_m2": 46.6
      },
      "geometry": {
        "type": "Polygon",
        "coordinates": [
          [
            [
              126.97836269981836,
              37.2921214050167
            ],
            [
              126.9783066275505,
              37.292128902622736
            ],
            [
              126.97832411980755,
              37.29221169939734
            ],
            [
              126.97838019207484,
              37.29220420180047
            ],
            [
              126.97836269981836,
              37.2921214050167
            ]
          ]
        ]
      }
    },
    {
      "type": "Feature",
      "properties": {
        "indoor": "room",
        "level": [
          3
        ],
        "ref": "81313",
        "name": "양자정보지원센터",
        "room_type": "lab",
        "_idx": 20,
        "_centroid": [
          126.9784135,
          37.2921633
        ],
        "_area_m2": 59.3
      },
      "geometry": {
        "type": "Polygon",
        "coordinates": [
          [
            [
              126.97845149978943,
              37.29219466701834
            ],
            [
              126.97843400752623,
              37.29211187022579
            ],
            [
              126.97839861361344,
              37.292116602864205
            ],
            [
              126.97836269981836,
              37.2921214050167
            ],
            [
              126.97838019207938,
              37.292204201799876
            ],
            [
              126.9784161058755,
              37.29219939965156
            ],
            [
              126.97845149978717,
              37.29219466701865
            ],
            [
              126.97845149978943,
              37.29219466701834
            ]
          ]
        ]
      }
    },
    {
      "type": "Feature",
      "properties": {
        "indoor": "room",
        "level": [
          3
        ],
        "ref": "81315",
        "name": "양자정보지원센터",
        "room_type": "lab",
        "_idx": 21,
        "_centroid": [
          126.9784775,
          37.2921439
        ],
        "_area_m2": 54.7
      },
      "geometry": {
        "type": "Polygon",
        "coordinates": [
          [
            [
              126.97843400752623,
              37.29211187022579
            ],
            [
              126.97845149978943,
              37.29219466701834
            ],
            [
              126.9784821426904,
              37.292190569658246
            ],
            [
              126.97851604325304,
              37.29218603670581
            ],
            [
              126.97851726678326,
              37.292185873103676
            ],
            [
              126.97849977452132,
              37.29210307630099
            ],
            [
              126.97849855099255,
              37.29210323990311
            ],
            [
              126.97846465042952,
              37.29210777286074
            ],
            [
              126.97843400752625,
              37.29211187022579
            ],
            [
              126.97843400752623,
              37.29211187022579
            ]
          ]
        ]
      }
    },
    {
      "type": "Feature",
      "properties": {
        "indoor": "room",
        "level": [
          3
        ],
        "ref": "81317",
        "name": "양자정보연구지원센터 유틸리티룸",
        "room_type": "facility",
        "_idx": 22,
        "_centroid": [
          126.978564,
          37.2921371
        ],
        "_area_m2": 104.8
      },
      "geometry": {
        "type": "Polygon",
        "coordinates": [
          [
            [
              126.97851726678326,
              37.292185873103676
            ],
            [
              126.97854512616891,
              37.292182147936295
            ],
            [
              126.97857788993574,
              37.29217776698845
            ],
            [
              126.978580350008,
              37.292177438044334
            ],
            [
              126.97864324904421,
              37.292169027613426
            ],
            [
              126.97862575678319,
              37.29208623079154
            ],
            [
              126.97856285774758,
              37.29209464123189
            ],
            [
              126.97856039767353,
              37.29209497017661
            ],
            [
              126.97852763390844,
              37.29209935112919
            ],
            [
              126.97849977452132,
              37.29210307630099
            ],
            [
              126.97851726678326,
              37.292185873103676
            ]
          ]
        ]
      }
    }
  ]
}