{
  "type": "FeatureCollection",
  "features": [
    {
      "type": "Feature",
      "properties": {
        "indoor": "room",
        "level": "7",
        "ref": "",
        "name": "",
        "room_type": "",
        "_idx": 1,
        "_centroid": [
          126.9779676,
          37.2923249
        ],
        "_area_m2": 30.5
      },
      "geometry": {
        "type": "Polygon",
        "coordinates": [
          [
            [
              126.97799512149025,
              37.29236214494381
            ],
            [
              126.97797832076571,
              37.292282621626114
            ],
            [
              126.97794017733302,
              37.29228772190056
            ],
            [
              126.9779569780531,
              37.29236724521551
            ],
            [
              126.97799512149025,
              37.29236214494381
            ]
          ]
        ]
      }
    },
    {
      "type": "Feature",
      "properties": {
        "indoor": "room",
        "level": "7",
        "ref": "",
        "name": "",
        "room_type": "",
        "_idx": 2,
        "_centroid": [
          126.9780372,
          37.2923156
        ],
        "_area_m2": 75.2
      },
      "geometry": {
        "type": "Polygon",
        "coordinates": [
          [
            [
              126.97806213075533,
              37.29227141513622
            ],
            [
              126.97797832076571,
              37.292282621626114
            ],
            [
              126.97799512149025,
              37.29236214494381
            ],
            [
              126.9780261326505,
              37.29235799834993
            ],
            [
              126.97808926669123,
              37.29234955651077
            ],
            [
              126.97807246596749,
              37.29227003318011
            ],
            [
              126.97806213075533,
              37.29227141513622
            ]
          ]
        ]
      }
    },
    {
      "type": "Feature",
      "properties": {
        "indoor": "room",
        "level": "7",
        "ref": "",
        "name": "",
        "room_type": "",
        "_idx": 3,
        "_centroid": [
          126.9781336,
          37.2923027
        ],
        "_area_m2": 78.4
      },
      "geometry": {
        "type": "Polygon",
        "coordinates": [
          [
            [
              126.97817057023484,
              37.29225691535946
            ],
            [
              126.97812661656941,
              37.29226279253978
            ],
            [
              126.97807246596749,
              37.29227003318011
            ],
            [
              126.97808926669123,
              37.29234955651077
            ],
            [
              126.97815522567905,
              37.29234073693959
            ],
            [
              126.97818737095824,
              37.29233643869932
            ],
            [
              126.97817057023484,
              37.29225691535946
            ]
          ]
        ]
      }
    },
    {
      "type": "Feature",
      "properties": {
        "indoor": "room",
        "level": "7",
        "ref": "",
        "name": "",
        "room_type": "",
        "_idx": 4,
        "_centroid": [
          126.9781941,
          37.2922947
        ],
        "_area_m2": 24.2
      },
      "geometry": {
        "type": "Polygon",
        "coordinates": [
          [
            [
              126.97817057023484,
              37.29225691535946
            ],
            [
              126.97818737095824,
              37.29233643869932
            ],
            [
              126.97821764348811,
              37.292332390869895
            ],
            [
              126.97820084276589,
              37.2922528675233
            ],
            [
              126.97817057023484,
              37.29225691535946
            ]
          ]
        ]
      }
    },
    {
      "type": "Feature",
      "properties": {
        "indoor": "room",
        "level": "7",
        "ref": "",
        "name": "",
        "room_type": "",
        "_idx": 5,
        "_centroid": [
          126.9782165,
          37.2922917
        ],
        "_area_m2": 11.6
      },
      "geometry": {
        "type": "Polygon",
        "coordinates": [
          [
            [
              126.97823217036607,
              37.29233044843811
            ],
            [
              126.9782153696439,
              37.29225092508974
            ],
            [
              126.97820084276589,
              37.2922528675233
            ],
            [
              126.97821764348811,
              37.292332390869895
            ],
            [
              126.97823217036607,
              37.29233044843811
            ]
          ]
        ]
      }
    },
    {
      "type": "Feature",
      "properties": {
        "indoor": "room",
        "level": "7",
        "ref": "",
        "name": "",
        "room_type": "",
        "_idx": 6,
        "_centroid": [
          126.9782401,
          37.2922885
        ],
        "_area_m2": 26.1
      },
      "geometry": {
        "type": "Polygon",
        "coordinates": [
          [
            [
              126.978264823277,
              37.2923260823209
            ],
            [
              126.97824802255337,
              37.29224655896871
            ],
            [
              126.9782153696439,
              37.29225092508974
            ],
            [
              126.97823217036607,
              37.29233044843811
            ],
            [
              126.978264823277,
              37.2923260823209
            ]
          ]
        ]
      }
    },
    {
      "type": "Feature",
      "properties": {
        "indoor": "room",
        "level": "7",
        "ref": "",
        "name": "",
        "room_type": "",
        "_idx": 7,
        "_centroid": [
          126.9782704,
          37.2922845
        ],
        "_area_m2": 22.3
      },
      "geometry": {
        "type": "Polygon",
        "coordinates": [
          [
            [
              126.97829273484788,
              37.292322350182275
            ],
            [
              126.97827593412393,
              37.292242826826715
            ],
            [
              126.97824802255337,
              37.29224655896871
            ],
            [
              126.978264823277,
              37.2923260823209
            ],
            [
              126.97829273484788,
              37.292322350182275
            ]
          ]
        ]
      }
    },
    {
      "type": "Feature",
      "properties": {
        "indoor": "room",
        "level": "7",
        "ref": "",
        "name": "",
        "room_type": "",
        "_idx": 8,
        "_centroid": [
          126.9783382,
          37.2922754
        ],
        "_area_m2": 22.1
      },
      "geometry": {
        "type": "Polygon",
        "coordinates": [
          [
            [
              126.97836044084762,
              37.29231329701297
            ],
            [
              126.978343640126,
              37.29223377364881
            ],
            [
              126.97831599578741,
              37.292237470058396
            ],
            [
              126.9783327965094,
              37.29231699341912
            ],
            [
              126.97836044084762,
              37.29231329701297
            ]
          ]
        ]
      }
    },
    {
      "type": "Feature",
      "properties": {
        "indoor": "room",
        "level": "7",
        "ref": "",
        "name": "",
        "room_type": "",
        "_idx": 9,
        "_centroid": [
          126.9783695,
          37.2922712
        ],
        "_area_m2": 27.8
      },
      "geometry": {
        "type": "Polygon",
        "coordinates": [
          [
            [
              126.97839528825325,
              37.29230863746338
            ],
            [
              126.97837848753146,
              37.29222911409498
            ],
            [
              126.978343640126,
              37.29223377364881
            ],
            [
              126.97836044084762,
              37.29231329701297
            ],
            [
              126.97839528825325,
              37.29230863746338
            ]
          ]
        ]
      }
    },
    {
      "type": "Feature",
      "properties": {
        "indoor": "room",
        "level": "7",
        "ref": "",
        "name": "",
        "room_type": "",
        "_idx": 10,
        "_centroid": [
          126.9783946,
          37.2922678
        ],
        "_area_m2": 12.4
      },
      "geometry": {
        "type": "Polygon",
        "coordinates": [
          [
            [
              126.97841076197527,
              37.292306568426284
            ],
            [
              126.9783939612524,
              37.29222704505613
            ],
            [
              126.97837848753146,
              37.29222911409498
            ],
            [
              126.97839528825325,
              37.29230863746338
            ],
            [
              126.97841076197527,
              37.292306568426284
            ]
          ]
        ]
      }
    },
    {
      "type": "Feature",
      "properties": {
        "indoor": "room",
        "level": "7",
        "ref": "",
        "name": "",
        "room_type": "",
        "_idx": 11,
        "_centroid": [
          126.9784984,
          37.2922621
        ],
        "_area_m2": 53.0
      },
      "geometry": {
        "type": "Polygon",
        "coordinates": [
          [
            [
              126.97845460504637,
              37.29221893618409
            ],
            [
              126.97847140576867,
              37.29229845956546
            ],
            [
              126.97850741388272,
              37.292293644814116
            ],
            [
              126.97853772473589,
              37.29228959186037
            ],
            [
              126.97852092401598,
              37.29221006846772
            ],
            [
              126.97845460504637,
              37.29221893618409
            ]
          ]
        ]
      }
    },
    {
      "type": "Feature",
      "properties": {
        "indoor": "room",
        "level": "7",
        "ref": "",
        "name": "",
        "room_type": "",
        "_idx": 12,
        "_centroid": [
          126.9784473,
          37.2922608
        ],
        "_area_m2": 25.1
      },
      "geometry": {
        "type": "Polygon",
        "coordinates": [
          [
            [
              126.97842314671131,
              37.29222314257692
            ],
            [
              126.9784399474338,
              37.29230266595238
            ],
            [
              126.97847140576867,
              37.29229845956546
            ],
            [
              126.97845460504637,
              37.29221893618409
            ],
            [
              126.97842314671131,
              37.29222314257692
            ]
          ]
        ]
      }
    },
    {
      "type": "Feature",
      "properties": {
        "indoor": "room",
        "level": "7",
        "ref": "",
        "name": "",
        "room_type": "",
        "_idx": 13,
        "_centroid": [
          126.9784156,
          37.2922569
        ],
        "_area_m2": 23.3
      },
      "geometry": {
        "type": "Polygon",
        "coordinates": [
          [
            [
              126.9784399474338,
              37.29230266595238
            ],
            [
              126.97842314671131,
              37.29222314257692
            ],
            [
              126.97841020220625,
              37.2922248734273
            ],
            [
              126.9783939612524,
              37.29222704505613
            ],
            [
              126.97841076197527,
              37.292306568426284
            ],
            [
              126.9784399474338,
              37.29230266595238
            ]
          ]
        ]
      }
    },
    {
      "type": "Feature",
      "properties": {
        "indoor": "room",
        "level": "7",
        "ref": "",
        "name": "",
        "room_type": "",
        "_idx": 14,
        "_centroid": [
          126.9785598,
          37.2922458
        ],
        "_area_m2": 51.2
      },
      "geometry": {
        "type": "Polygon",
        "coordinates": [
          [
            [
              126.97858504713406,
              37.29220149436743
            ],
            [
              126.97854552239164,
              37.2922067793458
            ],
            [
              126.97852092401598,
              37.29221006846772
            ],
            [
              126.97853772473589,
              37.29228959186037
            ],
            [
              126.97856792478217,
              37.292285553722934
            ],
            [
              126.97860184785657,
              37.29228101776841
            ],
            [
              126.97858504713406,
              37.29220149436743
            ]
          ]
        ]
      }
    },
    {
      "type": "Feature",
      "properties": {
        "indoor": "room",
        "level": "7",
        "ref": "",
        "name": "",
        "room_type": "",
        "_idx": 15,
        "_centroid": [
          126.9786806,
          37.2922347
        ],
        "_area_m2": 28.9
      },
      "geometry": {
        "type": "Polygon",
        "coordinates": [
          [
            [
              126.97869392435813,
              37.2921971449832
            ],
            [
              126.97865251787972,
              37.292202681574494
            ],
            [
              126.97866722103949,
              37.29227227652694
            ],
            [
              126.97870862751658,
              37.29226673994452
            ],
            [
              126.97869392435813,
              37.2921971449832
            ]
          ]
        ]
      }
    },
    {
      "type": "Feature",
      "properties": {
        "indoor": "room",
        "level": "7",
        "ref": "",
        "name": "",
        "room_type": "",
        "_idx": 16,
        "_centroid": [
          126.9786268,
          37.2922334
        ],
        "_area_m2": 52.2
      },
      "geometry": {
        "type": "Polygon",
        "coordinates": [
          [
            [
              126.97858504713406,
              37.29220149436743
            ],
            [
              126.97860184785657,
              37.29228101776841
            ],
            [
              126.97860610784943,
              37.29228044815218
            ],
            [
              126.97863279630259,
              37.29227687956024
            ],
            [
              126.97866722103949,
              37.29227227652694
            ],
            [
              126.97865251787972,
              37.292202681574494
            ],
            [
              126.97865042031903,
              37.29219275311513
            ],
            [
              126.97862949817342,
              37.29219555068163
            ],
            [
              126.97861599559113,
              37.29219735615365
            ],
            [
              126.97858504713406,
              37.29220149436743
            ]
          ]
        ]
      }
    },
    {
      "type": "Feature",
      "properties": {
        "indoor": "room",
        "level": "7",
        "ref": "",
        "name": "",
        "room_type": "",
        "_idx": 17,
        "_centroid": [
          126.9779533,
          37.2922273
        ],
        "_area_m2": 28.3
      },
      "geometry": {
        "type": "Polygon",
        "coordinates": [
          [
            [
              126.9779739085363,
              37.292258639176154
            ],
            [
              126.97795639326978,
              37.29217573358802
            ],
            [
              126.97792238622021,
              37.29218028078043
            ],
            [
              126.97793990148395,
              37.29226318636482
            ],
            [
              126.97797390853425,
              37.292258639176424
            ],
            [
              126.9779739085363,
              37.292258639176154
            ]
          ]
        ]
      }
    },
    {
      "type": "Feature",
      "properties": {
        "indoor": "room",
        "level": "7",
        "ref": "",
        "name": "",
        "room_type": "",
        "_idx": 18,
        "_centroid": [
          126.9779822,
          37.2922149
        ],
        "_area_m2": 28.5
      },
      "geometry": {
        "type": "Polygon",
        "coordinates": [
          [
            [
              126.97799056687352,
              37.29217116412404
            ],
            [
              126.97795639326978,
              37.29217573358802
            ],
            [
              126.9779739085363,
              37.292258639176154
            ],
            [
              126.97800808214018,
              37.29225406971462
            ],
            [
              126.97799056687352,
              37.29217116412404
            ]
          ]
        ]
      }
    },
    {
      "type": "Feature",
      "properties": {
        "indoor": "room",
        "level": "7",
        "ref": "",
        "name": "",
        "room_type": "",
        "_idx": 19,
        "_centroid": [
          126.9780316,
          37.2922083
        ],
        "_area_m2": 53.7
      },
      "geometry": {
        "type": "Polygon",
        "coordinates": [
          [
            [
              126.97799056687352,
              37.29217116412404
            ],
            [
              126.97800808214018,
              37.29225406971462
            ],
            [
              126.97807258829376,
              37.292245444391156
            ],
            [
              126.97805507302874,
              37.29216253879059
            ],
            [
              126.97799056687352,
              37.29217116412404
            ]
          ]
        ]
      }
    },
    {
      "type": "Feature",
      "properties": {
        "indoor": "room",
        "level": "7",
        "ref": "",
        "name": "",
        "room_type": "",
        "_idx": 20,
        "_centroid": [
          126.9781116,
          37.2921976
        ],
        "_area_m2": 79.6
      },
      "geometry": {
        "type": "Polygon",
        "coordinates": [
          [
            [
              126.97805507302874,
              37.29216253879059
            ],
            [
              126.97807258829376,
              37.292245444391156
            ],
            [
              126.97816819654366,
              37.29223266030723
            ],
            [
              126.97815068127836,
              37.292149754692225
            ],
            [
              126.97805507302874,
              37.29216253879059
            ]
          ]
        ]
      }
    },
    {
      "type": "Feature",
      "properties": {
        "indoor": "room",
        "level": "7",
        "ref": "",
        "name": "",
        "room_type": "",
        "_idx": 21,
        "_centroid": [
          126.9781761,
          37.292189
        ],
        "_area_m2": 27.7
      },
      "geometry": {
        "type": "Polygon",
        "coordinates": [
          [
            [
              126.97815068127836,
              37.292149754692225
            ],
            [
              126.97816819654366,
              37.29223266030723
            ],
            [
              126.97820143240827,
              37.2922282162338
            ],
            [
              126.97818391714297,
              37.29214531061377
            ],
            [
              126.97815068127836,
              37.292149754692225
            ]
          ]
        ]
      }
    },
    {
      "type": "Feature",
      "properties": {
        "indoor": "room",
        "level": "7",
        "ref": "",
        "name": "",
        "room_type": "",
        "_idx": 22,
        "_centroid": [
          126.9782075,
          37.2921848
        ],
        "_area_m2": 24.7
      },
      "geometry": {
        "type": "Polygon",
        "coordinates": [
          [
            [
              126.97818391714297,
              37.29214531061377
            ],
            [
              126.97820143240827,
              37.2922282162338
            ],
            [
              126.97823111626516,
              37.29222424711066
            ],
            [
              126.97821360099996,
              37.292141341486115
            ],
            [
              126.97818391714297,
              37.29214531061377
            ]
          ]
        ]
      }
    },
    {
      "type": "Feature",
      "properties": {
        "indoor": "room",
        "level": "7",
        "ref": "",
        "name": "",
        "room_type": "",
        "_idx": 23,
        "_centroid": [
          126.9782519,
          37.2921667
        ],
        "_area_m2": 50.9
      },
      "geometry": {
        "type": "Polygon",
        "coordinates": [
          [
            [
              126.97827815026169,
              37.29213888859357
            ],
            [
              126.97824763063716,
              37.292142969474384
            ],
            [
              126.97824636124322,
              37.292136961004694
            ],
            [
              126.97821360099996,
              37.292141341486115
            ],
            [
              126.97823111626516,
              37.29222424711066
            ],
            [
              126.97829439613261,
              37.292215785757826
            ],
            [
              126.97827815026169,
              37.29213888859357
            ]
          ]
        ]
      }
    },
    {
      "type": "Feature",
      "properties": {
        "indoor": "room",
        "level": "7",
        "ref": "",
        "name": "",
        "room_type": "",
        "_idx": 24,
        "_centroid": [
          126.978364,
          37.2921639
        ],
        "_area_m2": 25.2
      },
      "geometry": {
        "type": "Polygon",
        "coordinates": [
          [
            [
              126.97834016278587,
              37.292124418487035
            ],
            [
              126.97835767805145,
              37.292207324130686
            ],
            [
              126.97838790008811,
              37.29220328304581
            ],
            [
              126.97837038482226,
              37.29212037739761
            ],
            [
              126.97834016278587,
              37.292124418487035
            ]
          ]
        ]
      }
    },
    {
      "type": "Feature",
      "properties": {
        "indoor": "room",
        "level": "7",
        "ref": "",
        "name": "",
        "room_type": "",
        "_idx": 25,
        "_centroid": [
          126.9785504,
          37.2921625
        ],
        "_area_m2": 18.8
      },
      "geometry": {
        "type": "Polygon",
        "coordinates": [
          [
            [
              126.97857177309767,
              37.29214070762352
            ],
            [
              126.97852114895005,
              37.292147476743736
            ],
            [
              126.9785289313352,
              37.29218431340121
            ],
            [
              126.97857957847567,
              37.29217765311747
            ],
            [
              126.97857177309767,
              37.29214070762352
            ]
          ]
        ]
      }
    },
    {
      "type": "Feature",
      "properties": {
        "indoor": "room",
        "level": "7",
        "ref": "",
        "name": "",
        "room_type": "",
        "_idx": 26,
        "_centroid": [
          126.9783963,
          37.2921595
        ],
        "_area_m2": 28.6
      },
      "geometry": {
        "type": "Polygon",
        "coordinates": [
          [
            [
              126.97837038482226,
              37.29212037739761
            ],
            [
              126.97838790008811,
              37.29220328304581
            ],
            [
              126.97842227611694,
              37.29219868651739
            ],
            [
              126.9784047608506,
              37.29211578086406
            ],
            [
              126.97837038482226,
              37.29212037739761
            ]
          ]
        ]
      }
    },
    {
      "type": "Feature",
      "properties": {
        "indoor": "room",
        "level": "7",
        "ref": "",
        "name": "",
        "room_type": "",
        "_idx": 27,
        "_centroid": [
          126.9783147,
          37.2921583
        ],
        "_area_m2": 50.8
      },
      "geometry": {
        "type": "Polygon",
        "coordinates": [
          [
            [
              126.97830818371665,
              37.29212869451518
            ],
            [
              126.97830945311048,
              37.29213470298523
            ],
            [
              126.97827815026169,
              37.29213888859357
            ],
            [
              126.97829439613261,
              37.292215785757826
            ],
            [
              126.97835767805145,
              37.292207324130686
            ],
            [
              126.97834016278587,
              37.292124418487035
            ],
            [
              126.97830818371665,
              37.29212869451518
            ]
          ]
        ]
      }
    },
    {
      "type": "Feature",
      "properties": {
        "indoor": "room",
        "level": "7",
        "ref": "",
        "name": "",
        "room_type": "",
        "_idx": 28,
        "_centroid": [
          126.9784281,
          37.2921553
        ],
        "_area_m2": 24.2
      },
      "geometry": {
        "type": "Polygon",
        "coordinates": [
          [
            [
              126.9784047608506,
              37.29211578086406
            ],
            [
              126.97842227611694,
              37.29219868651739
            ],
            [
              126.9784513508846,
              37.29219479883751
            ],
            [
              126.97843383561874,
              37.2921118931797
            ],
            [
              126.9784047608506,
              37.29211578086406
            ]
          ]
        ]
      }
    },
    {
      "type": "Feature",
      "properties": {
        "indoor": "room",
        "level": "7",
        "ref": "",
        "name": "",
        "room_type": "",
        "_idx": 29,
        "_centroid": [
          126.9786226,
          37.2921529
        ],
        "_area_m2": 12.4
      },
      "geometry": {
        "type": "Polygon",
        "coordinates": [
          [
            [
              126.97863548512635,
              37.29213227836139
            ],
            [
              126.9786020044435,
              37.292136755174724
            ],
            [
              126.97860979135594,
              37.29217361325692
            ],
            [
              126.97864327203746,
              37.292169136448244
            ],
            [
              126.97863548512635,
              37.29213227836139
            ]
          ]
        ]
      }
    },
    {
      "type": "Feature",
      "properties": {
        "indoor": "room",
        "level": "7",
        "ref": "",
        "name": "",
        "room_type": "",
        "_idx": 30,
        "_centroid": [
          126.9785104,
          37.2921517
        ],
        "_area_m2": 87.9
      },
      "geometry": {
        "type": "Polygon",
        "coordinates": [
          [
            [
              126.97850340196995,
              37.29218772701416
            ],
            [
              126.9785289313352,
              37.29218431340121
            ],
            [
              126.97852114895005,
              37.292147476743736
            ],
            [
              126.97857177309767,
              37.29214070762352
            ],
            [
              126.97856206320981,
              37.29209474744025
            ],
            [
              126.97843383561874,
              37.2921118931797
            ],
            [
              126.9784513508846,
              37.29219479883751
            ],
            [
              126.97850340196995,
              37.29218772701416
            ]
          ]
        ]
      }
    },
    {
      "type": "Feature",
      "properties": {
        "indoor": "room",
        "level": "7",
        "ref": "",
        "name": "",
        "room_type": "",
        "_idx": 31,
        "_centroid": [
          126.9785859,
          37.2921342
        ],
        "_area_m2": 25.2
      },
      "geometry": {
        "type": "Polygon",
        "coordinates": [
          [
            [
              126.97856206320981,
              37.29209474744025
            ],
            [
              126.97857957847567,
              37.29217765311747
            ],
            [
              126.97860979135594,
              37.29217361325692
            ],
            [
              126.97859227609068,
              37.29209070757505
            ],
            [
              126.97856206320981,
              37.29209474744025
            ]
          ]
        ]
      }
    },
    {
      "type": "Feature",
      "properties": {
        "indoor": "room",
        "level": "7",
        "ref": "",
        "name": "",
        "room_type": "",
        "_idx": 32,
        "_centroid": [
          126.9786106,
          37.2921121
        ],
        "_area_m2": 15.5
      },
      "geometry": {
        "type": "Polygon",
        "coordinates": [
          [
            [
              126.97859731391455,
              37.29211455331087
            ],
            [
              126.9786020044435,
              37.292136755174724
            ],
            [
              126.97863548512635,
              37.29213227836139
            ],
            [
              126.97862575677095,
              37.29208623076147
            ],
            [
              126.97859227609068,
              37.29209070757505
            ],
            [
              126.97859731391455,
              37.29211455331087
            ]
          ]
        ]
      }
    }
  ]
}