{
  "type": "FeatureCollection",
  "features": [
    {
      "type": "Feature",
      "properties": {
        "indoor": "corridor",
        "level": "1"
      },
      "geometry": {
        "type": "Polygon",
        "coordinates": [
          [
            [
              126.97794017733302,
              37.29228772190055
            ],
            [
              126.97827593412393,
              37.292242826826715
            ],
            [
              126.9782739151572,
              37.29221852435476
            ],
            [
              126.97794017733302,
              37.29226318636482
            ],
            [
              126.97794017733302,
              37.29228772190055
            ]
          ]
        ]
      }
    },
    {
      "type": "Feature",
      "properties": {
        "indoor": "corridor",
        "level": "1"
      },
      "geometry": {
        "type": "Polygon",
        "coordinates": [
          [
            [
              126.97831599578741,
              37.29223747005839
            ],
            [
              126.97865042031903,
              37.29219275311513
            ],
            [
              126.97864324904421,
              37.292169027613426
            ],
            [
              126.97830417592233,
              37.29221436615978
            ],
            [
              126.97831599578741,
              37.29223747005839
            ]
          ]
        ]
      }
    },
    {
      "type": "Feature",
      "properties": {
        "indoor": "corridor",
        "level": "1"
      },
      "geometry": {
        "type": "Polygon",
        "coordinates": [
          [
            [
              126.97825973923457,
              37.29215142495661
            ],
            [
              126.9782739151572,
              37.29221852435476
            ],
            [
              126.97827593412393,
              37.292242826826715
            ],
            [
              126.97829273484787,
              37.292322350182275
            ],
            [
              126.97833279650939,
              37.29231699341912
            ],
            [
              126.97831599578741,
              37.29223747005839
            ],
            [
              126.97830417592233,
              37.29221436615978
            ],
            [
              126.97829002300138,
              37.29214737561769
            ],
            [
              126.97825973923457,
              37.29215142495661
            ]
          ]
        ]
      }
    }
  ]
}