{
  "type": "FeatureCollection",
  "features": [
    {
      "type": "Feature",
      "properties": {
        "indoor": "room",
        "level": "1",
        "ref": "",
        "name": "",
        "room_type": "",
        "_idx": 1,
        "_centroid": [
          126.9779218,
          37.2952281
        ],
        "_area_m2": 14.0
      },
      "geometry": {
        "type": "Polygon",
        "coordinates": [
          [
            [
              126.97796258234445,
              37.29522310747261
            ],
            [
              126.97791154245537,
              37.29521955513037
            ],
            [
              126.97788857280895,
              37.29521795645824
            ],
            [
              126.97788558198454,
              37.29524515166569
            ],
            [
              126.97796066668452,
              37.29523461936107
            ],
            [
              126.97796258234445,
              37.29522310747261
            ]
          ]
        ]
      }
    },
    {
      "type": "Feature",
      "properties": {
        "indoor": "room",
        "level": "1",
        "ref": "",
        "name": "",
        "room_type": "",
        "_idx": 2,
        "_centroid": [
          126.978033,
          37.2952131
        ],
        "_area_m2": 18.1
      },
      "geometry": {
        "type": "Polygon",
        "coordinates": [
          [
            [
              126.97807333647366,
              37.29520397251793
            ],
            [
              126.97799559955988,
              37.2951985620791
            ],
            [
              126.97799208615584,
              37.29523050904726
            ],
            [
              126.97807098423215,
              37.295219441829346
            ],
            [
              126.97807333647366,
              37.29520397251793
            ]
          ]
        ]
      }
    },
    {
      "type": "Feature",
      "properties": {
        "indoor": "room",
        "level": "1",
        "ref": "",
        "name": "",
        "room_type": "",
        "_idx": 3,
        "_centroid": [
          126.9779409,
          37.2951864
        ],
        "_area_m2": 35.1
      },
      "geometry": {
        "type": "Polygon",
        "coordinates": [
          [
            [
              126.97797025807057,
              37.29515331297645
            ],
            [
              126.97791921818153,
              37.29514976063092
            ],
            [
              126.9779115424554,
              37.29521955513037
            ],
            [
              126.97796258234445,
              37.29522310747261
            ],
            [
              126.97797025807057,
              37.29515331297645
            ]
          ]
        ]
      }
    },
    {
      "type": "Feature",
      "properties": {
        "indoor": "room",
        "level": "1",
        "ref": "",
        "name": "",
        "room_type": "",
        "_idx": 4,
        "_centroid": [
          126.9780375,
          37.2951733
        ],
        "_area_m2": 42.8
      },
      "geometry": {
        "type": "Polygon",
        "coordinates": [
          [
            [
              126.97807949213662,
              37.29514799977237
            ],
            [
              126.97800175522283,
              37.29514258932954
            ],
            [
              126.97799559955988,
              37.2951985620791
            ],
            [
              126.97807333647366,
              37.29520397251792
            ],
            [
              126.97807949213662,
              37.29514799977237
            ]
          ]
        ]
      }
    },
    {
      "type": "Feature",
      "properties": {
        "indoor": "room",
        "level": "1",
        "ref": "",
        "name": "",
        "room_type": "",
        "_idx": 5,
        "_centroid": [
          126.9779012,
          37.2951563
        ],
        "_area_m2": 47.4
      },
      "geometry": {
        "type": "Polygon",
        "coordinates": [
          [
            [
              126.97792635255304,
              37.29508488854894
            ],
            [
              126.97786932914823,
              37.29508107340832
            ],
            [
              126.97789225264657,
              37.29518449612294
            ],
            [
              126.97788857280895,
              37.29521795645824
            ],
            [
              126.97791154245537,
              37.29521955513037
            ],
            [
              126.97791921818153,
              37.29514976063092
            ],
            [
              126.97792635255304,
              37.29508488854894
            ]
          ]
        ]
      }
    },
    {
      "type": "Feature",
      "properties": {
        "indoor": "room",
        "level": "1",
        "ref": "",
        "name": "",
        "room_type": "",
        "_idx": 6,
        "_centroid": [
          126.9780427,
          37.295126
        ],
        "_area_m2": 29.4
      },
      "geometry": {
        "type": "Polygon",
        "coordinates": [
          [
            [
              126.97800598822715,
              37.295104099074166
            ],
            [
              126.97800175522283,
              37.29514258932954
            ],
            [
              126.97807949213662,
              37.29514799977237
            ],
            [
              126.97808372514093,
              37.295109509519776
            ],
            [
              126.97800598822715,
              37.295104099074166
            ]
          ]
        ]
      }
    },
    {
      "type": "Feature",
      "properties": {
        "indoor": "room",
        "level": "1",
        "ref": "",
        "name": "",
        "room_type": "",
        "_idx": 7,
        "_centroid": [
          126.9779483,
          37.2951191
        ],
        "_area_m2": 32.6
      },
      "geometry": {
        "type": "Polygon",
        "coordinates": [
          [
            [
              126.97797739244209,
              37.29508844089755
            ],
            [
              126.97792635255304,
              37.29508488854894
            ],
            [
              126.97791921818153,
              37.29514976063092
            ],
            [
              126.97797025807057,
              37.29515331297646
            ],
            [
              126.97797739244209,
              37.29508844089755
            ]
          ]
        ]
      }
    },
    {
      "type": "Feature",
      "properties": {
        "indoor": "room",
        "level": "1",
        "ref": "",
        "name": "",
        "room_type": "",
        "_idx": 8,
        "_centroid": [
          126.978162,
          37.2951185
        ],
        "_area_m2": 81.5
      },
      "geometry": {
        "type": "Polygon",
        "coordinates": [
          [
            [
              126.97809846031124,
              37.2951490793841
            ],
            [
              126.97821782982815,
              37.29515738743042
            ],
            [
              126.97822546069594,
              37.295088000765645
            ],
            [
              126.97810609117903,
              37.295079692711674
            ],
            [
              126.97809846031124,
              37.2951490793841
            ]
          ]
        ]
      }
    },
    {
      "type": "Feature",
      "properties": {
        "indoor": "room",
        "level": "1",
        "ref": "",
        "name": "",
        "room_type": "",
        "_idx": 9,
        "_centroid": [
          126.9779224,
          37.2950683
        ],
        "_area_m2": 36.3
      },
      "geometry": {
        "type": "Polygon",
        "coordinates": [
          [
            [
              126.97797739244209,
              37.29508844089755
            ],
            [
              126.97798078096935,
              37.29505595547224
            ],
            [
              126.97786197966593,
              37.2950476869621
            ],
            [
              126.9778693459185,
              37.29508092091787
            ],
            [
              126.97797739244209,
              37.29508844089755
            ]
          ]
        ]
      }
    },
    {
      "type": "Feature",
      "properties": {
        "indoor": "room",
        "level": "1",
        "ref": "",
        "name": "",
        "room_type": "",
        "_idx": 10,
        "_centroid": [
          126.9781692,
          37.2950529
        ],
        "_area_m2": 72.6
      },
      "geometry": {
        "type": "Polygon",
        "coordinates": [
          [
            [
              126.97810609117903,
              37.295079692711674
            ],
            [
              126.97822546069594,
              37.295088000765645
            ],
            [
              126.97823225869203,
              37.29502618726009
            ],
            [
              126.97811288917514,
              37.29501787919929
            ],
            [
              126.97810609117903,
              37.295079692711674
            ]
          ]
        ]
      }
    },
    {
      "type": "Feature",
      "properties": {
        "indoor": "room",
        "level": "1",
        "ref": "",
        "name": "",
        "room_type": "",
        "_idx": 11,
        "_centroid": [
          126.978051,
          37.2950504
        ],
        "_area_m2": 60.9
      },
      "geometry": {
        "type": "Polygon",
        "coordinates": [
          [
            [
              126.97800858784396,
              37.29508851475686
            ],
            [
              126.97808439561962,
              37.29509379093664
            ],
            [
              126.97809336554235,
              37.295012228312785
            ],
            [
              126.97801755776668,
              37.295006952127295
            ],
            [
              126.97800858784396,
              37.29508851475686
            ]
          ]
        ]
      }
    },
    {
      "type": "Feature",
      "properties": {
        "indoor": "room",
        "level": "1",
        "ref": "",
        "name": "",
        "room_type": "",
        "_idx": 12,
        "_centroid": [
          126.9781762,
          37.2949894
        ],
        "_area_m2": 76.6
      },
      "geometry": {
        "type": "Polygon",
        "coordinates": [
          [
            [
              126.97811288917514,
              37.29501787919929
            ],
            [
              126.97823225869203,
              37.29502618726009
            ],
            [
              126.97823942604246,
              37.29496101519714
            ],
            [
              126.97812005652557,
              37.294952707129134
            ],
            [
              126.97811288917514,
              37.29501787919929
            ]
          ]
        ]
      }
    },
    {
      "type": "Feature",
      "properties": {
        "indoor": "room",
        "level": "1",
        "ref": "",
        "name": "",
        "room_type": "",
        "_idx": 13,
        "_centroid": [
          126.9781529,
          37.2949651
        ],
        "_area_m2": 551.7
      },
      "geometry": {
        "type": "Polygon",
        "coordinates": [
          [
            [
              126.97816242878513,
              37.29414399591187
            ],
            [
              126.97809856367009,
              37.29415294750737
            ],
            [
              126.97819634838781,
              37.29459412201299
            ],
            [
              126.9782114803826,
              37.29466239267801
            ],
            [
              126.97822549722083,
              37.294725631224935
            ],
            [
              126.97824079122977,
              37.294726698415566
            ],
            [
              126.97823426058183,
              37.29478608118827
            ],
            [
              126.97822882781506,
              37.29483548096033
            ],
            [
              126.97825304637902,
              37.294837166564875
            ],
            [
              126.97824613726375,
              37.29489999062361
            ],
            [
              126.97823942604246,
              37.29496101519714
            ],
            [
              126.97823225869203,
              37.29502618726009
            ],
            [
              126.97822546069594,
              37.295088000765645
            ],
            [
              126.97821782982815,
              37.29515738743042
            ],
            [
              126.97809846031124,
              37.2951490793841
            ],
            [
              126.97807949213662,
              37.29514799977237
            ],
            [
              126.97807333647366,
              37.295203972517925
            ],
            [
              126.97807098423215,
              37.295219441829346
            ],
            [
              126.97799208615584,
              37.29523050904726
            ],
            [
              126.97796066668452,
              37.29523461936107
            ],
            [
              126.97788558198454,
              37.29524515166569
            ],
            [
              126.97788138369319,
              37.295266358119214
            ],
            [
              126.9781392164237,
              37.295230191329516
            ],
            [
              126.97816894236955,
              37.29522158426969
            ],
            [
              126.97819468789282,
              37.29520975945276
            ],
            [
              126.97821787591958,
              37.29518777560591
            ],
            [
              126.97822829989038,
              37.29516499208312
            ],
            [
              126.97827775017743,
              37.294715344817355
            ],
            [
              126.97816242878513,
              37.29414399591187
            ]
          ]
        ]
      }
    },
    {
      "type": "Feature",
      "properties": {
        "indoor": "room",
        "level": "1",
        "ref": "",
        "name": "",
        "room_type": "",
        "_idx": 14,
        "_centroid": [
          126.9781831,
          37.2949263
        ],
        "_area_m2": 71.7
      },
      "geometry": {
        "type": "Polygon",
        "coordinates": [
          [
            [
              126.97812005652557,
              37.294952707129134
            ],
            [
              126.97823942604246,
              37.29496101519714
            ],
            [
              126.97824613726375,
              37.29489999062361
            ],
            [
              126.97812676774684,
              37.29489168254888
            ],
            [
              126.97812005652557,
              37.294952707129134
            ]
          ]
        ]
      }
    },
    {
      "type": "Feature",
      "properties": {
        "indoor": "room",
        "level": "1",
        "ref": "",
        "name": "",
        "room_type": "",
        "_idx": 15,
        "_centroid": [
          126.9780673,
          37.2949063
        ],
        "_area_m2": 51.6
      },
      "geometry": {
        "type": "Polygon",
        "coordinates": [
          [
            [
              126.97803421263835,
              37.29495143171318
            ],
            [
              126.9780899792258,
              37.29495531304431
            ],
            [
              126.97810032712741,
              37.29486122041322
            ],
            [
              126.97804456053998,
              37.29485733907723
            ],
            [
              126.97803421263835,
              37.29495143171318
            ]
          ]
        ]
      }
    },
    {
      "type": "Feature",
      "properties": {
        "indoor": "room",
        "level": "1",
        "ref": "",
        "name": "",
        "room_type": "",
        "_idx": 16,
        "_centroid": [
          126.9781899,
          37.2948644
        ],
        "_area_m2": 73.8
      },
      "geometry": {
        "type": "Polygon",
        "coordinates": [
          [
            [
              126.97812676774684,
              37.29489168254888
            ],
            [
              126.97824613726375,
              37.29489999062361
            ],
            [
              126.97825304637902,
              37.294837166564875
            ],
            [
              126.97813367686211,
              37.2948288584832
            ],
            [
              126.97812676774684,
              37.29489168254888
            ]
          ]
        ]
      }
    },
    {
      "type": "Feature",
      "properties": {
        "indoor": "room",
        "level": "1",
        "ref": "",
        "name": "",
        "room_type": "",
        "_idx": 17,
        "_centroid": [
          126.9780729,
          37.2948532
        ],
        "_area_m2": 13.9
      },
      "geometry": {
        "type": "Polygon",
        "coordinates": [
          [
            [
              126.97804456053998,
              37.29485733907723
            ],
            [
              126.97810032712741,
              37.29486122041322
            ],
            [
              126.97811108904588,
              37.29486196943917
            ],
            [
              126.9781130904917,
              37.294843770440984
            ],
            [
              126.9780352179185,
              37.294838350534405
            ],
            [
              126.97803323296387,
              37.29485639958073
            ],
            [
              126.97804456053998,
              37.29485733907723
            ]
          ]
        ]
      }
    },
    {
      "type": "Feature",
      "properties": {
        "indoor": "room",
        "level": "1",
        "ref": "",
        "name": "",
        "room_type": "",
        "_idx": 18,
        "_centroid": [
          126.9778902,
          37.2948468
        ],
        "_area_m2": 70.9
      },
      "geometry": {
        "type": "Polygon",
        "coordinates": [
          [
            [
              126.97793417381244,
              37.29488761710761
            ],
            [
              126.97794241309578,
              37.29481269791365
            ],
            [
              126.97784621629626,
              37.294806002643874
            ],
            [
              126.97783797701292,
              37.294880921844495
            ],
            [
              126.97793417381244,
              37.29488761710761
            ]
          ]
        ]
      }
    },
    {
      "type": "Feature",
      "properties": {
        "indoor": "room",
        "level": "1",
        "ref": "",
        "name": "",
        "room_type": "",
        "_idx": 19,
        "_centroid": [
          126.9779947,
          37.2948271
        ],
        "_area_m2": 62.5
      },
      "geometry": {
        "type": "Polygon",
        "coordinates": [
          [
            [
              126.97802651180814,
              37.29476470977566
            ],
            [
              126.9779770067765,
              37.294761264237486
            ],
            [
              126.97796290637132,
              37.294889478221116
            ],
            [
              126.97801241140296,
              37.29489292375344
            ],
            [
              126.97802651180814,
              37.29476470977566
            ]
          ]
        ]
      }
    },
    {
      "type": "Feature",
      "properties": {
        "indoor": "room",
        "level": "1",
        "ref": "",
        "name": "",
        "room_type": "",
        "_idx": 20,
        "_centroid": [
          126.978184,
          37.2948075
        ],
        "_area_m2": 46.3
      },
      "geometry": {
        "type": "Polygon",
        "coordinates": [
          [
            [
              126.97813367686211,
              37.2948288584832
            ],
            [
              126.97822882781509,
              37.29483548096034
            ],
            [
              126.97823426058183,
              37.29478608118828
            ],
            [
              126.97813910962887,
              37.294779458706785
            ],
            [
              126.97813367686211,
              37.2948288584832
            ]
          ]
        ]
      }
    },
    {
      "type": "Feature",
      "properties": {
        "indoor": "room",
        "level": "1",
        "ref": "",
        "name": "",
        "room_type": "",
        "_idx": 21,
        "_centroid": [
          126.9780819,
          37.2947977
        ],
        "_area_m2": 43.8
      },
      "geometry": {
        "type": "Polygon",
        "coordinates": [
          [
            [
              126.97804657488194,
              37.294766106160694
            ],
            [
              126.97804022021683,
              37.294823888702865
            ],
            [
              126.97811715169424,
              37.2948292431105
            ],
            [
              126.97812350635934,
              37.29477146057244
            ],
            [
              126.97804657488194,
              37.294766106160694
            ]
          ]
        ]
      }
    },
    {
      "type": "Feature",
      "properties": {
        "indoor": "room",
        "level": "1",
        "ref": "",
        "name": "",
        "room_type": "",
        "_idx": 22,
        "_centroid": [
          126.9779,
          37.2947573
        ],
        "_area_m2": 98.5
      },
      "geometry": {
        "type": "Polygon",
        "coordinates": [
          [
            [
              126.97784621629626,
              37.294806002643874
            ],
            [
              126.97794241309578,
              37.29481269791365
            ],
            [
              126.97795385766541,
              37.2947086331649
            ],
            [
              126.9778576608659,
              37.29470193788586
            ],
            [
              126.97784621629626,
              37.294806002643874
            ]
          ]
        ]
      }
    },
    {
      "type": "Feature",
      "properties": {
        "indoor": "room",
        "level": "1",
        "ref": "",
        "name": "",
        "room_type": "",
        "_idx": 23,
        "_centroid": [
          126.97819,
          37.2947531
        ],
        "_area_m2": 55.6
      },
      "geometry": {
        "type": "Polygon",
        "coordinates": [
          [
            [
              126.97813910962887,
              37.29477945870678
            ],
            [
              126.97823426058183,
              37.29478608118827
            ],
            [
              126.97824079122977,
              37.294726698415566
            ],
            [
              126.97814564027684,
              37.29472007592884
            ],
            [
              126.97813910962887,
              37.29477945870678
            ]
          ]
        ]
      }
    },
    {
      "type": "Feature",
      "properties": {
        "indoor": "room",
        "level": "1",
        "ref": "",
        "name": "",
        "room_type": "",
        "_idx": 24,
        "_centroid": [
          126.9780531,
          37.2947401
        ],
        "_area_m2": 75.8
      },
      "geometry": {
        "type": "Polygon",
        "coordinates": [
          [
            [
              126.97812928433926,
              37.2947189217554
            ],
            [
              126.97798278475639,
              37.29470872541331
            ],
            [
              126.9779770067765,
              37.29476126423748
            ],
            [
              126.97812350635937,
              37.29477146057244
            ],
            [
              126.97812928433926,
              37.2947189217554
            ]
          ]
        ]
      }
    },
    {
      "type": "Feature",
      "properties": {
        "indoor": "room",
        "level": "1",
        "ref": "",
        "name": "",
        "room_type": "",
        "_idx": 25,
        "_centroid": [
          126.9780436,
          37.2946987
        ],
        "_area_m2": 33.0
      },
      "geometry": {
        "type": "Polygon",
        "coordinates": [
          [
            [
              126.97798278475636,
              37.2947087254133
            ],
            [
              126.97810125963055,
              37.29471697226235
            ],
            [
              126.97810570464164,
              37.29467603286306
            ],
            [
              126.97798451051695,
              37.2946930331689
            ],
            [
              126.97798278475636,
              37.2947087254133
            ]
          ]
        ]
      }
    },
    {
      "type": "Feature",
      "properties": {
        "indoor": "room",
        "level": "1",
        "ref": "",
        "name": "",
        "room_type": "",
        "_idx": 26,
        "_centroid": [
          126.9781938,
          37.2946944
        ],
        "_area_m2": 28.2
      },
      "geometry": {
        "type": "Polygon",
        "coordinates": [
          [
            [
              126.9781662323329,
              37.29472150913176
            ],
            [
              126.97822549722083,
              37.294725631224935
            ],
            [
              126.9782114803826,
              37.29466239267801
            ],
            [
              126.9781721265911,
              37.29466791296756
            ],
            [
              126.9781662323329,
              37.29472150913176
            ]
          ]
        ]
      }
    },
    {
      "type": "Feature",
      "properties": {
        "indoor": "room",
        "level": "1",
        "ref": "",
        "name": "",
        "room_type": "",
        "_idx": 27,
        "_centroid": [
          126.9778773,
          37.2946888
        ],
        "_area_m2": 10.3
      },
      "geometry": {
        "type": "Polygon",
        "coordinates": [
          [
            [
              126.97789380460553,
              37.29470445348337
            ],
            [
              126.97789697712153,
              37.29467560596886
            ],
            [
              126.97786083338188,
              37.29467309037039
            ],
            [
              126.9778576608659,
              37.29470193788586
            ],
            [
              126.97789380460553,
              37.29470445348337
            ]
          ]
        ]
      }
    },
    {
      "type": "Feature",
      "properties": {
        "indoor": "room",
        "level": "1",
        "ref": "",
        "name": "",
        "room_type": "",
        "_idx": 28,
        "_centroid": [
          126.9780762,
          37.2946657
        ],
        "_area_m2": 17.8
      },
      "geometry": {
        "type": "Polygon",
        "coordinates": [
          [
            [
              126.9780478789702,
              37.29468414426417
            ],
            [
              126.97811067125573,
              37.294675336179395
            ],
            [
              126.97810443726792,
              37.294647210455544
            ],
            [
              126.9780416449824,
              37.29465601854361
            ],
            [
              126.9780478789702,
              37.29468414426417
            ]
          ]
        ]
      }
    },
    {
      "type": "Feature",
      "properties": {
        "indoor": "room",
        "level": "1",
        "ref": "",
        "name": "",
        "room_type": "",
        "_idx": 29,
        "_centroid": [
          126.9779937,
          37.2946603
        ],
        "_area_m2": 16.2
      },
      "geometry": {
        "type": "Polygon",
        "coordinates": [
          [
            [
              126.97798451051695,
              37.2946930331689
            ],
            [
              126.97801617297095,
              37.29468859177076
            ],
            [
              126.97800182874445,
              37.29462387528569
            ],
            [
              126.97797850303844,
              37.29462714726318
            ],
            [
              126.97798770735866,
              37.2946686741673
            ],
            [
              126.97798451051695,
              37.2946930331689
            ]
          ]
        ]
      }
    },
    {
      "type": "Feature",
      "properties": {
        "indoor": "room",
        "level": "1",
        "ref": "",
        "name": "",
        "room_type": "",
        "_idx": 30,
        "_centroid": [
          126.9778805,
          37.2946601
        ],
        "_area_m2": 10.2
      },
      "geometry": {
        "type": "Polygon",
        "coordinates": [
          [
            [
              126.97789697712153,
              37.29467560596886
            ],
            [
              126.97790012007208,
              37.294647027280405
            ],
            [
              126.97786397633242,
              37.29464451168098
            ],
            [
              126.97786083338188,
              37.29467309037039
            ],
            [
              126.97789697712153,
              37.29467560596886
            ]
          ]
        ]
      }
    },
    {
      "type": "Feature",
      "properties": {
        "indoor": "room",
        "level": "1",
        "ref": "",
        "name": "",
        "room_type": "",
        "_idx": 31,
        "_centroid": [
          126.9780249,
          37.294654
        ],
        "_area_m2": 20.7
      },
      "geometry": {
        "type": "Polygon",
        "coordinates": [
          [
            [
              126.97804787897017,
              37.29468414426417
            ],
            [
              126.97803353474373,
              37.29461942777526
            ],
            [
              126.97800182874448,
              37.29462387528569
            ],
            [
              126.97801617297095,
              37.294688591770765
            ],
            [
              126.97804787897017,
              37.29468414426417
            ]
          ]
        ]
      }
    },
    {
      "type": "Feature",
      "properties": {
        "indoor": "room",
        "level": "1",
        "ref": "",
        "name": "",
        "room_type": "",
        "_idx": 32,
        "_centroid": [
          126.9781569,
          37.2946349
        ],
        "_area_m2": 17.2
      },
      "geometry": {
        "type": "Polygon",
        "coordinates": [
          [
            [
              126.97817696791867,
              37.29466723385817
            ],
            [
              126.97816183592388,
              37.29459896319756
            ],
            [
              126.97813684442802,
              37.29460246884383
            ],
            [
              126.97815197642281,
              37.294670739499715
            ],
            [
              126.97817696791867,
              37.29466723385817
            ]
          ]
        ]
      }
    },
    {
      "type": "Feature",
      "properties": {
        "indoor": "room",
        "level": "1",
        "ref": "",
        "name": "",
        "room_type": "",
        "_idx": 33,
        "_centroid": [
          126.9780737,
          37.2946327
        ],
        "_area_m2": 26.6
      },
      "geometry": {
        "type": "Polygon",
        "coordinates": [
          [
            [
              126.9780416449824,
              37.29465601854361
            ],
            [
              126.97811385886757,
              37.294645888855534
            ],
            [
              126.9781057486289,
              37.29460929808226
            ],
            [
              126.97803353474373,
              37.29461942777526
            ],
            [
              126.9780416449824,
              37.29465601854361
            ]
          ]
        ]
      }
    },
    {
      "type": "Feature",
      "properties": {
        "indoor": "room",
        "level": "1",
        "ref": "",
        "name": "",
        "room_type": "",
        "_idx": 34,
        "_centroid": [
          126.9781867,
          37.2946307
        ],
        "_area_m2": 23.7
      },
      "geometry": {
        "type": "Polygon",
        "coordinates": [
          [
            [
              126.9782114803826,
              37.29466239267801
            ],
            [
              126.97819634838781,
              37.29459412201299
            ],
            [
              126.97816183592388,
              37.29459896319756
            ],
            [
              126.97817696791867,
              37.294667233858185
            ],
            [
              126.9782114803826,
              37.29466239267801
            ]
          ]
        ]
      }
    },
    {
      "type": "Feature",
      "properties": {
        "indoor": "room",
        "level": "1",
        "ref": "",
        "name": "",
        "room_type": "",
        "_idx": 35,
        "_centroid": [
          126.9778837,
          37.2946305
        ],
        "_area_m2": 10.9
      },
      "geometry": {
        "type": "Polygon",
        "coordinates": [
          [
            [
              126.97790012007208,
              37.294647027280405
            ],
            [
              126.97790347955947,
              37.29461647962129
            ],
            [
              126.97786733581981,
              37.29461396402085
            ],
            [
              126.97786397633242,
              37.29464451168098
            ],
            [
              126.97790012007208,
              37.294647027280405
            ]
          ]
        ]
      }
    },
    {
      "type": "Feature",
      "properties": {
        "indoor": "room",
        "level": "1",
        "ref": "",
        "name": "",
        "room_type": "",
        "_idx": 36,
        "_centroid": [
          126.9779169,
          37.2946258
        ],
        "_area_m2": 74.9
      },
      "geometry": {
        "type": "Polygon",
        "coordinates": [
          [
            [
              126.97790802946822,
              37.29454564994353
            ],
            [
              126.97791167260556,
              37.294556466281804
            ],
            [
              126.9779066042496,
              37.29458806695105
            ],
            [
              126.97790347955947,
              37.29461647962129
            ],
            [
              126.97790012007208,
              37.294647027280405
            ],
            [
              126.97789697712153,
              37.29467560596886
            ],
            [
              126.9778938046055,
              37.29470445348337
            ],
            [
              126.97795385766541,
              37.2947086331649
            ],
            [
              126.9779618370266,
              37.2946726328985
            ],
            [
              126.97793302927671,
              37.294542661615225
            ],
            [
              126.97790802946822,
              37.29454564994353
            ]
          ]
        ]
      }
    },
    {
      "type": "Feature",
      "properties": {
        "indoor": "room",
        "level": "1",
        "ref": "",
        "name": "",
        "room_type": "",
        "_idx": 37,
        "_centroid": [
          126.9780671,
          37.2946028
        ],
        "_area_m2": 16.8
      },
      "geometry": {
        "type": "Polygon",
        "coordinates": [
          [
            [
              126.97803353474373,
              37.29461942777526
            ],
            [
              126.97810574862889,
              37.29460929808226
            ],
            [
              126.97810062143698,
              37.29458616584171
            ],
            [
              126.9780284075518,
              37.29459629553783
            ],
            [
              126.97803353474373,
              37.29461942777526
            ]
          ]
        ]
      }
    },
    {
      "type": "Feature",
      "properties": {
        "indoor": "room",
        "level": "1",
        "ref": "",
        "name": "",
        "room_type": "",
        "_idx": 38,
        "_centroid": [
          126.977887,
          37.294601
        ],
        "_area_m2": 10.1
      },
      "geometry": {
        "type": "Polygon",
        "coordinates": [
          [
            [
              126.97790347955947,
              37.29461647962129
            ],
            [
              126.97790660424961,
              37.29458806695105
            ],
            [
              126.97787046050996,
              37.29458555134966
            ],
            [
              126.97786733581981,
              37.29461396402085
            ],
            [
              126.97790347955947,
              37.29461647962129
            ]
          ]
        ]
      }
    },
    {
      "type": "Feature",
      "properties": {
        "indoor": "room",
        "level": "1",
        "ref": "",
        "name": "",
        "room_type": "",
        "_idx": 39,
        "_centroid": [
          126.9780596,
          37.2945689
        ],
        "_area_m2": 32.5
      },
      "geometry": {
        "type": "Polygon",
        "coordinates": [
          [
            [
              126.97810062143698,
              37.29458616584171
            ],
            [
              126.97809070858354,
              37.29454144221563
            ],
            [
              126.97801849469835,
              37.29455157191778
            ],
            [
              126.9780284075518,
              37.29459629553783
            ],
            [
              126.97810062143698,
              37.29458616584171
            ]
          ]
        ]
      }
    },
    {
      "type": "Feature",
      "properties": {
        "indoor": "room",
        "level": "1",
        "ref": "",
        "name": "",
        "room_type": "",
        "_idx": 40,
        "_centroid": [
          126.9778903,
          37.2945644
        ],
        "_area_m2": 13.0
      },
      "geometry": {
        "type": "Polygon",
        "coordinates": [
          [
            [
              126.9779066042496,
              37.29458806695105
            ],
            [
              126.97791167260556,
              37.294556466281804
            ],
            [
              126.97790802946822,
              37.29454564994353
            ],
            [
              126.97788569411264,
              37.29455041099096
            ],
            [
              126.9778772694475,
              37.29455839822234
            ],
            [
              126.97787256380809,
              37.294566426145316
            ],
            [
              126.97787046050996,
              37.29458555134966
            ],
            [
              126.9779066042496,
              37.29458806695105
            ]
          ]
        ]
      }
    },
    {
      "type": "Feature",
      "properties": {
        "indoor": "room",
        "level": "1",
        "ref": "",
        "name": "",
        "room_type": "",
        "_idx": 41,
        "_centroid": [
          126.97789,
          37.2945236
        ],
        "_area_m2": 1168.1
      },
      "geometry": {
        "type": "Polygon",
        "coordinates": [
          [
            [
              126.97764315599362,
              37.29420249300144
            ],
            [
              126.97763653961695,
              37.29420786422247
            ],
            [
              126.977856324573,
              37.29525543666031
            ],
            [
              126.97786549317571,
              37.29526412912031
            ],
            [
              126.97788138369319,
              37.295266358119214
            ],
            [
              126.97788558198454,
              37.29524515166569
            ],
            [
              126.97789225264657,
              37.29518449612294
            ],
            [
              126.97786197966593,
              37.2950476869621
            ],
            [
              126.97788285547162,
              37.2950491399076
            ],
            [
              126.97790240112526,
              37.294885405739926
            ],
            [
              126.97783797701292,
              37.294880921844495
            ],
            [
              126.97784621629626,
              37.294806002643874
            ],
            [
              126.9778576608659,
              37.29470193788586
            ],
            [
              126.97787256380809,
              37.294566426145316
            ],
            [
              126.9778772694475,
              37.29455839822234
            ],
            [
              126.97788569411264,
              37.29455041099096
            ],
            [
              126.97790802946822,
              37.29454564994353
            ],
            [
              126.97792537681957,
              37.2945435763444
            ],
            [
              126.97791666212353,
              37.29450425840072
            ],
            [
              126.97790106566383,
              37.29450644617358
            ],
            [
              126.97788754277433,
              37.29444543514773
            ],
            [
              126.97790551924395,
              37.294442913520065
            ],
            [
              126.9778923074459,
              37.29438330599117
            ],
            [
              126.97774096657645,
              37.29435959348505
            ],
            [
              126.97773044707425,
              37.29435453684857
            ],
            [
              126.9777218011814,
              37.2943459999407
            ],
            [
              126.97771921586694,
              37.29433766299678
            ],
            [
              126.97769470723962,
              37.294212555262824
            ],
            [
              126.97782919303677,
              37.29419258792102
            ],
            [
              126.97782878035393,
              37.29419082881891
            ],
            [
              126.97791411962551,
              37.294178857733094
            ],
            [
              126.9779380957879,
              37.29417709940939
            ],
            [
              126.97801428159437,
              37.29416641249829
            ],
            [
              126.9780390597103,
              37.29416129439713
            ],
            [
              126.97809856367009,
              37.29415294750737
            ],
            [
              126.97816242878513,
              37.29414399591187
            ],
            [
              126.97816159386255,
              37.294139859524755
            ],
            [
              126.97815361444947,
              37.29413205459741
            ],
            [
              126.97814164098814,
              37.29412842145429
            ],
            [
              126.97764315599362,
              37.29420249300144
            ]
          ]
        ]
      }
    },
    {
      "type": "Feature",
      "properties": {
        "indoor": "room",
        "level": "1",
        "ref": "",
        "name": "",
        "room_type": "",
        "_idx": 42,
        "_centroid": [
          126.9780409,
          37.2944931
        ],
        "_area_m2": 46.5
      },
      "geometry": {
        "type": "Polygon",
        "coordinates": [
          [
            [
              126.97808272334545,
              37.29452175304336
            ],
            [
              126.97806786241225,
              37.29445470519578
            ],
            [
              126.97799900713397,
              37.29446436378518
            ],
            [
              126.97801386806715,
              37.294531411624156
            ],
            [
              126.97808272334545,
              37.29452175304336
            ]
          ]
        ]
      }
    },
    {
      "type": "Feature",
      "properties": {
        "indoor": "room",
        "level": "1",
        "ref": "",
        "name": "",
        "room_type": "",
        "_idx": 43,
        "_centroid": [
          126.9780255,
          37.2944236
        ],
        "_area_m2": 49.8
      },
      "geometry": {
        "type": "Polygon",
        "coordinates": [
          [
            [
              126.97806786241225,
              37.29445470519577
            ],
            [
              126.9780519426838,
              37.29438288033149
            ],
            [
              126.97798308740553,
              37.294392538930104
            ],
            [
              126.97799900713397,
              37.29446436378518
            ],
            [
              126.97806786241225,
              37.29445470519577
            ]
          ]
        ]
      }
    },
    {
      "type": "Feature",
      "properties": {
        "indoor": "room",
        "level": "1",
        "ref": "",
        "name": "",
        "room_type": "",
        "_idx": 44,
        "_centroid": [
          126.9781177,
          37.2943777
        ],
        "_area_m2": 264.4
      },
      "geometry": {
        "type": "Polygon",
        "coordinates": [
          [
            [
              126.97819634838781,
              37.29459412201299
            ],
            [
              126.97809856367009,
              37.29415294750737
            ],
            [
              126.9780390597103,
              37.29416129439713
            ],
            [
              126.978136844428,
              37.29460246884382
            ],
            [
              126.97819634838781,
              37.29459412201299
            ]
          ]
        ]
      }
    },
    {
      "type": "Feature",
      "properties": {
        "indoor": "room",
        "level": "1",
        "ref": "",
        "name": "",
        "room_type": "",
        "_idx": 45,
        "_centroid": [
          126.9780168,
          37.2943536
        ],
        "_area_m2": 16.3
      },
      "geometry": {
        "type": "Polygon",
        "coordinates": [
          [
            [
              126.97805248345627,
              37.294337670884836
            ],
            [
              126.97797641422895,
              37.2943483414186
            ],
            [
              126.97798111554336,
              37.29436955230424
            ],
            [
              126.97805718477068,
              37.2943588817735
            ],
            [
              126.97805248345627,
              37.294337670884836
            ]
          ]
        ]
      }
    },
    {
      "type": "Feature",
      "properties": {
        "indoor": "room",
        "level": "1",
        "ref": "",
        "name": "",
        "room_type": "",
        "_idx": 46,
        "_centroid": [
          126.9780122,
          37.2943326
        ],
        "_area_m2": 15.9
      },
      "geometry": {
        "type": "Polygon",
        "coordinates": [
          [
            [
              126.9780478865829,
              37.29431693119639
            ],
            [
              126.97797181735558,
              37.294327601733094
            ],
            [
              126.97797641422895,
              37.2943483414186
            ],
            [
              126.97805248345627,
              37.294337670884836
            ],
            [
              126.9780478865829,
              37.29431693119639
            ]
          ]
        ]
      }
    },
    {
      "type": "Feature",
      "properties": {
        "indoor": "room",
        "level": "1",
        "ref": "",
        "name": "",
        "room_type": "",
        "_idx": 47,
        "_centroid": [
          126.9780071,
          37.29431
        ],
        "_area_m2": 18.8
      },
      "geometry": {
        "type": "Polygon",
        "coordinates": [
          [
            [
              126.9780424406308,
              37.294292360716675
            ],
            [
              126.97796637140348,
              37.29430303125686
            ],
            [
              126.97797181735558,
              37.294327601733094
            ],
            [
              126.9780478865829,
              37.2943169311964
            ],
            [
              126.9780424406308,
              37.294292360716675
            ]
          ]
        ]
      }
    },
    {
      "type": "Feature",
      "properties": {
        "indoor": "room",
        "level": "1",
        "ref": "",
        "name": "",
        "room_type": "",
        "_idx": 48,
        "_centroid": [
          126.9779076,
          37.294289
        ],
        "_area_m2": 123.8
      },
      "geometry": {
        "type": "Polygon",
        "coordinates": [
          [
            [
              126.97791411962551,
              37.294178857733094
            ],
            [
              126.97782880241326,
              37.29419082554373
            ],
            [
              126.9778582382346,
              37.294323631101655
            ],
            [
              126.97792823183116,
              37.294335884406294
            ],
            [
              126.97793583152668,
              37.29433613891809
            ],
            [
              126.9779430548779,
              37.294331715269585
            ],
            [
              126.97794471421857,
              37.29432571656418
            ],
            [
              126.97791411962551,
              37.294178857733094
            ]
          ]
        ]
      }
    },
    {
      "type": "Feature",
      "properties": {
        "indoor": "room",
        "level": "1",
        "ref": "",
        "name": "",
        "room_type": "",
        "_idx": 49,
        "_centroid": [
          126.9779973,
          37.2942658
        ],
        "_area_m2": 48.8
      },
      "geometry": {
        "type": "Polygon",
        "coordinates": [
          [
            [
              126.97802831707884,
              37.29422863950786
            ],
            [
              126.9779522478515,
              37.294239310057065
            ],
            [
              126.97796637140348,
              37.29430303125686
            ],
            [
              126.97804244063082,
              37.294292360716675
            ],
            [
              126.97802831707884,
              37.29422863950786
            ]
          ]
        ]
      }
    },
    {
      "type": "Feature",
      "properties": {
        "indoor": "room",
        "level": "1",
        "ref": "",
        "name": "",
        "room_type": "",
        "_idx": 50,
        "_centroid": [
          126.9779813,
          37.294195
        ],
        "_area_m2": 35.7
      },
      "geometry": {
        "type": "Polygon",
        "coordinates": [
          [
            [
              126.9780246033405,
              37.294212981149
            ],
            [
              126.97801428159437,
              37.2941664124983
            ],
            [
              126.97793809578793,
              37.29417709940939
            ],
            [
              126.97794841753405,
              37.294223668053476
            ],
            [
              126.9780246033405,
              37.294212981149
            ]
          ]
        ]
      }
    }
  ]
}