{
  "type": "FeatureCollection",
  "features": [
    {
      "type": "Feature",
      "properties": {
        "indoor": "room",
        "level": "4",
        "ref": "",
        "name": "",
        "room_type": "",
        "_idx": 1,
        "_centroid": [
          126.9779271,
          37.2952088
        ],
        "_area_m2": 40.1
      },
      "geometry": {
        "type": "Polygon",
        "coordinates": [
          [
            [
              126.97789417556368,
              37.29518689975433
            ],
            [
              126.97788558198454,
              37.29524515166569
            ],
            [
              126.97796889726584,
              37.29523368513244
            ],
            [
              126.97797301872221,
              37.29519110140895
            ],
            [
              126.97791391273485,
              37.29518698766987
            ],
            [
              126.97789417556368,
              37.29518689975433
            ]
          ]
        ]
      }
    },
    {
      "type": "Feature",
      "properties": {
        "indoor": "room",
        "level": "4",
        "ref": "",
        "name": "",
        "room_type": "",
        "_idx": 2,
        "_centroid": [
          126.978026,
          37.2952025
        ],
        "_area_m2": 40.3
      },
      "geometry": {
        "type": "Polygon",
        "coordinates": [
          [
            [
              126.97799807753816,
              37.29516962501512
            ],
            [
              126.97799327579777,
              37.29521841998839
            ],
            [
              126.97799208615584,
              37.29523050904726
            ],
            [
              126.97807098423215,
              37.295219441829346
            ],
            [
              126.97807573159963,
              37.29517446110987
            ],
            [
              126.97799807753816,
              37.29516962501512
            ]
          ]
        ]
      }
    },
    {
      "type": "Feature",
      "properties": {
        "indoor": "room",
        "level": "4",
        "ref": "",
        "name": "",
        "room_type": "",
        "_idx": 3,
        "_centroid": [
          126.977933,
          37.2951636
        ],
        "_area_m2": 47.6
      },
      "geometry": {
        "type": "Polygon",
        "coordinates": [
          [
            [
              126.97790348989756,
              37.295123762178825
            ],
            [
              126.97789417556368,
              37.29518689975433
            ],
            [
              126.97791391273485,
              37.29518698766987
            ],
            [
              126.97797301872221,
              37.295191101408946
            ],
            [
              126.97798041737191,
              37.295129116286574
            ],
            [
              126.97790348989756,
              37.295123762178825
            ]
          ]
        ]
      }
    },
    {
      "type": "Feature",
      "properties": {
        "indoor": "room",
        "level": "4",
        "ref": "",
        "name": "",
        "room_type": "",
        "_idx": 4,
        "_centroid": [
          126.9780379,
          37.2951621
        ],
        "_area_m2": 15.1
      },
      "geometry": {
        "type": "Polygon",
        "coordinates": [
          [
            [
              126.97799807753816,
              37.29516962501512
            ],
            [
              126.97807573159963,
              37.29517446110987
            ],
            [
              126.97807779295965,
              37.295154929978764
            ],
            [
              126.97800005604587,
              37.29514951953993
            ],
            [
              126.97799807753816,
              37.29516962501512
            ]
          ]
        ]
      }
    },
    {
      "type": "Feature",
      "properties": {
        "indoor": "room",
        "level": "4",
        "ref": "",
        "name": "",
        "room_type": "",
        "_idx": 5,
        "_centroid": [
          126.9780427,
          37.2951217
        ],
        "_area_m2": 46.2
      },
      "geometry": {
        "type": "Polygon",
        "coordinates": [
          [
            [
              126.97800005604587,
              37.29514951953993
            ],
            [
              126.97807779295965,
              37.29515492997876
            ],
            [
              126.9780843956196,
              37.29509379093663
            ],
            [
              126.97800858784396,
              37.29508851475686
            ],
            [
              126.97800005604587,
              37.29514951953993
            ]
          ]
        ]
      }
    },
    {
      "type": "Feature",
      "properties": {
        "indoor": "room",
        "level": "4",
        "ref": "",
        "name": "",
        "room_type": "",
        "_idx": 6,
        "_centroid": [
          126.9779475,
          37.2950843
        ],
        "_area_m2": 48.3
      },
      "geometry": {
        "type": "Polygon",
        "coordinates": [
          [
            [
              126.97798788351176,
              37.295065483220945
            ],
            [
              126.97791311724141,
              37.29505850285427
            ],
            [
              126.97791263735962,
              37.29506175575042
            ],
            [
              126.97790348989756,
              37.295123762178825
            ],
            [
              126.97798041737191,
              37.295129116286574
            ],
            [
              126.97798771120604,
              37.2950669808511
            ],
            [
              126.97798788351176,
              37.295065483220945
            ]
          ]
        ]
      }
    },
    {
      "type": "Feature",
      "properties": {
        "indoor": "room",
        "level": "4",
        "ref": "",
        "name": "",
        "room_type": "",
        "_idx": 7,
        "_centroid": [
          126.9781068,
          37.2950593
        ],
        "_area_m2": 314.3
      },
      "geometry": {
        "type": "Polygon",
        "coordinates": [
          [
            [
              126.97821782982815,
              37.29515738743042
            ],
            [
              126.97809846031124,
              37.2951490793841
            ],
            [
              126.97807857523824,
              37.29514768112649
            ],
            [
              126.97808456166966,
              37.295093802612776
            ],
            [
              126.97809362335224,
              37.2950122464412
            ],
            [
              126.97801756376371,
              37.29500689815335
            ],
            [
              126.97802432160869,
              37.29494607671972
            ],
            [
              126.9782394054207,
              37.2949612007957
            ],
            [
              126.97821782982815,
              37.29515738743042
            ]
          ]
        ]
      }
    },
    {
      "type": "Feature",
      "properties": {
        "indoor": "room",
        "level": "4",
        "ref": "",
        "name": "",
        "room_type": "",
        "_idx": 8,
        "_centroid": [
          126.978051,
          37.2950504
        ],
        "_area_m2": 60.9
      },
      "geometry": {
        "type": "Polygon",
        "coordinates": [
          [
            [
              126.97800858784396,
              37.29508851475686
            ],
            [
              126.97808439561962,
              37.29509379093664
            ],
            [
              126.97809336554235,
              37.295012228312785
            ],
            [
              126.97801755776668,
              37.295006952127295
            ],
            [
              126.97800858784396,
              37.29508851475686
            ]
          ]
        ]
      }
    },
    {
      "type": "Feature",
      "properties": {
        "indoor": "room",
        "level": "4",
        "ref": "",
        "name": "",
        "room_type": "",
        "_idx": 9,
        "_centroid": [
          126.9779545,
          37.2950311
        ],
        "_area_m2": 45.1
      },
      "geometry": {
        "type": "Polygon",
        "coordinates": [
          [
            [
              126.9779220877216,
              37.29499769610318
            ],
            [
              126.97791311724141,
              37.29505850285427
            ],
            [
              126.97798788351176,
              37.295065483220945
            ],
            [
              126.97799509793707,
              37.29500277758044
            ],
            [
              126.9779220877216,
              37.29499769610318
            ]
          ]
        ]
      }
    },
    {
      "type": "Feature",
      "properties": {
        "indoor": "room",
        "level": "4",
        "ref": "",
        "name": "",
        "room_type": "",
        "_idx": 10,
        "_centroid": [
          126.9779621,
          37.2949686
        ],
        "_area_m2": 45.5
      },
      "geometry": {
        "type": "Polygon",
        "coordinates": [
          [
            [
              126.97800206579473,
              37.294939419443175
            ],
            [
              126.977929055582,
              37.29493433796185
            ],
            [
              126.9779220877216,
              37.29499769610318
            ],
            [
              126.97799509793707,
              37.29500277758044
            ],
            [
              126.97800206579473,
              37.294939419443175
            ]
          ]
        ]
      }
    },
    {
      "type": "Feature",
      "properties": {
        "indoor": "room",
        "level": "4",
        "ref": "",
        "name": "",
        "room_type": "",
        "_idx": 11,
        "_centroid": [
          126.9779688,
          37.2949072
        ],
        "_area_m2": 42.6
      },
      "geometry": {
        "type": "Polygon",
        "coordinates": [
          [
            [
              126.97793557918274,
              37.29487501938593
            ],
            [
              126.977929055582,
              37.29493433796185
            ],
            [
              126.97800206579473,
              37.294939419443175
            ],
            [
              126.9780085893982,
              37.29488010087148
            ],
            [
              126.97793557918274,
              37.29487501938593
            ]
          ]
        ]
      }
    },
    {
      "type": "Feature",
      "properties": {
        "indoor": "room",
        "level": "4",
        "ref": "",
        "name": "",
        "room_type": "",
        "_idx": 12,
        "_centroid": [
          126.9779757,
          37.2948453
        ],
        "_area_m2": 46.5
      },
      "geometry": {
        "type": "Polygon",
        "coordinates": [
          [
            [
              126.9780160030973,
              37.29481555774784
            ],
            [
              126.97794267974807,
              37.29481045446395
            ],
            [
              126.97793557918274,
              37.29487501938593
            ],
            [
              126.9780085893982,
              37.294880100871474
            ],
            [
              126.9780160030973,
              37.29481555774784
            ]
          ]
        ]
      }
    },
    {
      "type": "Feature",
      "properties": {
        "indoor": "room",
        "level": "4",
        "ref": "",
        "name": "",
        "room_type": "",
        "_idx": 13,
        "_centroid": [
          126.9781536,
          37.2948424
        ],
        "_area_m2": 319.4
      },
      "geometry": {
        "type": "Polygon",
        "coordinates": [
          [
            [
              126.97802432160869,
              37.29494607671972
            ],
            [
              126.97804022021683,
              37.29482388870286
            ],
            [
              126.97811715169424,
              37.29482924311049
            ],
            [
              126.9781210046679,
              37.29479420828256
            ],
            [
              126.97812350635934,
              37.29477146057244
            ],
            [
              126.97823463765967,
              37.294782652444404
            ],
            [
              126.97822882781506,
              37.29483548096033
            ],
            [
              126.97825304637902,
              37.294837166564875
            ],
            [
              126.97823942604246,
              37.29496101519714
            ],
            [
              126.97802432160869,
              37.29494607671972
            ]
          ]
        ]
      }
    },
    {
      "type": "Feature",
      "properties": {
        "indoor": "room",
        "level": "4",
        "ref": "",
        "name": "",
        "room_type": "",
        "_idx": 14,
        "_centroid": [
          126.9780806,
          37.294809
        ],
        "_area_m2": 26.5
      },
      "geometry": {
        "type": "Polygon",
        "coordinates": [
          [
            [
              126.97812100466793,
              37.29479420828255
            ],
            [
              126.97804407319107,
              37.29478885387247
            ],
            [
              126.97804022021683,
              37.294823888702865
            ],
            [
              126.97811715169424,
              37.2948292431105
            ],
            [
              126.97812100466793,
              37.29479420828255
            ]
          ]
        ]
      }
    },
    {
      "type": "Feature",
      "properties": {
        "indoor": "room",
        "level": "4",
        "ref": "",
        "name": "",
        "room_type": "",
        "_idx": 15,
        "_centroid": [
          126.9779812,
          37.2947822
        ],
        "_area_m2": 37.0
      },
      "geometry": {
        "type": "Polygon",
        "coordinates": [
          [
            [
              126.97794830159413,
              37.294759335389564
            ],
            [
              126.97794267974807,
              37.29481045446395
            ],
            [
              126.9780160030973,
              37.29481555774784
            ],
            [
              126.97802188073597,
              37.29476438745418
            ],
            [
              126.9779770067765,
              37.294761264237486
            ],
            [
              126.97794830159413,
              37.294759335389564
            ]
          ]
        ]
      }
    },
    {
      "type": "Feature",
      "properties": {
        "indoor": "room",
        "level": "4",
        "ref": "",
        "name": "",
        "room_type": "",
        "_idx": 16,
        "_centroid": [
          126.9780838,
          37.2947802
        ],
        "_area_m2": 17.2
      },
      "geometry": {
        "type": "Polygon",
        "coordinates": [
          [
            [
              126.97804407319107,
              37.29478885387247
            ],
            [
              126.97812100466793,
              37.29479420828255
            ],
            [
              126.97812350635934,
              37.29477146057244
            ],
            [
              126.97804657488194,
              37.294766106160694
            ],
            [
              126.97804407319107,
              37.29478885387247
            ]
          ]
        ]
      }
    },
    {
      "type": "Feature",
      "properties": {
        "indoor": "room",
        "level": "4",
        "ref": "",
        "name": "",
        "room_type": "",
        "_idx": 17,
        "_centroid": [
          126.978178,
          37.294657
        ],
        "_area_m2": 17.6
      },
      "geometry": {
        "type": "Polygon",
        "coordinates": [
          [
            [
              126.97814546805525,
              37.29464137586241
            ],
            [
              126.97815197642106,
              37.2946707394918
            ],
            [
              126.97817696791867,
              37.29466723385817
            ],
            [
              126.97817696791867,
              37.294667233858185
            ],
            [
              126.9782114803826,
              37.29466239267801
            ],
            [
              126.97820497201836,
              37.294633029044135
            ],
            [
              126.97814546805525,
              37.29464137586241
            ]
          ]
        ]
      }
    },
    {
      "type": "Feature",
      "properties": {
        "indoor": "room",
        "level": "4",
        "ref": "",
        "name": "",
        "room_type": "",
        "_idx": 18,
        "_centroid": [
          126.9780774,
          37.2946466
        ],
        "_area_m2": 52.3
      },
      "geometry": {
        "type": "Polygon",
        "coordinates": [
          [
            [
              126.97810699509564,
              37.29460659478543
            ],
            [
              126.9780323864542,
              37.294617060399595
            ],
            [
              126.97804779901848,
              37.29468659688151
            ],
            [
              126.97812240765992,
              37.294676131277015
            ],
            [
              126.97810699509564,
              37.29460659478543
            ]
          ]
        ]
      }
    },
    {
      "type": "Feature",
      "properties": {
        "indoor": "room",
        "level": "4",
        "ref": "",
        "name": "",
        "room_type": "",
        "_idx": 19,
        "_centroid": [
          126.9781689,
          37.2946087
        ],
        "_area_m2": 34.1
      },
      "geometry": {
        "type": "Polygon",
        "coordinates": [
          [
            [
              126.97814546805525,
              37.29464137586241
            ],
            [
              126.9782049720184,
              37.29463302904444
            ],
            [
              126.97819234304065,
              37.29457605116455
            ],
            [
              126.97813283907746,
              37.29458439799013
            ],
            [
              126.97814546805525,
              37.29464137586241
            ]
          ]
        ]
      }
    },
    {
      "type": "Feature",
      "properties": {
        "indoor": "room",
        "level": "4",
        "ref": "",
        "name": "",
        "room_type": "",
        "_idx": 20,
        "_centroid": [
          126.9780674,
          37.2946014
        ],
        "_area_m2": 15.6
      },
      "geometry": {
        "type": "Polygon",
        "coordinates": [
          [
            [
              126.9780323864542,
              37.2946170603996
            ],
            [
              126.97810699509564,
              37.29460659478543
            ],
            [
              126.97810238903187,
              37.29458581370709
            ],
            [
              126.97802778039043,
              37.29459627932416
            ],
            [
              126.9780323864542,
              37.2946170603996
            ]
          ]
        ]
      }
    },
    {
      "type": "Feature",
      "properties": {
        "indoor": "room",
        "level": "4",
        "ref": "",
        "name": "",
        "room_type": "",
        "_idx": 21,
        "_centroid": [
          126.9780575,
          37.294557
        ],
        "_area_m2": 17.1
      },
      "geometry": {
        "type": "Polygon",
        "coordinates": [
          [
            [
              126.97801770890032,
              37.294550839986265
            ],
            [
              126.97809231754177,
              37.29454037436286
            ],
            [
              126.97809736185758,
              37.29456313270685
            ],
            [
              126.97802275321614,
              37.29457359832708
            ],
            [
              126.97801770890032,
              37.294550839986265
            ]
          ]
        ]
      }
    },
    {
      "type": "Feature",
      "properties": {
        "indoor": "room",
        "level": "4",
        "ref": "",
        "name": "",
        "room_type": "",
        "_idx": 22,
        "_centroid": [
          126.9781545,
          37.2945439
        ],
        "_area_m2": 43.5
      },
      "geometry": {
        "type": "Polygon",
        "coordinates": [
          [
            [
              126.97813283907743,
              37.29458439799013
            ],
            [
              126.97819234304065,
              37.29457605116455
            ],
            [
              126.97817624641704,
              37.294503428321065
            ],
            [
              126.97811674245385,
              37.294511775156344
            ],
            [
              126.97813283907743,
              37.29458439799013
            ]
          ]
        ]
      }
    },
    {
      "type": "Feature",
      "properties": {
        "indoor": "room",
        "level": "4",
        "ref": "",
        "name": "",
        "room_type": "",
        "_idx": 23,
        "_centroid": [
          126.9781417,
          37.2944861
        ],
        "_area_m2": 25.7
      },
      "geometry": {
        "type": "Polygon",
        "coordinates": [
          [
            [
              126.97811674245385,
              37.294511775156344
            ],
            [
              126.97817624641704,
              37.294503428321065
            ],
            [
              126.97816672587139,
              37.2944604746157
            ],
            [
              126.9781072219082,
              37.294468821456725
            ],
            [
              126.97811674245385,
              37.294511775156344
            ]
          ]
        ]
      }
    },
    {
      "type": "Feature",
      "properties": {
        "indoor": "room",
        "level": "4",
        "ref": "",
        "name": "",
        "room_type": "",
        "_idx": 24,
        "_centroid": [
          126.9780442,
          37.2944603
        ],
        "_area_m2": 75.9
      },
      "geometry": {
        "type": "Polygon",
        "coordinates": [
          [
            [
              126.97805473410395,
              37.29438514414597
            ],
            [
              126.97800198014451,
              37.29439254414963
            ],
            [
              126.97803365358129,
              37.29453544476159
            ],
            [
              126.97808640754073,
              37.29452804477199
            ],
            [
              126.97805473410395,
              37.29438514414597
            ]
          ]
        ]
      }
    },
    {
      "type": "Feature",
      "properties": {
        "indoor": "room",
        "level": "4",
        "ref": "",
        "name": "",
        "room_type": "",
        "_idx": 25,
        "_centroid": [
          126.9781313,
          37.2944389
        ],
        "_area_m2": 30.9
      },
      "geometry": {
        "type": "Polygon",
        "coordinates": [
          [
            [
              126.9781072219082,
              37.294468821456725
            ],
            [
              126.97816672587139,
              37.2944604746157
            ],
            [
              126.9781552938117,
              37.29440889672812
            ],
            [
              126.97809578984848,
              37.294417243576035
            ],
            [
              126.9781072219082,
              37.294468821456725
            ]
          ]
        ]
      }
    },
    {
      "type": "Feature",
      "properties": {
        "indoor": "room",
        "level": "4",
        "ref": "",
        "name": "",
        "room_type": "",
        "_idx": 26,
        "_centroid": [
          126.97812,
          37.294388
        ],
        "_area_m2": 30.1
      },
      "geometry": {
        "type": "Polygon",
        "coordinates": [
          [
            [
              126.97809578984848,
              37.294417243576035
            ],
            [
              126.9781552938117,
              37.294408896728115
            ],
            [
              126.97814416603592,
              37.29435869164084
            ],
            [
              126.9780846620727,
              37.29436703849547
            ],
            [
              126.97809578984848,
              37.294417243576035
            ]
          ]
        ]
      }
    },
    {
      "type": "Feature",
      "properties": {
        "indoor": "room",
        "level": "4",
        "ref": "",
        "name": "",
        "room_type": "",
        "_idx": 27,
        "_centroid": [
          126.9779266,
          37.2943752
        ],
        "_area_m2": 355.0
      },
      "geometry": {
        "type": "Polygon",
        "coordinates": [
          [
            [
              126.97796239290102,
              37.294697791464245
            ],
            [
              126.97803160835485,
              37.2946880823818
            ],
            [
              126.97793317273712,
              37.294243971761965
            ],
            [
              126.97791874906294,
              37.29417889644971
            ],
            [
              126.97784953360909,
              37.294188605597874
            ],
            [
              126.97786395728328,
              37.29425368090172
            ],
            [
              126.97796239290102,
              37.294697791464245
            ]
          ]
        ]
      }
    },
    {
      "type": "Feature",
      "properties": {
        "indoor": "room",
        "level": "4",
        "ref": "",
        "name": "",
        "room_type": "",
        "_idx": 28,
        "_centroid": [
          126.9780168,
          37.2943536
        ],
        "_area_m2": 16.3
      },
      "geometry": {
        "type": "Polygon",
        "coordinates": [
          [
            [
              126.97805248345627,
              37.294337670884836
            ],
            [
              126.97797641422895,
              37.2943483414186
            ],
            [
              126.97798111554336,
              37.29436955230424
            ],
            [
              126.97805718477068,
              37.2943588817735
            ],
            [
              126.97805248345627,
              37.294337670884836
            ]
          ]
        ]
      }
    },
    {
      "type": "Feature",
      "properties": {
        "indoor": "room",
        "level": "4",
        "ref": "",
        "name": "",
        "room_type": "",
        "_idx": 29,
        "_centroid": [
          126.9781081,
          37.2943342
        ],
        "_area_m2": 34.4
      },
      "geometry": {
        "type": "Polygon",
        "coordinates": [
          [
            [
              126.97808466207267,
              37.29436703849547
            ],
            [
              126.97814416603592,
              37.29435869164084
            ],
            [
              126.97813144505925,
              37.29430129848215
            ],
            [
              126.97807194109602,
              37.294309645344455
            ],
            [
              126.97808466207267,
              37.29436703849547
            ]
          ]
        ]
      }
    },
    {
      "type": "Feature",
      "properties": {
        "indoor": "room",
        "level": "4",
        "ref": "",
        "name": "",
        "room_type": "",
        "_idx": 30,
        "_centroid": [
          126.9780122,
          37.2943326
        ],
        "_area_m2": 15.9
      },
      "geometry": {
        "type": "Polygon",
        "coordinates": [
          [
            [
              126.9780478865829,
              37.29431693119639
            ],
            [
              126.97797181735558,
              37.294327601733094
            ],
            [
              126.97797641422895,
              37.2943483414186
            ],
            [
              126.97805248345627,
              37.294337670884836
            ],
            [
              126.9780478865829,
              37.29431693119639
            ]
          ]
        ]
      }
    },
    {
      "type": "Feature",
      "properties": {
        "indoor": "room",
        "level": "4",
        "ref": "",
        "name": "",
        "room_type": "",
        "_idx": 31,
        "_centroid": [
          126.9780071,
          37.29431
        ],
        "_area_m2": 18.8
      },
      "geometry": {
        "type": "Polygon",
        "coordinates": [
          [
            [
              126.9780424406308,
              37.294292360716675
            ],
            [
              126.97796637140348,
              37.29430303125686
            ],
            [
              126.97797181735558,
              37.294327601733094
            ],
            [
              126.9780478865829,
              37.2943169311964
            ],
            [
              126.9780424406308,
              37.294292360716675
            ]
          ]
        ]
      }
    },
    {
      "type": "Feature",
      "properties": {
        "indoor": "room",
        "level": "4",
        "ref": "",
        "name": "",
        "room_type": "",
        "_idx": 32,
        "_centroid": [
          126.978097,
          37.2942843
        ],
        "_area_m2": 25.4
      },
      "geometry": {
        "type": "Polygon",
        "coordinates": [
          [
            [
              126.97807194109602,
              37.29430964534446
            ],
            [
              126.97813144505925,
              37.29430129848215
            ],
            [
              126.97812205420959,
              37.29425892981071
            ],
            [
              126.97806255024638,
              37.294267276678674
            ],
            [
              126.97807194109602,
              37.29430964534446
            ]
          ]
        ]
      }
    },
    {
      "type": "Feature",
      "properties": {
        "indoor": "room",
        "level": "4",
        "ref": "",
        "name": "",
        "room_type": "",
        "_idx": 33,
        "_centroid": [
          126.9779973,
          37.2942658
        ],
        "_area_m2": 48.8
      },
      "geometry": {
        "type": "Polygon",
        "coordinates": [
          [
            [
              126.97802831707884,
              37.29422863950786
            ],
            [
              126.9779522478515,
              37.294239310057065
            ],
            [
              126.97796637140348,
              37.29430303125686
            ],
            [
              126.97804244063082,
              37.294292360716675
            ],
            [
              126.97802831707884,
              37.29422863950786
            ]
          ]
        ]
      }
    },
    {
      "type": "Feature",
      "properties": {
        "indoor": "room",
        "level": "4",
        "ref": "",
        "name": "",
        "room_type": "",
        "_idx": 34,
        "_centroid": [
          126.9780849,
          37.2942297
        ],
        "_area_m2": 40.0
      },
      "geometry": {
        "type": "Polygon",
        "coordinates": [
          [
            [
              126.97806255024638,
              37.294267276678674
            ],
            [
              126.97812205420959,
              37.29425892981071
            ],
            [
              126.97810724979347,
              37.29419213671725
            ],
            [
              126.97804774583025,
              37.29420048359414
            ],
            [
              126.97806255024638,
              37.294267276678674
            ]
          ]
        ]
      }
    },
    {
      "type": "Feature",
      "properties": {
        "indoor": "room",
        "level": "4",
        "ref": "",
        "name": "",
        "room_type": "",
        "_idx": 35,
        "_centroid": [
          126.9779839,
          37.2942064
        ],
        "_area_m2": 18.4
      },
      "geometry": {
        "type": "Polygon",
        "coordinates": [
          [
            [
              126.97801930211322,
              37.294189063590885
            ],
            [
              126.97794311630757,
              37.29419975049862
            ],
            [
              126.97794841753405,
              37.294223668053476
            ],
            [
              126.9780246033405,
              37.294212981149
            ],
            [
              126.97801930211322,
              37.294189063590885
            ]
          ]
        ]
      }
    },
    {
      "type": "Feature",
      "properties": {
        "indoor": "room",
        "level": "4",
        "ref": "",
        "name": "",
        "room_type": "",
        "_idx": 36,
        "_centroid": [
          126.9780581,
          37.2941835
        ],
        "_area_m2": 32.2
      },
      "geometry": {
        "type": "Polygon",
        "coordinates": [
          [
            [
              126.97810724979347,
              37.29419213671724
            ],
            [
              126.97804774583025,
              37.29420048359414
            ],
            [
              126.97802261826439,
              37.2942040513096
            ],
            [
              126.97801408558944,
              37.294166440640595
            ],
            [
              126.978099045298,
              37.29415424215668
            ],
            [
              126.97810724979347,
              37.29419213671724
            ]
          ]
        ]
      }
    },
    {
      "type": "Feature",
      "properties": {
        "indoor": "room",
        "level": "4",
        "ref": "",
        "name": "",
        "room_type": "",
        "_idx": 37,
        "_centroid": [
          126.9779787,
          37.2941831
        ],
        "_area_m2": 17.4
      },
      "geometry": {
        "type": "Polygon",
        "coordinates": [
          [
            [
              126.97794311630757,
              37.29419975049862
            ],
            [
              126.97801930211322,
              37.294189063590885
            ],
            [
              126.97801428159437,
              37.2941664124983
            ],
            [
              126.97793809578793,
              37.29417709940939
            ],
            [
              126.97794311630757,
              37.29419975049862
            ]
          ]
        ]
      }
    }
  ]
}