{
  "type": "FeatureCollection",
  "features": [
    {
      "type": "Feature",
      "properties": {
        "indoor": "room",
        "level": "2",
        "ref": "",
        "name": "",
        "room_type": "",
        "_idx": 1,
        "_centroid": [
          126.9779264,
          37.2952088
        ],
        "_area_m2": 41.0
      },
      "geometry": {
        "type": "Polygon",
        "coordinates": [
          [
            [
              126.97797301872221,
              37.29519110140895
            ],
            [
              126.97791391273485,
              37.29518698766987
            ],
            [
              126.9778907786054,
              37.29518688462321
            ],
            [
              126.97788558198454,
              37.29524515166569
            ],
            [
              126.97796889726584,
              37.29523368513244
            ],
            [
              126.97797301872221,
              37.29519110140895
            ]
          ]
        ]
      }
    },
    {
      "type": "Feature",
      "properties": {
        "indoor": "room",
        "level": "2",
        "ref": "",
        "name": "",
        "room_type": "",
        "_idx": 2,
        "_centroid": [
          126.9780352,
          37.2951886
        ],
        "_area_m2": 55.5
      },
      "geometry": {
        "type": "Polygon",
        "coordinates": [
          [
            [
              126.97807779295965,
              37.295154929978764
            ],
            [
              126.97800005604587,
              37.29514951953993
            ],
            [
              126.97799208615584,
              37.29523050904726
            ],
            [
              126.97807098423215,
              37.295219441829346
            ],
            [
              126.97807779295965,
              37.295154929978764
            ]
          ]
        ]
      }
    },
    {
      "type": "Feature",
      "properties": {
        "indoor": "room",
        "level": "2",
        "ref": "",
        "name": "",
        "room_type": "",
        "_idx": 3,
        "_centroid": [
          126.9779269,
          37.2951632
        ],
        "_area_m2": 57.2
      },
      "geometry": {
        "type": "Polygon",
        "coordinates": [
          [
            [
              126.97797301872221,
              37.295191101408946
            ],
            [
              126.97791391273485,
              37.29518698766987
            ],
            [
              126.9778907786054,
              37.29518698766987
            ],
            [
              126.97787634602255,
              37.295121872980815
            ],
            [
              126.97798041737191,
              37.295129116286574
            ],
            [
              126.97797301872221,
              37.295191101408946
            ]
          ]
        ]
      }
    },
    {
      "type": "Feature",
      "properties": {
        "indoor": "room",
        "level": "2",
        "ref": "",
        "name": "",
        "room_type": "",
        "_idx": 4,
        "_centroid": [
          126.9780427,
          37.2951217
        ],
        "_area_m2": 46.2
      },
      "geometry": {
        "type": "Polygon",
        "coordinates": [
          [
            [
              126.97800005604587,
              37.29514951953993
            ],
            [
              126.97807779295965,
              37.29515492997876
            ],
            [
              126.9780843956196,
              37.29509379093663
            ],
            [
              126.97800858784396,
              37.29508851475686
            ],
            [
              126.97800005604587,
              37.29514951953993
            ]
          ]
        ]
      }
    },
    {
      "type": "Feature",
      "properties": {
        "indoor": "room",
        "level": "2",
        "ref": "",
        "name": "",
        "room_type": "",
        "_idx": 5,
        "_centroid": [
          126.978162,
          37.2951185
        ],
        "_area_m2": 81.5
      },
      "geometry": {
        "type": "Polygon",
        "coordinates": [
          [
            [
              126.97809846031124,
              37.2951490793841
            ],
            [
              126.97821782982815,
              37.29515738743042
            ],
            [
              126.97822546069594,
              37.295088000765645
            ],
            [
              126.97810609117903,
              37.295079692711674
            ],
            [
              126.97809846031124,
              37.2951490793841
            ]
          ]
        ]
      }
    },
    {
      "type": "Feature",
      "properties": {
        "indoor": "room",
        "level": "2",
        "ref": "",
        "name": "",
        "room_type": "",
        "_idx": 6,
        "_centroid": [
          126.9779267,
          37.2950941
        ],
        "_area_m2": 70.2
      },
      "geometry": {
        "type": "Polygon",
        "coordinates": [
          [
            [
              126.97798041737191,
              37.295129116286574
            ],
            [
              126.97787634602255,
              37.295121872980815
            ],
            [
              126.9778622437278,
              37.295058248379846
            ],
            [
              126.97798771120604,
              37.2950669808511
            ],
            [
              126.97798041737191,
              37.295129116286574
            ]
          ]
        ]
      }
    },
    {
      "type": "Feature",
      "properties": {
        "indoor": "room",
        "level": "2",
        "ref": "",
        "name": "",
        "room_type": "",
        "_idx": 7,
        "_centroid": [
          126.9781692,
          37.2950529
        ],
        "_area_m2": 72.6
      },
      "geometry": {
        "type": "Polygon",
        "coordinates": [
          [
            [
              126.97810609117903,
              37.295079692711674
            ],
            [
              126.97822546069594,
              37.295088000765645
            ],
            [
              126.97823225869203,
              37.29502618726009
            ],
            [
              126.97811288917514,
              37.29501787919929
            ],
            [
              126.97810609117903,
              37.295079692711674
            ]
          ]
        ]
      }
    },
    {
      "type": "Feature",
      "properties": {
        "indoor": "room",
        "level": "2",
        "ref": "",
        "name": "",
        "room_type": "",
        "_idx": 8,
        "_centroid": [
          126.978051,
          37.2950504
        ],
        "_area_m2": 60.9
      },
      "geometry": {
        "type": "Polygon",
        "coordinates": [
          [
            [
              126.97800858784396,
              37.29508851475686
            ],
            [
              126.97808439561962,
              37.29509379093664
            ],
            [
              126.97809336554235,
              37.295012228312785
            ],
            [
              126.97801755776668,
              37.295006952127295
            ],
            [
              126.97800858784396,
              37.29508851475686
            ]
          ]
        ]
      }
    },
    {
      "type": "Feature",
      "properties": {
        "indoor": "room",
        "level": "2",
        "ref": "",
        "name": "",
        "room_type": "",
        "_idx": 9,
        "_centroid": [
          126.9779232,
          37.2950301
        ],
        "_area_m2": 86.3
      },
      "geometry": {
        "type": "Polygon",
        "coordinates": [
          [
            [
              126.97798771120604,
              37.2950669808511
            ],
            [
              126.9778622437278,
              37.29505824837984
            ],
            [
              126.97784767447578,
              37.29499251697532
            ],
            [
              126.97799509793707,
              37.29500277758044
            ],
            [
              126.97798771120604,
              37.2950669808511
            ]
          ]
        ]
      }
    },
    {
      "type": "Feature",
      "properties": {
        "indoor": "room",
        "level": "2",
        "ref": "",
        "name": "",
        "room_type": "",
        "_idx": 10,
        "_centroid": [
          126.9781762,
          37.2949894
        ],
        "_area_m2": 76.6
      },
      "geometry": {
        "type": "Polygon",
        "coordinates": [
          [
            [
              126.97811288917514,
              37.29501787919929
            ],
            [
              126.97823225869203,
              37.29502618726009
            ],
            [
              126.97823942604246,
              37.29496101519714
            ],
            [
              126.97812005652557,
              37.294952707129134
            ],
            [
              126.97811288917514,
              37.29501787919929
            ]
          ]
        ]
      }
    },
    {
      "type": "Feature",
      "properties": {
        "indoor": "room",
        "level": "2",
        "ref": "",
        "name": "",
        "room_type": "",
        "_idx": 11,
        "_centroid": [
          126.9780846,
          37.2949685
        ],
        "_area_m2": 10.2
      },
      "geometry": {
        "type": "Polygon",
        "coordinates": [
          [
            [
              126.97807480768367,
              37.29494628947932
            ],
            [
              126.97807010288152,
              37.294989069830464
            ],
            [
              126.97809430211574,
              37.29499075408622
            ],
            [
              126.97809900691789,
              37.29494797373603
            ],
            [
              126.97807480768367,
              37.29494628947932
            ]
          ]
        ]
      }
    },
    {
      "type": "Feature",
      "properties": {
        "indoor": "room",
        "level": "2",
        "ref": "",
        "name": "",
        "room_type": "",
        "_idx": 12,
        "_centroid": [
          126.9780606,
          37.2949669
        ],
        "_area_m2": 10.0
      },
      "geometry": {
        "type": "Polygon",
        "coordinates": [
          [
            [
              126.97805106827032,
              37.29494463722592
            ],
            [
              126.97804636346814,
              37.29498741757799
            ],
            [
              126.97807010288152,
              37.294989069830464
            ],
            [
              126.97807480768367,
              37.29494628947932
            ],
            [
              126.97805106827032,
              37.29494463722592
            ]
          ]
        ]
      }
    },
    {
      "type": "Feature",
      "properties": {
        "indoor": "room",
        "level": "2",
        "ref": "",
        "name": "",
        "room_type": "",
        "_idx": 13,
        "_centroid": [
          126.9780362,
          37.2949652
        ],
        "_area_m2": 10.6
      },
      "geometry": {
        "type": "Polygon",
        "coordinates": [
          [
            [
              126.97802599748911,
              37.29494289230983
            ],
            [
              126.97802129268696,
              37.29498567266289
            ],
            [
              126.97804636346817,
              37.29498741757799
            ],
            [
              126.97805106827032,
              37.29494463722592
            ],
            [
              126.97802599748911,
              37.29494289230983
            ]
          ]
        ]
      }
    },
    {
      "type": "Feature",
      "properties": {
        "indoor": "room",
        "level": "2",
        "ref": "",
        "name": "",
        "room_type": "",
        "_idx": 14,
        "_centroid": [
          126.9780115,
          37.2949634
        ],
        "_area_m2": 10.2
      },
      "geometry": {
        "type": "Polygon",
        "coordinates": [
          [
            [
              126.9780017513574,
              37.294941204788955
            ],
            [
              126.97799704655523,
              37.29498398514299
            ],
            [
              126.97802129268696,
              37.2949856726629
            ],
            [
              126.97802599748911,
              37.29494289230983
            ],
            [
              126.9780017513574,
              37.294941204788955
            ]
          ]
        ]
      }
    },
    {
      "type": "Feature",
      "properties": {
        "indoor": "room",
        "level": "2",
        "ref": "",
        "name": "",
        "room_type": "",
        "_idx": 15,
        "_centroid": [
          126.9779869,
          37.2949617
        ],
        "_area_m2": 10.5
      },
      "geometry": {
        "type": "Polygon",
        "coordinates": [
          [
            [
              126.97797677730875,
              37.29493946660533
            ],
            [
              126.97797207250657,
              37.29498224696035
            ],
            [
              126.97799704655523,
              37.29498398514299
            ],
            [
              126.9780017513574,
              37.29494120478896
            ],
            [
              126.97797677730875,
              37.29493946660533
            ]
          ]
        ]
      }
    },
    {
      "type": "Feature",
      "properties": {
        "indoor": "room",
        "level": "2",
        "ref": "",
        "name": "",
        "room_type": "",
        "_idx": 16,
        "_centroid": [
          126.9779629,
          37.2949601
        ],
        "_area_m2": 9.7
      },
      "geometry": {
        "type": "Polygon",
        "coordinates": [
          [
            [
              126.97794902876595,
              37.29498064312625
            ],
            [
              126.97797207250657,
              37.29498224696035
            ],
            [
              126.97797677730875,
              37.29493946660533
            ],
            [
              126.9779537335681,
              37.29493786277031
            ],
            [
              126.97794902876595,
              37.29498064312625
            ]
          ]
        ]
      }
    },
    {
      "type": "Feature",
      "properties": {
        "indoor": "room",
        "level": "2",
        "ref": "",
        "name": "",
        "room_type": "",
        "_idx": 17,
        "_centroid": [
          126.9781831,
          37.2949263
        ],
        "_area_m2": 71.7
      },
      "geometry": {
        "type": "Polygon",
        "coordinates": [
          [
            [
              126.97812005652557,
              37.294952707129134
            ],
            [
              126.97823942604246,
              37.29496101519714
            ],
            [
              126.97824613726375,
              37.29489999062361
            ],
            [
              126.97812676774684,
              37.29489168254888
            ],
            [
              126.97812005652557,
              37.294952707129134
            ]
          ]
        ]
      }
    },
    {
      "type": "Feature",
      "properties": {
        "indoor": "room",
        "level": "2",
        "ref": "",
        "name": "",
        "room_type": "",
        "_idx": 18,
        "_centroid": [
          126.9779945,
          37.2949251
        ],
        "_area_m2": 23.9
      },
      "geometry": {
        "type": "Polygon",
        "coordinates": [
          [
            [
              126.97803192950246,
              37.29494330517553
            ],
            [
              126.97795373356807,
              37.29493786277031
            ],
            [
              126.9779571470364,
              37.29490682438527
            ],
            [
              126.97803534297077,
              37.294912266792736
            ],
            [
              126.97803192950246,
              37.29494330517553
            ]
          ]
        ]
      }
    },
    {
      "type": "Feature",
      "properties": {
        "indoor": "room",
        "level": "2",
        "ref": "",
        "name": "",
        "room_type": "",
        "_idx": 19,
        "_centroid": [
          126.9780681,
          37.2948978
        ],
        "_area_m2": 58.1
      },
      "geometry": {
        "type": "Polygon",
        "coordinates": [
          [
            [
              126.97803192950244,
              37.29494330517553
            ],
            [
              126.97804241029453,
              37.294848004165885
            ],
            [
              126.97810436413435,
              37.29485231613309
            ],
            [
              126.97809388334225,
              37.29494761713728
            ],
            [
              126.97803192950244,
              37.29494330517553
            ]
          ]
        ]
      }
    },
    {
      "type": "Feature",
      "properties": {
        "indoor": "room",
        "level": "2",
        "ref": "",
        "name": "",
        "room_type": "",
        "_idx": 20,
        "_centroid": [
          126.977998,
          37.2948935
        ],
        "_area_m2": 24.8
      },
      "geometry": {
        "type": "Polygon",
        "coordinates": [
          [
            [
              126.97803534297077,
              37.294912266792736
            ],
            [
              126.9779571470364,
              37.29490682438527
            ],
            [
              126.97796068630626,
              37.29487464208374
            ],
            [
              126.97803888224063,
              37.29488008449353
            ],
            [
              126.97803534297077,
              37.294912266792736
            ]
          ]
        ]
      }
    },
    {
      "type": "Feature",
      "properties": {
        "indoor": "room",
        "level": "2",
        "ref": "",
        "name": "",
        "room_type": "",
        "_idx": 21,
        "_centroid": [
          126.9778907,
          37.2948702
        ],
        "_area_m2": 263.0
      },
      "geometry": {
        "type": "Polygon",
        "coordinates": [
          [
            [
              126.97793417381244,
              37.29488761711427
            ],
            [
              126.97795385766541,
              37.2947086331649
            ],
            [
              126.9778576608659,
              37.29470193788586
            ],
            [
              126.97783797701292,
              37.294880921844495
            ],
            [
              126.97783798395997,
              37.29490440194731
            ],
            [
              126.97784767447578,
              37.29499251697532
            ],
            [
              126.9779220877216,
              37.29499769610318
            ],
            [
              126.97793417381169,
              37.29488761711422
            ],
            [
              126.97793417381244,
              37.29488761711427
            ]
          ]
        ]
      }
    },
    {
      "type": "Feature",
      "properties": {
        "indoor": "room",
        "level": "2",
        "ref": "",
        "name": "",
        "room_type": "",
        "_idx": 22,
        "_centroid": [
          126.9781899,
          37.2948644
        ],
        "_area_m2": 73.8
      },
      "geometry": {
        "type": "Polygon",
        "coordinates": [
          [
            [
              126.97812676774684,
              37.29489168254888
            ],
            [
              126.97824613726375,
              37.29489999062361
            ],
            [
              126.97825304637902,
              37.294837166564875
            ],
            [
              126.97813367686211,
              37.2948288584832
            ],
            [
              126.97812676774684,
              37.29489168254888
            ]
          ]
        ]
      }
    },
    {
      "type": "Feature",
      "properties": {
        "indoor": "room",
        "level": "2",
        "ref": "",
        "name": "",
        "room_type": "",
        "_idx": 23,
        "_centroid": [
          126.9780015,
          37.2948613
        ],
        "_area_m2": 24.7
      },
      "geometry": {
        "type": "Polygon",
        "coordinates": [
          [
            [
              126.97803888224063,
              37.294880084493535
            ],
            [
              126.97796068630626,
              37.29487464208374
            ],
            [
              126.9779642143602,
              37.29484256175378
            ],
            [
              126.97804241029456,
              37.294848004165885
            ],
            [
              126.97803888224063,
              37.294880084493535
            ]
          ]
        ]
      }
    },
    {
      "type": "Feature",
      "properties": {
        "indoor": "room",
        "level": "2",
        "ref": "",
        "name": "",
        "room_type": "",
        "_idx": 24,
        "_centroid": [
          126.9780806,
          37.294809
        ],
        "_area_m2": 26.5
      },
      "geometry": {
        "type": "Polygon",
        "coordinates": [
          [
            [
              126.97812100466793,
              37.29479420828255
            ],
            [
              126.97804407319107,
              37.29478885387247
            ],
            [
              126.97804022021683,
              37.294823888702865
            ],
            [
              126.97811715169424,
              37.2948292431105
            ],
            [
              126.97812100466793,
              37.29479420828255
            ]
          ]
        ]
      }
    },
    {
      "type": "Feature",
      "properties": {
        "indoor": "room",
        "level": "2",
        "ref": "",
        "name": "",
        "room_type": "",
        "_idx": 25,
        "_centroid": [
          126.978184,
          37.2948075
        ],
        "_area_m2": 46.3
      },
      "geometry": {
        "type": "Polygon",
        "coordinates": [
          [
            [
              126.97813367686211,
              37.2948288584832
            ],
            [
              126.97822882781509,
              37.29483548096034
            ],
            [
              126.97823426058183,
              37.29478608118828
            ],
            [
              126.97813910962887,
              37.294779458706785
            ],
            [
              126.97813367686211,
              37.2948288584832
            ]
          ]
        ]
      }
    },
    {
      "type": "Feature",
      "properties": {
        "indoor": "room",
        "level": "2",
        "ref": "",
        "name": "",
        "room_type": "",
        "_idx": 26,
        "_centroid": [
          126.9779987,
          37.2947911
        ],
        "_area_m2": 27.4
      },
      "geometry": {
        "type": "Polygon",
        "coordinates": [
          [
            [
              126.9779770067765,
              37.294761264237486
            ],
            [
              126.97797082206341,
              37.2948175014212
            ],
            [
              126.97802032709215,
              37.29482094695659
            ],
            [
              126.97802651180814,
              37.29476470977566
            ],
            [
              126.9779770067765,
              37.294761264237486
            ]
          ]
        ]
      }
    },
    {
      "type": "Feature",
      "properties": {
        "indoor": "room",
        "level": "2",
        "ref": "",
        "name": "",
        "room_type": "",
        "_idx": 27,
        "_centroid": [
          126.9780838,
          37.2947802
        ],
        "_area_m2": 17.2
      },
      "geometry": {
        "type": "Polygon",
        "coordinates": [
          [
            [
              126.97804407319107,
              37.29478885387247
            ],
            [
              126.97812100466793,
              37.29479420828255
            ],
            [
              126.97812350635934,
              37.29477146057244
            ],
            [
              126.97804657488194,
              37.294766106160694
            ],
            [
              126.97804407319107,
              37.29478885387247
            ]
          ]
        ]
      }
    },
    {
      "type": "Feature",
      "properties": {
        "indoor": "room",
        "level": "2",
        "ref": "",
        "name": "",
        "room_type": "",
        "_idx": 28,
        "_centroid": [
          126.97819,
          37.2947531
        ],
        "_area_m2": 55.6
      },
      "geometry": {
        "type": "Polygon",
        "coordinates": [
          [
            [
              126.97813910962887,
              37.29477945870678
            ],
            [
              126.97823426058183,
              37.29478608118827
            ],
            [
              126.97824079122977,
              37.294726698415566
            ],
            [
              126.97814564027684,
              37.29472007592884
            ],
            [
              126.97813910962887,
              37.29477945870678
            ]
          ]
        ]
      }
    },
    {
      "type": "Feature",
      "properties": {
        "indoor": "room",
        "level": "2",
        "ref": "",
        "name": "",
        "room_type": "",
        "_idx": 29,
        "_centroid": [
          126.9780531,
          37.2947401
        ],
        "_area_m2": 75.8
      },
      "geometry": {
        "type": "Polygon",
        "coordinates": [
          [
            [
              126.97812928433926,
              37.2947189217554
            ],
            [
              126.97798278475639,
              37.29470872541331
            ],
            [
              126.9779770067765,
              37.29476126423748
            ],
            [
              126.97812350635937,
              37.29477146057244
            ],
            [
              126.97812928433926,
              37.2947189217554
            ]
          ]
        ]
      }
    },
    {
      "type": "Feature",
      "properties": {
        "indoor": "room",
        "level": "2",
        "ref": "",
        "name": "",
        "room_type": "",
        "_idx": 30,
        "_centroid": [
          126.9780436,
          37.2946987
        ],
        "_area_m2": 33.0
      },
      "geometry": {
        "type": "Polygon",
        "coordinates": [
          [
            [
              126.97798278475636,
              37.2947087254133
            ],
            [
              126.97810125963055,
              37.29471697226235
            ],
            [
              126.97810570464164,
              37.29467603286306
            ],
            [
              126.97798451051695,
              37.2946930331689
            ],
            [
              126.97798278475636,
              37.2947087254133
            ]
          ]
        ]
      }
    },
    {
      "type": "Feature",
      "properties": {
        "indoor": "room",
        "level": "2",
        "ref": "",
        "name": "",
        "room_type": "",
        "_idx": 31,
        "_centroid": [
          126.9781938,
          37.2946944
        ],
        "_area_m2": 28.2
      },
      "geometry": {
        "type": "Polygon",
        "coordinates": [
          [
            [
              126.9781662323329,
              37.29472150913176
            ],
            [
              126.97822549722083,
              37.294725631224935
            ],
            [
              126.9782114803826,
              37.29466239267801
            ],
            [
              126.9781721265911,
              37.29466791296756
            ],
            [
              126.9781662323329,
              37.29472150913176
            ]
          ]
        ]
      }
    },
    {
      "type": "Feature",
      "properties": {
        "indoor": "room",
        "level": "2",
        "ref": "",
        "name": "",
        "room_type": "",
        "_idx": 32,
        "_centroid": [
          126.9780624,
          37.2946544
        ],
        "_area_m2": 85.1
      },
      "geometry": {
        "type": "Polygon",
        "coordinates": [
          [
            [
              126.97798451051695,
              37.2946930331689
            ],
            [
              126.97810570464164,
              37.29467603286306
            ],
            [
              126.97812188284688,
              37.29467376349172
            ],
            [
              126.97810699509564,
              37.29460659478543
            ],
            [
              126.9779927053947,
              37.29462262659953
            ],
            [
              126.97798451051695,
              37.2946930331689
            ]
          ]
        ]
      }
    },
    {
      "type": "Feature",
      "properties": {
        "indoor": "room",
        "level": "2",
        "ref": "",
        "name": "",
        "room_type": "",
        "_idx": 33,
        "_centroid": [
          126.9781732,
          37.2946376
        ],
        "_area_m2": 40.9
      },
      "geometry": {
        "type": "Polygon",
        "coordinates": [
          [
            [
              126.97819634838781,
              37.29459412201299
            ],
            [
              126.97816183592388,
              37.29459896319756
            ],
            [
              126.97813684442802,
              37.29460246884383
            ],
            [
              126.97815197642281,
              37.294670739499715
            ],
            [
              126.97817696791867,
              37.29466723385817
            ],
            [
              126.97817696791867,
              37.294667233858185
            ],
            [
              126.9782114803826,
              37.29466239267801
            ],
            [
              126.97819634838781,
              37.29459412201299
            ]
          ]
        ]
      }
    },
    {
      "type": "Feature",
      "properties": {
        "indoor": "room",
        "level": "2",
        "ref": "",
        "name": "",
        "room_type": "",
        "_idx": 34,
        "_centroid": [
          126.9779046,
          37.2946036
        ],
        "_area_m2": 149.6
      },
      "geometry": {
        "type": "Polygon",
        "coordinates": [
          [
            [
              126.97795385766541,
              37.2947086331649
            ],
            [
              126.9778576608659,
              37.29470193788586
            ],
            [
              126.97787259322769,
              37.294566158634616
            ],
            [
              126.97788050951102,
              37.29455525078685
            ],
            [
              126.97789104251592,
              37.29455041297677
            ],
            [
              126.97797179681541,
              37.29453908527966
            ],
            [
              126.97795385766541,
              37.2947086331649
            ]
          ]
        ]
      }
    },
    {
      "type": "Feature",
      "properties": {
        "indoor": "room",
        "level": "2",
        "ref": "",
        "name": "",
        "room_type": "",
        "_idx": 35,
        "_centroid": [
          126.9780674,
          37.2946014
        ],
        "_area_m2": 15.6
      },
      "geometry": {
        "type": "Polygon",
        "coordinates": [
          [
            [
              126.9780323864542,
              37.2946170603996
            ],
            [
              126.97810699509564,
              37.29460659478543
            ],
            [
              126.97810238903187,
              37.29458581370709
            ],
            [
              126.97802778039043,
              37.29459627932416
            ],
            [
              126.9780323864542,
              37.2946170603996
            ]
          ]
        ]
      }
    },
    {
      "type": "Feature",
      "properties": {
        "indoor": "room",
        "level": "2",
        "ref": "",
        "name": "",
        "room_type": "",
        "_idx": 36,
        "_centroid": [
          126.97806,
          37.2945683
        ],
        "_area_m2": 34.1
      },
      "geometry": {
        "type": "Polygon",
        "coordinates": [
          [
            [
              126.97802778039043,
              37.29459627932416
            ],
            [
              126.97810238903187,
              37.29458581370708
            ],
            [
              126.97809231754177,
              37.29454037436286
            ],
            [
              126.97801770890032,
              37.294550839986265
            ],
            [
              126.97802778039043,
              37.29459627932416
            ]
          ]
        ]
      }
    },
    {
      "type": "Feature",
      "properties": {
        "indoor": "room",
        "level": "2",
        "ref": "",
        "name": "",
        "room_type": "",
        "_idx": 37,
        "_centroid": [
          126.9781595,
          37.2945663
        ],
        "_area_m2": 38.3
      },
      "geometry": {
        "type": "Polygon",
        "coordinates": [
          [
            [
              126.97812266877794,
              37.29453851284926
            ],
            [
              126.978136844428,
              37.29460246884382
            ],
            [
              126.97819634838781,
              37.29459412201299
            ],
            [
              126.9781821727722,
              37.29453016600472
            ],
            [
              126.97812266877794,
              37.29453851284926
            ]
          ]
        ]
      }
    },
    {
      "type": "Feature",
      "properties": {
        "indoor": "room",
        "level": "2",
        "ref": "",
        "name": "",
        "room_type": "",
        "_idx": 38,
        "_centroid": [
          126.9781454,
          37.2945025
        ],
        "_area_m2": 38.2
      },
      "geometry": {
        "type": "Polygon",
        "coordinates": [
          [
            [
              126.97812266877794,
              37.29453851284926
            ],
            [
              126.9781821727722,
              37.29453016600472
            ],
            [
              126.97816803810566,
              37.29446639474618
            ],
            [
              126.97810853411724,
              37.29447474159835
            ],
            [
              126.97812266877794,
              37.29453851284926
            ]
          ]
        ]
      }
    },
    {
      "type": "Feature",
      "properties": {
        "indoor": "room",
        "level": "2",
        "ref": "",
        "name": "",
        "room_type": "",
        "_idx": 39,
        "_centroid": [
          126.9779496,
          37.2944791
        ],
        "_area_m2": 105.6
      },
      "geometry": {
        "type": "Polygon",
        "coordinates": [
          [
            [
              126.97792571154233,
              37.29454554982749
            ],
            [
              126.97797179681541,
              37.29453908527966
            ],
            [
              126.97799526629527,
              37.29453579313067
            ],
            [
              126.97796354852645,
              37.294392692506975
            ],
            [
              126.97789178804013,
              37.29438262638347
            ],
            [
              126.97792571154233,
              37.29454554982749
            ]
          ]
        ]
      }
    },
    {
      "type": "Feature",
      "properties": {
        "indoor": "room",
        "level": "2",
        "ref": "",
        "name": "",
        "room_type": "",
        "_idx": 40,
        "_centroid": [
          126.9780356,
          37.2944563
        ],
        "_area_m2": 105.4
      },
      "geometry": {
        "type": "Polygon",
        "coordinates": [
          [
            [
              126.97801383349965,
              37.294531650267686
            ],
            [
              126.97808851509524,
              37.2945211744081
            ],
            [
              126.97805745086863,
              37.29438102233746
            ],
            [
              126.97798276927303,
              37.29439149821655
            ],
            [
              126.97801383349965,
              37.294531650267686
            ]
          ]
        ]
      }
    },
    {
      "type": "Feature",
      "properties": {
        "indoor": "room",
        "level": "2",
        "ref": "",
        "name": "",
        "room_type": "",
        "_idx": 41,
        "_centroid": [
          126.9781314,
          37.2944396
        ],
        "_area_m2": 37.1
      },
      "geometry": {
        "type": "Polygon",
        "coordinates": [
          [
            [
              126.97810853411724,
              37.29447474159835
            ],
            [
              126.97816803810566,
              37.29446639474618
            ],
            [
              126.97815431582856,
              37.29440448406158
            ],
            [
              126.97809481184582,
              37.294412830921274
            ],
            [
              126.97810853411724,
              37.29447474159835
            ]
          ]
        ]
      }
    },
    {
      "type": "Feature",
      "properties": {
        "indoor": "room",
        "level": "2",
        "ref": "",
        "name": "",
        "room_type": "",
        "_idx": 42,
        "_centroid": [
          126.9781175,
          37.2943767
        ],
        "_area_m2": 38.2
      },
      "geometry": {
        "type": "Polygon",
        "coordinates": [
          [
            [
              126.97809481184582,
              37.294412830921274
            ],
            [
              126.97815431582856,
              37.29440448406158
            ],
            [
              126.97814016947572,
              37.294340660077964
            ],
            [
              126.97808066549882,
              37.294349006945396
            ],
            [
              126.97809481184582,
              37.294412830921274
            ]
          ]
        ]
      }
    },
    {
      "type": "Feature",
      "properties": {
        "indoor": "room",
        "level": "2",
        "ref": "",
        "name": "",
        "room_type": "",
        "_idx": 43,
        "_centroid": [
          126.9780168,
          37.2943536
        ],
        "_area_m2": 16.3
      },
      "geometry": {
        "type": "Polygon",
        "coordinates": [
          [
            [
              126.97805248345627,
              37.294337670884836
            ],
            [
              126.97797641422895,
              37.2943483414186
            ],
            [
              126.97798111554336,
              37.29436955230424
            ],
            [
              126.97805718477068,
              37.2943588817735
            ],
            [
              126.97805248345627,
              37.294337670884836
            ]
          ]
        ]
      }
    },
    {
      "type": "Feature",
      "properties": {
        "indoor": "room",
        "level": "2",
        "ref": "",
        "name": "",
        "room_type": "",
        "_idx": 44,
        "_centroid": [
          126.9780122,
          37.2943326
        ],
        "_area_m2": 15.9
      },
      "geometry": {
        "type": "Polygon",
        "coordinates": [
          [
            [
              126.9780478865829,
              37.29431693119639
            ],
            [
              126.97797181735558,
              37.294327601733094
            ],
            [
              126.97797641422895,
              37.2943483414186
            ],
            [
              126.97805248345627,
              37.294337670884836
            ],
            [
              126.9780478865829,
              37.29431693119639
            ]
          ]
        ]
      }
    },
    {
      "type": "Feature",
      "properties": {
        "indoor": "room",
        "level": "2",
        "ref": "",
        "name": "",
        "room_type": "",
        "_idx": 45,
        "_centroid": [
          126.977917,
          37.2943321
        ],
        "_area_m2": 30.1
      },
      "geometry": {
        "type": "Polygon",
        "coordinates": [
          [
            [
              126.97788719502302,
              37.294358522514415
            ],
            [
              126.97795641047684,
              37.29434881338817
            ],
            [
              126.9779468528678,
              37.29430569237573
            ],
            [
              126.97787763741395,
              37.29431540150754
            ],
            [
              126.97788719502302,
              37.294358522514415
            ]
          ]
        ]
      }
    },
    {
      "type": "Feature",
      "properties": {
        "indoor": "room",
        "level": "2",
        "ref": "",
        "name": "",
        "room_type": "",
        "_idx": 46,
        "_centroid": [
          126.9781036,
          37.2943143
        ],
        "_area_m2": 36.6
      },
      "geometry": {
        "type": "Polygon",
        "coordinates": [
          [
            [
              126.97808066549882,
              37.294349006945396
            ],
            [
              126.97814016947572,
              37.294340660077964
            ],
            [
              126.97812662665935,
              37.29427955906489
            ],
            [
              126.97806712268805,
              37.29428790593968
            ],
            [
              126.97808066549882,
              37.294349006945396
            ]
          ]
        ]
      }
    },
    {
      "type": "Feature",
      "properties": {
        "indoor": "room",
        "level": "2",
        "ref": "",
        "name": "",
        "room_type": "",
        "_idx": 47,
        "_centroid": [
          126.9778102,
          37.2943125
        ],
        "_area_m2": 267.2
      },
      "geometry": {
        "type": "Polygon",
        "coordinates": [
          [
            [
              126.97787011182679,
              37.29437890788489
            ],
            [
              126.9778654048234,
              37.29435767133491
            ],
            [
              126.97788636756614,
              37.29435478216641
            ],
            [
              126.97787778695405,
              37.29431538089732
            ],
            [
              126.97786433879446,
              37.29425362832025
            ],
            [
              126.97785015969947,
              37.2941885193074
            ],
            [
              126.97769282162477,
              37.29421020431118
            ],
            [
              126.97772220944086,
              37.29434515017736
            ],
            [
              126.97773073018296,
              37.29435697239087
            ],
            [
              126.97774159254615,
              37.29436426747767
            ],
            [
              126.97787011182679,
              37.29437890788489
            ]
          ]
        ]
      }
    },
    {
      "type": "Feature",
      "properties": {
        "indoor": "room",
        "level": "2",
        "ref": "",
        "name": "",
        "room_type": "",
        "_idx": 48,
        "_centroid": [
          126.9780071,
          37.29431
        ],
        "_area_m2": 18.8
      },
      "geometry": {
        "type": "Polygon",
        "coordinates": [
          [
            [
              126.9780424406308,
              37.294292360716675
            ],
            [
              126.97796637140348,
              37.29430303125686
            ],
            [
              126.97797181735558,
              37.294327601733094
            ],
            [
              126.9780478865829,
              37.2943169311964
            ],
            [
              126.9780424406308,
              37.294292360716675
            ]
          ]
        ]
      }
    },
    {
      "type": "Feature",
      "properties": {
        "indoor": "room",
        "level": "2",
        "ref": "",
        "name": "",
        "room_type": "",
        "_idx": 49,
        "_centroid": [
          126.9779054,
          37.2942797
        ],
        "_area_m2": 43.0
      },
      "geometry": {
        "type": "Polygon",
        "coordinates": [
          [
            [
              126.97787763741395,
              37.29431540150754
            ],
            [
              126.97794685286779,
              37.29430569237573
            ],
            [
              126.97793317273712,
              37.294243971761965
            ],
            [
              126.97786395728328,
              37.294253680901726
            ],
            [
              126.97787763741395,
              37.29431540150754
            ]
          ]
        ]
      }
    },
    {
      "type": "Feature",
      "properties": {
        "indoor": "room",
        "level": "2",
        "ref": "",
        "name": "",
        "room_type": "",
        "_idx": 50,
        "_centroid": [
          126.9779973,
          37.2942658
        ],
        "_area_m2": 48.8
      },
      "geometry": {
        "type": "Polygon",
        "coordinates": [
          [
            [
              126.97802831707884,
              37.29422863950786
            ],
            [
              126.9779522478515,
              37.294239310057065
            ],
            [
              126.97796637140348,
              37.29430303125686
            ],
            [
              126.97804244063082,
              37.294292360716675
            ],
            [
              126.97802831707884,
              37.29422863950786
            ]
          ]
        ]
      }
    },
    {
      "type": "Feature",
      "properties": {
        "indoor": "room",
        "level": "2",
        "ref": "",
        "name": "",
        "room_type": "",
        "_idx": 51,
        "_centroid": [
          126.9780898,
          37.294252
        ],
        "_area_m2": 38.0
      },
      "geometry": {
        "type": "Polygon",
        "coordinates": [
          [
            [
              126.97806712268805,
              37.29428790593968
            ],
            [
              126.97812662665935,
              37.29427955906489
            ],
            [
              126.978112558982,
              37.29421609004089
            ],
            [
              126.9780530550165,
              37.29422443692333
            ],
            [
              126.97806712268805,
              37.29428790593968
            ]
          ]
        ]
      }
    },
    {
      "type": "Feature",
      "properties": {
        "indoor": "room",
        "level": "2",
        "ref": "",
        "name": "",
        "room_type": "",
        "_idx": 52,
        "_centroid": [
          126.9778914,
          37.2942163
        ],
        "_area_m2": 45.4
      },
      "geometry": {
        "type": "Polygon",
        "coordinates": [
          [
            [
              126.97786395728328,
              37.29425368090172
            ],
            [
              126.97793317273712,
              37.294243971761965
            ],
            [
              126.97791874906294,
              37.29417889644971
            ],
            [
              126.97784953360909,
              37.294188605597874
            ],
            [
              126.97786395728328,
              37.29425368090172
            ]
          ]
        ]
      }
    },
    {
      "type": "Feature",
      "properties": {
        "indoor": "room",
        "level": "2",
        "ref": "",
        "name": "",
        "room_type": "",
        "_idx": 53,
        "_centroid": [
          126.9779813,
          37.294195
        ],
        "_area_m2": 35.7
      },
      "geometry": {
        "type": "Polygon",
        "coordinates": [
          [
            [
              126.9780246033405,
              37.294212981149
            ],
            [
              126.97801428159437,
              37.2941664124983
            ],
            [
              126.97793809578793,
              37.29417709940939
            ],
            [
              126.97794841753405,
              37.294223668053476
            ],
            [
              126.9780246033405,
              37.294212981149
            ]
          ]
        ]
      }
    },
    {
      "type": "Feature",
      "properties": {
        "indoor": "room",
        "level": "2",
        "ref": "",
        "name": "",
        "room_type": "",
        "_idx": 54,
        "_centroid": [
          126.9780758,
          37.2941887
        ],
        "_area_m2": 37.8
      },
      "geometry": {
        "type": "Polygon",
        "coordinates": [
          [
            [
              126.9780530550165,
              37.29422443692333
            ],
            [
              126.978112558982,
              37.29421609004089
            ],
            [
              126.97809856367009,
              37.29415294750737
            ],
            [
              126.9780390597103,
              37.29416129439713
            ],
            [
              126.9780530550165,
              37.29422443692333
            ]
          ]
        ]
      }
    }
  ]
}