{
  "type": "FeatureCollection",
  "features": [
    {
      "type": "Feature",
      "properties": {
        "indoor": "room",
        "level": "3",
        "ref": "",
        "name": "",
        "room_type": "",
        "_idx": 1,
        "_centroid": [
          126.9779271,
          37.2952088
        ],
        "_area_m2": 40.1
      },
      "geometry": {
        "type": "Polygon",
        "coordinates": [
          [
            [
              126.97789417556368,
              37.29518689975433
            ],
            [
              126.97788558198454,
              37.29524515166569
            ],
            [
              126.97796889726584,
              37.29523368513244
            ],
            [
              126.97797301872221,
              37.29519110140895
            ],
            [
              126.97791391273485,
              37.29518698766987
            ],
            [
              126.97789417556368,
              37.29518689975433
            ]
          ]
        ]
      }
    },
    {
      "type": "Feature",
      "properties": {
        "indoor": "room",
        "level": "3",
        "ref": "",
        "name": "",
        "room_type": "",
        "_idx": 2,
        "_centroid": [
          126.9780352,
          37.2951886
        ],
        "_area_m2": 55.5
      },
      "geometry": {
        "type": "Polygon",
        "coordinates": [
          [
            [
              126.97807779295965,
              37.295154929978764
            ],
            [
              126.97800005604587,
              37.29514951953993
            ],
            [
              126.97799208615584,
              37.29523050904726
            ],
            [
              126.97807098423215,
              37.295219441829346
            ],
            [
              126.97807779295965,
              37.295154929978764
            ]
          ]
        ]
      }
    },
    {
      "type": "Feature",
      "properties": {
        "indoor": "room",
        "level": "3",
        "ref": "",
        "name": "",
        "room_type": "",
        "_idx": 3,
        "_centroid": [
          126.977933,
          37.2951636
        ],
        "_area_m2": 47.6
      },
      "geometry": {
        "type": "Polygon",
        "coordinates": [
          [
            [
              126.97790348989756,
              37.295123762178825
            ],
            [
              126.97789417556368,
              37.29518689975433
            ],
            [
              126.97791391273485,
              37.29518698766987
            ],
            [
              126.97797301872221,
              37.295191101408946
            ],
            [
              126.97798041737191,
              37.295129116286574
            ],
            [
              126.97790348989756,
              37.295123762178825
            ]
          ]
        ]
      }
    },
    {
      "type": "Feature",
      "properties": {
        "indoor": "room",
        "level": "3",
        "ref": "",
        "name": "",
        "room_type": "",
        "_idx": 4,
        "_centroid": [
          126.9780427,
          37.2951217
        ],
        "_area_m2": 46.2
      },
      "geometry": {
        "type": "Polygon",
        "coordinates": [
          [
            [
              126.97800005604587,
              37.29514951953993
            ],
            [
              126.97807779295965,
              37.29515492997876
            ],
            [
              126.9780843956196,
              37.29509379093663
            ],
            [
              126.97800858784396,
              37.29508851475686
            ],
            [
              126.97800005604587,
              37.29514951953993
            ]
          ]
        ]
      }
    },
    {
      "type": "Feature",
      "properties": {
        "indoor": "room",
        "level": "3",
        "ref": "",
        "name": "",
        "room_type": "",
        "_idx": 5,
        "_centroid": [
          126.978162,
          37.2951185
        ],
        "_area_m2": 81.5
      },
      "geometry": {
        "type": "Polygon",
        "coordinates": [
          [
            [
              126.97809846031124,
              37.2951490793841
            ],
            [
              126.97821782982815,
              37.29515738743042
            ],
            [
              126.97822546069594,
              37.295088000765645
            ],
            [
              126.97810609117903,
              37.295079692711674
            ],
            [
              126.97809846031124,
              37.2951490793841
            ]
          ]
        ]
      }
    },
    {
      "type": "Feature",
      "properties": {
        "indoor": "room",
        "level": "3",
        "ref": "",
        "name": "",
        "room_type": "",
        "_idx": 6,
        "_centroid": [
          126.9779502,
          37.2950637
        ],
        "_area_m2": 93.3
      },
      "geometry": {
        "type": "Polygon",
        "coordinates": [
          [
            [
              126.97790348989756,
              37.295123762178825
            ],
            [
              126.97798041737191,
              37.295129116286574
            ],
            [
              126.97798771120604,
              37.2950669808511
            ],
            [
              126.97799509793707,
              37.29500277758044
            ],
            [
              126.9779220877216,
              37.29499769610318
            ],
            [
              126.97791263735962,
              37.29506175575042
            ],
            [
              126.97790348989756,
              37.295123762178825
            ]
          ]
        ]
      }
    },
    {
      "type": "Feature",
      "properties": {
        "indoor": "room",
        "level": "3",
        "ref": "",
        "name": "",
        "room_type": "",
        "_idx": 7,
        "_centroid": [
          126.9781692,
          37.2950529
        ],
        "_area_m2": 72.6
      },
      "geometry": {
        "type": "Polygon",
        "coordinates": [
          [
            [
              126.97810609117903,
              37.295079692711674
            ],
            [
              126.97822546069594,
              37.295088000765645
            ],
            [
              126.97823225869203,
              37.29502618726009
            ],
            [
              126.97811288917514,
              37.29501787919929
            ],
            [
              126.97810609117903,
              37.295079692711674
            ]
          ]
        ]
      }
    },
    {
      "type": "Feature",
      "properties": {
        "indoor": "room",
        "level": "3",
        "ref": "",
        "name": "",
        "room_type": "",
        "_idx": 8,
        "_centroid": [
          126.978051,
          37.2950504
        ],
        "_area_m2": 60.9
      },
      "geometry": {
        "type": "Polygon",
        "coordinates": [
          [
            [
              126.97800858784396,
              37.29508851475686
            ],
            [
              126.97808439561962,
              37.29509379093664
            ],
            [
              126.97809336554235,
              37.295012228312785
            ],
            [
              126.97801755776668,
              37.295006952127295
            ],
            [
              126.97800858784396,
              37.29508851475686
            ]
          ]
        ]
      }
    },
    {
      "type": "Feature",
      "properties": {
        "indoor": "room",
        "level": "3",
        "ref": "",
        "name": "",
        "room_type": "",
        "_idx": 9,
        "_centroid": [
          126.9781762,
          37.2949894
        ],
        "_area_m2": 76.6
      },
      "geometry": {
        "type": "Polygon",
        "coordinates": [
          [
            [
              126.97811288917514,
              37.29501787919929
            ],
            [
              126.97823225869203,
              37.29502618726009
            ],
            [
              126.97823942604246,
              37.29496101519714
            ],
            [
              126.97812005652557,
              37.294952707129134
            ],
            [
              126.97811288917514,
              37.29501787919929
            ]
          ]
        ]
      }
    },
    {
      "type": "Feature",
      "properties": {
        "indoor": "room",
        "level": "3",
        "ref": "",
        "name": "",
        "room_type": "",
        "_idx": 10,
        "_centroid": [
          126.9780588,
          37.2949792
        ],
        "_area_m2": 45.4
      },
      "geometry": {
        "type": "Polygon",
        "coordinates": [
          [
            [
              126.97801755776668,
              37.295006952127295
            ],
            [
              126.97809336554235,
              37.29501222831278
            ],
            [
              126.97810006089274,
              37.29495134809334
            ],
            [
              126.97802425311707,
              37.29494607190359
            ],
            [
              126.97801755776668,
              37.295006952127295
            ]
          ]
        ]
      }
    },
    {
      "type": "Feature",
      "properties": {
        "indoor": "room",
        "level": "3",
        "ref": "",
        "name": "",
        "room_type": "",
        "_idx": 11,
        "_centroid": [
          126.9779653,
          37.2949389
        ],
        "_area_m2": 88.2
      },
      "geometry": {
        "type": "Polygon",
        "coordinates": [
          [
            [
              126.97799509793707,
              37.29500277758044
            ],
            [
              126.9779220877216,
              37.29499769610318
            ],
            [
              126.97793557918274,
              37.29487501938593
            ],
            [
              126.9780085893982,
              37.29488010087148
            ],
            [
              126.97799509793707,
              37.29500277758044
            ]
          ]
        ]
      }
    },
    {
      "type": "Feature",
      "properties": {
        "indoor": "room",
        "level": "3",
        "ref": "",
        "name": "",
        "room_type": "",
        "_idx": 12,
        "_centroid": [
          126.9781831,
          37.2949263
        ],
        "_area_m2": 71.7
      },
      "geometry": {
        "type": "Polygon",
        "coordinates": [
          [
            [
              126.97812005652557,
              37.294952707129134
            ],
            [
              126.97823942604246,
              37.29496101519714
            ],
            [
              126.97824613726375,
              37.29489999062361
            ],
            [
              126.97812676774684,
              37.29489168254888
            ],
            [
              126.97812005652557,
              37.294952707129134
            ]
          ]
        ]
      }
    },
    {
      "type": "Feature",
      "properties": {
        "indoor": "room",
        "level": "3",
        "ref": "",
        "name": "",
        "room_type": "",
        "_idx": 13,
        "_centroid": [
          126.9780656,
          37.2949174
        ],
        "_area_m2": 46.7
      },
      "geometry": {
        "type": "Polygon",
        "coordinates": [
          [
            [
              126.97802425311706,
              37.29494607190358
            ],
            [
              126.97810006089274,
              37.29495134809334
            ],
            [
              126.97810694811224,
              37.29488872317409
            ],
            [
              126.97803114033657,
              37.294883446979945
            ],
            [
              126.97802425311706,
              37.29494607190358
            ]
          ]
        ]
      }
    },
    {
      "type": "Feature",
      "properties": {
        "indoor": "room",
        "level": "3",
        "ref": "",
        "name": "",
        "room_type": "",
        "_idx": 14,
        "_centroid": [
          126.9780714,
          37.2948644
        ],
        "_area_m2": 32.4
      },
      "geometry": {
        "type": "Polygon",
        "coordinates": [
          [
            [
              126.97803114033657,
              37.294883446979945
            ],
            [
              126.97810694811221,
              37.294888723174076
            ],
            [
              126.97811172185877,
              37.294845315859575
            ],
            [
              126.97803591408312,
              37.29484003966239
            ],
            [
              126.97803114033657,
              37.294883446979945
            ]
          ]
        ]
      }
    },
    {
      "type": "Feature",
      "properties": {
        "indoor": "room",
        "level": "3",
        "ref": "",
        "name": "",
        "room_type": "",
        "_idx": 15,
        "_centroid": [
          126.9781899,
          37.2948644
        ],
        "_area_m2": 73.8
      },
      "geometry": {
        "type": "Polygon",
        "coordinates": [
          [
            [
              126.97812676774684,
              37.29489168254888
            ],
            [
              126.97824613726375,
              37.29489999062361
            ],
            [
              126.97825304637902,
              37.294837166564875
            ],
            [
              126.97813367686211,
              37.2948288584832
            ],
            [
              126.97812676774684,
              37.29489168254888
            ]
          ]
        ]
      }
    },
    {
      "type": "Feature",
      "properties": {
        "indoor": "room",
        "level": "3",
        "ref": "",
        "name": "",
        "room_type": "",
        "_idx": 16,
        "_centroid": [
          126.9780806,
          37.294809
        ],
        "_area_m2": 26.5
      },
      "geometry": {
        "type": "Polygon",
        "coordinates": [
          [
            [
              126.97812100466793,
              37.29479420828255
            ],
            [
              126.97804407319107,
              37.29478885387247
            ],
            [
              126.97804022021683,
              37.294823888702865
            ],
            [
              126.97811715169424,
              37.2948292431105
            ],
            [
              126.97812100466793,
              37.29479420828255
            ]
          ]
        ]
      }
    },
    {
      "type": "Feature",
      "properties": {
        "indoor": "room",
        "level": "3",
        "ref": "",
        "name": "",
        "room_type": "",
        "_idx": 17,
        "_centroid": [
          126.9779783,
          37.294808
        ],
        "_area_m2": 83.5
      },
      "geometry": {
        "type": "Polygon",
        "coordinates": [
          [
            [
              126.9780085893982,
              37.294880100871474
            ],
            [
              126.97793557918274,
              37.29487501938593
            ],
            [
              126.97794830159413,
              37.294759335389564
            ],
            [
              126.9779770067765,
              37.294761264237486
            ],
            [
              126.97802188073597,
              37.29476438745418
            ],
            [
              126.9780085893982,
              37.294880100871474
            ]
          ]
        ]
      }
    },
    {
      "type": "Feature",
      "properties": {
        "indoor": "room",
        "level": "3",
        "ref": "",
        "name": "",
        "room_type": "",
        "_idx": 18,
        "_centroid": [
          126.978184,
          37.2948075
        ],
        "_area_m2": 46.3
      },
      "geometry": {
        "type": "Polygon",
        "coordinates": [
          [
            [
              126.97813367686211,
              37.2948288584832
            ],
            [
              126.97822882781509,
              37.29483548096034
            ],
            [
              126.97823426058183,
              37.29478608118828
            ],
            [
              126.97813910962887,
              37.294779458706785
            ],
            [
              126.97813367686211,
              37.2948288584832
            ]
          ]
        ]
      }
    },
    {
      "type": "Feature",
      "properties": {
        "indoor": "room",
        "level": "3",
        "ref": "",
        "name": "",
        "room_type": "",
        "_idx": 19,
        "_centroid": [
          126.9780838,
          37.2947802
        ],
        "_area_m2": 17.2
      },
      "geometry": {
        "type": "Polygon",
        "coordinates": [
          [
            [
              126.97804407319107,
              37.29478885387247
            ],
            [
              126.97812100466793,
              37.29479420828255
            ],
            [
              126.97812350635934,
              37.29477146057244
            ],
            [
              126.97804657488194,
              37.294766106160694
            ],
            [
              126.97804407319107,
              37.29478885387247
            ]
          ]
        ]
      }
    },
    {
      "type": "Feature",
      "properties": {
        "indoor": "room",
        "level": "3",
        "ref": "",
        "name": "",
        "room_type": "",
        "_idx": 20,
        "_centroid": [
          126.97819,
          37.2947531
        ],
        "_area_m2": 55.6
      },
      "geometry": {
        "type": "Polygon",
        "coordinates": [
          [
            [
              126.97813910962887,
              37.29477945870678
            ],
            [
              126.97823426058183,
              37.29478608118827
            ],
            [
              126.97824079122977,
              37.294726698415566
            ],
            [
              126.97814564027684,
              37.29472007592884
            ],
            [
              126.97813910962887,
              37.29477945870678
            ]
          ]
        ]
      }
    },
    {
      "type": "Feature",
      "properties": {
        "indoor": "room",
        "level": "3",
        "ref": "",
        "name": "",
        "room_type": "",
        "_idx": 21,
        "_centroid": [
          126.9780531,
          37.2947401
        ],
        "_area_m2": 75.8
      },
      "geometry": {
        "type": "Polygon",
        "coordinates": [
          [
            [
              126.97812928433926,
              37.2947189217554
            ],
            [
              126.97798278475639,
              37.29470872541331
            ],
            [
              126.9779770067765,
              37.29476126423748
            ],
            [
              126.97812350635937,
              37.29477146057244
            ],
            [
              126.97812928433926,
              37.2947189217554
            ]
          ]
        ]
      }
    },
    {
      "type": "Feature",
      "properties": {
        "indoor": "room",
        "level": "3",
        "ref": "",
        "name": "",
        "room_type": "",
        "_idx": 22,
        "_centroid": [
          126.9780774,
          37.2946466
        ],
        "_area_m2": 52.3
      },
      "geometry": {
        "type": "Polygon",
        "coordinates": [
          [
            [
              126.97810699509564,
              37.29460659478543
            ],
            [
              126.9780323864542,
              37.294617060399595
            ],
            [
              126.97804779901848,
              37.29468659688151
            ],
            [
              126.97812240765992,
              37.294676131277015
            ],
            [
              126.97810699509564,
              37.29460659478543
            ]
          ]
        ]
      }
    },
    {
      "type": "Feature",
      "properties": {
        "indoor": "room",
        "level": "3",
        "ref": "",
        "name": "",
        "room_type": "",
        "_idx": 23,
        "_centroid": [
          126.9781732,
          37.2946376
        ],
        "_area_m2": 40.9
      },
      "geometry": {
        "type": "Polygon",
        "coordinates": [
          [
            [
              126.97819634838781,
              37.29459412201299
            ],
            [
              126.97816183592388,
              37.29459896319756
            ],
            [
              126.97813684442802,
              37.29460246884383
            ],
            [
              126.97815197642281,
              37.294670739499715
            ],
            [
              126.97817696791867,
              37.29466723385817
            ],
            [
              126.97817696791867,
              37.294667233858185
            ],
            [
              126.9782114803826,
              37.29466239267801
            ],
            [
              126.97819634838781,
              37.29459412201299
            ]
          ]
        ]
      }
    },
    {
      "type": "Feature",
      "properties": {
        "indoor": "room",
        "level": "3",
        "ref": "",
        "name": "",
        "room_type": "",
        "_idx": 24,
        "_centroid": [
          126.9780674,
          37.2946014
        ],
        "_area_m2": 15.6
      },
      "geometry": {
        "type": "Polygon",
        "coordinates": [
          [
            [
              126.9780323864542,
              37.2946170603996
            ],
            [
              126.97810699509564,
              37.29460659478543
            ],
            [
              126.97810238903187,
              37.29458581370709
            ],
            [
              126.97802778039043,
              37.29459627932416
            ],
            [
              126.9780323864542,
              37.2946170603996
            ]
          ]
        ]
      }
    },
    {
      "type": "Feature",
      "properties": {
        "indoor": "room",
        "level": "3",
        "ref": "",
        "name": "",
        "room_type": "",
        "_idx": 25,
        "_centroid": [
          126.97806,
          37.2945683
        ],
        "_area_m2": 34.1
      },
      "geometry": {
        "type": "Polygon",
        "coordinates": [
          [
            [
              126.97802778039043,
              37.29459627932416
            ],
            [
              126.97810238903187,
              37.29458581370708
            ],
            [
              126.97809231754177,
              37.29454037436286
            ],
            [
              126.97801770890032,
              37.294550839986265
            ],
            [
              126.97802778039043,
              37.29459627932416
            ]
          ]
        ]
      }
    },
    {
      "type": "Feature",
      "properties": {
        "indoor": "room",
        "level": "3",
        "ref": "",
        "name": "",
        "room_type": "",
        "_idx": 26,
        "_centroid": [
          126.9781584,
          37.2945612
        ],
        "_area_m2": 44.4
      },
      "geometry": {
        "type": "Polygon",
        "coordinates": [
          [
            [
              126.978136844428,
              37.29460246884382
            ],
            [
              126.97819634838781,
              37.29459412201299
            ],
            [
              126.9781799203386,
              37.294520003899464
            ],
            [
              126.97812041637879,
              37.2945283507402
            ],
            [
              126.978136844428,
              37.29460246884382
            ]
          ]
        ]
      }
    },
    {
      "type": "Feature",
      "properties": {
        "indoor": "room",
        "level": "3",
        "ref": "",
        "name": "",
        "room_type": "",
        "_idx": 27,
        "_centroid": [
          126.9781437,
          37.2944952
        ],
        "_area_m2": 34.8
      },
      "geometry": {
        "type": "Polygon",
        "coordinates": [
          [
            [
              126.97812041637879,
              37.2945283507402
            ],
            [
              126.9781799203386,
              37.294520003899464
            ],
            [
              126.97816706058866,
              37.29446198476228
            ],
            [
              126.97810755662887,
              37.29447033161076
            ],
            [
              126.97812041637879,
              37.2945283507402
            ]
          ]
        ]
      }
    },
    {
      "type": "Feature",
      "properties": {
        "indoor": "room",
        "level": "3",
        "ref": "",
        "name": "",
        "room_type": "",
        "_idx": 28,
        "_centroid": [
          126.9780442,
          37.2944603
        ],
        "_area_m2": 75.9
      },
      "geometry": {
        "type": "Polygon",
        "coordinates": [
          [
            [
              126.97805473410395,
              37.29438514414597
            ],
            [
              126.97800198014451,
              37.29439254414963
            ],
            [
              126.97803365358129,
              37.29453544476159
            ],
            [
              126.97808640754073,
              37.29452804477199
            ],
            [
              126.97805473410395,
              37.29438514414597
            ]
          ]
        ]
      }
    },
    {
      "type": "Feature",
      "properties": {
        "indoor": "room",
        "level": "3",
        "ref": "",
        "name": "",
        "room_type": "",
        "_idx": 29,
        "_centroid": [
          126.9781261,
          37.2944156
        ],
        "_area_m2": 60.6
      },
      "geometry": {
        "type": "Polygon",
        "coordinates": [
          [
            [
              126.97810755662887,
              37.29447033161075
            ],
            [
              126.97816706058866,
              37.29446198476227
            ],
            [
              126.97814466598533,
              37.29436094726581
            ],
            [
              126.97808516202554,
              37.29436929412778
            ],
            [
              126.97810755662887,
              37.29447033161075
            ]
          ]
        ]
      }
    },
    {
      "type": "Feature",
      "properties": {
        "indoor": "room",
        "level": "3",
        "ref": "",
        "name": "",
        "room_type": "",
        "_idx": 30,
        "_centroid": [
          126.9780219,
          37.2943768
        ],
        "_area_m2": 19.3
      },
      "geometry": {
        "type": "Polygon",
        "coordinates": [
          [
            [
              126.97798111554334,
              37.29436955230423
            ],
            [
              126.97805718477068,
              37.2943588817735
            ],
            [
              126.97806275630947,
              37.29438401883984
            ],
            [
              126.97798668708214,
              37.29439468936701
            ],
            [
              126.97798111554334,
              37.29436955230423
            ]
          ]
        ]
      }
    },
    {
      "type": "Feature",
      "properties": {
        "indoor": "room",
        "level": "3",
        "ref": "",
        "name": "",
        "room_type": "",
        "_idx": 31,
        "_centroid": [
          126.9779266,
          37.2943752
        ],
        "_area_m2": 355.0
      },
      "geometry": {
        "type": "Polygon",
        "coordinates": [
          [
            [
              126.97796239290102,
              37.294697791464245
            ],
            [
              126.97803160835485,
              37.2946880823818
            ],
            [
              126.97793317273712,
              37.294243971761965
            ],
            [
              126.97791874906294,
              37.29417889644971
            ],
            [
              126.97784953360909,
              37.294188605597874
            ],
            [
              126.97786395728328,
              37.29425368090172
            ],
            [
              126.97796239290102,
              37.294697791464245
            ]
          ]
        ]
      }
    },
    {
      "type": "Feature",
      "properties": {
        "indoor": "room",
        "level": "3",
        "ref": "",
        "name": "",
        "room_type": "",
        "_idx": 32,
        "_centroid": [
          126.9780168,
          37.2943536
        ],
        "_area_m2": 16.3
      },
      "geometry": {
        "type": "Polygon",
        "coordinates": [
          [
            [
              126.97805248345627,
              37.294337670884836
            ],
            [
              126.97797641422895,
              37.2943483414186
            ],
            [
              126.97798111554336,
              37.29436955230424
            ],
            [
              126.97805718477068,
              37.2943588817735
            ],
            [
              126.97805248345627,
              37.294337670884836
            ]
          ]
        ]
      }
    },
    {
      "type": "Feature",
      "properties": {
        "indoor": "room",
        "level": "3",
        "ref": "",
        "name": "",
        "room_type": "",
        "_idx": 33,
        "_centroid": [
          126.9781086,
          37.2943365
        ],
        "_area_m2": 34.3
      },
      "geometry": {
        "type": "Polygon",
        "coordinates": [
          [
            [
              126.97808516202551,
              37.29436929412778
            ],
            [
              126.9781446659853,
              37.29436094726581
            ],
            [
              126.97813198244528,
              37.294303723011346
            ],
            [
              126.97807247848549,
              37.294312069880974
            ],
            [
              126.97808516202551,
              37.29436929412778
            ]
          ]
        ]
      }
    },
    {
      "type": "Feature",
      "properties": {
        "indoor": "room",
        "level": "3",
        "ref": "",
        "name": "",
        "room_type": "",
        "_idx": 34,
        "_centroid": [
          126.9780122,
          37.2943326
        ],
        "_area_m2": 15.9
      },
      "geometry": {
        "type": "Polygon",
        "coordinates": [
          [
            [
              126.9780478865829,
              37.29431693119639
            ],
            [
              126.97797181735558,
              37.294327601733094
            ],
            [
              126.97797641422895,
              37.2943483414186
            ],
            [
              126.97805248345627,
              37.294337670884836
            ],
            [
              126.9780478865829,
              37.29431693119639
            ]
          ]
        ]
      }
    },
    {
      "type": "Feature",
      "properties": {
        "indoor": "room",
        "level": "3",
        "ref": "",
        "name": "",
        "room_type": "",
        "_idx": 35,
        "_centroid": [
          126.9780071,
          37.29431
        ],
        "_area_m2": 18.8
      },
      "geometry": {
        "type": "Polygon",
        "coordinates": [
          [
            [
              126.9780424406308,
              37.294292360716675
            ],
            [
              126.97796637140348,
              37.29430303125686
            ],
            [
              126.97797181735558,
              37.294327601733094
            ],
            [
              126.9780478865829,
              37.2943169311964
            ],
            [
              126.9780424406308,
              37.294292360716675
            ]
          ]
        ]
      }
    },
    {
      "type": "Feature",
      "properties": {
        "indoor": "room",
        "level": "3",
        "ref": "",
        "name": "",
        "room_type": "",
        "_idx": 36,
        "_centroid": [
          126.978093,
          37.2942662
        ],
        "_area_m2": 50.0
      },
      "geometry": {
        "type": "Polygon",
        "coordinates": [
          [
            [
              126.97807247848549,
              37.294312069880974
            ],
            [
              126.97813198244528,
              37.294303723011346
            ],
            [
              126.97811348701896,
              37.29422027722507
            ],
            [
              126.97805398305917,
              37.294228624105855
            ],
            [
              126.97807247848549,
              37.294312069880974
            ]
          ]
        ]
      }
    },
    {
      "type": "Feature",
      "properties": {
        "indoor": "room",
        "level": "3",
        "ref": "",
        "name": "",
        "room_type": "",
        "_idx": 37,
        "_centroid": [
          126.9779973,
          37.2942658
        ],
        "_area_m2": 48.8
      },
      "geometry": {
        "type": "Polygon",
        "coordinates": [
          [
            [
              126.97802831707884,
              37.29422863950786
            ],
            [
              126.9779522478515,
              37.294239310057065
            ],
            [
              126.97796637140348,
              37.29430303125686
            ],
            [
              126.97804244063082,
              37.294292360716675
            ],
            [
              126.97802831707884,
              37.29422863950786
            ]
          ]
        ]
      }
    },
    {
      "type": "Feature",
      "properties": {
        "indoor": "room",
        "level": "3",
        "ref": "",
        "name": "",
        "room_type": "",
        "_idx": 38,
        "_centroid": [
          126.9779813,
          37.294195
        ],
        "_area_m2": 35.7
      },
      "geometry": {
        "type": "Polygon",
        "coordinates": [
          [
            [
              126.9780246033405,
              37.294212981149
            ],
            [
              126.97801428159437,
              37.2941664124983
            ],
            [
              126.97793809578793,
              37.29417709940939
            ],
            [
              126.97794841753405,
              37.294223668053476
            ],
            [
              126.9780246033405,
              37.294212981149
            ]
          ]
        ]
      }
    },
    {
      "type": "Feature",
      "properties": {
        "indoor": "room",
        "level": "3",
        "ref": "",
        "name": "",
        "room_type": "",
        "_idx": 39,
        "_centroid": [
          126.9780764,
          37.2941915
        ],
        "_area_m2": 39.5
      },
      "geometry": {
        "type": "Polygon",
        "coordinates": [
          [
            [
              126.97805398305917,
              37.294228624105855
            ],
            [
              126.97811348701896,
              37.29422027722507
            ],
            [
              126.97809886262533,
              37.294154296305535
            ],
            [
              126.97803935866554,
              37.29416264319513
            ],
            [
              126.97805398305917,
              37.294228624105855
            ]
          ]
        ]
      }
    }
  ]
}