{
  "type": "FeatureCollection",
  "features": [
    {
      "type": "Feature",
      "properties": {
        "indoor": "room",
        "level": "5",
        "ref": "",
        "name": "",
        "room_type": "",
        "_idx": 1,
        "_centroid": [
          126.9779271,
          37.2952088
        ],
        "_area_m2": 40.1
      },
      "geometry": {
        "type": "Polygon",
        "coordinates": [
          [
            [
              126.97789417556368,
              37.29518689975433
            ],
            [
              126.97788558198454,
              37.29524515166569
            ],
            [
              126.97796889726584,
              37.29523368513244
            ],
            [
              126.97797301872221,
              37.29519110140895
            ],
            [
              126.97791391273485,
              37.29518698766987
            ],
            [
              126.97789417556368,
              37.29518689975433
            ]
          ]
        ]
      }
    },
    {
      "type": "Feature",
      "properties": {
        "indoor": "room",
        "level": "5",
        "ref": "",
        "name": "",
        "room_type": "",
        "_idx": 2,
        "_centroid": [
          126.978026,
          37.2952025
        ],
        "_area_m2": 40.3
      },
      "geometry": {
        "type": "Polygon",
        "coordinates": [
          [
            [
              126.97799807753816,
              37.29516962501512
            ],
            [
              126.97799327579777,
              37.29521841998839
            ],
            [
              126.97799208615584,
              37.29523050904726
            ],
            [
              126.97807098423215,
              37.295219441829346
            ],
            [
              126.97807573159963,
              37.29517446110987
            ],
            [
              126.97799807753816,
              37.29516962501512
            ]
          ]
        ]
      }
    },
    {
      "type": "Feature",
      "properties": {
        "indoor": "room",
        "level": "5",
        "ref": "",
        "name": "",
        "room_type": "",
        "_idx": 3,
        "_centroid": [
          126.977933,
          37.2951636
        ],
        "_area_m2": 47.6
      },
      "geometry": {
        "type": "Polygon",
        "coordinates": [
          [
            [
              126.97790348989756,
              37.295123762178825
            ],
            [
              126.97789417556368,
              37.29518689975433
            ],
            [
              126.97791391273485,
              37.29518698766987
            ],
            [
              126.97797301872221,
              37.295191101408946
            ],
            [
              126.97798041737191,
              37.295129116286574
            ],
            [
              126.97790348989756,
              37.295123762178825
            ]
          ]
        ]
      }
    },
    {
      "type": "Feature",
      "properties": {
        "indoor": "room",
        "level": "5",
        "ref": "",
        "name": "",
        "room_type": "",
        "_idx": 4,
        "_centroid": [
          126.9780379,
          37.2951621
        ],
        "_area_m2": 15.1
      },
      "geometry": {
        "type": "Polygon",
        "coordinates": [
          [
            [
              126.97799807753816,
              37.29516962501512
            ],
            [
              126.97807573159963,
              37.29517446110987
            ],
            [
              126.97807779295965,
              37.295154929978764
            ],
            [
              126.97800005604587,
              37.29514951953993
            ],
            [
              126.97799807753816,
              37.29516962501512
            ]
          ]
        ]
      }
    },
    {
      "type": "Feature",
      "properties": {
        "indoor": "room",
        "level": "5",
        "ref": "",
        "name": "",
        "room_type": "",
        "_idx": 5,
        "_centroid": [
          126.9780427,
          37.2951217
        ],
        "_area_m2": 46.2
      },
      "geometry": {
        "type": "Polygon",
        "coordinates": [
          [
            [
              126.97800005604587,
              37.29514951953993
            ],
            [
              126.97807779295965,
              37.29515492997876
            ],
            [
              126.9780843956196,
              37.29509379093663
            ],
            [
              126.97800858784396,
              37.29508851475686
            ],
            [
              126.97800005604587,
              37.29514951953993
            ]
          ]
        ]
      }
    },
    {
      "type": "Feature",
      "properties": {
        "indoor": "room",
        "level": "5",
        "ref": "",
        "name": "",
        "room_type": "",
        "_idx": 6,
        "_centroid": [
          126.9779475,
          37.2950843
        ],
        "_area_m2": 48.3
      },
      "geometry": {
        "type": "Polygon",
        "coordinates": [
          [
            [
              126.97798788351176,
              37.295065483220945
            ],
            [
              126.97791311724141,
              37.29505850285427
            ],
            [
              126.97791263735962,
              37.29506175575042
            ],
            [
              126.97790348989756,
              37.295123762178825
            ],
            [
              126.97798041737191,
              37.295129116286574
            ],
            [
              126.97798771120604,
              37.2950669808511
            ],
            [
              126.97798788351176,
              37.295065483220945
            ]
          ]
        ]
      }
    },
    {
      "type": "Feature",
      "properties": {
        "indoor": "room",
        "level": "5",
        "ref": "",
        "name": "",
        "room_type": "",
        "_idx": 7,
        "_centroid": [
          126.9780485,
          37.2950725
        ],
        "_area_m2": 27.8
      },
      "geometry": {
        "type": "Polygon",
        "coordinates": [
          [
            [
              126.97801268504048,
              37.2950512593606
            ],
            [
              126.97800858784396,
              37.29508851475686
            ],
            [
              126.97808439561962,
              37.29509379093664
            ],
            [
              126.97808849281499,
              37.29505653554275
            ],
            [
              126.97801268504048,
              37.2950512593606
            ]
          ]
        ]
      }
    },
    {
      "type": "Feature",
      "properties": {
        "indoor": "room",
        "level": "5",
        "ref": "",
        "name": "",
        "room_type": "",
        "_idx": 8,
        "_centroid": [
          126.978053,
          37.2950317
        ],
        "_area_m2": 33.1
      },
      "geometry": {
        "type": "Polygon",
        "coordinates": [
          [
            [
              126.97801268504048,
              37.2950512593606
            ],
            [
              126.97808849281499,
              37.29505653554275
            ],
            [
              126.97809336554235,
              37.295012228312785
            ],
            [
              126.97801755776668,
              37.295006952127295
            ],
            [
              126.97801268504048,
              37.2950512593606
            ]
          ]
        ]
      }
    },
    {
      "type": "Feature",
      "properties": {
        "indoor": "room",
        "level": "5",
        "ref": "",
        "name": "",
        "room_type": "",
        "_idx": 9,
        "_centroid": [
          126.9779545,
          37.2950311
        ],
        "_area_m2": 45.1
      },
      "geometry": {
        "type": "Polygon",
        "coordinates": [
          [
            [
              126.9779220877216,
              37.29499769610318
            ],
            [
              126.97791311724141,
              37.29505850285427
            ],
            [
              126.97798788351176,
              37.295065483220945
            ],
            [
              126.97799509793707,
              37.29500277758044
            ],
            [
              126.9779220877216,
              37.29499769610318
            ]
          ]
        ]
      }
    },
    {
      "type": "Feature",
      "properties": {
        "indoor": "room",
        "level": "5",
        "ref": "",
        "name": "",
        "room_type": "",
        "_idx": 10,
        "_centroid": [
          126.978131,
          37.2950276
        ],
        "_area_m2": 389.9
      },
      "geometry": {
        "type": "Polygon",
        "coordinates": [
          [
            [
              126.97807867744608,
              37.29514673984989
            ],
            [
              126.9780843956196,
              37.29509379093663
            ],
            [
              126.97808841952313,
              37.29505653053361
            ],
            [
              126.97809320508321,
              37.29501221734615
            ],
            [
              126.97810982268135,
              37.29485834199984
            ],
            [
              126.97824685651052,
              37.29486770763674
            ],
            [
              126.97821554261111,
              37.295157667239906
            ],
            [
              126.97807867744608,
              37.29514673984989
            ]
          ]
        ]
      }
    },
    {
      "type": "Feature",
      "properties": {
        "indoor": "room",
        "level": "5",
        "ref": "",
        "name": "",
        "room_type": "",
        "_idx": 11,
        "_centroid": [
          126.9780782,
          37.295002
        ],
        "_area_m2": 5.8
      },
      "geometry": {
        "type": "Polygon",
        "coordinates": [
          [
            [
              126.97809336554235,
              37.29501222831278
            ],
            [
              126.97806105087727,
              37.29500997922735
            ],
            [
              126.978063061089,
              37.29499170055751
            ],
            [
              126.97809537575405,
              37.29499394964348
            ],
            [
              126.97809336554235,
              37.29501222831278
            ]
          ]
        ]
      }
    },
    {
      "type": "Feature",
      "properties": {
        "indoor": "room",
        "level": "5",
        "ref": "",
        "name": "",
        "room_type": "",
        "_idx": 12,
        "_centroid": [
          126.9780597,
          37.2949716
        ],
        "_area_m2": 29.6
      },
      "geometry": {
        "type": "Polygon",
        "coordinates": [
          [
            [
              126.97809537575402,
              37.29499394964347
            ],
            [
              126.97809947967795,
              37.29495411599982
            ],
            [
              126.97802393041187,
              37.29494919006009
            ],
            [
              126.97801982648797,
              37.29498902370635
            ],
            [
              126.97809537575402,
              37.29499394964347
            ]
          ]
        ]
      }
    },
    {
      "type": "Feature",
      "properties": {
        "indoor": "room",
        "level": "5",
        "ref": "",
        "name": "",
        "room_type": "",
        "_idx": 13,
        "_centroid": [
          126.9779621,
          37.2949686
        ],
        "_area_m2": 45.5
      },
      "geometry": {
        "type": "Polygon",
        "coordinates": [
          [
            [
              126.97800206579473,
              37.294939419443175
            ],
            [
              126.977929055582,
              37.29493433796185
            ],
            [
              126.9779220877216,
              37.29499769610318
            ],
            [
              126.97799509793707,
              37.29500277758044
            ],
            [
              126.97800206579473,
              37.294939419443175
            ]
          ]
        ]
      }
    },
    {
      "type": "Feature",
      "properties": {
        "indoor": "room",
        "level": "5",
        "ref": "",
        "name": "",
        "room_type": "",
        "_idx": 14,
        "_centroid": [
          126.9780652,
          37.294918
        ],
        "_area_m2": 49.9
      },
      "geometry": {
        "type": "Polygon",
        "coordinates": [
          [
            [
              126.97809947967795,
              37.294954115999815
            ],
            [
              126.97802393041187,
              37.29494919006007
            ],
            [
              126.97803085454554,
              37.29488198274967
            ],
            [
              126.97810640381162,
              37.29488690869381
            ],
            [
              126.97809947967795,
              37.294954115999815
            ]
          ]
        ]
      }
    },
    {
      "type": "Feature",
      "properties": {
        "indoor": "room",
        "level": "5",
        "ref": "",
        "name": "",
        "room_type": "",
        "_idx": 15,
        "_centroid": [
          126.9779688,
          37.2949072
        ],
        "_area_m2": 42.6
      },
      "geometry": {
        "type": "Polygon",
        "coordinates": [
          [
            [
              126.97793557918274,
              37.29487501938593
            ],
            [
              126.977929055582,
              37.29493433796185
            ],
            [
              126.97800206579473,
              37.294939419443175
            ],
            [
              126.9780085893982,
              37.29488010087148
            ],
            [
              126.97793557918274,
              37.29487501938593
            ]
          ]
        ]
      }
    },
    {
      "type": "Feature",
      "properties": {
        "indoor": "room",
        "level": "5",
        "ref": "",
        "name": "",
        "room_type": "",
        "_idx": 16,
        "_centroid": [
          126.9780809,
          37.2948561
        ],
        "_area_m2": 43.1
      },
      "geometry": {
        "type": "Polygon",
        "coordinates": [
          [
            [
              126.97810640381162,
              37.294886908693805
            ],
            [
              126.97803085454551,
              37.294881982749665
            ],
            [
              126.97804022021683,
              37.29482388870286
            ],
            [
              126.97811715169424,
              37.294829243110485
            ],
            [
              126.97810982268135,
              37.29485834199984
            ],
            [
              126.97810640381162,
              37.294886908693805
            ]
          ]
        ]
      }
    },
    {
      "type": "Feature",
      "properties": {
        "indoor": "room",
        "level": "5",
        "ref": "",
        "name": "",
        "room_type": "",
        "_idx": 17,
        "_centroid": [
          126.9779757,
          37.2948453
        ],
        "_area_m2": 46.5
      },
      "geometry": {
        "type": "Polygon",
        "coordinates": [
          [
            [
              126.9780160030973,
              37.29481555774784
            ],
            [
              126.97794267974807,
              37.29481045446395
            ],
            [
              126.97793557918274,
              37.29487501938593
            ],
            [
              126.9780085893982,
              37.294880100871474
            ],
            [
              126.9780160030973,
              37.29481555774784
            ]
          ]
        ]
      }
    },
    {
      "type": "Feature",
      "properties": {
        "indoor": "room",
        "level": "5",
        "ref": "",
        "name": "",
        "room_type": "",
        "_idx": 18,
        "_centroid": [
          126.9781784,
          37.2948228
        ],
        "_area_m2": 99.6
      },
      "geometry": {
        "type": "Polygon",
        "coordinates": [
          [
            [
              126.97810982268135,
              37.29485834199984
            ],
            [
              126.97811715169424,
              37.29482924311049
            ],
            [
              126.9781210046679,
              37.29479420828256
            ],
            [
              126.97812350635934,
              37.29477146057244
            ],
            [
              126.97823397738644,
              37.29478087550142
            ],
            [
              126.97822446978074,
              37.29483949316932
            ],
            [
              126.97825061569642,
              37.294841005882716
            ],
            [
              126.97824685651052,
              37.29486770763674
            ],
            [
              126.97810982268135,
              37.29485834199984
            ]
          ]
        ]
      }
    },
    {
      "type": "Feature",
      "properties": {
        "indoor": "room",
        "level": "5",
        "ref": "",
        "name": "",
        "room_type": "",
        "_idx": 19,
        "_centroid": [
          126.9780806,
          37.294809
        ],
        "_area_m2": 26.5
      },
      "geometry": {
        "type": "Polygon",
        "coordinates": [
          [
            [
              126.97812100466793,
              37.29479420828255
            ],
            [
              126.97804407319107,
              37.29478885387247
            ],
            [
              126.97804022021683,
              37.294823888702865
            ],
            [
              126.97811715169424,
              37.2948292431105
            ],
            [
              126.97812100466793,
              37.29479420828255
            ]
          ]
        ]
      }
    },
    {
      "type": "Feature",
      "properties": {
        "indoor": "room",
        "level": "5",
        "ref": "",
        "name": "",
        "room_type": "",
        "_idx": 20,
        "_centroid": [
          126.9779812,
          37.2947822
        ],
        "_area_m2": 37.0
      },
      "geometry": {
        "type": "Polygon",
        "coordinates": [
          [
            [
              126.97794830159413,
              37.294759335389564
            ],
            [
              126.97794267974807,
              37.29481045446395
            ],
            [
              126.9780160030973,
              37.29481555774784
            ],
            [
              126.97802188073597,
              37.29476438745418
            ],
            [
              126.9779770067765,
              37.294761264237486
            ],
            [
              126.97794830159413,
              37.294759335389564
            ]
          ]
        ]
      }
    },
    {
      "type": "Feature",
      "properties": {
        "indoor": "room",
        "level": "5",
        "ref": "",
        "name": "",
        "room_type": "",
        "_idx": 21,
        "_centroid": [
          126.9780838,
          37.2947802
        ],
        "_area_m2": 17.2
      },
      "geometry": {
        "type": "Polygon",
        "coordinates": [
          [
            [
              126.97804407319107,
              37.29478885387247
            ],
            [
              126.97812100466793,
              37.29479420828255
            ],
            [
              126.97812350635934,
              37.29477146057244
            ],
            [
              126.97804657488194,
              37.294766106160694
            ],
            [
              126.97804407319107,
              37.29478885387247
            ]
          ]
        ]
      }
    },
    {
      "type": "Feature",
      "properties": {
        "indoor": "room",
        "level": "5",
        "ref": "",
        "name": "",
        "room_type": "",
        "_idx": 22,
        "_centroid": [
          126.9779924,
          37.2946721
        ],
        "_area_m2": 29.0
      },
      "geometry": {
        "type": "Polygon",
        "coordinates": [
          [
            [
              126.97802239288912,
              37.29464650520331
            ],
            [
              126.97795317745916,
              37.29465621428756
            ],
            [
              126.97796239290102,
              37.294697791464245
            ],
            [
              126.97803160835485,
              37.2946880823818
            ],
            [
              126.97802239288912,
              37.29464650520331
            ]
          ]
        ]
      }
    },
    {
      "type": "Feature",
      "properties": {
        "indoor": "room",
        "level": "5",
        "ref": "",
        "name": "",
        "room_type": "",
        "_idx": 23,
        "_centroid": [
          126.9780774,
          37.2946466
        ],
        "_area_m2": 52.3
      },
      "geometry": {
        "type": "Polygon",
        "coordinates": [
          [
            [
              126.97810699509564,
              37.29460659478543
            ],
            [
              126.9780323864542,
              37.294617060399595
            ],
            [
              126.97804779901848,
              37.29468659688151
            ],
            [
              126.97812240765992,
              37.294676131277015
            ],
            [
              126.97810699509564,
              37.29460659478543
            ]
          ]
        ]
      }
    },
    {
      "type": "Feature",
      "properties": {
        "indoor": "room",
        "level": "5",
        "ref": "",
        "name": "",
        "room_type": "",
        "_idx": 24,
        "_centroid": [
          126.9779799,
          37.2946157
        ],
        "_area_m2": 49.7
      },
      "geometry": {
        "type": "Polygon",
        "coordinates": [
          [
            [
              126.97795317745916,
              37.29465621428756
            ],
            [
              126.97802239288912,
              37.29464650520331
            ],
            [
              126.97800660516276,
              37.29457527591625
            ],
            [
              126.9779373897286,
              37.29458498501039
            ],
            [
              126.97795317745916,
              37.29465621428756
            ]
          ]
        ]
      }
    },
    {
      "type": "Feature",
      "properties": {
        "indoor": "room",
        "level": "5",
        "ref": "",
        "name": "",
        "room_type": "",
        "_idx": 25,
        "_centroid": [
          126.9781639,
          37.294606
        ],
        "_area_m2": 83.9
      },
      "geometry": {
        "type": "Polygon",
        "coordinates": [
          [
            [
              126.97812107963755,
              37.2945313431507
            ],
            [
              126.97813169076865,
              37.29457921718781
            ],
            [
              126.97814546805525,
              37.29464137586241
            ],
            [
              126.978152093783,
              37.2946712689913
            ],
            [
              126.97821159774455,
              37.29466292216938
            ],
            [
              126.97820497201836,
              37.29463302904413
            ],
            [
              126.97818058360212,
              37.29452299631267
            ],
            [
              126.97812107963755,
              37.2945313431507
            ]
          ]
        ]
      }
    },
    {
      "type": "Feature",
      "properties": {
        "indoor": "room",
        "level": "5",
        "ref": "",
        "name": "",
        "room_type": "",
        "_idx": 26,
        "_centroid": [
          126.9780674,
          37.2946014
        ],
        "_area_m2": 15.6
      },
      "geometry": {
        "type": "Polygon",
        "coordinates": [
          [
            [
              126.9780323864542,
              37.2946170603996
            ],
            [
              126.97810699509564,
              37.29460659478543
            ],
            [
              126.97810238903187,
              37.29458581370709
            ],
            [
              126.97802778039043,
              37.29459627932416
            ],
            [
              126.9780323864542,
              37.2946170603996
            ]
          ]
        ]
      }
    },
    {
      "type": "Feature",
      "properties": {
        "indoor": "room",
        "level": "5",
        "ref": "",
        "name": "",
        "room_type": "",
        "_idx": 27,
        "_centroid": [
          126.9779696,
          37.2945694
        ],
        "_area_m2": 14.9
      },
      "geometry": {
        "type": "Polygon",
        "coordinates": [
          [
            [
              126.9779373897286,
              37.29458498501039
            ],
            [
              126.97800660516276,
              37.29457527591625
            ],
            [
              126.97800186393063,
              37.294553884958624
            ],
            [
              126.97793264849517,
              37.29456359405567
            ],
            [
              126.9779373897286,
              37.29458498501039
            ]
          ]
        ]
      }
    },
    {
      "type": "Feature",
      "properties": {
        "indoor": "room",
        "level": "5",
        "ref": "",
        "name": "",
        "room_type": "",
        "_idx": 28,
        "_centroid": [
          126.9780575,
          37.294557
        ],
        "_area_m2": 17.1
      },
      "geometry": {
        "type": "Polygon",
        "coordinates": [
          [
            [
              126.97801770890032,
              37.294550839986265
            ],
            [
              126.97809231754177,
              37.29454037436286
            ],
            [
              126.97809736185758,
              37.29456313270685
            ],
            [
              126.97802275321614,
              37.29457359832708
            ],
            [
              126.97801770890032,
              37.294550839986265
            ]
          ]
        ]
      }
    },
    {
      "type": "Feature",
      "properties": {
        "indoor": "room",
        "level": "5",
        "ref": "",
        "name": "",
        "room_type": "",
        "_idx": 29,
        "_centroid": [
          126.9780548,
          37.294508
        ],
        "_area_m2": 25.2
      },
      "geometry": {
        "type": "Polygon",
        "coordinates": [
          [
            [
              126.97807589516891,
              37.29448061625243
            ],
            [
              126.97802314121151,
              37.294488016246454
            ],
            [
              126.97803365358129,
              37.29453544476159
            ],
            [
              126.97808640754073,
              37.29452804477199
            ],
            [
              126.97807589516891,
              37.29448061625243
            ]
          ]
        ]
      }
    },
    {
      "type": "Feature",
      "properties": {
        "indoor": "room",
        "level": "5",
        "ref": "",
        "name": "",
        "room_type": "",
        "_idx": 30,
        "_centroid": [
          126.9779538,
          37.2944982
        ],
        "_area_m2": 84.4
      },
      "geometry": {
        "type": "Polygon",
        "coordinates": [
          [
            [
              126.97793264849517,
              37.29456359405567
            ],
            [
              126.97800186393063,
              37.294553884958624
            ],
            [
              126.97797501587634,
              37.29443275492862
            ],
            [
              126.97790580043369,
              37.29444246404235
            ],
            [
              126.97793264849517,
              37.29456359405567
            ]
          ]
        ]
      }
    },
    {
      "type": "Feature",
      "properties": {
        "indoor": "room",
        "level": "5",
        "ref": "",
        "name": "",
        "room_type": "",
        "_idx": 31,
        "_centroid": [
          126.9781424,
          37.2944892
        ],
        "_area_m2": 45.5
      },
      "geometry": {
        "type": "Polygon",
        "coordinates": [
          [
            [
              126.97812107963755,
              37.2945313431507
            ],
            [
              126.97818058360215,
              37.29452299631282
            ],
            [
              126.97816375683952,
              37.29444707925913
            ],
            [
              126.97810425287491,
              37.29445542610543
            ],
            [
              126.97812107963755,
              37.2945313431507
            ]
          ]
        ]
      }
    },
    {
      "type": "Feature",
      "properties": {
        "indoor": "room",
        "level": "5",
        "ref": "",
        "name": "",
        "room_type": "",
        "_idx": 32,
        "_centroid": [
          126.9780423,
          37.2944516
        ],
        "_area_m2": 34.8
      },
      "geometry": {
        "type": "Polygon",
        "coordinates": [
          [
            [
              126.9780613756817,
              37.29441510888695
            ],
            [
              126.97800862172707,
              37.29442250888693
            ],
            [
              126.97802314121151,
              37.294488016246454
            ],
            [
              126.97807589516891,
              37.29448061625243
            ],
            [
              126.9780613756817,
              37.29441510888695
            ]
          ]
        ]
      }
    },
    {
      "type": "Feature",
      "properties": {
        "indoor": "room",
        "level": "5",
        "ref": "",
        "name": "",
        "room_type": "",
        "_idx": 33,
        "_centroid": [
          126.9781304,
          37.2944351
        ],
        "_area_m2": 19.4
      },
      "geometry": {
        "type": "Polygon",
        "coordinates": [
          [
            [
              126.97816375683952,
              37.29444707925913
            ],
            [
              126.97810425287491,
              37.29445542610542
            ],
            [
              126.97809709580677,
              37.29442313564835
            ],
            [
              126.9781565997714,
              37.29441478879847
            ],
            [
              126.97816375683952,
              37.29444707925913
            ]
          ]
        ]
      }
    },
    {
      "type": "Feature",
      "properties": {
        "indoor": "room",
        "level": "5",
        "ref": "",
        "name": "",
        "room_type": "",
        "_idx": 34,
        "_centroid": [
          126.9780317,
          37.2944038
        ],
        "_area_m2": 15.9
      },
      "geometry": {
        "type": "Polygon",
        "coordinates": [
          [
            [
              126.9780613756817,
              37.29441510888695
            ],
            [
              126.97805473410395,
              37.29438514414597
            ],
            [
              126.97800198014451,
              37.29439254414963
            ],
            [
              126.97800862172707,
              37.29442250888693
            ],
            [
              126.9780613756817,
              37.29441510888695
            ]
          ]
        ]
      }
    },
    {
      "type": "Feature",
      "properties": {
        "indoor": "room",
        "level": "5",
        "ref": "",
        "name": "",
        "room_type": "",
        "_idx": 35,
        "_centroid": [
          126.9781187,
          37.2943823
        ],
        "_area_m2": 44.0
      },
      "geometry": {
        "type": "Polygon",
        "coordinates": [
          [
            [
              126.9781565997714,
              37.29441478879847
            ],
            [
              126.97809709580675,
              37.29442313564835
            ],
            [
              126.97808082974034,
              37.29434974818317
            ],
            [
              126.97814033370499,
              37.29434140132514
            ],
            [
              126.9781565997714,
              37.29441478879847
            ]
          ]
        ]
      }
    },
    {
      "type": "Feature",
      "properties": {
        "indoor": "room",
        "level": "5",
        "ref": "",
        "name": "",
        "room_type": "",
        "_idx": 36,
        "_centroid": [
          126.9780168,
          37.2943536
        ],
        "_area_m2": 16.3
      },
      "geometry": {
        "type": "Polygon",
        "coordinates": [
          [
            [
              126.97805248345627,
              37.294337670884836
            ],
            [
              126.97797641422895,
              37.2943483414186
            ],
            [
              126.97798111554336,
              37.29436955230424
            ],
            [
              126.97805718477068,
              37.2943588817735
            ],
            [
              126.97805248345627,
              37.294337670884836
            ]
          ]
        ]
      }
    },
    {
      "type": "Feature",
      "properties": {
        "indoor": "room",
        "level": "5",
        "ref": "",
        "name": "",
        "room_type": "",
        "_idx": 37,
        "_centroid": [
          126.9780122,
          37.2943326
        ],
        "_area_m2": 15.9
      },
      "geometry": {
        "type": "Polygon",
        "coordinates": [
          [
            [
              126.9780478865829,
              37.29431693119639
            ],
            [
              126.97797181735558,
              37.294327601733094
            ],
            [
              126.97797641422895,
              37.2943483414186
            ],
            [
              126.97805248345627,
              37.294337670884836
            ],
            [
              126.9780478865829,
              37.29431693119639
            ]
          ]
        ]
      }
    },
    {
      "type": "Feature",
      "properties": {
        "indoor": "room",
        "level": "5",
        "ref": "",
        "name": "",
        "room_type": "",
        "_idx": 38,
        "_centroid": [
          126.9779124,
          37.2943113
        ],
        "_area_m2": 132.5
      },
      "geometry": {
        "type": "Polygon",
        "coordinates": [
          [
            [
              126.97790580043369,
              37.29444246404235
            ],
            [
              126.97797501587634,
              37.29443275492862
            ],
            [
              126.97793317273712,
              37.294243971761965
            ],
            [
              126.9779328915376,
              37.29424270307367
            ],
            [
              126.97786367608371,
              37.29425241221338
            ],
            [
              126.97786395728328,
              37.29425368090172
            ],
            [
              126.97790580043369,
              37.29444246404235
            ]
          ]
        ]
      }
    },
    {
      "type": "Feature",
      "properties": {
        "indoor": "room",
        "level": "5",
        "ref": "",
        "name": "",
        "room_type": "",
        "_idx": 39,
        "_centroid": [
          126.9780071,
          37.29431
        ],
        "_area_m2": 18.8
      },
      "geometry": {
        "type": "Polygon",
        "coordinates": [
          [
            [
              126.9780424406308,
              37.294292360716675
            ],
            [
              126.97796637140348,
              37.29430303125686
            ],
            [
              126.97797181735558,
              37.294327601733094
            ],
            [
              126.9780478865829,
              37.2943169311964
            ],
            [
              126.9780424406308,
              37.294292360716675
            ]
          ]
        ]
      }
    },
    {
      "type": "Feature",
      "properties": {
        "indoor": "room",
        "level": "5",
        "ref": "",
        "name": "",
        "room_type": "",
        "_idx": 40,
        "_centroid": [
          126.9780967,
          37.294283
        ],
        "_area_m2": 75.0
      },
      "geometry": {
        "type": "Polygon",
        "coordinates": [
          [
            [
              126.97814033370499,
              37.294341401325134
            ],
            [
              126.97808082974034,
              37.29434974818317
            ],
            [
              126.97805309383178,
              37.29422461216954
            ],
            [
              126.97811259779643,
              37.29421626529763
            ],
            [
              126.97814033370499,
              37.294341401325134
            ]
          ]
        ]
      }
    },
    {
      "type": "Feature",
      "properties": {
        "indoor": "room",
        "level": "5",
        "ref": "",
        "name": "",
        "room_type": "",
        "_idx": 41,
        "_centroid": [
          126.9779973,
          37.2942658
        ],
        "_area_m2": 48.8
      },
      "geometry": {
        "type": "Polygon",
        "coordinates": [
          [
            [
              126.97802831707884,
              37.29422863950786
            ],
            [
              126.9779522478515,
              37.294239310057065
            ],
            [
              126.97796637140348,
              37.29430303125686
            ],
            [
              126.97804244063082,
              37.294292360716675
            ],
            [
              126.97802831707884,
              37.29422863950786
            ]
          ]
        ]
      }
    },
    {
      "type": "Feature",
      "properties": {
        "indoor": "room",
        "level": "5",
        "ref": "",
        "name": "",
        "room_type": "",
        "_idx": 42,
        "_centroid": [
          126.9778944,
          37.2942299
        ],
        "_area_m2": 24.6
      },
      "geometry": {
        "type": "Polygon",
        "coordinates": [
          [
            [
              126.97786367608371,
              37.29425241221338
            ],
            [
              126.9779328915376,
              37.29424270307367
            ],
            [
              126.97792508570008,
              37.294207485464895
            ],
            [
              126.97785587024617,
              37.29421719460913
            ],
            [
              126.97786367608371,
              37.29425241221338
            ]
          ]
        ]
      }
    },
    {
      "type": "Feature",
      "properties": {
        "indoor": "room",
        "level": "5",
        "ref": "",
        "name": "",
        "room_type": "",
        "_idx": 43,
        "_centroid": [
          126.9778873,
          37.294198
        ],
        "_area_m2": 19.9
      },
      "geometry": {
        "type": "Polygon",
        "coordinates": [
          [
            [
              126.97785587024617,
              37.29421719460913
            ],
            [
              126.97792508570008,
              37.294207485464895
            ],
            [
              126.97791874906294,
              37.29417889644971
            ],
            [
              126.97784953360909,
              37.294188605597874
            ],
            [
              126.97785587024617,
              37.29421719460913
            ]
          ]
        ]
      }
    },
    {
      "type": "Feature",
      "properties": {
        "indoor": "room",
        "level": "5",
        "ref": "",
        "name": "",
        "room_type": "",
        "_idx": 44,
        "_centroid": [
          126.9779813,
          37.2941948
        ],
        "_area_m2": 35.7
      },
      "geometry": {
        "type": "Polygon",
        "coordinates": [
          [
            [
              126.97794841753405,
              37.294223668053476
            ],
            [
              126.9780246033405,
              37.294212981149
            ],
            [
              126.97801930211322,
              37.294189063590885
            ],
            [
              126.97801428159437,
              37.2941664124983
            ],
            [
              126.97793809578793,
              37.29417709940939
            ],
            [
              126.97794311630757,
              37.29419975049862
            ],
            [
              126.97794841753405,
              37.294223668053476
            ]
          ]
        ]
      }
    },
    {
      "type": "Feature",
      "properties": {
        "indoor": "room",
        "level": "5",
        "ref": "",
        "name": "",
        "room_type": "",
        "_idx": 45,
        "_centroid": [
          126.9780755,
          37.2941875
        ],
        "_area_m2": 39.5
      },
      "geometry": {
        "type": "Polygon",
        "coordinates": [
          [
            [
              126.97811259779643,
              37.29421626529763
            ],
            [
              126.97805309383178,
              37.29422461216954
            ],
            [
              126.97803849796766,
              37.29415875997049
            ],
            [
              126.9780980019323,
              37.294150413091266
            ],
            [
              126.97811259779643,
              37.29421626529763
            ]
          ]
        ]
      }
    }
  ]
}