{
  "type": "FeatureCollection",
  "features": [
    {
      "type": "Feature",
      "properties": {
        "indoor": "corridor",
        "level": "1"
      },
      "geometry": {
        "type": "Polygon",
        "coordinates": [
          [
            [
              126.97801755776668,
              37.295006952127295
            ],
            [
              126.97798078096935,
              37.29505595547224
            ],
            [
              126.97797739244209,
              37.29508844089755
            ],
            [
              126.97797025807057,
              37.29515331297645
            ],
            [
              126.97796258234445,
              37.29522310747261
            ],
            [
              126.97796066668452,
              37.29523461936107
            ],
            [
              126.97799208615584,
              37.29523050904726
            ],
            [
              126.97799559955988,
              37.2951985620791
            ],
            [
              126.97800175522283,
              37.29514258932954
            ],
            [
              126.97800598822712,
              37.295104099074166
            ],
            [
              126.97800858784396,
              37.29508851475686
            ],
            [
              126.97801755776668,
              37.295006952127295
            ]
          ]
        ]
      }
    },
    {
      "type": "Feature",
      "properties": {
        "indoor": "corridor",
        "level": "1"
      },
      "geometry": {
        "type": "Polygon",
        "coordinates": [
          [
            [
              126.9780843956196,
              37.29509379093663
            ],
            [
              126.97800858784396,
              37.29508851475686
            ],
            [
              126.97800598822712,
              37.295104099074166
            ],
            [
              126.9780837251409,
              37.295109509519776
            ],
            [
              126.97807949213662,
              37.29514799977237
            ],
            [
              126.97809846031124,
              37.2951490793841
            ],
            [
              126.97810609117903,
              37.295079692711674
            ],
            [
              126.97811288917514,
              37.29501787919929
            ],
            [
              126.97809336554235,
              37.29501222831278
            ],
            [
              126.9780843956196,
              37.29509379093663
            ]
          ]
        ]
      }
    },
    {
      "type": "Feature",
      "properties": {
        "indoor": "corridor",
        "level": "1"
      },
      "geometry": {
        "type": "Polygon",
        "coordinates": [
          [
            [
              126.97801755776668,
              37.295006952127295
            ],
            [
              126.97803421263832,
              37.29495143171319
            ],
            [
              126.97804456053998,
              37.29485733907723
            ],
            [
              126.97803323296387,
              37.29485639958073
            ],
            [
              126.9780352179185,
              37.294838350534405
            ],
            [
              126.97804022021683,
              37.29482388870286
            ],
            [
              126.97804657488192,
              37.294766106160694
            ],
            [
              126.97802651180814,
              37.29476470977566
            ],
            [
              126.97801241140293,
              37.294892923753444
            ],
            [
              126.97796290637132,
              37.29488947822111
            ],
            [
              126.97793417381241,
              37.29488761710761
            ],
            [
              126.97790240112526,
              37.294885405739926
            ],
            [
              126.97788285547162,
              37.2950491399076
            ],
            [
              126.97798078096935,
              37.29505595547224
            ],
            [
              126.97801755776668,
              37.295006952127295
            ]
          ]
        ]
      }
    },
    {
      "type": "Feature",
      "properties": {
        "indoor": "corridor",
        "level": "1"
      },
      "geometry": {
        "type": "Polygon",
        "coordinates": [
          [
            [
              126.97801755776668,
              37.295006952127295
            ],
            [
              126.97809336554235,
              37.29501222831278
            ],
            [
              126.97811288917514,
              37.29501787919929
            ],
            [
              126.97812005652557,
              37.294952707129134
            ],
            [
              126.97812676774684,
              37.29489168254888
            ],
            [
              126.97813367686211,
              37.2948288584832
            ],
            [
              126.97811715169424,
              37.29482924311049
            ],
            [
              126.97804022021683,
              37.29482388870285
            ],
            [
              126.9780352179185,
              37.294838350534405
            ],
            [
              126.9781130904917,
              37.294843770440984
            ],
            [
              126.97811108904588,
              37.29486196943917
            ],
            [
              126.97810032712741,
              37.29486122041322
            ],
            [
              126.9780899792258,
              37.29495531304431
            ],
            [
              126.97803421263832,
              37.29495143171319
            ],
            [
              126.97801755776668,
              37.295006952127295
            ]
          ]
        ]
      }
    },
    {
      "type": "Feature",
      "properties": {
        "indoor": "corridor",
        "level": "1"
      },
      "geometry": {
        "type": "Polygon",
        "coordinates": [
          [
            [
              126.97813367686211,
              37.2948288584832
            ],
            [
              126.97813910962887,
              37.29477945870678
            ],
            [
              126.97814564027684,
              37.29472007592884
            ],
            [
              126.9781662323329,
              37.29472150913176
            ],
            [
              126.9781721265911,
              37.29466791296756
            ],
            [
              126.97815197642281,
              37.294670739499715
            ],
            [
              126.97810570464164,
              37.29467603286306
            ],
            [
              126.97810125963055,
              37.29471697226235
            ],
            [
              126.97812928433926,
              37.29471892175539
            ],
            [
              126.97812350635934,
              37.29477146057244
            ],
            [
              126.97811715169424,
              37.294829243110485
            ],
            [
              126.97813367686211,
              37.2948288584832
            ]
          ]
        ]
      }
    },
    {
      "type": "Feature",
      "properties": {
        "indoor": "corridor",
        "level": "1"
      },
      "geometry": {
        "type": "Polygon",
        "coordinates": [
          [
            [
              126.97796290637132,
              37.2948894782211
            ],
            [
              126.9779770067765,
              37.294761264237486
            ],
            [
              126.97798278475636,
              37.2947087254133
            ],
            [
              126.97798451051695,
              37.2946930331689
            ],
            [
              126.9779618370266,
              37.2946726328985
            ],
            [
              126.97795385766541,
              37.2947086331649
            ],
            [
              126.97794241309578,
              37.29481269791365
            ],
            [
              126.97793417381241,
              37.29488761710761
            ],
            [
              126.97796290637132,
              37.2948894782211
            ]
          ]
        ]
      }
    },
    {
      "type": "Feature",
      "properties": {
        "indoor": "corridor",
        "level": "1"
      },
      "geometry": {
        "type": "MultiPolygon",
        "coordinates": []
      }
    },
    {
      "type": "Feature",
      "properties": {
        "indoor": "corridor",
        "level": "1"
      },
      "geometry": {
        "type": "Polygon",
        "coordinates": [
          [
            [
              126.978136844428,
              37.29460246884382
            ],
            [
              126.9780390597103,
              37.29416129439713
            ],
            [
              126.97801428159437,
              37.29416641249829
            ],
            [
              126.9780246033405,
              37.294212981148995
            ],
            [
              126.97802831707884,
              37.29422863950786
            ],
            [
              126.9780424406308,
              37.294292360716675
            ],
            [
              126.9780478865829,
              37.29431693119639
            ],
            [
              126.97805248345627,
              37.294337670884836
            ],
            [
              126.97805718477068,
              37.2943588817735
            ],
            [
              126.978136844428,
              37.29460246884382
            ]
          ]
        ]
      }
    },
    {
      "type": "Feature",
      "properties": {
        "indoor": "corridor",
        "level": "1"
      },
      "geometry": {
        "type": "Polygon",
        "coordinates": [
          [
            [
              126.97782919303677,
              37.29419258792102
            ],
            [
              126.97769470723962,
              37.294212555262824
            ],
            [
              126.97771921586694,
              37.29433766299678
            ],
            [
              126.9777218011814,
              37.2943459999407
            ],
            [
              126.97773044707425,
              37.29435453684857
            ],
            [
              126.97774096657645,
              37.29435959348504
            ],
            [
              126.9778923074459,
              37.29438330599117
            ],
            [
              126.97793583152668,
              37.29433613891809
            ],
            [
              126.97792823183116,
              37.294335884406294
            ],
            [
              126.9778582382346,
              37.294323631101655
            ],
            [
              126.97782919303677,
              37.29419258792102
            ]
          ]
        ]
      }
    },
    {
      "type": "Feature",
      "properties": {
        "indoor": "corridor",
        "level": "1"
      },
      "geometry": {
        "type": "Polygon",
        "coordinates": [
          [
            [
              126.97794471421857,
              37.29432571656418
            ],
            [
              126.9779430548779,
              37.294331715269585
            ],
            [
              126.97793583152668,
              37.29433613891809
            ],
            [
              126.9778923074459,
              37.29438330599117
            ],
            [
              126.97798111554334,
              37.294369552304225
            ],
            [
              126.97797641422895,
              37.2943483414186
            ],
            [
              126.97797181735558,
              37.294327601733094
            ],
            [
              126.97796637140348,
              37.29430303125686
            ],
            [
              126.9779522478515,
              37.294239310057065
            ],
            [
              126.97802831707884,
              37.29422863950786
            ],
            [
              126.9780246033405,
              37.294212981148995
            ],
            [
              126.97794841753405,
              37.294223668053476
            ],
            [
              126.9779380957879,
              37.29417709940939
            ],
            [
              126.97791411962551,
              37.294178857733094
            ],
            [
              126.97794471421857,
              37.29432571656418
            ]
          ]
        ]
      }
    },
    {
      "type": "Feature",
      "properties": {
        "indoor": "corridor",
        "level": "1"
      },
      "geometry": {
        "type": "Polygon",
        "coordinates": [
          [
            [
              126.97805718477068,
              37.2943588817735
            ],
            [
              126.97798111554334,
              37.294369552304225
            ],
            [
              126.9778923074459,
              37.29438330599117
            ],
            [
              126.97790551924395,
              37.29444291352006
            ],
            [
              126.97788754277433,
              37.29444543514773
            ],
            [
              126.97790106566383,
              37.29450644617358
            ],
            [
              126.97791666212353,
              37.29450425840072
            ],
            [
              126.97792537681957,
              37.2945435763444
            ],
            [
              126.97793302927671,
              37.294542661615225
            ],
            [
              126.97801386806715,
              37.294531411624156
            ],
            [
              126.97799900713397,
              37.29446436378518
            ],
            [
              126.97798308740553,
              37.294392538930104
            ],
            [
              126.9780519426838,
              37.29438288033149
            ],
            [
              126.97806786241225,
              37.29445470519577
            ],
            [
              126.97808272334545,
              37.29452175304336
            ],
            [
              126.97809070858354,
              37.29454144221563
            ],
            [
              126.97810062143698,
              37.29458616584171
            ],
            [
              126.97810574862889,
              37.29460929808226
            ],
            [
              126.978136844428,
              37.29460246884382
            ],
            [
              126.97805718477068,
              37.2943588817735
            ]
          ]
        ]
      }
    },
    {
      "type": "Feature",
      "properties": {
        "indoor": "corridor",
        "level": "1"
      },
      "geometry": {
        "type": "Polygon",
        "coordinates": [
          [
            [
              126.97808272334545,
              37.29452175304336
            ],
            [
              126.97801386806715,
              37.294531411624156
            ],
            [
              126.97793302927671,
              37.294542661615225
            ],
            [
              126.9779618370266,
              37.2946726328985
            ],
            [
              126.97798451051695,
              37.2946930331689
            ],
            [
              126.97798770735866,
              37.2946686741673
            ],
            [
              126.97797850303844,
              37.29462714726318
            ],
            [
              126.97800182874445,
              37.29462387528569
            ],
            [
              126.97803353474373,
              37.29461942777526
            ],
            [
              126.9780284075518,
              37.29459629553783
            ],
            [
              126.97801849469835,
              37.29455157191777
            ],
            [
              126.97809070858354,
              37.29454144221563
            ],
            [
              126.97808272334545,
              37.29452175304336
            ]
          ]
        ]
      }
    },
    {
      "type": "Feature",
      "properties": {
        "indoor": "corridor",
        "level": "1"
      },
      "geometry": {
        "type": "Polygon",
        "coordinates": [
          [
            [
              126.97811067125573,
              37.294675336179395
            ],
            [
              126.97815197642281,
              37.294670739499715
            ],
            [
              126.978136844428,
              37.29460246884382
            ],
            [
              126.97810574862889,
              37.29460929808226
            ],
            [
              126.97811385886757,
              37.294645888855534
            ],
            [
              126.9781044372679,
              37.294647210455544
            ],
            [
              126.97811067125573,
              37.294675336179395
            ]
          ]
        ]
      }
    }
  ]
}