{
  "type": "FeatureCollection",
  "features": [
    {
      "type": "Feature",
      "properties": {
        "indoor": "corridor",
        "level": "4"
      },
      "geometry": {
        "type": "Polygon",
        "coordinates": [
          [
            [
              126.97796889726581,
              37.29523368513244
            ],
            [
              126.97799208615584,
              37.29523050904726
            ],
            [
              126.97799807753816,
              37.29516962501512
            ],
            [
              126.97800005604587,
              37.29514951953993
            ],
            [
              126.97800858784396,
              37.29508851475686
            ],
            [
              126.97800858784396,
              37.29508851475686
            ],
            [
              126.97801756376371,
              37.29500689815335
            ],
            [
              126.97802432160869,
              37.29494607671972
            ],
            [
              126.97804657488192,
              37.294766106160694
            ],
            [
              126.97802188073597,
              37.29476438745418
            ],
            [
              126.97801600309728,
              37.29481555774784
            ],
            [
              126.9780085893982,
              37.294880100871474
            ],
            [
              126.97800206579474,
              37.294939419443175
            ],
            [
              126.97799509793707,
              37.29500277758044
            ],
            [
              126.97798788351172,
              37.295065483220945
            ],
            [
              126.97798041737191,
              37.295129116286574
            ],
            [
              126.97797301872221,
              37.295191101408946
            ],
            [
              126.97796889726581,
              37.29523368513244
            ]
          ]
        ]
      }
    },
    {
      "type": "Feature",
      "properties": {
        "indoor": "corridor",
        "level": "4"
      },
      "geometry": {
        "type": "Polygon",
        "coordinates": [
          [
            [
              126.97804779901847,
              37.294686596881505
            ],
            [
              126.97803160835485,
              37.294688082381796
            ],
            [
              126.97791874906294,
              37.29417889644971
            ],
            [
              126.9779380957879,
              37.29417709940939
            ],
            [
              126.97794311630756,
              37.29419975049861
            ],
            [
              126.97794841753405,
              37.294223668053476
            ],
            [
              126.9779522478515,
              37.294239310057065
            ],
            [
              126.97796637140348,
              37.29430303125686
            ],
            [
              126.97797181735558,
              37.294327601733094
            ],
            [
              126.97798111554334,
              37.29436955230423
            ],
            [
              126.97800198014448,
              37.29439254414963
            ],
            [
              126.97803365358129,
              37.294535444761586
            ],
            [
              126.97801770890032,
              37.294550839986265
            ],
            [
              126.97802275321614,
              37.29457359832708
            ],
            [
              126.97802778039043,
              37.29459627932416
            ],
            [
              126.9780323864542,
              37.294617060399595
            ],
            [
              126.97804779901847,
              37.294686596881505
            ]
          ]
        ]
      }
    },
    {
      "type": "Feature",
      "properties": {
        "indoor": "corridor",
        "level": "4"
      },
      "geometry": {
        "type": "Polygon",
        "coordinates": [
          [
            [
              126.97812240765991,
              37.294676131277015
            ],
            [
              126.97815197642106,
              37.2946707394918
            ],
            [
              126.97814546805525,
              37.29464137586241
            ],
            [
              126.97813283907743,
              37.29458439799013
            ],
            [
              126.97811674245382,
              37.294511775156344
            ],
            [
              126.9781072219082,
              37.294468821456725
            ],
            [
              126.97809578984848,
              37.294417243576035
            ],
            [
              126.9780846620727,
              37.29436703849547
            ],
            [
              126.97807194109602,
              37.294309645344455
            ],
            [
              126.97806255024638,
              37.29426727667868
            ],
            [
              126.97804774583025,
              37.29420048359414
            ],
            [
              126.97802261826439,
              37.2942040513096
            ],
            [
              126.9780246033405,
              37.294212981148995
            ],
            [
              126.97802831707884,
              37.29422863950786
            ],
            [
              126.9780424406308,
              37.294292360716675
            ],
            [
              126.9780478865829,
              37.29431693119639
            ],
            [
              126.97805718477068,
              37.2943588817735
            ],
            [
              126.97805473410395,
              37.29438514414597
            ],
            [
              126.97808640754073,
              37.29452804477198
            ],
            [
              126.97809231754177,
              37.29454037436286
            ],
            [
              126.97809736185758,
              37.29456313270685
            ],
            [
              126.97810238903187,
              37.29458581370708
            ],
            [
              126.97810699509564,
              37.29460659478543
            ],
            [
              126.97812240765991,
              37.294676131277015
            ]
          ]
        ]
      }
    },
    {
      "type": "Feature",
      "properties": {
        "indoor": "corridor",
        "level": "4"
      },
      "geometry": {
        "type": "Polygon",
        "coordinates": [
          [
            [
              126.97802778039043,
              37.29459627932416
            ],
            [
              126.97802275321614,
              37.29457359832708
            ],
            [
              126.97809736185758,
              37.29456313270685
            ],
            [
              126.97810238903187,
              37.29458581370708
            ],
            [
              126.97802778039043,
              37.29459627932416
            ]
          ]
        ]
      }
    },
    {
      "type": "Feature",
      "properties": {
        "indoor": "corridor",
        "level": "4"
      },
      "geometry": {
        "type": "Polygon",
        "coordinates": [
          [
            [
              126.97801770890032,
              37.294550839986265
            ],
            [
              126.97809231754177,
              37.29454037436286
            ],
            [
              126.97808640754073,
              37.29452804477198
            ],
            [
              126.97803365358129,
              37.294535444761586
            ],
            [
              126.97801770890032,
              37.294550839986265
            ]
          ]
        ]
      }
    },
    {
      "type": "Feature",
      "properties": {
        "indoor": "corridor",
        "level": "4"
      },
      "geometry": {
        "type": "Polygon",
        "coordinates": [
          [
            [
              126.97800198014448,
              37.29439254414963
            ],
            [
              126.97798111554334,
              37.29436955230423
            ],
            [
              126.97805718477068,
              37.2943588817735
            ],
            [
              126.97805473410395,
              37.29438514414597
            ],
            [
              126.97800198014448,
              37.29439254414963
            ]
          ]
        ]
      }
    }
  ]
}