{
  "type": "FeatureCollection",
  "features": [
    {
      "type": "Feature",
      "properties": {
        "indoor": "room",
        "level": "8",
        "ref": "",
        "name": "",
        "room_type": "",
        "_idx": 1,
        "_centroid": [
          126.9779306,
          37.2952105
        ],
        "_area_m2": 46.2
      },
      "geometry": {
        "type": "Polygon",
        "coordinates": [
          [
            [
              126.97789352466977,
              37.295178540412664
            ],
            [
              126.97788558198454,
              37.29524515166569
            ],
            [
              126.97796889726581,
              37.29523368513244
            ],
            [
              126.97797429319827,
              37.295184635343695
            ],
            [
              126.97789352466977,
              37.295178540412664
            ]
          ]
        ]
      }
    },
    {
      "type": "Feature",
      "properties": {
        "indoor": "room",
        "level": "8",
        "ref": "",
        "name": "",
        "room_type": "",
        "_idx": 2,
        "_centroid": [
          126.978026,
          37.2952025
        ],
        "_area_m2": 40.3
      },
      "geometry": {
        "type": "Polygon",
        "coordinates": [
          [
            [
              126.97799807753816,
              37.29516962501512
            ],
            [
              126.97799327579777,
              37.29521841998839
            ],
            [
              126.97799208615584,
              37.29523050904726
            ],
            [
              126.97807098423215,
              37.295219441829346
            ],
            [
              126.97807573159963,
              37.29517446110987
            ],
            [
              126.97799807753816,
              37.29516962501512
            ]
          ]
        ]
      }
    },
    {
      "type": "Feature",
      "properties": {
        "indoor": "room",
        "level": "8",
        "ref": "",
        "name": "",
        "room_type": "",
        "_idx": 3,
        "_centroid": [
          126.9780379,
          37.2951621
        ],
        "_area_m2": 15.1
      },
      "geometry": {
        "type": "Polygon",
        "coordinates": [
          [
            [
              126.97799807753816,
              37.29516962501512
            ],
            [
              126.97807573159963,
              37.29517446110987
            ],
            [
              126.97807779295965,
              37.295154929978764
            ],
            [
              126.97800005604587,
              37.29514951953993
            ],
            [
              126.97799807753816,
              37.29516962501512
            ]
          ]
        ]
      }
    },
    {
      "type": "Feature",
      "properties": {
        "indoor": "room",
        "level": "8",
        "ref": "",
        "name": "",
        "room_type": "",
        "_idx": 4,
        "_centroid": [
          126.9779384,
          37.2951426
        ],
        "_area_m2": 61.8
      },
      "geometry": {
        "type": "Polygon",
        "coordinates": [
          [
            [
              126.97789352466977,
              37.295178540412664
            ],
            [
              126.97797429319827,
              37.295184635343695
            ],
            [
              126.97798287582387,
              37.29510661806387
            ],
            [
              126.97790282095157,
              37.29510057698021
            ],
            [
              126.97789352466977,
              37.295178540412664
            ]
          ]
        ]
      }
    },
    {
      "type": "Feature",
      "properties": {
        "indoor": "room",
        "level": "8",
        "ref": "",
        "name": "",
        "room_type": "",
        "_idx": 5,
        "_centroid": [
          126.9780427,
          37.2951217
        ],
        "_area_m2": 46.2
      },
      "geometry": {
        "type": "Polygon",
        "coordinates": [
          [
            [
              126.97800005604587,
              37.29514951953993
            ],
            [
              126.97807779295965,
              37.29515492997876
            ],
            [
              126.9780843956196,
              37.29509379093663
            ],
            [
              126.97800858784396,
              37.29508851475686
            ],
            [
              126.97800005604587,
              37.29514951953993
            ]
          ]
        ]
      }
    },
    {
      "type": "Feature",
      "properties": {
        "indoor": "room",
        "level": "8",
        "ref": "",
        "name": "",
        "room_type": "",
        "_idx": 6,
        "_centroid": [
          126.9780485,
          37.2950725
        ],
        "_area_m2": 27.8
      },
      "geometry": {
        "type": "Polygon",
        "coordinates": [
          [
            [
              126.97801268504048,
              37.2950512593606
            ],
            [
              126.97800858784396,
              37.29508851475686
            ],
            [
              126.97808439561962,
              37.29509379093664
            ],
            [
              126.97808849281499,
              37.29505653554275
            ],
            [
              126.97801268504048,
              37.2950512593606
            ]
          ]
        ]
      }
    },
    {
      "type": "Feature",
      "properties": {
        "indoor": "room",
        "level": "8",
        "ref": "",
        "name": "",
        "room_type": "",
        "_idx": 7,
        "_centroid": [
          126.977949,
          37.2950495
        ],
        "_area_m2": 84.8
      },
      "geometry": {
        "type": "Polygon",
        "coordinates": [
          [
            [
              126.97790282095157,
              37.29510057698021
            ],
            [
              126.97798287582387,
              37.29510661806387
            ],
            [
              126.97799478203913,
              37.2949983888843
            ],
            [
              126.97791571718369,
              37.29499242250051
            ],
            [
              126.97790282095157,
              37.29510057698021
            ]
          ]
        ]
      }
    },
    {
      "type": "Feature",
      "properties": {
        "indoor": "room",
        "level": "8",
        "ref": "",
        "name": "",
        "room_type": "",
        "_idx": 8,
        "_centroid": [
          126.978053,
          37.2950317
        ],
        "_area_m2": 33.1
      },
      "geometry": {
        "type": "Polygon",
        "coordinates": [
          [
            [
              126.97801268504048,
              37.2950512593606
            ],
            [
              126.97808849281499,
              37.29505653554275
            ],
            [
              126.97809336554235,
              37.295012228312785
            ],
            [
              126.97801755776668,
              37.295006952127295
            ],
            [
              126.97801268504048,
              37.2950512593606
            ]
          ]
        ]
      }
    },
    {
      "type": "Feature",
      "properties": {
        "indoor": "room",
        "level": "8",
        "ref": "",
        "name": "",
        "room_type": "",
        "_idx": 9,
        "_centroid": [
          126.9780576,
          37.294993
        ],
        "_area_m2": 24.8
      },
      "geometry": {
        "type": "Polygon",
        "coordinates": [
          [
            [
              126.97802171244295,
              37.29497340018574
            ],
            [
              126.97801755776668,
              37.295006952127295
            ],
            [
              126.97809336554235,
              37.29501222831278
            ],
            [
              126.97809763933964,
              37.294979350289225
            ],
            [
              126.97802171244295,
              37.29497340018574
            ]
          ]
        ]
      }
    },
    {
      "type": "Feature",
      "properties": {
        "indoor": "room",
        "level": "8",
        "ref": "",
        "name": "",
        "room_type": "",
        "_idx": 10,
        "_centroid": [
          126.9779587,
          37.294965
        ],
        "_area_m2": 47.2
      },
      "geometry": {
        "type": "Polygon",
        "coordinates": [
          [
            [
              126.97791571718369,
              37.29499242250051
            ],
            [
              126.97799478203913,
              37.2949983888843
            ],
            [
              126.97800147582585,
              37.294937541416886
            ],
            [
              126.97792296756724,
              37.294931617030144
            ],
            [
              126.97791571718369,
              37.29499242250051
            ]
          ]
        ]
      }
    },
    {
      "type": "Feature",
      "properties": {
        "indoor": "room",
        "level": "8",
        "ref": "",
        "name": "",
        "room_type": "",
        "_idx": 11,
        "_centroid": [
          126.9780616,
          37.2949615
        ],
        "_area_m2": 22.3
      },
      "geometry": {
        "type": "Polygon",
        "coordinates": [
          [
            [
              126.97802171244295,
              37.29497340018574
            ],
            [
              126.97809763933964,
              37.294979350289225
            ],
            [
              126.97810150446071,
              37.29494961618323
            ],
            [
              126.97802539612005,
              37.29494365185829
            ],
            [
              126.97802171244295,
              37.29497340018574
            ]
          ]
        ]
      }
    },
    {
      "type": "Feature",
      "properties": {
        "indoor": "room",
        "level": "8",
        "ref": "",
        "name": "",
        "room_type": "",
        "_idx": 12,
        "_centroid": [
          126.9780653,
          37.2949317
        ],
        "_area_m2": 22.4
      },
      "geometry": {
        "type": "Polygon",
        "coordinates": [
          [
            [
              126.97802539612005,
              37.29494365185829
            ],
            [
              126.97810150446071,
              37.29494961618323
            ],
            [
              126.97810537921923,
              37.2949198079371
            ],
            [
              126.97802908898215,
              37.29491382935527
            ],
            [
              126.97802539612005,
              37.29494365185829
            ]
          ]
        ]
      }
    },
    {
      "type": "Feature",
      "properties": {
        "indoor": "room",
        "level": "8",
        "ref": "",
        "name": "",
        "room_type": "",
        "_idx": 13,
        "_centroid": [
          126.9780689,
          37.2949037
        ],
        "_area_m2": 19.8
      },
      "geometry": {
        "type": "Polygon",
        "coordinates": [
          [
            [
              126.97802908898215,
              37.29491382935527
            ],
            [
              126.97810537921923,
              37.2949198079371
            ],
            [
              126.97810879867545,
              37.294893502299644
            ],
            [
              126.97803234791566,
              37.294887511136146
            ],
            [
              126.97802908898215,
              37.29491382935527
            ]
          ]
        ]
      }
    },
    {
      "type": "Feature",
      "properties": {
        "indoor": "room",
        "level": "8",
        "ref": "",
        "name": "",
        "room_type": "",
        "_idx": 14,
        "_centroid": [
          126.9779659,
          37.2949028
        ],
        "_area_m2": 49.0
      },
      "geometry": {
        "type": "Polygon",
        "coordinates": [
          [
            [
              126.97792296756724,
              37.294931617030144
            ],
            [
              126.97800147582585,
              37.294937541416886
            ],
            [
              126.97800847809184,
              37.29487388982929
            ],
            [
              126.97793055208048,
              37.29486800937509
            ],
            [
              126.97792296756724,
              37.294931617030144
            ]
          ]
        ]
      }
    },
    {
      "type": "Feature",
      "properties": {
        "indoor": "room",
        "level": "8",
        "ref": "",
        "name": "",
        "room_type": "",
        "_idx": 15,
        "_centroid": [
          126.9780724,
          37.294876
        ],
        "_area_m2": 21.9
      },
      "geometry": {
        "type": "Polygon",
        "coordinates": [
          [
            [
              126.97803234791566,
              37.294887511136146
            ],
            [
              126.97810879867545,
              37.294893502299644
            ],
            [
              126.9781125734934,
              37.29486446288917
            ],
            [
              126.97803594552882,
              37.29485845783648
            ],
            [
              126.97803234791566,
              37.294887511136146
            ]
          ]
        ]
      }
    },
    {
      "type": "Feature",
      "properties": {
        "indoor": "room",
        "level": "8",
        "ref": "",
        "name": "",
        "room_type": "",
        "_idx": 16,
        "_centroid": [
          126.9780765,
          37.2948438
        ],
        "_area_m2": 26.8
      },
      "geometry": {
        "type": "Polygon",
        "coordinates": [
          [
            [
              126.97803594552882,
              37.29485845783648
            ],
            [
              126.9781125734934,
              37.29486446288917
            ],
            [
              126.97811715169424,
              37.294829243110485
            ],
            [
              126.97804034554011,
              37.294822924597995
            ],
            [
              126.97803594552882,
              37.29485845783648
            ]
          ]
        ]
      }
    },
    {
      "type": "Feature",
      "properties": {
        "indoor": "room",
        "level": "8",
        "ref": "",
        "name": "",
        "room_type": "",
        "_idx": 17,
        "_centroid": [
          126.977973,
          37.2948408
        ],
        "_area_m2": 46.2
      },
      "geometry": {
        "type": "Polygon",
        "coordinates": [
          [
            [
              126.97793055208048,
              37.29486800937509
            ],
            [
              126.97800847809184,
              37.29487388982929
            ],
            [
              126.97801512280114,
              37.294813488482546
            ],
            [
              126.97793774930574,
              37.294807649717626
            ],
            [
              126.97793055208048,
              37.29486800937509
            ]
          ]
        ]
      }
    },
    {
      "type": "Feature",
      "properties": {
        "indoor": "room",
        "level": "8",
        "ref": "",
        "name": "",
        "room_type": "",
        "_idx": 18,
        "_centroid": [
          126.9780806,
          37.294809
        ],
        "_area_m2": 26.5
      },
      "geometry": {
        "type": "Polygon",
        "coordinates": [
          [
            [
              126.97812100466793,
              37.29479420828255
            ],
            [
              126.97804407319107,
              37.29478885387247
            ],
            [
              126.97804022021683,
              37.294823888702865
            ],
            [
              126.97811715169424,
              37.2948292431105
            ],
            [
              126.97812100466793,
              37.29479420828255
            ]
          ]
        ]
      }
    },
    {
      "type": "Feature",
      "properties": {
        "indoor": "room",
        "level": "8",
        "ref": "",
        "name": "",
        "room_type": "",
        "_idx": 19,
        "_centroid": [
          126.9779795,
          37.2947837
        ],
        "_area_m2": 40.8
      },
      "geometry": {
        "type": "Polygon",
        "coordinates": [
          [
            [
              126.97793774930574,
              37.294807649717626
            ],
            [
              126.97801512280114,
              37.294813488482546
            ],
            [
              126.97802102881825,
              37.29475980195225
            ],
            [
              126.97794414641561,
              37.29475400024208
            ],
            [
              126.97793774930574,
              37.294807649717626
            ]
          ]
        ]
      }
    },
    {
      "type": "Feature",
      "properties": {
        "indoor": "room",
        "level": "8",
        "ref": "",
        "name": "",
        "room_type": "",
        "_idx": 20,
        "_centroid": [
          126.9780838,
          37.2947802
        ],
        "_area_m2": 17.2
      },
      "geometry": {
        "type": "Polygon",
        "coordinates": [
          [
            [
              126.97804407319107,
              37.29478885387247
            ],
            [
              126.97812100466793,
              37.29479420828255
            ],
            [
              126.97812350635934,
              37.29477146057244
            ],
            [
              126.97804657488194,
              37.294766106160694
            ],
            [
              126.97804407319107,
              37.29478885387247
            ]
          ]
        ]
      }
    },
    {
      "type": "Feature",
      "properties": {
        "indoor": "room",
        "level": "8",
        "ref": "",
        "name": "",
        "room_type": "",
        "_idx": 21,
        "_centroid": [
          126.9780879,
          37.2947257
        ],
        "_area_m2": 65.8
      },
      "geometry": {
        "type": "Polygon",
        "coordinates": [
          [
            [
              126.97804657488192,
              37.294766106160694
            ],
            [
              126.97805523439898,
              37.294727457748095
            ],
            [
              126.97804779901847,
              37.294686596881505
            ],
            [
              126.97812240765991,
              37.294676131277015
            ],
            [
              126.97813200831511,
              37.29472670139026
            ],
            [
              126.97812350635934,
              37.29477146057244
            ],
            [
              126.97804657488192,
              37.294766106160694
            ]
          ]
        ]
      }
    },
    {
      "type": "Feature",
      "properties": {
        "indoor": "room",
        "level": "8",
        "ref": "",
        "name": "",
        "room_type": "",
        "_idx": 22,
        "_centroid": [
          126.9779925,
          37.2947155
        ],
        "_area_m2": 49.9
      },
      "geometry": {
        "type": "Polygon",
        "coordinates": [
          [
            [
              126.97794414641561,
              37.29475400024208
            ],
            [
              126.97795950451392,
              37.294684759972164
            ],
            [
              126.97796239290099,
              37.294697791464245
            ],
            [
              126.97803160835485,
              37.294688082381796
            ],
            [
              126.9780361110917,
              37.29470839725486
            ],
            [
              126.97802102881825,
              37.29475980195225
            ],
            [
              126.97794414641561,
              37.29475400024208
            ]
          ]
        ]
      }
    },
    {
      "type": "Feature",
      "properties": {
        "indoor": "room",
        "level": "8",
        "ref": "",
        "name": "",
        "room_type": "",
        "_idx": 23,
        "_centroid": [
          126.9779887,
          37.2946555
        ],
        "_area_m2": 52.2
      },
      "geometry": {
        "type": "Polygon",
        "coordinates": [
          [
            [
              126.97803160835485,
              37.294688082381796
            ],
            [
              126.97796239290099,
              37.294697791464245
            ],
            [
              126.97794578564016,
              37.29462286490809
            ],
            [
              126.97801500109404,
              37.29461315581597
            ],
            [
              126.97803160835485,
              37.294688082381796
            ]
          ]
        ]
      }
    },
    {
      "type": "Feature",
      "properties": {
        "indoor": "room",
        "level": "8",
        "ref": "",
        "name": "",
        "room_type": "",
        "_idx": 24,
        "_centroid": [
          126.9780774,
          37.2946448
        ],
        "_area_m2": 55.2
      },
      "geometry": {
        "type": "Polygon",
        "coordinates": [
          [
            [
              126.9781070414944,
              37.29460307329424
            ],
            [
              126.97803232350596,
              37.294613019036674
            ],
            [
              126.97804779901847,
              37.294686596881505
            ],
            [
              126.97812251700401,
              37.294676651149295
            ],
            [
              126.9781070414944,
              37.29460307329424
            ]
          ]
        ]
      }
    },
    {
      "type": "Feature",
      "properties": {
        "indoor": "room",
        "level": "8",
        "ref": "",
        "name": "",
        "room_type": "",
        "_idx": 25,
        "_centroid": [
          126.9780632,
          37.2945983
        ],
        "_area_m2": 13.7
      },
      "geometry": {
        "type": "Polygon",
        "coordinates": [
          [
            [
              126.97809850236223,
              37.294604209941724
            ],
            [
              126.97809415580564,
              37.294583544387415
            ],
            [
              126.97802797695277,
              37.294592353484205
            ],
            [
              126.97803232350596,
              37.294613019036674
            ],
            [
              126.97809850236223,
              37.294604209941724
            ]
          ]
        ]
      }
    },
    {
      "type": "Feature",
      "properties": {
        "indoor": "room",
        "level": "8",
        "ref": "",
        "name": "",
        "room_type": "",
        "_idx": 26,
        "_centroid": [
          126.9779739,
          37.2945888
        ],
        "_area_m2": 40.7
      },
      "geometry": {
        "type": "Polygon",
        "coordinates": [
          [
            [
              126.97801500109404,
              37.29461315581597
            ],
            [
              126.97794578564016,
              37.29462286490809
            ],
            [
              126.97793283149234,
              37.29456441995699
            ],
            [
              126.9780020469462,
              37.294554710857334
            ],
            [
              126.97801500109404,
              37.29461315581597
            ]
          ]
        ]
      }
    },
    {
      "type": "Feature",
      "properties": {
        "indoor": "room",
        "level": "8",
        "ref": "",
        "name": "",
        "room_type": "",
        "_idx": 27,
        "_centroid": [
          126.9780547,
          37.2945579
        ],
        "_area_m2": 40.0
      },
      "geometry": {
        "type": "Polygon",
        "coordinates": [
          [
            [
              126.97802797695277,
              37.294592353484205
            ],
            [
              126.97809415580564,
              37.294583544387415
            ],
            [
              126.97808150057705,
              37.29452337550455
            ],
            [
              126.97801532172755,
              37.294532184607974
            ],
            [
              126.97802797695277,
              37.294592353484205
            ]
          ]
        ]
      }
    },
    {
      "type": "Feature",
      "properties": {
        "indoor": "room",
        "level": "8",
        "ref": "",
        "name": "",
        "room_type": "",
        "_idx": 28,
        "_centroid": [
          126.978065,
          37.294539
        ],
        "_area_m2": 38.1
      },
      "geometry": {
        "type": "Polygon",
        "coordinates": [
          [
            [
              126.97801532172755,
              37.294532184607974
            ],
            [
              126.97808150057705,
              37.29452337550455
            ],
            [
              126.97809850236223,
              37.294604209941724
            ],
            [
              126.9781070414944,
              37.29460307329424
            ],
            [
              126.97808131301885,
              37.29448074801435
            ],
            [
              126.97800659502555,
              37.294490693773625
            ],
            [
              126.97801532172755,
              37.294532184607974
            ]
          ]
        ]
      }
    },
    {
      "type": "Feature",
      "properties": {
        "indoor": "room",
        "level": "8",
        "ref": "",
        "name": "",
        "room_type": "",
        "_idx": 29,
        "_centroid": [
          126.9779608,
          37.2945294
        ],
        "_area_m2": 42.1
      },
      "geometry": {
        "type": "Polygon",
        "coordinates": [
          [
            [
              126.97793283149234,
              37.294564419956984
            ],
            [
              126.9780020469462,
              37.294554710857334
            ],
            [
              126.97798867491561,
              37.29449438049811
            ],
            [
              126.97791945947264,
              37.29450408960392
            ],
            [
              126.97793283149234,
              37.294564419956984
            ]
          ]
        ]
      }
    },
    {
      "type": "Feature",
      "properties": {
        "indoor": "room",
        "level": "8",
        "ref": "",
        "name": "",
        "room_type": "",
        "_idx": 30,
        "_centroid": [
          126.9779506,
          37.2944836
        ],
        "_area_m2": 21.8
      },
      "geometry": {
        "type": "Polygon",
        "coordinates": [
          [
            [
              126.97791945947264,
              37.29450408960392
            ],
            [
              126.97798867491561,
              37.29449438049811
            ],
            [
              126.97798173657172,
              37.29446306641928
            ],
            [
              126.97791251413314,
              37.29447275441337
            ],
            [
              126.97791945947264,
              37.29450408960392
            ]
          ]
        ]
      }
    },
    {
      "type": "Feature",
      "properties": {
        "indoor": "room",
        "level": "8",
        "ref": "",
        "name": "",
        "room_type": "",
        "_idx": 31,
        "_centroid": [
          126.9780372,
          37.2944535
        ],
        "_area_m2": 48.4
      },
      "geometry": {
        "type": "Polygon",
        "coordinates": [
          [
            [
              126.9780677434731,
              37.29441623200839
            ],
            [
              126.97799302547723,
              37.29442617777652
            ],
            [
              126.97800659502555,
              37.294490693773625
            ],
            [
              126.97808131301885,
              37.29448074801435
            ],
            [
              126.9780677434731,
              37.29441623200839
            ]
          ]
        ]
      }
    },
    {
      "type": "Feature",
      "properties": {
        "indoor": "room",
        "level": "8",
        "ref": "",
        "name": "",
        "room_type": "",
        "_idx": 32,
        "_centroid": [
          126.9779438,
          37.294453
        ],
        "_area_m2": 20.8
      },
      "geometry": {
        "type": "Polygon",
        "coordinates": [
          [
            [
              126.97797512145816,
              37.29443322434912
            ],
            [
              126.9779059044655,
              37.294442933682085
            ],
            [
              126.97791251413314,
              37.29447275441337
            ],
            [
              126.97798173657172,
              37.29446306641928
            ],
            [
              126.97797512145816,
              37.29443322434912
            ]
          ]
        ]
      }
    },
    {
      "type": "Feature",
      "properties": {
        "indoor": "room",
        "level": "8",
        "ref": "",
        "name": "",
        "room_type": "",
        "_idx": 33,
        "_centroid": [
          126.9779368,
          37.2944211
        ],
        "_area_m2": 23.6
      },
      "geometry": {
        "type": "Polygon",
        "coordinates": [
          [
            [
              126.9779059044655,
              37.294442933682085
            ],
            [
              126.97797512145816,
              37.29443322434912
            ],
            [
              126.97796761108319,
              37.29439934357978
            ],
            [
              126.97789839488476,
              37.29440905280553
            ],
            [
              126.9779059044655,
              37.294442933682085
            ]
          ]
        ]
      }
    },
    {
      "type": "Feature",
      "properties": {
        "indoor": "room",
        "level": "8",
        "ref": "",
        "name": "",
        "room_type": "",
        "_idx": 34,
        "_centroid": [
          126.9780274,
          37.2944073
        ],
        "_area_m2": 20.9
      },
      "geometry": {
        "type": "Polygon",
        "coordinates": [
          [
            [
              126.9780618744497,
              37.29438832790931
            ],
            [
              126.97798715645273,
              37.29439827368137
            ],
            [
              126.97799302547723,
              37.29442617777652
            ],
            [
              126.9780677434731,
              37.29441623200839
            ],
            [
              126.9780618744497,
              37.29438832790931
            ]
          ]
        ]
      }
    },
    {
      "type": "Feature",
      "properties": {
        "indoor": "room",
        "level": "8",
        "ref": "",
        "name": "",
        "room_type": "",
        "_idx": 35,
        "_centroid": [
          126.9779295,
          37.2943883
        ],
        "_area_m2": 22.1
      },
      "geometry": {
        "type": "Polygon",
        "coordinates": [
          [
            [
              126.97789839488476,
              37.29440905280553
            ],
            [
              126.97796761108319,
              37.29439934357978
            ],
            [
              126.97796056747262,
              37.294367568475856
            ],
            [
              126.97789135201874,
              37.29437727759966
            ],
            [
              126.97789839488476,
              37.29440905280553
            ]
          ]
        ]
      }
    },
    {
      "type": "Feature",
      "properties": {
        "indoor": "room",
        "level": "8",
        "ref": "",
        "name": "",
        "room_type": "",
        "_idx": 36,
        "_centroid": [
          126.9780215,
          37.2943788
        ],
        "_area_m2": 21.7
      },
      "geometry": {
        "type": "Polygon",
        "coordinates": [
          [
            [
              126.97798111554334,
              37.294369552304225
            ],
            [
              126.97798715645273,
              37.29439827368137
            ],
            [
              126.9780618744497,
              37.29438832790931
            ],
            [
              126.97805572204416,
              37.29435907647826
            ],
            [
              126.97798111554334,
              37.294369552304225
            ]
          ]
        ]
      }
    },
    {
      "type": "Feature",
      "properties": {
        "indoor": "room",
        "level": "8",
        "ref": "",
        "name": "",
        "room_type": "",
        "_idx": 37,
        "_centroid": [
          126.9780168,
          37.2943536
        ],
        "_area_m2": 16.3
      },
      "geometry": {
        "type": "Polygon",
        "coordinates": [
          [
            [
              126.97805248345627,
              37.294337670884836
            ],
            [
              126.97797641422895,
              37.2943483414186
            ],
            [
              126.97798111554334,
              37.29436955230423
            ],
            [
              126.97805718477068,
              37.2943588817735
            ],
            [
              126.97805248345627,
              37.294337670884836
            ]
          ]
        ]
      }
    },
    {
      "type": "Feature",
      "properties": {
        "indoor": "room",
        "level": "8",
        "ref": "",
        "name": "",
        "room_type": "",
        "_idx": 38,
        "_centroid": [
          126.9780122,
          37.2943326
        ],
        "_area_m2": 15.9
      },
      "geometry": {
        "type": "Polygon",
        "coordinates": [
          [
            [
              126.97797641422895,
              37.2943483414186
            ],
            [
              126.97805248345627,
              37.294337670884836
            ],
            [
              126.9780478865829,
              37.29431693119639
            ],
            [
              126.97797181735558,
              37.294327601733094
            ],
            [
              126.97797641422895,
              37.2943483414186
            ]
          ]
        ]
      }
    },
    {
      "type": "Feature",
      "properties": {
        "indoor": "room",
        "level": "8",
        "ref": "",
        "name": "",
        "room_type": "",
        "_idx": 39,
        "_centroid": [
          126.978008,
          37.2943137
        ],
        "_area_m2": 13.1
      },
      "geometry": {
        "type": "Polygon",
        "coordinates": [
          [
            [
              126.97797181735558,
              37.294327601733094
            ],
            [
              126.9780478865829,
              37.29431693119639
            ],
            [
              126.9780440066059,
              37.2942994259181
            ],
            [
              126.977968117521,
              37.294310909207894
            ],
            [
              126.97797181735558,
              37.294327601733094
            ]
          ]
        ]
      }
    },
    {
      "type": "Feature",
      "properties": {
        "indoor": "room",
        "level": "8",
        "ref": "",
        "name": "",
        "room_type": "",
        "_idx": 40,
        "_centroid": [
          126.9779829,
          37.2943105
        ],
        "_area_m2": 285.5
      },
      "geometry": {
        "type": "Polygon",
        "coordinates": [
          [
            [
              126.97796056747262,
              37.294367568475856
            ],
            [
              126.97789135201874,
              37.294377277599665
            ],
            [
              126.97785045060444,
              37.29419274280839
            ],
            [
              126.97802641318381,
              37.294168059782635
            ],
            [
              126.97806818639214,
              37.294356527901286
            ],
            [
              126.97805701051509,
              37.29435809558581
            ],
            [
              126.97804400660526,
              37.294299425918176
            ],
            [
              126.97796793737797,
              37.294310096457345
            ],
            [
              126.9779799893356,
              37.294364471201405
            ],
            [
              126.97796056747262,
              37.294367568475856
            ]
          ]
        ]
      }
    }
  ]
}