{
  "type": "FeatureCollection",
  "features": [
    {
      "type": "Feature",
      "properties": {
        "indoor": "corridor",
        "level": "3"
      },
      "geometry": {
        "type": "Polygon",
        "coordinates": [
          [
            [
              126.97799208615584,
              37.29523050904726
            ],
            [
              126.97796889726581,
              37.29523368513244
            ],
            [
              126.97797301872221,
              37.295191101408946
            ],
            [
              126.97798041737191,
              37.295129116286574
            ],
            [
              126.97799509793707,
              37.29500277758044
            ],
            [
              126.9780085893982,
              37.294880100871474
            ],
            [
              126.97802188073597,
              37.29476438745418
            ],
            [
              126.97804657488192,
              37.294766106160694
            ],
            [
              126.97804407319107,
              37.29478885387247
            ],
            [
              126.97804022021683,
              37.29482388870286
            ],
            [
              126.97803591408312,
              37.29484003966239
            ],
            [
              126.97803114033657,
              37.294883446979945
            ],
            [
              126.97802425311706,
              37.29494607190358
            ],
            [
              126.97801755776668,
              37.295006952127295
            ],
            [
              126.97800858784396,
              37.29508851475686
            ],
            [
              126.97800005604587,
              37.29514951953993
            ],
            [
              126.97799208615584,
              37.29523050904726
            ]
          ]
        ]
      }
    },
    {
      "type": "Feature",
      "properties": {
        "indoor": "corridor",
        "level": "3"
      },
      "geometry": {
        "type": "Polygon",
        "coordinates": [
          [
            [
              126.97803591408312,
              37.29484003966239
            ],
            [
              126.97804022021683,
              37.29482388870286
            ],
            [
              126.97811715169424,
              37.29482924311049
            ],
            [
              126.97813367686211,
              37.2948288584832
            ],
            [
              126.97812676774684,
              37.29489168254888
            ],
            [
              126.97812005652557,
              37.294952707129134
            ],
            [
              126.97811288917514,
              37.29501787919929
            ],
            [
              126.97810609117903,
              37.295079692711674
            ],
            [
              126.97809846031124,
              37.2951490793841
            ],
            [
              126.97807866078315,
              37.2951468941447
            ],
            [
              126.9780843956196,
              37.29509379093663
            ],
            [
              126.97809336554235,
              37.29501222831278
            ],
            [
              126.97810006089274,
              37.29495134809334
            ],
            [
              126.97810694811221,
              37.294888723174076
            ],
            [
              126.97811172185874,
              37.29484531585958
            ],
            [
              126.97803591408312,
              37.29484003966239
            ]
          ]
        ]
      }
    },
    {
      "type": "Feature",
      "properties": {
        "indoor": "corridor",
        "level": "3"
      },
      "geometry": {
        "type": "Polygon",
        "coordinates": [
          [
            [
              126.97813367686211,
              37.2948288584832
            ],
            [
              126.97811715169424,
              37.29482924311049
            ],
            [
              126.97812350635934,
              37.29477146057244
            ],
            [
              126.97812928433926,
              37.29471892175539
            ],
            [
              126.97810582773157,
              37.29471728918021
            ],
            [
              126.9781115670551,
              37.29467765192511
            ],
            [
              126.97812240765991,
              37.294676131277015
            ],
            [
              126.97815197642281,
              37.294670739499715
            ],
            [
              126.9781698372703,
              37.29466823409832
            ],
            [
              126.9781632510819,
              37.294721301637296
            ],
            [
              126.97814564027684,
              37.29472007592884
            ],
            [
              126.97813910962887,
              37.29477945870677
            ],
            [
              126.97813367686211,
              37.2948288584832
            ]
          ]
        ]
      }
    },
    {
      "type": "Feature",
      "properties": {
        "indoor": "corridor",
        "level": "3"
      },
      "geometry": {
        "type": "Polygon",
        "coordinates": [
          [
            [
              126.97815197642281,
              37.294670739499715
            ],
            [
              126.97812240765991,
              37.294676131277015
            ],
            [
              126.97810699509564,
              37.29460659478543
            ],
            [
              126.97810238903187,
              37.29458581370708
            ],
            [
              126.97809231754177,
              37.29454037436286
            ],
            [
              126.97808640754073,
              37.29452804477198
            ],
            [
              126.97805473410395,
              37.29438514414597
            ],
            [
              126.97806275630947,
              37.29438401883984
            ],
            [
              126.97805718477068,
              37.2943588817735
            ],
            [
              126.97805248345627,
              37.294337670884836
            ],
            [
              126.9780478865829,
              37.29431693119639
            ],
            [
              126.9780424406308,
              37.294292360716675
            ],
            [
              126.97802831707884,
              37.29422863950786
            ],
            [
              126.9780246033405,
              37.294212981148995
            ],
            [
              126.97801428159437,
              37.29416641249829
            ],
            [
              126.97803935866554,
              37.29416264319513
            ],
            [
              126.97805398305917,
              37.294228624105855
            ],
            [
              126.97807247848549,
              37.294312069880974
            ],
            [
              126.97808516202551,
              37.29436929412778
            ],
            [
              126.97810755662887,
              37.29447033161075
            ],
            [
              126.97812041637879,
              37.2945283507402
            ],
            [
              126.978136844428,
              37.29460246884382
            ],
            [
              126.97815197642281,
              37.294670739499715
            ]
          ]
        ]
      }
    },
    {
      "type": "Feature",
      "properties": {
        "indoor": "corridor",
        "level": "3"
      },
      "geometry": {
        "type": "Polygon",
        "coordinates": [
          [
            [
              126.97809231754177,
              37.29454037436286
            ],
            [
              126.97808640754073,
              37.29452804477198
            ],
            [
              126.97803365358129,
              37.294535444761586
            ],
            [
              126.97800198014448,
              37.29439254414963
            ],
            [
              126.97798668708214,
              37.294394689367
            ],
            [
              126.97798111554334,
              37.29436955230423
            ],
            [
              126.97797641422895,
              37.2943483414186
            ],
            [
              126.97797181735558,
              37.294327601733094
            ],
            [
              126.97796637140348,
              37.29430303125686
            ],
            [
              126.9779522478515,
              37.294239310057065
            ],
            [
              126.97802831707884,
              37.29422863950786
            ],
            [
              126.9780246033405,
              37.294212981148995
            ],
            [
              126.97794841753405,
              37.294223668053476
            ],
            [
              126.9779380957879,
              37.29417709940939
            ],
            [
              126.97791874906294,
              37.29417889644971
            ],
            [
              126.97803160835485,
              37.294688082381796
            ],
            [
              126.97804779901847,
              37.294686596881505
            ],
            [
              126.9780323864542,
              37.294617060399595
            ],
            [
              126.97802778039043,
              37.29459627932416
            ],
            [
              126.97801770890032,
              37.294550839986265
            ],
            [
              126.97809231754177,
              37.29454037436286
            ]
          ]
        ]
      }
    }
  ]
}