{
  "type": "FeatureCollection",
  "features": [
    {
      "type": "Feature",
      "properties": {
        "indoor": "corridor",
        "level": "2"
      },
      "geometry": {
        "type": "Polygon",
        "coordinates": [
          [
            [
              126.97796889726581,
              37.29523368513244
            ],
            [
              126.97799208615584,
              37.29523050904726
            ],
            [
              126.97800005604587,
              37.29514951953993
            ],
            [
              126.97800858784396,
              37.29508851475686
            ],
            [
              126.97801755776668,
              37.295006952127295
            ],
            [
              126.97799509793707,
              37.29500277758044
            ],
            [
              126.97798771120604,
              37.2950669808511
            ],
            [
              126.97798041737191,
              37.295129116286574
            ],
            [
              126.97797301872221,
              37.295191101408946
            ],
            [
              126.97796889726581,
              37.29523368513244
            ]
          ]
        ]
      }
    },
    {
      "type": "Feature",
      "properties": {
        "indoor": "corridor",
        "level": "2"
      },
      "geometry": {
        "type": "Polygon",
        "coordinates": [
          [
            [
              126.97809846031124,
              37.2951490793841
            ],
            [
              126.97807859386837,
              37.29514751375932
            ],
            [
              126.9780843956196,
              37.29509379093663
            ],
            [
              126.97809336554235,
              37.29501222831278
            ],
            [
              126.97811288917514,
              37.29501787919929
            ],
            [
              126.97810609117903,
              37.295079692711674
            ],
            [
              126.97809846031124,
              37.2951490793841
            ]
          ]
        ]
      }
    },
    {
      "type": "Feature",
      "properties": {
        "indoor": "corridor",
        "level": "2"
      },
      "geometry": {
        "type": "Polygon",
        "coordinates": [
          [
            [
              126.97811288917514,
              37.29501787919929
            ],
            [
              126.97809336554235,
              37.29501222831278
            ],
            [
              126.97801755776668,
              37.295006952127295
            ],
            [
              126.97799509793707,
              37.29500277758044
            ],
            [
              126.9779220877216,
              37.29499769610318
            ],
            [
              126.97794902876595,
              37.294980643126245
            ],
            [
              126.97797207250657,
              37.29498224696035
            ],
            [
              126.97799704655523,
              37.29498398514299
            ],
            [
              126.97802129268696,
              37.29498567266289
            ],
            [
              126.97804636346814,
              37.29498741757799
            ],
            [
              126.97807010288152,
              37.294989069830464
            ],
            [
              126.97809430211574,
              37.29499075408622
            ],
            [
              126.97811288917514,
              37.29501787919929
            ]
          ]
        ]
      }
    },
    {
      "type": "Feature",
      "properties": {
        "indoor": "corridor",
        "level": "2"
      },
      "geometry": {
        "type": "Polygon",
        "coordinates": [
          [
            [
              126.97811288917514,
              37.29501787919929
            ],
            [
              126.97809430211574,
              37.29499075408622
            ],
            [
              126.97809900691789,
              37.29494797373603
            ],
            [
              126.97809388334225,
              37.29494761713728
            ],
            [
              126.97810436413435,
              37.29485231613309
            ],
            [
              126.97812676774684,
              37.29489168254888
            ],
            [
              126.97812005652557,
              37.294952707129134
            ],
            [
              126.97811288917514,
              37.29501787919929
            ]
          ]
        ]
      }
    },
    {
      "type": "Feature",
      "properties": {
        "indoor": "corridor",
        "level": "2"
      },
      "geometry": {
        "type": "Polygon",
        "coordinates": [
          [
            [
              126.97794902876595,
              37.294980643126245
            ],
            [
              126.9779220877216,
              37.29499769610318
            ],
            [
              126.97795385766541,
              37.2947086331649
            ],
            [
              126.97798278475636,
              37.2947087254133
            ],
            [
              126.9779770067765,
              37.294761264237486
            ],
            [
              126.97797082206341,
              37.2948175014212
            ],
            [
              126.97796421436017,
              37.29484256175378
            ],
            [
              126.97794902876595,
              37.294980643126245
            ]
          ]
        ]
      }
    },
    {
      "type": "Feature",
      "properties": {
        "indoor": "corridor",
        "level": "2"
      },
      "geometry": {
        "type": "Polygon",
        "coordinates": [
          [
            [
              126.97796421436017,
              37.29484256175378
            ],
            [
              126.97797082206341,
              37.2948175014212
            ],
            [
              126.97802032709212,
              37.29482094695659
            ],
            [
              126.97802651180814,
              37.29476470977566
            ],
            [
              126.97804657488192,
              37.294766106160694
            ],
            [
              126.97804407319107,
              37.29478885387247
            ],
            [
              126.97804022021683,
              37.29482388870286
            ],
            [
              126.97811715169424,
              37.29482924311049
            ],
            [
              126.97813367686211,
              37.2948288584832
            ],
            [
              126.97812676774684,
              37.29489168254888
            ],
            [
              126.97810436413435,
              37.29485231613309
            ],
            [
              126.97804241029453,
              37.294848004165885
            ],
            [
              126.97796421436017,
              37.29484256175378
            ]
          ]
        ]
      }
    },
    {
      "type": "Feature",
      "properties": {
        "indoor": "corridor",
        "level": "2"
      },
      "geometry": {
        "type": "Polygon",
        "coordinates": [
          [
            [
              126.97811715169424,
              37.29482924311049
            ],
            [
              126.9781210046679,
              37.29479420828256
            ],
            [
              126.97812350635934,
              37.29477146057244
            ],
            [
              126.97812928433926,
              37.29471892175539
            ],
            [
              126.97810125963055,
              37.29471697226235
            ],
            [
              126.97810570464164,
              37.29467603286306
            ],
            [
              126.97812188284688,
              37.29467376349172
            ],
            [
              126.97815197642281,
              37.294670739499715
            ],
            [
              126.9781721265911,
              37.29466791296756
            ],
            [
              126.9781662323329,
              37.29472150913176
            ],
            [
              126.97814564027684,
              37.29472007592884
            ],
            [
              126.97813910962887,
              37.29477945870677
            ],
            [
              126.97813367686211,
              37.2948288584832
            ],
            [
              126.97811715169424,
              37.29482924311049
            ]
          ]
        ]
      }
    },
    {
      "type": "Feature",
      "properties": {
        "indoor": "corridor",
        "level": "2"
      },
      "geometry": {
        "type": "Polygon",
        "coordinates": [
          [
            [
              126.97795385766541,
              37.2947086331649
            ],
            [
              126.97797179681541,
              37.29453908527966
            ],
            [
              126.97799526629527,
              37.29453579313067
            ],
            [
              126.97801770890032,
              37.294550839986265
            ],
            [
              126.97802778039043,
              37.29459627932416
            ],
            [
              126.9780323864542,
              37.294617060399595
            ],
            [
              126.9779927053947,
              37.29462262659953
            ],
            [
              126.97798451051695,
              37.2946930331689
            ],
            [
              126.97798278475636,
              37.2947087254133
            ],
            [
              126.97795385766541,
              37.2947086331649
            ]
          ]
        ]
      }
    },
    {
      "type": "Feature",
      "properties": {
        "indoor": "corridor",
        "level": "2"
      },
      "geometry": {
        "type": "Polygon",
        "coordinates": [
          [
            [
              126.97812188284688,
              37.29467376349172
            ],
            [
              126.97810699509564,
              37.29460659478543
            ],
            [
              126.97810238903187,
              37.29458581370708
            ],
            [
              126.97809231754177,
              37.29454037436286
            ],
            [
              126.97808851509524,
              37.294521174408096
            ],
            [
              126.97810853411724,
              37.29447474159835
            ],
            [
              126.97812266877794,
              37.29453851284926
            ],
            [
              126.978136844428,
              37.29460246884382
            ],
            [
              126.97815197642281,
              37.294670739499715
            ],
            [
              126.97812188284688,
              37.29467376349172
            ]
          ]
        ]
      }
    },
    {
      "type": "Feature",
      "properties": {
        "indoor": "corridor",
        "level": "2"
      },
      "geometry": {
        "type": "Polygon",
        "coordinates": [
          [
            [
              126.97808851509524,
              37.294521174408096
            ],
            [
              126.97809231754177,
              37.29454037436286
            ],
            [
              126.97801770890032,
              37.294550839986265
            ],
            [
              126.97799526629527,
              37.29453579313067
            ],
            [
              126.97801383349965,
              37.294531650267686
            ],
            [
              126.97808851509524,
              37.294521174408096
            ]
          ]
        ]
      }
    },
    {
      "type": "Feature",
      "properties": {
        "indoor": "corridor",
        "level": "2"
      },
      "geometry": {
        "type": "Polygon",
        "coordinates": [
          [
            [
              126.97808851509524,
              37.294521174408096
            ],
            [
              126.97805745086863,
              37.29438102233745
            ],
            [
              126.97805718477068,
              37.2943588817735
            ],
            [
              126.97808066549882,
              37.29434900694539
            ],
            [
              126.97809481184579,
              37.294412830921274
            ],
            [
              126.97810853411724,
              37.29447474159835
            ],
            [
              126.97808851509524,
              37.294521174408096
            ]
          ]
        ]
      }
    },
    {
      "type": "Feature",
      "properties": {
        "indoor": "corridor",
        "level": "2"
      },
      "geometry": {
        "type": "Polygon",
        "coordinates": [
          [
            [
              126.97801383349965,
              37.294531650267686
            ],
            [
              126.97799526629527,
              37.29453579313067
            ],
            [
              126.97796354852645,
              37.294392692506975
            ],
            [
              126.97789178804013,
              37.29438262638347
            ],
            [
              126.97787011182679,
              37.294378907884884
            ],
            [
              126.9778654048234,
              37.29435767133491
            ],
            [
              126.97788636756614,
              37.29435478216641
            ],
            [
              126.97788719502302,
              37.294358522514415
            ],
            [
              126.97795641047684,
              37.29434881338816
            ],
            [
              126.97797641422895,
              37.2943483414186
            ],
            [
              126.97798111554334,
              37.29436955230423
            ],
            [
              126.97798276927303,
              37.29439149821655
            ],
            [
              126.97801383349965,
              37.294531650267686
            ]
          ]
        ]
      }
    },
    {
      "type": "Feature",
      "properties": {
        "indoor": "corridor",
        "level": "2"
      },
      "geometry": {
        "type": "Polygon",
        "coordinates": [
          [
            [
              126.97805718477068,
              37.2943588817735
            ],
            [
              126.97798111554334,
              37.29436955230423
            ],
            [
              126.97798276927303,
              37.29439149821655
            ],
            [
              126.97805745086863,
              37.29438102233745
            ],
            [
              126.97805718477068,
              37.2943588817735
            ]
          ]
        ]
      }
    },
    {
      "type": "Feature",
      "properties": {
        "indoor": "corridor",
        "level": "2"
      },
      "geometry": {
        "type": "Polygon",
        "coordinates": [
          [
            [
              126.97797641422895,
              37.2943483414186
            ],
            [
              126.97795641047684,
              37.29434881338816
            ],
            [
              126.97794685286779,
              37.29430569237573
            ],
            [
              126.97793317273712,
              37.294243971761965
            ],
            [
              126.97791874906294,
              37.29417889644971
            ],
            [
              126.9779380957879,
              37.29417709940939
            ],
            [
              126.97794841753405,
              37.294223668053476
            ],
            [
              126.9779522478515,
              37.294239310057065
            ],
            [
              126.97796637140348,
              37.29430303125686
            ],
            [
              126.97797181735558,
              37.294327601733094
            ],
            [
              126.97797641422895,
              37.2943483414186
            ]
          ]
        ]
      }
    },
    {
      "type": "Feature",
      "properties": {
        "indoor": "corridor",
        "level": "2"
      },
      "geometry": {
        "type": "Polygon",
        "coordinates": [
          [
            [
              126.9779522478515,
              37.294239310057065
            ],
            [
              126.97794841753405,
              37.294223668053476
            ],
            [
              126.9780246033405,
              37.294212981148995
            ],
            [
              126.97802831707884,
              37.29422863950786
            ],
            [
              126.9779522478515,
              37.294239310057065
            ]
          ]
        ]
      }
    },
    {
      "type": "Feature",
      "properties": {
        "indoor": "corridor",
        "level": "2"
      },
      "geometry": {
        "type": "Polygon",
        "coordinates": [
          [
            [
              126.97801428159437,
              37.29416641249829
            ],
            [
              126.9780390597103,
              37.29416129439713
            ],
            [
              126.97805305501652,
              37.29422443692333
            ],
            [
              126.97806712268802,
              37.29428790593968
            ],
            [
              126.97808066549882,
              37.29434900694539
            ],
            [
              126.97805718477068,
              37.2943588817735
            ],
            [
              126.97805248345627,
              37.294337670884836
            ],
            [
              126.9780478865829,
              37.29431693119639
            ],
            [
              126.9780424406308,
              37.294292360716675
            ],
            [
              126.97802831707884,
              37.29422863950786
            ],
            [
              126.9780246033405,
              37.294212981148995
            ],
            [
              126.97801428159437,
              37.29416641249829
            ]
          ]
        ]
      }
    }
  ]
}