{
  "type": "FeatureCollection",
  "features": [
    {
      "type": "Feature",
      "properties": {
        "building": "university",
        "name": "E센터",
        "loc_ref": "ECTR"
      },
      "geometry": {
        "type": "Polygon",
        "coordinates": [
          [
            [
              126.977856324573,
              37.29525543666031
            ],
            [
              126.97786549317571,
              37.29526412912031
            ],
            [
              126.97788138369319,
              37.295266358119214
            ],
            [
              126.9781392164237,
              37.295230191329516
            ],
            [
              126.97816894236955,
              37.29522158426969
            ],
            [
              126.97819468789282,
              37.29520975945277
            ],
            [
              126.97821787591958,
              37.29518777560591
            ],
            [
              126.97822829989038,
              37.29516499208313
            ],
            [
              126.9782648460684,
              37.29483268104563
            ],
            [
              126.9782763427169,
              37.29472814277389
            ],
            [
              126.97827775017743,
              37.294715344817355
            ],
            [
              126.97816159386255,
              37.29413985952476
            ],
            [
              126.97815361444947,
              37.29413205459741
            ],
            [
              126.97814164098814,
              37.29412842145429
            ],
            [
              126.97764315599362,
              37.29420249300144
            ],
            [
              126.97763653961695,
              37.29420786422247
            ],
            [
              126.977856324573,
              37.29525543666031
            ]
          ]
        ]
      }
    }
  ]
}