{
  "type": "FeatureCollection",
  "features": [
    {
      "type": "Feature",
      "properties": {
        "indoor": "corridor",
        "level": "6"
      },
      "geometry": {
        "type": "Polygon",
        "coordinates": [
          [
            [
              126.97796889726581,
              37.29523368513244
            ],
            [
              126.97797301872221,
              37.295191101408946
            ],
            [
              126.97798041737191,
              37.295129116286574
            ],
            [
              126.97798788351172,
              37.295065483220945
            ],
            [
              126.97799509793707,
              37.29500277758044
            ],
            [
              126.97800206579474,
              37.294939419443175
            ],
            [
              126.9780085893982,
              37.294880100871474
            ],
            [
              126.97801600309728,
              37.29481555774784
            ],
            [
              126.97802188073597,
              37.29476438745418
            ],
            [
              126.97804657488192,
              37.294766106160694
            ],
            [
              126.97804407319107,
              37.29478885387247
            ],
            [
              126.97804022021683,
              37.29482388870286
            ],
            [
              126.97803085454551,
              37.294881982749665
            ],
            [
              126.97802393041187,
              37.29494919006007
            ],
            [
              126.97801755776668,
              37.295006952127295
            ],
            [
              126.97801268504048,
              37.29505125936059
            ],
            [
              126.97800858784396,
              37.29508851475686
            ],
            [
              126.97800005604587,
              37.29514951953993
            ],
            [
              126.97799807753816,
              37.29516962501512
            ],
            [
              126.97799208615584,
              37.29523050904726
            ],
            [
              126.97796889726581,
              37.29523368513244
            ]
          ]
        ]
      }
    },
    {
      "type": "Feature",
      "properties": {
        "indoor": "corridor",
        "level": "6"
      },
      "geometry": {
        "type": "Polygon",
        "coordinates": [
          [
            [
              126.97804779901847,
              37.294686596881505
            ],
            [
              126.97803160835485,
              37.294688082381796
            ],
            [
              126.97797501587632,
              37.294432754928614
            ],
            [
              126.97796178007843,
              37.294373039145206
            ],
            [
              126.97794708806586,
              37.29430675337615
            ],
            [
              126.97794046696524,
              37.29427688103938
            ],
            [
              126.97793289153759,
              37.294242703073664
            ],
            [
              126.9779280273537,
              37.29422075732791
            ],
            [
              126.97792314919407,
              37.29419874852777
            ],
            [
              126.97791874906294,
              37.29417889644971
            ],
            [
              126.9779380957879,
              37.29417709940939
            ],
            [
              126.97794841753405,
              37.294223668053476
            ],
            [
              126.9779522478515,
              37.294239310057065
            ],
            [
              126.97796637140348,
              37.29430303125686
            ],
            [
              126.97797181735558,
              37.294327601733094
            ],
            [
              126.97797641422895,
              37.2943483414186
            ],
            [
              126.97798111554334,
              37.29436955230423
            ],
            [
              126.97800198014448,
              37.29439254414963
            ],
            [
              126.97800862172707,
              37.29442250888693
            ],
            [
              126.9780231412115,
              37.29448801624645
            ],
            [
              126.97803365358129,
              37.294535444761586
            ],
            [
              126.97801770890032,
              37.294550839986265
            ],
            [
              126.97802275321614,
              37.29457359832708
            ],
            [
              126.97802778039043,
              37.29459627932416
            ],
            [
              126.9780323864542,
              37.294617060399595
            ],
            [
              126.97804779901847,
              37.294686596881505
            ]
          ]
        ]
      }
    },
    {
      "type": "Feature",
      "properties": {
        "indoor": "corridor",
        "level": "6"
      },
      "geometry": {
        "type": "Polygon",
        "coordinates": [
          [
            [
              126.97815209378297,
              37.294671268991294
            ],
            [
              126.97812240765991,
              37.294676131277015
            ],
            [
              126.97810699509564,
              37.29460659478543
            ],
            [
              126.97810238903187,
              37.29458581370708
            ],
            [
              126.97802778039043,
              37.29459627932416
            ],
            [
              126.97802275321614,
              37.29457359832708
            ],
            [
              126.97809736185758,
              37.29456313270685
            ],
            [
              126.97809231754177,
              37.29454037436286
            ],
            [
              126.97801770890032,
              37.294550839986265
            ],
            [
              126.97803365358129,
              37.294535444761586
            ],
            [
              126.97808640754073,
              37.29452804477198
            ],
            [
              126.9780758951689,
              37.29448061625243
            ],
            [
              126.9780613756817,
              37.29441510888695
            ],
            [
              126.97805473410395,
              37.29438514414597
            ],
            [
              126.97800198014448,
              37.29439254414963
            ],
            [
              126.97798111554334,
              37.29436955230423
            ],
            [
              126.97805718477068,
              37.2943588817735
            ],
            [
              126.97805248345627,
              37.294337670884836
            ],
            [
              126.9780478865829,
              37.29431693119639
            ],
            [
              126.9780424406308,
              37.294292360716675
            ],
            [
              126.97802831707884,
              37.29422863950786
            ],
            [
              126.9779522478515,
              37.294239310057065
            ],
            [
              126.97794841753405,
              37.294223668053476
            ],
            [
              126.9780246033405,
              37.294212981148995
            ],
            [
              126.97801428159437,
              37.29416641249829
            ],
            [
              126.97803849796766,
              37.29415875997049
            ],
            [
              126.97805309383178,
              37.29422461216954
            ],
            [
              126.9781049514081,
              37.29445857766883
            ],
            [
              126.97811654278902,
              37.294510874329234
            ],
            [
              126.97813069731266,
              37.29457473503316
            ],
            [
              126.97813784004637,
              37.29460696075265
            ],
            [
              126.9781476110489,
              37.29465104435442
            ],
            [
              126.97815209378297,
              37.294671268991294
            ]
          ]
        ]
      }
    }
  ]
}