{
  "type": "FeatureCollection",
  "features": [
    {
      "type": "Feature",
      "properties": {
        "indoor": "room",
        "level": "7",
        "ref": "",
        "name": "",
        "room_type": "",
        "_idx": 1,
        "_centroid": [
          126.978026,
          37.2952025
        ],
        "_area_m2": 40.3
      },
      "geometry": {
        "type": "Polygon",
        "coordinates": [
          [
            [
              126.97799807753816,
              37.29516962501512
            ],
            [
              126.97799327579777,
              37.29521841998839
            ],
            [
              126.97799208615584,
              37.29523050904726
            ],
            [
              126.97807098423215,
              37.295219441829346
            ],
            [
              126.97807573159963,
              37.29517446110987
            ],
            [
              126.97799807753816,
              37.29516962501512
            ]
          ]
        ]
      }
    },
    {
      "type": "Feature",
      "properties": {
        "indoor": "room",
        "level": "7",
        "ref": "",
        "name": "",
        "room_type": "",
        "_idx": 2,
        "_centroid": [
          126.9779346,
          37.2951829
        ],
        "_area_m2": 88.0
      },
      "geometry": {
        "type": "Polygon",
        "coordinates": [
          [
            [
              126.97790348989754,
              37.295123762178825
            ],
            [
              126.97788558198454,
              37.29524515166569
            ],
            [
              126.97796889726581,
              37.29523368513244
            ],
            [
              126.97798041737191,
              37.295129116286574
            ],
            [
              126.97790348989754,
              37.295123762178825
            ]
          ]
        ]
      }
    },
    {
      "type": "Feature",
      "properties": {
        "indoor": "room",
        "level": "7",
        "ref": "",
        "name": "",
        "room_type": "",
        "_idx": 3,
        "_centroid": [
          126.9780379,
          37.2951621
        ],
        "_area_m2": 15.1
      },
      "geometry": {
        "type": "Polygon",
        "coordinates": [
          [
            [
              126.97799807753816,
              37.29516962501512
            ],
            [
              126.97807573159963,
              37.29517446110987
            ],
            [
              126.97807779295965,
              37.295154929978764
            ],
            [
              126.97800005604587,
              37.29514951953993
            ],
            [
              126.97799807753816,
              37.29516962501512
            ]
          ]
        ]
      }
    },
    {
      "type": "Feature",
      "properties": {
        "indoor": "room",
        "level": "7",
        "ref": "",
        "name": "",
        "room_type": "",
        "_idx": 4,
        "_centroid": [
          126.9780427,
          37.2951217
        ],
        "_area_m2": 46.2
      },
      "geometry": {
        "type": "Polygon",
        "coordinates": [
          [
            [
              126.97800005604587,
              37.29514951953993
            ],
            [
              126.97807779295965,
              37.29515492997876
            ],
            [
              126.9780843956196,
              37.29509379093663
            ],
            [
              126.97800858784396,
              37.29508851475686
            ],
            [
              126.97800005604587,
              37.29514951953993
            ]
          ]
        ]
      }
    },
    {
      "type": "Feature",
      "properties": {
        "indoor": "room",
        "level": "7",
        "ref": "",
        "name": "",
        "room_type": "",
        "_idx": 5,
        "_centroid": [
          126.977945,
          37.2950988
        ],
        "_area_m2": 41.8
      },
      "geometry": {
        "type": "Polygon",
        "coordinates": [
          [
            [
              126.97798041737191,
              37.295129116286574
            ],
            [
              126.97790348989754,
              37.295123762178825
            ],
            [
              126.97790956756623,
              37.295068498568234
            ],
            [
              126.9779864950406,
              37.295073852679906
            ],
            [
              126.97798041737191,
              37.295129116286574
            ]
          ]
        ]
      }
    },
    {
      "type": "Feature",
      "properties": {
        "indoor": "room",
        "level": "7",
        "ref": "",
        "name": "",
        "room_type": "",
        "_idx": 6,
        "_centroid": [
          126.9780485,
          37.2950725
        ],
        "_area_m2": 27.8
      },
      "geometry": {
        "type": "Polygon",
        "coordinates": [
          [
            [
              126.97801268504048,
              37.2950512593606
            ],
            [
              126.97800858784396,
              37.29508851475686
            ],
            [
              126.97808439561962,
              37.29509379093664
            ],
            [
              126.97808849281499,
              37.29505653554275
            ],
            [
              126.97801268504048,
              37.2950512593606
            ]
          ]
        ]
      }
    },
    {
      "type": "Feature",
      "properties": {
        "indoor": "room",
        "level": "7",
        "ref": "",
        "name": "",
        "room_type": "",
        "_idx": 7,
        "_centroid": [
          126.9779513,
          37.2950412
        ],
        "_area_m2": 45.5
      },
      "geometry": {
        "type": "Polygon",
        "coordinates": [
          [
            [
              126.9779864950406,
              37.2950738526799
            ],
            [
              126.97790956756623,
              37.295068498568234
            ],
            [
              126.97791616890255,
              37.29500847325627
            ],
            [
              126.97799309637693,
              37.2950138273722
            ],
            [
              126.9779864950406,
              37.2950738526799
            ]
          ]
        ]
      }
    },
    {
      "type": "Feature",
      "properties": {
        "indoor": "room",
        "level": "7",
        "ref": "",
        "name": "",
        "room_type": "",
        "_idx": 8,
        "_centroid": [
          126.978053,
          37.2950317
        ],
        "_area_m2": 33.1
      },
      "geometry": {
        "type": "Polygon",
        "coordinates": [
          [
            [
              126.97801268504048,
              37.2950512593606
            ],
            [
              126.97808849281499,
              37.29505653554275
            ],
            [
              126.97809336554235,
              37.295012228312785
            ],
            [
              126.97801755776668,
              37.295006952127295
            ],
            [
              126.97801268504048,
              37.2950512593606
            ]
          ]
        ]
      }
    },
    {
      "type": "Feature",
      "properties": {
        "indoor": "room",
        "level": "7",
        "ref": "",
        "name": "",
        "room_type": "",
        "_idx": 9,
        "_centroid": [
          126.977958,
          37.2949805
        ],
        "_area_m2": 46.4
      },
      "geometry": {
        "type": "Polygon",
        "coordinates": [
          [
            [
              126.97799309637693,
              37.2950138273722
            ],
            [
              126.97791616890254,
              37.29500847325627
            ],
            [
              126.9779229146474,
              37.294947134802
            ],
            [
              126.97799984212179,
              37.294952488922306
            ],
            [
              126.97799309637693,
              37.2950138273722
            ]
          ]
        ]
      }
    },
    {
      "type": "Feature",
      "properties": {
        "indoor": "room",
        "level": "7",
        "ref": "",
        "name": "",
        "room_type": "",
        "_idx": 10,
        "_centroid": [
          126.9780603,
          37.2949652
        ],
        "_area_m2": 66.3
      },
      "geometry": {
        "type": "Polygon",
        "coordinates": [
          [
            [
              126.97801755776668,
              37.295006952127295
            ],
            [
              126.97809336554235,
              37.29501222831278
            ],
            [
              126.97810313360878,
              37.294923408146
            ],
            [
              126.97802732583311,
              37.29491813195429
            ],
            [
              126.97801755776668,
              37.295006952127295
            ]
          ]
        ]
      }
    },
    {
      "type": "Feature",
      "properties": {
        "indoor": "room",
        "level": "7",
        "ref": "",
        "name": "",
        "room_type": "",
        "_idx": 11,
        "_centroid": [
          126.9779648,
          37.2949184
        ],
        "_area_m2": 47.6
      },
      "geometry": {
        "type": "Polygon",
        "coordinates": [
          [
            [
              126.97799984212179,
              37.294952488922306
            ],
            [
              126.9779229146474,
              37.294947134802
            ],
            [
              126.97792982629716,
              37.29488428773739
            ],
            [
              126.97800675377155,
              37.29488964186217
            ],
            [
              126.97799984212179,
              37.294952488922306
            ]
          ]
        ]
      }
    },
    {
      "type": "Feature",
      "properties": {
        "indoor": "room",
        "level": "7",
        "ref": "",
        "name": "",
        "room_type": "",
        "_idx": 12,
        "_centroid": [
          126.9780676,
          37.2948988
        ],
        "_area_m2": 32.7
      },
      "geometry": {
        "type": "Polygon",
        "coordinates": [
          [
            [
              126.97810313360876,
              37.29492340814599
            ],
            [
              126.97802732583311,
              37.29491813195428
            ],
            [
              126.97803214914173,
              37.29487427399264
            ],
            [
              126.97810795691738,
              37.294879550187424
            ],
            [
              126.97810313360876,
              37.29492340814599
            ]
          ]
        ]
      }
    },
    {
      "type": "Feature",
      "properties": {
        "indoor": "room",
        "level": "7",
        "ref": "",
        "name": "",
        "room_type": "",
        "_idx": 13,
        "_centroid": [
          126.9779716,
          37.2948567
        ],
        "_area_m2": 45.8
      },
      "geometry": {
        "type": "Polygon",
        "coordinates": [
          [
            [
              126.97800675377155,
              37.29488964186217
            ],
            [
              126.97792982629716,
              37.29488428773739
            ],
            [
              126.97793647770924,
              37.29482380694316
            ],
            [
              126.97801340518363,
              37.294829161072236
            ],
            [
              126.97800675377155,
              37.29488964186217
            ]
          ]
        ]
      }
    },
    {
      "type": "Feature",
      "properties": {
        "indoor": "room",
        "level": "7",
        "ref": "",
        "name": "",
        "room_type": "",
        "_idx": 14,
        "_centroid": [
          126.9780744,
          37.2948517
        ],
        "_area_m2": 38.0
      },
      "geometry": {
        "type": "Polygon",
        "coordinates": [
          [
            [
              126.9780321491417,
              37.29487427399264
            ],
            [
              126.97804022021683,
              37.29482388870286
            ],
            [
              126.97811715169424,
              37.29482924311049
            ],
            [
              126.97810795691738,
              37.29487955018742
            ],
            [
              126.9780321491417,
              37.29487427399264
            ]
          ]
        ]
      }
    },
    {
      "type": "Feature",
      "properties": {
        "indoor": "room",
        "level": "7",
        "ref": "",
        "name": "",
        "room_type": "",
        "_idx": 15,
        "_centroid": [
          126.9780806,
          37.294809
        ],
        "_area_m2": 26.5
      },
      "geometry": {
        "type": "Polygon",
        "coordinates": [
          [
            [
              126.97812100466793,
              37.29479420828255
            ],
            [
              126.97804407319107,
              37.29478885387247
            ],
            [
              126.97804022021683,
              37.294823888702865
            ],
            [
              126.97811715169424,
              37.2948292431105
            ],
            [
              126.97812100466793,
              37.29479420828255
            ]
          ]
        ]
      }
    },
    {
      "type": "Feature",
      "properties": {
        "indoor": "room",
        "level": "7",
        "ref": "",
        "name": "",
        "room_type": "",
        "_idx": 16,
        "_centroid": [
          126.9779788,
          37.2947911
        ],
        "_area_m2": 53.5
      },
      "geometry": {
        "type": "Polygon",
        "coordinates": [
          [
            [
              126.97801340518363,
              37.294829161072236
            ],
            [
              126.97793647770924,
              37.29482380694314
            ],
            [
              126.977944253526,
              37.2947531019591
            ],
            [
              126.9780211810004,
              37.29475845609323
            ],
            [
              126.97801340518363,
              37.294829161072236
            ]
          ]
        ]
      }
    },
    {
      "type": "Feature",
      "properties": {
        "indoor": "room",
        "level": "7",
        "ref": "",
        "name": "",
        "room_type": "",
        "_idx": 17,
        "_centroid": [
          126.9780838,
          37.2947802
        ],
        "_area_m2": 17.2
      },
      "geometry": {
        "type": "Polygon",
        "coordinates": [
          [
            [
              126.97804407319107,
              37.29478885387247
            ],
            [
              126.97812100466793,
              37.29479420828255
            ],
            [
              126.97812350635934,
              37.29477146057244
            ],
            [
              126.97804657488194,
              37.294766106160694
            ],
            [
              126.97804407319107,
              37.29478885387247
            ]
          ]
        ]
      }
    },
    {
      "type": "Feature",
      "properties": {
        "indoor": "room",
        "level": "7",
        "ref": "",
        "name": "",
        "room_type": "",
        "_idx": 18,
        "_centroid": [
          126.9780879,
          37.2947257
        ],
        "_area_m2": 65.8
      },
      "geometry": {
        "type": "Polygon",
        "coordinates": [
          [
            [
              126.97804657488192,
              37.294766106160694
            ],
            [
              126.97805523439898,
              37.294727457748095
            ],
            [
              126.97804779901847,
              37.294686596881505
            ],
            [
              126.97812240765991,
              37.294676131277015
            ],
            [
              126.97813200831511,
              37.29472670139026
            ],
            [
              126.97812350635934,
              37.29477146057244
            ],
            [
              126.97804657488192,
              37.294766106160694
            ]
          ]
        ]
      }
    },
    {
      "type": "Feature",
      "properties": {
        "indoor": "room",
        "level": "7",
        "ref": "",
        "name": "",
        "room_type": "",
        "_idx": 19,
        "_centroid": [
          126.9779925,
          37.2947151
        ],
        "_area_m2": 49.1
      },
      "geometry": {
        "type": "Polygon",
        "coordinates": [
          [
            [
              126.97794425352598,
              37.294753101959095
            ],
            [
              126.97795950451392,
              37.294684759972164
            ],
            [
              126.97796239290099,
              37.294697791464245
            ],
            [
              126.97803160835485,
              37.294688082381796
            ],
            [
              126.9780361110917,
              37.29470839725486
            ],
            [
              126.9780211810004,
              37.29475845609322
            ],
            [
              126.97794425352598,
              37.294753101959095
            ]
          ]
        ]
      }
    },
    {
      "type": "Feature",
      "properties": {
        "indoor": "room",
        "level": "7",
        "ref": "",
        "name": "",
        "room_type": "",
        "_idx": 20,
        "_centroid": [
          126.9779911,
          37.2946661
        ],
        "_area_m2": 37.4
      },
      "geometry": {
        "type": "Polygon",
        "coordinates": [
          [
            [
              126.97803160835485,
              37.294688082381796
            ],
            [
              126.97796239290099,
              37.294697791464245
            ],
            [
              126.97795050758599,
              37.29464416879853
            ],
            [
              126.97801972303986,
              37.294634459709144
            ],
            [
              126.97803160835485,
              37.294688082381796
            ]
          ]
        ]
      }
    },
    {
      "type": "Feature",
      "properties": {
        "indoor": "room",
        "level": "7",
        "ref": "",
        "name": "",
        "room_type": "",
        "_idx": 21,
        "_centroid": [
          126.9779777,
          37.2946058
        ],
        "_area_m2": 46.7
      },
      "geometry": {
        "type": "Polygon",
        "coordinates": [
          [
            [
              126.97801972303984,
              37.294634459709144
            ],
            [
              126.97795050758597,
              37.29464416879853
            ],
            [
              126.9779356626494,
              37.29457719323155
            ],
            [
              126.97800487810326,
              37.29456748413352
            ],
            [
              126.97801972303984,
              37.294634459709144
            ]
          ]
        ]
      }
    },
    {
      "type": "Feature",
      "properties": {
        "indoor": "room",
        "level": "7",
        "ref": "",
        "name": "",
        "room_type": "",
        "_idx": 22,
        "_centroid": [
          126.9780576,
          37.294448
        ],
        "_area_m2": 660.9
      },
      "geometry": {
        "type": "Polygon",
        "coordinates": [
          [
            [
              126.9780440066059,
              37.2942994259181
            ],
            [
              126.97805718477068,
              37.2943588817735
            ],
            [
              126.97798111554334,
              37.29436955230423
            ],
            [
              126.97799984095057,
              37.29445403552662
            ],
            [
              126.97798033461976,
              37.294456743447235
            ],
            [
              126.97799044128453,
              37.29450234957327
            ],
            [
              126.97801375746904,
              37.294528819008896
            ],
            [
              126.97804779901847,
              37.294686596881505
            ],
            [
              126.97812240765991,
              37.294676131277015
            ],
            [
              126.97815209378297,
              37.294671268991294
            ],
            [
              126.97821159774455,
              37.29466292216938
            ],
            [
              126.97809800193228,
              37.294150413091266
            ],
            [
              126.97803849796766,
              37.29415875997049
            ],
            [
              126.97806884301845,
              37.294295667752834
            ],
            [
              126.9780440066059,
              37.2942994259181
            ]
          ]
        ]
      }
    },
    {
      "type": "Feature",
      "properties": {
        "indoor": "room",
        "level": "7",
        "ref": "",
        "name": "",
        "room_type": "",
        "_idx": 23,
        "_centroid": [
          126.9780168,
          37.2943536
        ],
        "_area_m2": 16.3
      },
      "geometry": {
        "type": "Polygon",
        "coordinates": [
          [
            [
              126.97805248345627,
              37.294337670884836
            ],
            [
              126.97797641422895,
              37.2943483414186
            ],
            [
              126.97798111554334,
              37.29436955230423
            ],
            [
              126.97805718477068,
              37.2943588817735
            ],
            [
              126.97805248345627,
              37.294337670884836
            ]
          ]
        ]
      }
    },
    {
      "type": "Feature",
      "properties": {
        "indoor": "room",
        "level": "7",
        "ref": "",
        "name": "",
        "room_type": "",
        "_idx": 24,
        "_centroid": [
          126.9780122,
          37.2943326
        ],
        "_area_m2": 15.9
      },
      "geometry": {
        "type": "Polygon",
        "coordinates": [
          [
            [
              126.97797641422895,
              37.2943483414186
            ],
            [
              126.97805248345627,
              37.294337670884836
            ],
            [
              126.9780478865829,
              37.29431693119639
            ],
            [
              126.97797181735558,
              37.294327601733094
            ],
            [
              126.97797641422895,
              37.2943483414186
            ]
          ]
        ]
      }
    },
    {
      "type": "Feature",
      "properties": {
        "indoor": "room",
        "level": "7",
        "ref": "",
        "name": "",
        "room_type": "",
        "_idx": 25,
        "_centroid": [
          126.978008,
          37.2943137
        ],
        "_area_m2": 13.1
      },
      "geometry": {
        "type": "Polygon",
        "coordinates": [
          [
            [
              126.97797181735558,
              37.294327601733094
            ],
            [
              126.9780478865829,
              37.29431693119639
            ],
            [
              126.9780440066059,
              37.2942994259181
            ],
            [
              126.977968117521,
              37.294310909207894
            ],
            [
              126.97797181735558,
              37.294327601733094
            ]
          ]
        ]
      }
    }
  ]
}