{
  "type": "FeatureCollection",
  "features": [
    {
      "type": "Feature",
      "properties": {
        "indoor": "corridor",
        "level": "8"
      },
      "geometry": {
        "type": "Polygon",
        "coordinates": [
          [
            [
              126.97799208615584,
              37.29523050904726
            ],
            [
              126.97796889726581,
              37.29523368513244
            ],
            [
              126.97797429319829,
              37.29518463534368
            ],
            [
              126.97798287582387,
              37.29510661806386
            ],
            [
              126.97799478203913,
              37.294998388884295
            ],
            [
              126.97800147582583,
              37.294937541416886
            ],
            [
              126.97800847809184,
              37.29487388982929
            ],
            [
              126.97801512280111,
              37.29481348848253
            ],
            [
              126.97802102881825,
              37.29475980195225
            ],
            [
              126.9780361110917,
              37.29470839725486
            ],
            [
              126.97805523439898,
              37.294727457748095
            ],
            [
              126.97804657488192,
              37.294766106160694
            ],
            [
              126.97804407319107,
              37.29478885387247
            ],
            [
              126.97804034554011,
              37.294822924597995
            ],
            [
              126.97803594552879,
              37.294858457836476
            ],
            [
              126.97803234791563,
              37.294887511136146
            ],
            [
              126.97802908898213,
              37.29491382935527
            ],
            [
              126.97802539612003,
              37.29494365185829
            ],
            [
              126.97802171244295,
              37.29497340018574
            ],
            [
              126.97801755776668,
              37.295006952127295
            ],
            [
              126.97801268504048,
              37.29505125936059
            ],
            [
              126.97800858784396,
              37.29508851475686
            ],
            [
              126.97800005604587,
              37.29514951953993
            ],
            [
              126.97799807753816,
              37.29516962501512
            ],
            [
              126.97799208615584,
              37.29523050904726
            ]
          ]
        ]
      }
    },
    {
      "type": "Feature",
      "properties": {
        "indoor": "corridor",
        "level": "8"
      },
      "geometry": {
        "type": "Polygon",
        "coordinates": [
          [
            [
              126.97805523439898,
              37.294727457748095
            ],
            [
              126.97804779901847,
              37.294686596881505
            ],
            [
              126.97803232350596,
              37.294613019036674
            ],
            [
              126.97802797695279,
              37.2945923534842
            ],
            [
              126.97801532172755,
              37.29453218460797
            ],
            [
              126.97800659502553,
              37.294490693773625
            ],
            [
              126.97799302547723,
              37.294426177776515
            ],
            [
              126.97798715645273,
              37.29439827368137
            ],
            [
              126.97798111554334,
              37.294369552304225
            ],
            [
              126.9779799893356,
              37.294364471201405
            ],
            [
              126.97796056747262,
              37.294367568475856
            ],
            [
              126.97796761108319,
              37.29439934357976
            ],
            [
              126.97797512145816,
              37.294433224349106
            ],
            [
              126.97798173657172,
              37.294463066419276
            ],
            [
              126.97798867491561,
              37.29449438049811
            ],
            [
              126.9780020469462,
              37.294554710857334
            ],
            [
              126.97801500109404,
              37.29461315581597
            ],
            [
              126.97803160835485,
              37.294688082381796
            ],
            [
              126.9780361110917,
              37.29470839725486
            ],
            [
              126.97805523439898,
              37.294727457748095
            ]
          ]
        ]
      }
    }
  ]
}