{
  "type": "FeatureCollection",
  "features": [
    {
      "type": "Feature",
      "properties": {
        "indoor": "corridor",
        "level": "8"
      },
      "geometry": {
        "type": "Polygon",
        "coordinates": [
          [
            [
              126.97643499272797,
              37.29199998870168
            ],
            [
              126.97643910183017,
              37.292019570973345
            ],
            [
              126.97696340944243,
              37.29195014136446
            ],
            [
              126.97695972819935,
              37.291931870720745
            ],
            [
              126.9769388090469,
              37.2919346724627
            ],
            [
              126.97670926057204,
              37.291963686765506
            ],
            [
              126.97668051727368,
              37.29196555793068
            ],
            [
              126.97643499272797,
              37.29199998870168
            ]
          ]
        ]
      }
    },
    {
      "type": "Feature",
      "properties": {
        "indoor": "corridor",
        "level": "8"
      },
      "geometry": {
        "type": "Polygon",
        "coordinates": [
          [
            [
              126.97668051727368,
              37.29196555793068
            ],
            [
              126.97670926057204,
              37.291963686765506
            ],
            [
              126.97670199462773,
              37.29192730169775
            ],
            [
              126.9766704202359,
              37.29191497598813
            ],
            [
              126.97667735418268,
              37.291946253155864
            ],
            [
              126.976570482388,
              37.29196124219329
            ],
            [
              126.97657191401139,
              37.29196770263758
            ],
            [
              126.9766777045961,
              37.29195286524321
            ],
            [
              126.97668051727368,
              37.29196555793068
            ]
          ]
        ]
      }
    },
    {
      "type": "Feature",
      "properties": {
        "indoor": "corridor",
        "level": "8"
      },
      "geometry": {
        "type": "Polygon",
        "coordinates": [
          [
            [
              126.9766704202359,
              37.29191497598813
            ],
            [
              126.97670199462773,
              37.29192730169774
            ],
            [
              126.97689333411836,
              37.29190421060734
            ],
            [
              126.97689034582713,
              37.29188853847946
            ],
            [
              126.9766704202359,
              37.29191497598813
            ]
          ]
        ]
      }
    },
    {
      "type": "Feature",
      "properties": {
        "indoor": "corridor",
        "level": "8"
      },
      "geometry": {
        "type": "Polygon",
        "coordinates": [
          [
            [
              126.97699664606507,
              37.291926911635976
            ],
            [
              126.97706423922762,
              37.291918473243776
            ],
            [
              126.97706029137257,
              37.291898696583495
            ],
            [
              126.97693478723919,
              37.2919145516176
            ],
            [
              126.9769388090469,
              37.2919346724627
            ],
            [
              126.97699664606507,
              37.291926911635976
            ]
          ]
        ]
      }
    }
  ]
}