{
  "type": "FeatureCollection",
  "features": [
    {
      "type": "Feature",
      "properties": {
        "indoor": "room",
        "level": "2",
        "ref": "",
        "name": "",
        "room_type": "",
        "_idx": 1,
        "_centroid": [
          126.9763919,
          37.292049
        ],
        "_area_m2": 11.1
      },
      "geometry": {
        "type": "Polygon",
        "coordinates": [
          [
            [
              126.9764061839145,
              37.292030951042854
            ],
            [
              126.97637099852507,
              37.29203556174193
            ],
            [
              126.9763775139755,
              37.292067016556466
            ],
            [
              126.97641272976973,
              37.29206256692475
            ],
            [
              126.9764061839145,
              37.292030951042854
            ]
          ]
        ]
      }
    },
    {
      "type": "Feature",
      "properties": {
        "indoor": "room",
        "level": "2",
        "ref": "",
        "name": "",
        "room_type": "",
        "_idx": 2,
        "_centroid": [
          126.976493,
          37.2920229
        ],
        "_area_m2": 99.6
      },
      "geometry": {
        "type": "Polygon",
        "coordinates": [
          [
            [
              126.97640089338529,
              37.292005398261026
            ],
            [
              126.97641272976973,
              37.29206256692475
            ],
            [
              126.97658520992113,
              37.29204077348889
            ],
            [
              126.97657319217106,
              37.29198272882429
            ],
            [
              126.97640089338529,
              37.292005398261026
            ]
          ]
        ]
      }
    },
    {
      "type": "Feature",
      "properties": {
        "indoor": "room",
        "level": "2",
        "ref": "",
        "name": "",
        "room_type": "",
        "_idx": 3,
        "_centroid": [
          126.9763859,
          37.2920205
        ],
        "_area_m2": 9.0
      },
      "geometry": {
        "type": "Polygon",
        "coordinates": [
          [
            [
              126.9764061839145,
              37.292030951042854
            ],
            [
              126.97640089338529,
              37.292005398261026
            ],
            [
              126.9763657056664,
              37.292010009266356
            ],
            [
              126.97637099852507,
              37.29203556174193
            ],
            [
              126.9764061839145,
              37.292030951042854
            ]
          ]
        ]
      }
    },
    {
      "type": "Feature",
      "properties": {
        "indoor": "room",
        "level": "2",
        "ref": "",
        "name": "",
        "room_type": "",
        "_idx": 4,
        "_centroid": [
          126.976598,
          37.2920093
        ],
        "_area_m2": 21.9
      },
      "geometry": {
        "type": "Polygon",
        "coordinates": [
          [
            [
              126.97657319217106,
              37.29198272882429
            ],
            [
              126.97658520992113,
              37.29204077348889
            ],
            [
              126.97662285263647,
              37.292036017207685
            ],
            [
              126.97661079530377,
              37.29197778136145
            ],
            [
              126.97657319217106,
              37.29198272882429
            ]
          ]
        ]
      }
    },
    {
      "type": "Feature",
      "properties": {
        "indoor": "room",
        "level": "2",
        "ref": "",
        "name": "",
        "room_type": "",
        "_idx": 5,
        "_centroid": [
          126.9766852,
          37.2919981
        ],
        "_area_m2": 80.4
      },
      "geometry": {
        "type": "Polygon",
        "coordinates": [
          [
            [
              126.97661079530377,
              37.29197778136145
            ],
            [
              126.97662285263647,
              37.292036017207685
            ],
            [
              126.97675973852816,
              37.29201872122391
            ],
            [
              126.97674753725738,
              37.29195979015476
            ],
            [
              126.97661079530377,
              37.29197778136145
            ]
          ]
        ]
      }
    },
    {
      "type": "Feature",
      "properties": {
        "indoor": "room",
        "level": "2",
        "ref": "",
        "name": "",
        "room_type": "",
        "_idx": 6,
        "_centroid": [
          126.9769513,
          37.2919784
        ],
        "_area_m2": 12.7
      },
      "geometry": {
        "type": "Polygon",
        "coordinates": [
          [
            [
              126.97696821072597,
              37.29196005537817
            ],
            [
              126.97692784193376,
              37.29196534531579
            ],
            [
              126.97693432574344,
              37.29199666155358
            ],
            [
              126.97697473270944,
              37.29199155600019
            ],
            [
              126.97696821072597,
              37.29196005537817
            ]
          ]
        ]
      }
    },
    {
      "type": "Feature",
      "properties": {
        "indoor": "room",
        "level": "2",
        "ref": "",
        "name": "",
        "room_type": "",
        "_idx": 7,
        "_centroid": [
          126.9768583,
          37.2919755
        ],
        "_area_m2": 103.9
      },
      "geometry": {
        "type": "Polygon",
        "coordinates": [
          [
            [
              126.97692784193376,
              37.29196534531579
            ],
            [
              126.97692194089136,
              37.291936843782096
            ],
            [
              126.97674753725738,
              37.29195979015476
            ],
            [
              126.97675973852816,
              37.29201872122391
            ],
            [
              126.97693432574344,
              37.29199666155358
            ],
            [
              126.97692784193376,
              37.29196534531579
            ]
          ]
        ]
      }
    },
    {
      "type": "Feature",
      "properties": {
        "indoor": "room",
        "level": "2",
        "ref": "",
        "name": "",
        "room_type": "",
        "_idx": 8,
        "_centroid": [
          126.9769857,
          37.2919593
        ],
        "_area_m2": 20.7
      },
      "geometry": {
        "type": "Polygon",
        "coordinates": [
          [
            [
              126.97696230536869,
              37.291931533007784
            ],
            [
              126.97697473270944,
              37.29199155600019
            ],
            [
              126.9770088494893,
              37.29198724523256
            ],
            [
              126.97699682063214,
              37.29192699181745
            ],
            [
              126.97696230536869,
              37.291931533007784
            ]
          ]
        ]
      }
    },
    {
      "type": "Feature",
      "properties": {
        "indoor": "room",
        "level": "2",
        "ref": "",
        "name": "",
        "room_type": "",
        "_idx": 9,
        "_centroid": [
          126.976393,
          37.2919591
        ],
        "_area_m2": 46.5
      },
      "geometry": {
        "type": "Polygon",
        "coordinates": [
          [
            [
              126.97643242039292,
              37.291980605730835
            ],
            [
              126.97641786889662,
              37.29191495175356
            ],
            [
              126.97634804464394,
              37.291924746597175
            ],
            [
              126.97636167000819,
              37.29199052864605
            ],
            [
              126.97640498383207,
              37.29198445377612
            ],
            [
              126.97643242039292,
              37.291980605730835
            ]
          ]
        ]
      }
    },
    {
      "type": "Feature",
      "properties": {
        "indoor": "room",
        "level": "2",
        "ref": "",
        "name": "",
        "room_type": "",
        "_idx": 10,
        "_centroid": [
          126.9769451,
          37.2919484
        ],
        "_area_m2": 11.6
      },
      "geometry": {
        "type": "Polygon",
        "coordinates": [
          [
            [
              126.97692784193376,
              37.29196534531579
            ],
            [
              126.97696821072597,
              37.29196005537817
            ],
            [
              126.97696230536869,
              37.291931533007784
            ],
            [
              126.97692194089139,
              37.291936843782096
            ],
            [
              126.97692784193376,
              37.29196534531579
            ]
          ]
        ]
      }
    },
    {
      "type": "Feature",
      "properties": {
        "indoor": "room",
        "level": "2",
        "ref": "",
        "name": "",
        "room_type": "",
        "_idx": 11,
        "_centroid": [
          126.9765153,
          37.2919464
        ],
        "_area_m2": 97.9
      },
      "geometry": {
        "type": "Polygon",
        "coordinates": [
          [
            [
              126.97656312411617,
              37.29189457556356
            ],
            [
              126.97641786889662,
              37.29191495175356
            ],
            [
              126.97643242039292,
              37.291980605730835
            ],
            [
              126.97647267476081,
              37.29197495995653
            ],
            [
              126.9764806593383,
              37.29197384009976
            ],
            [
              126.9765435949952,
              37.29196501321758
            ],
            [
              126.97658051111746,
              37.29195983563879
            ],
            [
              126.97658051372522,
              37.29195983527305
            ],
            [
              126.97656596140574,
              37.29189417755273
            ],
            [
              126.97656312411617,
              37.29189457556356
            ]
          ]
        ]
      }
    },
    {
      "type": "Feature",
      "properties": {
        "indoor": "room",
        "level": "2",
        "ref": "",
        "name": "",
        "room_type": "",
        "_idx": 12,
        "_centroid": [
          126.9765944,
          37.291924
        ],
        "_area_m2": 22.2
      },
      "geometry": {
        "type": "Polygon",
        "coordinates": [
          [
            [
              126.97659960876379,
              37.29188945755058
            ],
            [
              126.97659223696874,
              37.2918904916552
            ],
            [
              126.97656596140574,
              37.29189417755273
            ],
            [
              126.97658051372522,
              37.29195983527305
            ],
            [
              126.97661415866274,
              37.29195511648612
            ],
            [
              126.97661416126947,
              37.29195511612052
            ],
            [
              126.97659960876379,
              37.29188945755058
            ]
          ]
        ]
      }
    },
    {
      "type": "Feature",
      "properties": {
        "indoor": "room",
        "level": "2",
        "ref": "",
        "name": "",
        "room_type": "",
        "_idx": 13,
        "_centroid": [
          126.9766281,
          37.2919193
        ],
        "_area_m2": 23.9
      },
      "geometry": {
        "type": "Polygon",
        "coordinates": [
          [
            [
              126.97661885032807,
              37.2918867583721
            ],
            [
              126.97659960876379,
              37.29188945755058
            ],
            [
              126.97661416126947,
              37.29195511612052
            ],
            [
              126.97665027487051,
              37.29195005109735
            ],
            [
              126.97665027747696,
              37.29195005073179
            ],
            [
              126.97663572477029,
              37.29188439125004
            ],
            [
              126.97661885032807,
              37.2918867583721
            ]
          ]
        ]
      }
    },
    {
      "type": "Feature",
      "properties": {
        "indoor": "room",
        "level": "2",
        "ref": "",
        "name": "",
        "room_type": "",
        "_idx": 14,
        "_centroid": [
          126.9766524,
          37.2919091
        ],
        "_area_m2": 17.9
      },
      "geometry": {
        "type": "Polygon",
        "coordinates": [
          [
            [
              126.97663572477029,
              37.29188439125004
            ],
            [
              126.97665027747696,
              37.29195005073179
            ],
            [
              126.97667735418268,
              37.291946253155864
            ],
            [
              126.97666280132279,
              37.29188059299088
            ],
            [
              126.97663572477032,
              37.291884391250036
            ],
            [
              126.97663572477029,
              37.29188439125004
            ]
          ]
        ]
      }
    },
    {
      "type": "Feature",
      "properties": {
        "indoor": "room",
        "level": "2",
        "ref": "",
        "name": "",
        "room_type": "",
        "_idx": 15,
        "_centroid": [
          126.9767852,
          37.2918892
        ],
        "_area_m2": 67.4
      },
      "geometry": {
        "type": "Polygon",
        "coordinates": [
          [
            [
              126.97683681561989,
              37.29186060396718
            ],
            [
              126.97678816539928,
              37.29186675109632
            ],
            [
              126.97675810438847,
              37.29187054941216
            ],
            [
              126.97673277477787,
              37.29187374989858
            ],
            [
              126.97674568945361,
              37.29193844048663
            ],
            [
              126.97684973075569,
              37.29192529686867
            ],
            [
              126.97683681561989,
              37.29186060396718
            ]
          ]
        ]
      }
    },
    {
      "type": "Feature",
      "properties": {
        "indoor": "room",
        "level": "2",
        "ref": "",
        "name": "",
        "room_type": "",
        "_idx": 16,
        "_centroid": [
          126.976921,
          37.2918831
        ],
        "_area_m2": 115.8
      },
      "geometry": {
        "type": "Polygon",
        "coordinates": [
          [
            [
              126.97683681561989,
              37.29186060396718
            ],
            [
              126.97684973075569,
              37.29192529686867
            ],
            [
              126.97685487195989,
              37.291924647376376
            ],
            [
              126.97697669341824,
              37.29190925757756
            ],
            [
              126.97702853687646,
              37.291902708153486
            ],
            [
              126.9770156209507,
              37.291838011270045
            ],
            [
              126.9769637777221,
              37.29184456184861
            ],
            [
              126.9768419568012,
              37.291859954360525
            ],
            [
              126.97683681561989,
              37.29186060396718
            ]
          ]
        ]
      }
    },
    {
      "type": "Feature",
      "properties": {
        "indoor": "room",
        "level": "2",
        "ref": "",
        "name": "",
        "room_type": "",
        "_idx": 17,
        "_centroid": [
          126.977038,
          37.2918684
        ],
        "_area_m2": 20.6
      },
      "geometry": {
        "type": "Polygon",
        "coordinates": [
          [
            [
              126.9770156209507,
              37.291838011270045
            ],
            [
              126.97702853687646,
              37.291902708153486
            ],
            [
              126.97706029137257,
              37.291898696583495
            ],
            [
              126.97704737500266,
              37.29183399903126
            ],
            [
              126.9770156209507,
              37.291838011270045
            ]
          ]
        ]
      }
    },
    {
      "type": "Feature",
      "properties": {
        "indoor": "room",
        "level": "2",
        "ref": "",
        "name": "",
        "room_type": "",
        "_idx": 18,
        "_centroid": [
          126.9767401,
          37.291799
        ],
        "_area_m2": 145.6
      },
      "geometry": {
        "type": "Polygon",
        "coordinates": [
          [
            [
              126.97667886762889,
              37.29173895594473
            ],
            [
              126.97669150424922,
              37.291802253846406
            ],
            [
              126.97670105089941,
              37.291850073790414
            ],
            [
              126.97672738389109,
              37.29184674652218
            ],
            [
              126.97683191759027,
              37.2918335861051
            ],
            [
              126.97680972502741,
              37.291722421614836
            ],
            [
              126.97667886762889,
              37.29173895594473
            ]
          ]
        ]
      }
    },
    {
      "type": "Feature",
      "properties": {
        "indoor": "room",
        "level": "2",
        "ref": "",
        "name": "",
        "room_type": "",
        "_idx": 19,
        "_centroid": [
          126.9780145,
          37.2917885
        ],
        "_area_m2": 33.1
      },
      "geometry": {
        "type": "Polygon",
        "coordinates": [
          [
            [
              126.9780515392238,
              37.29176536145681
            ],
            [
              126.9780181155782,
              37.291763346392855
            ],
            [
              126.97797790275457,
              37.29176010567133
            ],
            [
              126.97796516235194,
              37.291803712802874
            ],
            [
              126.97800734578469,
              37.291807225511874
            ],
            [
              126.97803886262729,
              37.29180989854108
            ],
            [
              126.97804244687875,
              37.29180989854108
            ],
            [
              126.9780515392238,
              37.29176536145681
            ]
          ]
        ]
      }
    },
    {
      "type": "Feature",
      "properties": {
        "indoor": "room",
        "level": "2",
        "ref": "",
        "name": "",
        "room_type": "",
        "_idx": 20,
        "_centroid": [
          126.9780861,
          37.2917844
        ],
        "_area_m2": 32.4
      },
      "geometry": {
        "type": "Polygon",
        "coordinates": [
          [
            [
              126.97812081539543,
              37.29181096009758
            ],
            [
              126.97812572404969,
              37.291768435987265
            ],
            [
              126.97809008086514,
              37.291767438842285
            ],
            [
              126.9780515392238,
              37.29176536145681
            ],
            [
              126.97804244687875,
              37.29180989854108
            ],
            [
              126.97812081539543,
              37.29181096009758
            ]
          ]
        ]
      }
    },
    {
      "type": "Feature",
      "properties": {
        "indoor": "room",
        "level": "2",
        "ref": "",
        "name": "",
        "room_type": "",
        "_idx": 21,
        "_centroid": [
          126.9781671,
          37.2917834
        ],
        "_area_m2": 32.3
      },
      "geometry": {
        "type": "Polygon",
        "coordinates": [
          [
            [
              126.97819915058646,
              37.291773620495796
            ],
            [
              126.97819946456539,
              37.291767501830506
            ],
            [
              126.97815852100199,
              37.29176802051018
            ],
            [
              126.97812572404969,
              37.291768435987265
            ],
            [
              126.97812081539543,
              37.291810960097585
            ],
            [
              126.97819915058646,
              37.29181201007333
            ],
            [
              126.97819915058646,
              37.291773620495796
            ]
          ]
        ]
      }
    },
    {
      "type": "Feature",
      "properties": {
        "indoor": "room",
        "level": "2",
        "ref": "",
        "name": "",
        "room_type": "",
        "_idx": 22,
        "_centroid": [
          126.9778958,
          37.2917755
        ],
        "_area_m2": 68.9
      },
      "geometry": {
        "type": "Polygon",
        "coordinates": [
          [
            [
              126.97790522590955,
              37.291751957125676
            ],
            [
              126.97787013108166,
              37.291746472826794
            ],
            [
              126.97783315617367,
              37.29174061459797
            ],
            [
              126.97780921287895,
              37.291785010820874
            ],
            [
              126.97784899281959,
              37.29179114837509
            ],
            [
              126.97788687855777,
              37.291796993676755
            ],
            [
              126.97788969849124,
              37.291797428757654
            ],
            [
              126.97792628506141,
              37.29180047540362
            ],
            [
              126.97796516235194,
              37.291803712802874
            ],
            [
              126.97797790275457,
              37.29176010567133
            ],
            [
              126.97794145009107,
              37.291756283281636
            ],
            [
              126.97790522590955,
              37.291751957125676
            ]
          ]
        ]
      }
    },
    {
      "type": "Feature",
      "properties": {
        "indoor": "room",
        "level": "2",
        "ref": "",
        "name": "",
        "room_type": "",
        "_idx": 23,
        "_centroid": [
          126.9777887,
          37.291751
        ],
        "_area_m2": 34.4
      },
      "geometry": {
        "type": "Polygon",
        "coordinates": [
          [
            [
              126.97773569960495,
              37.291768267837156
            ],
            [
              126.97780921287895,
              37.291785010820874
            ],
            [
              126.97783315617367,
              37.29174061459797
            ],
            [
              126.97780377992267,
              37.291734740788286
            ],
            [
              126.97776160099575,
              37.291726307070434
            ],
            [
              126.97773569960495,
              37.291768267837156
            ]
          ]
        ]
      }
    },
    {
      "type": "Feature",
      "properties": {
        "indoor": "room",
        "level": "2",
        "ref": "",
        "name": "",
        "room_type": "",
        "_idx": 24,
        "_centroid": [
          126.9776684,
          37.2917265
        ],
        "_area_m2": 71.6
      },
      "geometry": {
        "type": "Polygon",
        "coordinates": [
          [
            [
              126.97776160099575,
              37.291726307070434
            ],
            [
              126.97772591327328,
              37.29171716609774
            ],
            [
              126.97769113179207,
              37.29170781785642
            ],
            [
              126.97765582153835,
              37.2916981112646
            ],
            [
              126.97762217593885,
              37.29168745426669
            ],
            [
              126.97758676837292,
              37.29172878808233
            ],
            [
              126.97759043623472,
              37.29173020974292
            ],
            [
              126.97765480403974,
              37.29174991855992
            ],
            [
              126.97765995058539,
              37.29175101564831
            ],
            [
              126.97773569960495,
              37.291768267837156
            ],
            [
              126.97776160099575,
              37.291726307070434
            ]
          ]
        ]
      }
    },
    {
      "type": "Feature",
      "properties": {
        "indoor": "room",
        "level": "2",
        "ref": "",
        "name": "",
        "room_type": "",
        "_idx": 25,
        "_centroid": [
          126.9773581,
          37.2917174
        ],
        "_area_m2": 320.4
      },
      "geometry": {
        "type": "Polygon",
        "coordinates": [
          [
            [
              126.97745736422907,
              37.29170201592496
            ],
            [
              126.97744761007857,
              37.291695645755716
            ],
            [
              126.97743538099442,
              37.29169043379868
            ],
            [
              126.97743057671136,
              37.291688696479575
            ],
            [
              126.97743319722936,
              37.291683021236935
            ],
            [
              126.97746104700508,
              37.291688215754284
            ],
            [
              126.97746104700508,
              37.29168821575429
            ],
            [
              126.97752574349884,
              37.29170960960277
            ],
            [
              126.97755206461979,
              37.29167371234613
            ],
            [
              126.97749332355994,
              37.29165591905179
            ],
            [
              126.97741470801878,
              37.291640167349954
            ],
            [
              126.97735164522126,
              37.29163179189568
            ],
            [
              126.97734579111308,
              37.29164917319592
            ],
            [
              126.97733507733331,
              37.29168098322674
            ],
            [
              126.97727685484402,
              37.29168606761035
            ],
            [
              126.9772083363705,
              37.291700360036316
            ],
            [
              126.97717236572939,
              37.29171667747532
            ],
            [
              126.9771461659328,
              37.291737298084996
            ],
            [
              126.97714606966508,
              37.29175154320303
            ],
            [
              126.97715855450973,
              37.29176158303229
            ],
            [
              126.97716934731022,
              37.29177026218404
            ],
            [
              126.97720845865702,
              37.29177877909847
            ],
            [
              126.97722358435006,
              37.29178207287978
            ],
            [
              126.97726850473148,
              37.2917822650139
            ],
            [
              126.97730160923153,
              37.29178063023863
            ],
            [
              126.97733116826812,
              37.291777514160934
            ],
            [
              126.97737587239408,
              37.29176887223815
            ],
            [
              126.97741660746217,
              37.29175657411554
            ],
            [
              126.97743540826283,
              37.29174826457211
            ],
            [
              126.97744837529517,
              37.29173828344894
            ],
            [
              126.97745922261029,
              37.291728155473194
            ],
            [
              126.97746380061638,
              37.29171904547469
            ],
            [
              126.9774632751887,
              37.291713162732876
            ],
            [
              126.97745736422907,
              37.29170201592496
            ]
          ]
        ]
      }
    },
    {
      "type": "Feature",
      "properties": {
        "indoor": "room",
        "level": "2",
        "ref": "",
        "name": "",
        "room_type": "",
        "_idx": 26,
        "_centroid": [
          126.9781235,
          37.2917169
        ],
        "_area_m2": 140.5
      },
      "geometry": {
        "type": "Polygon",
        "coordinates": [
          [
            [
              126.97803720704931,
              37.29166588299254
            ],
            [
              126.97820209212263,
              37.291668116480736
            ],
            [
              126.97820341305973,
              37.29168305292242
            ],
            [
              126.97820112309401,
              37.29169471992964
            ],
            [
              126.97819998110462,
              37.291751096292025
            ],
            [
              126.97814568696722,
              37.29175019755115
            ],
            [
              126.97807988284758,
              37.29174903933936
            ],
            [
              126.97802601664343,
              37.29174556470383
            ],
            [
              126.97801582573996,
              37.29174405902839
            ],
            [
              126.97803720704931,
              37.29166588299254
            ]
          ]
        ]
      }
    },
    {
      "type": "Feature",
      "properties": {
        "indoor": "room",
        "level": "2",
        "ref": "",
        "name": "",
        "room_type": "",
        "_idx": 27,
        "_centroid": [
          126.9782151,
          37.2917119
        ],
        "_area_m2": 23.1
      },
      "geometry": {
        "type": "Polygon",
        "coordinates": [
          [
            [
              126.97819998110462,
              37.291751096292025
            ],
            [
              126.97823633542686,
              37.29174922016971
            ],
            [
              126.97823485872615,
              37.29168129279832
            ],
            [
              126.97820341305973,
              37.29168305292242
            ],
            [
              126.97820112309401,
              37.29169471992964
            ],
            [
              126.97819998110462,
              37.291751096292025
            ]
          ]
        ]
      }
    },
    {
      "type": "Feature",
      "properties": {
        "indoor": "room",
        "level": "2",
        "ref": "",
        "name": "",
        "room_type": "",
        "_idx": 28,
        "_centroid": [
          126.9775784,
          37.2917068
        ],
        "_area_m2": 19.0
      },
      "geometry": {
        "type": "Polygon",
        "coordinates": [
          [
            [
              126.97761712605988,
              37.2916933493574
            ],
            [
              126.9775724321538,
              37.29167944593688
            ],
            [
              126.97755278818677,
              37.29170561164166
            ],
            [
              126.97754501431952,
              37.291715966406855
            ],
            [
              126.97758676837292,
              37.29172878808233
            ],
            [
              126.97759615249171,
              37.29171783332315
            ],
            [
              126.97761712605988,
              37.2916933493574
            ]
          ]
        ]
      }
    },
    {
      "type": "Feature",
      "properties": {
        "indoor": "room",
        "level": "2",
        "ref": "",
        "name": "",
        "room_type": "",
        "_idx": 29,
        "_centroid": [
          126.9779262,
          37.2917041
        ],
        "_area_m2": 132.8
      },
      "geometry": {
        "type": "Polygon",
        "coordinates": [
          [
            [
              126.97787693828394,
              37.29164630588123
            ],
            [
              126.97794058509567,
              37.29165783705055
            ],
            [
              126.97803720704931,
              37.29166588299254
            ],
            [
              126.97801582573996,
              37.29174405902839
            ],
            [
              126.97795235096969,
              37.29173896289589
            ],
            [
              126.97789586424756,
              37.29173201362375
            ],
            [
              126.9778510242722,
              37.29172483270853
            ],
            [
              126.97783995986272,
              37.29172274792654
            ],
            [
              126.97787693828394,
              37.29164630588123
            ]
          ]
        ]
      }
    },
    {
      "type": "Feature",
      "properties": {
        "indoor": "room",
        "level": "2",
        "ref": "",
        "name": "",
        "room_type": "",
        "_idx": 30,
        "_centroid": [
          126.9782527,
          37.2917025
        ],
        "_area_m2": 15.1
      },
      "geometry": {
        "type": "Polygon",
        "coordinates": [
          [
            [
              126.97823485872615,
              37.29168129279832
            ],
            [
              126.97823582204701,
              37.291725710600275
            ],
            [
              126.97827197866275,
              37.29172369670875
            ],
            [
              126.97826806420645,
              37.29167943417123
            ],
            [
              126.97823485872615,
              37.29168129279832
            ]
          ]
        ]
      }
    },
    {
      "type": "Feature",
      "properties": {
        "indoor": "room",
        "level": "2",
        "ref": "",
        "name": "",
        "room_type": "",
        "_idx": 31,
        "_centroid": [
          126.9775488,
          37.2916947
        ],
        "_area_m2": 8.6
      },
      "geometry": {
        "type": "Polygon",
        "coordinates": [
          [
            [
              126.97754501431952,
              37.291715966406855
            ],
            [
              126.9775724321538,
              37.29167944593688
            ],
            [
              126.97755206461979,
              37.29167371234613
            ],
            [
              126.97752574349884,
              37.29170960960277
            ],
            [
              126.97754501431952,
              37.291715966406855
            ]
          ]
        ]
      }
    },
    {
      "type": "Feature",
      "properties": {
        "indoor": "room",
        "level": "2",
        "ref": "",
        "name": "",
        "room_type": "",
        "_idx": 32,
        "_centroid": [
          126.9767343,
          37.2916806
        ],
        "_area_m2": 131.4
      },
      "geometry": {
        "type": "Polygon",
        "coordinates": [
          [
            [
              126.97667886762889,
              37.29173895594473
            ],
            [
              126.97680972502741,
              37.291722421614836
            ],
            [
              126.97678971032576,
              37.291622166222034
            ],
            [
              126.97665885294147,
              37.29163870057119
            ],
            [
              126.97667886762889,
              37.29173895594473
            ]
          ]
        ]
      }
    },
    {
      "type": "Feature",
      "properties": {
        "indoor": "room",
        "level": "2",
        "ref": "",
        "name": "",
        "room_type": "",
        "_idx": 33,
        "_centroid": [
          126.9777496,
          37.2916591
        ],
        "_area_m2": 162.9
      },
      "geometry": {
        "type": "Polygon",
        "coordinates": [
          [
            [
              126.97763672413042,
              37.29167201821424
            ],
            [
              126.97764684796118,
              37.29165797254306
            ],
            [
              126.97768545611403,
              37.29161566991735
            ],
            [
              126.97769598356079,
              37.291601717646046
            ],
            [
              126.97775668562284,
              37.29161897204011
            ],
            [
              126.97779220820067,
              37.29162870103553
            ],
            [
              126.97784869492286,
              37.29164051481401
            ],
            [
              126.97787693828394,
              37.29164630588123
            ],
            [
              126.97783995986272,
              37.29172274792654
            ],
            [
              126.97778056145387,
              37.29171162908842
            ],
            [
              126.97773834199657,
              37.29170190010371
            ],
            [
              126.97769699604528,
              37.29169124454758
            ],
            [
              126.97763672413042,
              37.29167201821424
            ]
          ]
        ]
      }
    },
    {
      "type": "Feature",
      "properties": {
        "indoor": "room",
        "level": "2",
        "ref": "",
        "name": "",
        "room_type": "",
        "_idx": 34,
        "_centroid": [
          126.9776191,
          37.2916577
        ],
        "_area_m2": 7.7
      },
      "geometry": {
        "type": "Polygon",
        "coordinates": [
          [
            [
              126.97760142977748,
              37.29164319031615
            ],
            [
              126.97759159298641,
              37.29165765637166
            ],
            [
              126.97763672413042,
              37.29167201821424
            ],
            [
              126.97764684796118,
              37.29165797254306
            ],
            [
              126.97760142977748,
              37.29164319031615
            ]
          ]
        ]
      }
    },
    {
      "type": "Feature",
      "properties": {
        "indoor": "room",
        "level": "2",
        "ref": "",
        "name": "",
        "room_type": "",
        "_idx": 35,
        "_centroid": [
          126.9769072,
          37.2916424
        ],
        "_area_m2": 65.9
      },
      "geometry": {
        "type": "Polygon",
        "coordinates": [
          [
            [
              126.97696601709683,
              37.291666690434255
            ],
            [
              126.97691593608543,
              37.291672249856845
            ],
            [
              126.97685761893953,
              37.29167872356062
            ],
            [
              126.97684711833146,
              37.2916188540682
            ],
            [
              126.9768993394712,
              37.29161213857829
            ],
            [
              126.97695710824426,
              37.29160586941766
            ],
            [
              126.97696601709683,
              37.291666690434255
            ]
          ]
        ]
      }
    },
    {
      "type": "Feature",
      "properties": {
        "indoor": "room",
        "level": "2",
        "ref": "",
        "name": "",
        "room_type": "",
        "_idx": 36,
        "_centroid": [
          126.9773243,
          37.2916414
        ],
        "_area_m2": 40.3
      },
      "geometry": {
        "type": "Polygon",
        "coordinates": [
          [
            [
              126.97733896103276,
              37.29166945222787
            ],
            [
              126.97734579111308,
              37.29164917319592
            ],
            [
              126.97735202498896,
              37.2916306643359
            ],
            [
              126.97736226126177,
              37.29160938782016
            ],
            [
              126.97729040772192,
              37.29160343576759
            ],
            [
              126.97727338202502,
              37.29166249191169
            ],
            [
              126.97730708479865,
              37.29166498206992
            ],
            [
              126.97733896103276,
              37.29166945222787
            ]
          ]
        ]
      }
    },
    {
      "type": "Feature",
      "properties": {
        "indoor": "room",
        "level": "2",
        "ref": "",
        "name": "",
        "room_type": "",
        "_idx": 37,
        "_centroid": [
          126.9762651,
          37.2916406
        ],
        "_area_m2": 6.7
      },
      "geometry": {
        "type": "Polygon",
        "coordinates": [
          [
            [
              126.97627829954457,
              37.29162774917892
            ],
            [
              126.9762473942381,
              37.29163185663351
            ],
            [
              126.97625194478618,
              37.291653527285526
            ],
            [
              126.97628285009112,
              37.291649419832055
            ],
            [
              126.97627829954457,
              37.29162774917892
            ]
          ]
        ]
      }
    },
    {
      "type": "Feature",
      "properties": {
        "indoor": "room",
        "level": "2",
        "ref": "",
        "name": "",
        "room_type": "",
        "_idx": 38,
        "_centroid": [
          126.9770136,
          37.2916323
        ],
        "_area_m2": 65.1
      },
      "geometry": {
        "type": "Polygon",
        "coordinates": [
          [
            [
              126.97707036466925,
              37.2916593068255
            ],
            [
              126.97701973771662,
              37.29166171011783
            ],
            [
              126.97696601709683,
              37.291666690434255
            ],
            [
              126.97695710824426,
              37.29160586941766
            ],
            [
              126.97699751120281,
              37.291602123748305
            ],
            [
              126.97707061944189,
              37.291598355831354
            ],
            [
              126.97707036466925,
              37.2916593068255
            ]
          ]
        ]
      }
    },
    {
      "type": "Feature",
      "properties": {
        "indoor": "room",
        "level": "2",
        "ref": "",
        "name": "",
        "room_type": "",
        "_idx": 39,
        "_centroid": [
          126.9772293,
          37.2916298
        ],
        "_area_m2": 61.9
      },
      "geometry": {
        "type": "Polygon",
        "coordinates": [
          [
            [
              126.97727338202502,
              37.29166249191169
            ],
            [
              126.9772195886131,
              37.29165878562954
            ],
            [
              126.9771728560414,
              37.29165762741633
            ],
            [
              126.97718217343886,
              37.29159740030469
            ],
            [
              126.97723749548635,
              37.291598790161636
            ],
            [
              126.97729040772192,
              37.29160343576759
            ],
            [
              126.97727338202502,
              37.29166249191169
            ]
          ]
        ]
      }
    },
    {
      "type": "Feature",
      "properties": {
        "indoor": "room",
        "level": "2",
        "ref": "",
        "name": "",
        "room_type": "",
        "_idx": 40,
        "_centroid": [
          126.9776417,
          37.2916291
        ],
        "_area_m2": 25.8
      },
      "geometry": {
        "type": "Polygon",
        "coordinates": [
          [
            [
              126.97760142977748,
              37.29164319031615
            ],
            [
              126.97764684796118,
              37.29165797254306
            ],
            [
              126.97768545611403,
              37.29161566991735
            ],
            [
              126.97763302927056,
              37.29159967382752
            ],
            [
              126.97760142977748,
              37.29164319031615
            ]
          ]
        ]
      }
    },
    {
      "type": "Feature",
      "properties": {
        "indoor": "room",
        "level": "2",
        "ref": "",
        "name": "",
        "room_type": "",
        "_idx": 41,
        "_centroid": [
          126.9771251,
          37.2916278
        ],
        "_area_m2": 62.8
      },
      "geometry": {
        "type": "Polygon",
        "coordinates": [
          [
            [
              126.97718217343886,
              37.29159740030469
            ],
            [
              126.97712830723476,
              37.29159740030469
            ],
            [
              126.97707061944189,
              37.291598355831354
            ],
            [
              126.97707036466925,
              37.2916593068255
            ],
            [
              126.97712630545018,
              37.2916568456224
            ],
            [
              126.9771728560414,
              37.29165762741633
            ],
            [
              126.97718217343886,
              37.29159740030469
            ]
          ]
        ]
      }
    },
    {
      "type": "Feature",
      "properties": {
        "indoor": "room",
        "level": "2",
        "ref": "",
        "name": "",
        "room_type": "",
        "_idx": 42,
        "_centroid": [
          126.9761987,
          37.2916136
        ],
        "_area_m2": 74.2
      },
      "geometry": {
        "type": "Polygon",
        "coordinates": [
          [
            [
              126.97623592748057,
              37.29157724953199
            ],
            [
              126.97621131028804,
              37.29158052126994
            ],
            [
              126.97613904001902,
              37.29159012631981
            ],
            [
              126.97615505732459,
              37.29166640406319
            ],
            [
              126.97625194478618,
              37.291653527285526
            ],
            [
              126.97623592748057,
              37.29157724953199
            ]
          ]
        ]
      }
    },
    {
      "type": "Feature",
      "properties": {
        "indoor": "room",
        "level": "2",
        "ref": "",
        "name": "",
        "room_type": "",
        "_idx": 43,
        "_centroid": [
          126.9775584,
          37.2916013
        ],
        "_area_m2": 27.0
      },
      "geometry": {
        "type": "Polygon",
        "coordinates": [
          [
            [
              126.97751843655585,
              37.291618449331494
            ],
            [
              126.97757082571616,
              37.291628689328455
            ],
            [
              126.97760081950787,
              37.29158560105382
            ],
            [
              126.97754338392976,
              37.29157251980445
            ],
            [
              126.97751843655585,
              37.291618449331494
            ]
          ]
        ]
      }
    },
    {
      "type": "Feature",
      "properties": {
        "indoor": "room",
        "level": "2",
        "ref": "",
        "name": "",
        "room_type": "",
        "_idx": 44,
        "_centroid": [
          126.9762517,
          37.2915992
        ],
        "_area_m2": 16.9
      },
      "geometry": {
        "type": "Polygon",
        "coordinates": [
          [
            [
              126.97624241117335,
              37.29160812623996
            ],
            [
              126.9762473942381,
              37.29163185663351
            ],
            [
              126.97627829954457,
              37.29162774917892
            ],
            [
              126.97626683278502,
              37.291573142074874
            ],
            [
              126.97623928160476,
              37.29157680375345
            ],
            [
              126.97623592748057,
              37.29157724953199
            ],
            [
              126.97624241117335,
              37.29160812623996
            ]
          ]
        ]
      }
    },
    {
      "type": "Feature",
      "properties": {
        "indoor": "room",
        "level": "2",
        "ref": "",
        "name": "",
        "room_type": "",
        "_idx": 45,
        "_centroid": [
          126.9763772,
          37.2915898
        ],
        "_area_m2": 143.1
      },
      "geometry": {
        "type": "Polygon",
        "coordinates": [
          [
            [
              126.97645363491414,
              37.29154831520793
            ],
            [
              126.9764128700346,
              37.29155373304967
            ],
            [
              126.97626683278502,
              37.291573142074874
            ],
            [
              126.97628285009112,
              37.291649419832055
            ],
            [
              126.97646965222167,
              37.29162459299209
            ],
            [
              126.97645363491414,
              37.29154831520793
            ]
          ]
        ]
      }
    },
    {
      "type": "Feature",
      "properties": {
        "indoor": "room",
        "level": "2",
        "ref": "",
        "name": "",
        "room_type": "",
        "_idx": 46,
        "_centroid": [
          126.9768721,
          37.2915768
        ],
        "_area_m2": 20.6
      },
      "geometry": {
        "type": "Polygon",
        "coordinates": [
          [
            [
              126.9768885992856,
              37.29159222789377
            ],
            [
              126.97688691925187,
              37.29158377954731
            ],
            [
              126.97687872775002,
              37.29154258711797
            ],
            [
              126.97683948535614,
              37.29154752624938
            ],
            [
              126.97684990309982,
              37.29159991372443
            ],
            [
              126.97688914549353,
              37.291594974596634
            ],
            [
              126.9768885992856,
              37.29159222789377
            ]
          ]
        ]
      }
    },
    {
      "type": "Feature",
      "properties": {
        "indoor": "room",
        "level": "2",
        "ref": "",
        "name": "",
        "room_type": "",
        "_idx": 47,
        "_centroid": [
          126.9774447,
          37.2915763
        ],
        "_area_m2": 76.4
      },
      "geometry": {
        "type": "Polygon",
        "coordinates": [
          [
            [
              126.97738853422801,
              37.2915454513138
            ],
            [
              126.97736717077939,
              37.29159350739052
            ],
            [
              126.97743324013057,
              37.291601764898324
            ],
            [
              126.97751843655585,
              37.291618449331494
            ],
            [
              126.97754338392976,
              37.29157251980445
            ],
            [
              126.9774694646508,
              37.291556762403665
            ],
            [
              126.9773928339723,
              37.29154580184664
            ],
            [
              126.97738853422801,
              37.2915454513138
            ]
          ]
        ]
      }
    },
    {
      "type": "Feature",
      "properties": {
        "indoor": "room",
        "level": "2",
        "ref": "",
        "name": "",
        "room_type": "",
        "_idx": 48,
        "_centroid": [
          126.9762081,
          37.2915749
        ],
        "_area_m2": 16.7
      },
      "geometry": {
        "type": "Polygon",
        "coordinates": [
          [
            [
              126.97627990392589,
              37.29157140486006
            ],
            [
              126.97613904001902,
              37.29159012631981
            ],
            [
              126.97613655717053,
              37.291578302471606
            ],
            [
              126.97627708376102,
              37.291559625839774
            ],
            [
              126.97627990392589,
              37.29157140486006
            ]
          ]
        ]
      }
    },
    {
      "type": "Feature",
      "properties": {
        "indoor": "room",
        "level": "2",
        "ref": "",
        "name": "",
        "room_type": "",
        "_idx": 49,
        "_centroid": [
          126.9764862,
          37.2915723
        ],
        "_area_m2": 28.7
      },
      "geometry": {
        "type": "Polygon",
        "coordinates": [
          [
            [
              126.9764953271317,
              37.291563396632455
            ],
            [
              126.9764932501752,
              37.29155350572411
            ],
            [
              126.9764932501752,
              37.291553505724096
            ],
            [
              126.97649111425744,
              37.29154333402829
            ],
            [
              126.97645363491414,
              37.29154831520793
            ],
            [
              126.97646965222167,
              37.29162459299209
            ],
            [
              126.97650713156318,
              37.29161961181971
            ],
            [
              126.9764953271317,
              37.291563396632455
            ]
          ]
        ]
      }
    },
    {
      "type": "Feature",
      "properties": {
        "indoor": "room",
        "level": "2",
        "ref": "",
        "name": "",
        "room_type": "",
        "_idx": 50,
        "_centroid": [
          126.977346,
          37.2915716
        ],
        "_area_m2": 35.7
      },
      "geometry": {
        "type": "Polygon",
        "coordinates": [
          [
            [
              126.97736717077939,
              37.29159350739052
            ],
            [
              126.97738853422801,
              37.2915454513138
            ],
            [
              126.97731178715495,
              37.29153919457652
            ],
            [
              126.97729587678114,
              37.29158643375846
            ],
            [
              126.97736657306343,
              37.29159343268653
            ],
            [
              126.97736717077939,
              37.29159350739052
            ]
          ]
        ]
      }
    },
    {
      "type": "Feature",
      "properties": {
        "indoor": "room",
        "level": "2",
        "ref": "",
        "name": "",
        "room_type": "",
        "_idx": 51,
        "_centroid": [
          126.9768994,
          37.2915611
        ],
        "_area_m2": 13.7
      },
      "geometry": {
        "type": "Polygon",
        "coordinates": [
          [
            [
              126.97687872775002,
              37.29154258711797
            ],
            [
              126.97688691925187,
              37.29158377954731
            ],
            [
              126.97692004826482,
              37.29157957332917
            ],
            [
              126.97691186094248,
              37.291538416903684
            ],
            [
              126.97687872775002,
              37.29154258711797
            ]
          ]
        ]
      }
    },
    {
      "type": "Feature",
      "properties": {
        "indoor": "room",
        "level": "2",
        "ref": "",
        "name": "",
        "room_type": "",
        "_idx": 52,
        "_centroid": [
          126.9772659,
          37.2915609
        ],
        "_area_m2": 35.5
      },
      "geometry": {
        "type": "Polygon",
        "coordinates": [
          [
            [
              126.97729587678114,
              37.29158643375846
            ],
            [
              126.97731178715495,
              37.29153919457652
            ],
            [
              126.97731043323843,
              37.29153908419968
            ],
            [
              126.97723123535995,
              37.291536536126536
            ],
            [
              126.97722151769085,
              37.291582108426205
            ],
            [
              126.97722482241865,
              37.29158222752188
            ],
            [
              126.97729587678114,
              37.29158643375846
            ]
          ]
        ]
      }
    },
    {
      "type": "Feature",
      "properties": {
        "indoor": "room",
        "level": "2",
        "ref": "",
        "name": "",
        "room_type": "",
        "_idx": 53,
        "_centroid": [
          126.9771761,
          37.2915502
        ],
        "_area_m2": 79.6
      },
      "geometry": {
        "type": "Polygon",
        "coordinates": [
          [
            [
              126.97722151769085,
              37.291582108426205
            ],
            [
              126.97723123535995,
              37.291536536126536
            ],
            [
              126.97723247994921,
              37.29151205243361
            ],
            [
              126.97711298799274,
              37.29151037646111
            ],
            [
              126.97710892290107,
              37.29158031712319
            ],
            [
              126.97714958305143,
              37.29157951604799
            ],
            [
              126.97722151769085,
              37.291582108426205
            ]
          ]
        ]
      }
    },
    {
      "type": "Feature",
      "properties": {
        "indoor": "room",
        "level": "2",
        "ref": "",
        "name": "",
        "room_type": "",
        "_idx": 54,
        "_centroid": [
          126.9770853,
          37.2915455
        ],
        "_area_m2": 27.7
      },
      "geometry": {
        "type": "Polygon",
        "coordinates": [
          [
            [
              126.97710892290107,
              37.29158031712319
            ],
            [
              126.97711298799274,
              37.29151037646111
            ],
            [
              126.97707495301921,
              37.29150984298948
            ],
            [
              126.97707073595117,
              37.2915100770003
            ],
            [
              126.97707073595117,
              37.291581206916824
            ],
            [
              126.97707337575937,
              37.29158101746329
            ],
            [
              126.97710892290107,
              37.29158031712319
            ]
          ]
        ]
      }
    },
    {
      "type": "Feature",
      "properties": {
        "indoor": "room",
        "level": "2",
        "ref": "",
        "name": "",
        "room_type": "",
        "_idx": 55,
        "_centroid": [
          126.9769734,
          37.2915434
        ],
        "_area_m2": 109.2
      },
      "geometry": {
        "type": "Polygon",
        "coordinates": [
          [
            [
              126.97707073595117,
              37.291581206916824
            ],
            [
              126.97707073595117,
              37.2915100770003
            ],
            [
              126.97695617819922,
              37.29151643396511
            ],
            [
              126.97690867829891,
              37.29152241240575
            ],
            [
              126.97691186094248,
              37.291538416903684
            ],
            [
              126.97692248592301,
              37.29159184651256
            ],
            [
              126.97707073595117,
              37.291581206916824
            ]
          ]
        ]
      }
    },
    {
      "type": "Feature",
      "properties": {
        "indoor": "room",
        "level": "2",
        "ref": "",
        "name": "",
        "room_type": "",
        "_idx": 56,
        "_centroid": [
          126.976544,
          37.2915433
        ],
        "_area_m2": 11.3
      },
      "geometry": {
        "type": "Polygon",
        "coordinates": [
          [
            [
              126.97658179794881,
              37.29154174417974
            ],
            [
              126.97660336684156,
              37.2915388792459
            ],
            [
              126.97660123039284,
              37.29152869907999
            ],
            [
              126.97649111425744,
              37.29154333402829
            ],
            [
              126.9764932501752,
              37.291553505724096
            ],
            [
              126.9764932501752,
              37.29155350572411
            ],
            [
              126.97658179794881,
              37.29154174417974
            ]
          ]
        ]
      }
    },
    {
      "type": "Feature",
      "properties": {
        "indoor": "room",
        "level": "2",
        "ref": "",
        "name": "",
        "room_type": "",
        "_idx": 57,
        "_centroid": [
          126.9766587,
          37.2915317
        ],
        "_area_m2": 13.4
      },
      "geometry": {
        "type": "Polygon",
        "coordinates": [
          [
            [
              126.97662454979668,
              37.29152559982239
            ],
            [
              126.9766886042558,
              37.29151699854561
            ],
            [
              126.97669301142216,
              37.291537771351614
            ],
            [
              126.97662854315183,
              37.29154642819285
            ],
            [
              126.97662454979668,
              37.29152559982239
            ]
          ]
        ]
      }
    },
    {
      "type": "Feature",
      "properties": {
        "indoor": "room",
        "level": "2",
        "ref": "",
        "name": "",
        "room_type": "",
        "_idx": 58,
        "_centroid": [
          126.976285,
          37.2915236
        ],
        "_area_m2": 17.7
      },
      "geometry": {
        "type": "Polygon",
        "coordinates": [
          [
            [
              126.97628345970071,
              37.291545671603956
            ],
            [
              126.97630776460002,
              37.29154228683642
            ],
            [
              126.97629612161184,
              37.291489431887705
            ],
            [
              126.97626205736455,
              37.291494001586585
            ],
            [
              126.97627544423393,
              37.29154678786001
            ],
            [
              126.97628345970071,
              37.291545671603956
            ]
          ]
        ]
      }
    },
    {
      "type": "Feature",
      "properties": {
        "indoor": "room",
        "level": "2",
        "ref": "",
        "name": "",
        "room_type": "",
        "_idx": 59,
        "_centroid": [
          126.9763191,
          37.2915136
        ],
        "_area_m2": 18.1
      },
      "geometry": {
        "type": "Polygon",
        "coordinates": [
          [
            [
              126.97630776460002,
              37.29154228683642
            ],
            [
              126.97634194709896,
              37.291537526486756
            ],
            [
              126.97633038027264,
              37.29148495763487
            ],
            [
              126.97629613442828,
              37.29148943010284
            ],
            [
              126.97630776460002,
              37.29154228683642
            ]
          ]
        ]
      }
    },
    {
      "type": "Feature",
      "properties": {
        "indoor": "room",
        "level": "2",
        "ref": "",
        "name": "",
        "room_type": "",
        "_idx": 60,
        "_centroid": [
          126.9764542,
          37.2915124
        ],
        "_area_m2": 5.0
      },
      "geometry": {
        "type": "Polygon",
        "coordinates": [
          [
            [
              126.97646576023608,
              37.291501307638285
            ],
            [
              126.97643855276789,
              37.29150509662741
            ],
            [
              126.97644260401724,
              37.29152350872175
            ],
            [
              126.97646981148532,
              37.29151971973337
            ],
            [
              126.97646576023608,
              37.291501307638285
            ]
          ]
        ]
      }
    },
    {
      "type": "Feature",
      "properties": {
        "indoor": "room",
        "level": "2",
        "ref": "",
        "name": "",
        "room_type": "",
        "_idx": 61,
        "_centroid": [
          126.9763673,
          37.291507
        ],
        "_area_m2": 32.8
      },
      "geometry": {
        "type": "Polygon",
        "coordinates": [
          [
            [
              126.97633038027264,
              37.29148495763487
            ],
            [
              126.97634194709896,
              37.291537526486756
            ],
            [
              126.97640420229344,
              37.29152885665361
            ],
            [
              126.9763927508328,
              37.2914768121113
            ],
            [
              126.97633038027264,
              37.29148495763487
            ]
          ]
        ]
      }
    },
    {
      "type": "Feature",
      "properties": {
        "indoor": "room",
        "level": "2",
        "ref": "",
        "name": "",
        "room_type": "",
        "_idx": 62,
        "_centroid": [
          126.9766865,
          37.291506
        ],
        "_area_m2": 31.5
      },
      "geometry": {
        "type": "Polygon",
        "coordinates": [
          [
            [
              126.97661984490003,
              37.2914994588133
            ],
            [
              126.97662454979668,
              37.29152559982239
            ],
            [
              126.9766923622721,
              37.291516493916575
            ],
            [
              126.97675008879739,
              37.291505052035156
            ],
            [
              126.97674574721694,
              37.2914832196035
            ],
            [
              126.97661984490003,
              37.2914994588133
            ]
          ]
        ]
      }
    },
    {
      "type": "Feature",
      "properties": {
        "indoor": "room",
        "level": "2",
        "ref": "",
        "name": "",
        "room_type": "",
        "_idx": 63,
        "_centroid": [
          126.9764378,
          37.2914983
        ],
        "_area_m2": 29.1
      },
      "geometry": {
        "type": "Polygon",
        "coordinates": [
          [
            [
              126.97646576023608,
              37.291501307638285
            ],
            [
              126.97646198322585,
              37.2914841418988
            ],
            [
              126.97645848160577,
              37.29146822774779
            ],
            [
              126.9763927508328,
              37.2914768121113
            ],
            [
              126.97640420229344,
              37.29152885665361
            ],
            [
              126.97644260401724,
              37.29152350872175
            ],
            [
              126.97643855276789,
              37.29150509662741
            ],
            [
              126.97646576023608,
              37.291501307638285
            ]
          ]
        ]
      }
    },
    {
      "type": "Feature",
      "properties": {
        "indoor": "room",
        "level": "2",
        "ref": "",
        "name": "",
        "room_type": "",
        "_idx": 64,
        "_centroid": [
          126.9765848,
          37.2914915
        ],
        "_area_m2": 7.0
      },
      "geometry": {
        "type": "Polygon",
        "coordinates": [
          [
            [
              126.97659647077526,
              37.29147736980623
            ],
            [
              126.97656788111914,
              37.29148135128407
            ],
            [
              126.97657318944749,
              37.2915054765543
            ],
            [
              126.97660184198888,
              37.29150178087484
            ],
            [
              126.97659647077526,
              37.29147736980623
            ]
          ]
        ]
      }
    },
    {
      "type": "Feature",
      "properties": {
        "indoor": "room",
        "level": "2",
        "ref": "",
        "name": "",
        "room_type": "",
        "_idx": 65,
        "_centroid": [
          126.9764832,
          37.2914914
        ],
        "_area_m2": 19.6
      },
      "geometry": {
        "type": "Polygon",
        "coordinates": [
          [
            [
              126.97645848160577,
              37.29146822774779
            ],
            [
              126.97646981148532,
              37.29151971973337
            ],
            [
              126.97650779348801,
              37.29151443025305
            ],
            [
              126.97649653399323,
              37.29146325814966
            ],
            [
              126.97645848160577,
              37.29146822774779
            ]
          ]
        ]
      }
    },
    {
      "type": "Feature",
      "properties": {
        "indoor": "room",
        "level": "2",
        "ref": "",
        "name": "",
        "room_type": "",
        "_idx": 66,
        "_centroid": [
          126.976552,
          37.2914874
        ],
        "_area_m2": 17.5
      },
      "geometry": {
        "type": "Polygon",
        "coordinates": [
          [
            [
              126.97652778099783,
              37.29145917732672
            ],
            [
              126.9765389826956,
              37.291510086756446
            ],
            [
              126.97655825528973,
              37.29150740280089
            ],
            [
              126.97657318944749,
              37.2915054765543
            ],
            [
              126.97656201830172,
              37.29145470597413
            ],
            [
              126.97652778099783,
              37.29145917732672
            ]
          ]
        ]
      }
    },
    {
      "type": "Feature",
      "properties": {
        "indoor": "room",
        "level": "2",
        "ref": "",
        "name": "",
        "room_type": "",
        "_idx": 67,
        "_centroid": [
          126.9765178,
          37.2914867
        ],
        "_area_m2": 16.0
      },
      "geometry": {
        "type": "Polygon",
        "coordinates": [
          [
            [
              126.97649653399323,
              37.29146325814966
            ],
            [
              126.97650779348801,
              37.29151443025305
            ],
            [
              126.9765389826956,
              37.291510086756446
            ],
            [
              126.97652778099783,
              37.29145917732672
            ],
            [
              126.97649653399323,
              37.29146325814966
            ]
          ]
        ]
      }
    },
    {
      "type": "Feature",
      "properties": {
        "indoor": "room",
        "level": "2",
        "ref": "",
        "name": "",
        "room_type": "",
        "_idx": 68,
        "_centroid": [
          126.9766123,
          37.2914795
        ],
        "_area_m2": 17.9
      },
      "geometry": {
        "type": "Polygon",
        "coordinates": [
          [
            [
              126.97660605519975,
              37.291501237443974
            ],
            [
              126.97663654797005,
              37.29149730440789
            ],
            [
              126.97662615976479,
              37.29144632917267
            ],
            [
              126.97659066093902,
              37.29145096527857
            ],
            [
              126.97660184198888,
              37.29150178087484
            ],
            [
              126.97660605519975,
              37.291501237443974
            ]
          ]
        ]
      }
    },
    {
      "type": "Feature",
      "properties": {
        "indoor": "room",
        "level": "2",
        "ref": "",
        "name": "",
        "room_type": "",
        "_idx": 69,
        "_centroid": [
          126.9766602,
          37.2914733
        ],
        "_area_m2": 27.5
      },
      "geometry": {
        "type": "Polygon",
        "coordinates": [
          [
            [
              126.97666799382951,
              37.29149324843898
            ],
            [
              126.97669023060057,
              37.29149038028217
            ],
            [
              126.97667982517109,
              37.2914393205322
            ],
            [
              126.97662615976479,
              37.29144632917267
            ],
            [
              126.97663654797005,
              37.29149730440789
            ],
            [
              126.97666799382951,
              37.29149324843898
            ]
          ]
        ]
      }
    },
    {
      "type": "Feature",
      "properties": {
        "indoor": "room",
        "level": "2",
        "ref": "",
        "name": "",
        "room_type": "",
        "_idx": 70,
        "_centroid": [
          126.9765818,
          37.2914645
        ],
        "_area_m2": 7.6
      },
      "geometry": {
        "type": "Polygon",
        "coordinates": [
          [
            [
              126.97659647077526,
              37.29147736980623
            ],
            [
              126.97659219032694,
              37.29145791603743
            ],
            [
              126.97659066093902,
              37.29145096527857
            ],
            [
              126.97656201830172,
              37.29145470597413
            ],
            [
              126.97656788111914,
              37.29148135128407
            ],
            [
              126.97659647077526,
              37.29147736980623
            ]
          ]
        ]
      }
    },
    {
      "type": "Feature",
      "properties": {
        "indoor": "room",
        "level": "2",
        "ref": "",
        "name": "",
        "room_type": "",
        "_idx": 71,
        "_centroid": [
          126.9767096,
          37.2914633
        ],
        "_area_m2": 24.4
      },
      "geometry": {
        "type": "Polygon",
        "coordinates": [
          [
            [
              126.97668266442575,
              37.291453252842174
            ],
            [
              126.97668737435687,
              37.29147636461342
            ],
            [
              126.97671673702732,
              37.29147257733889
            ],
            [
              126.97671959327106,
              37.29148659300798
            ],
            [
              126.97674574721694,
              37.2914832196035
            ],
            [
              126.97673556975592,
              37.2914320403534
            ],
            [
              126.97667982517109,
              37.2914393205322
            ],
            [
              126.97668266442575,
              37.291453252842174
            ]
          ]
        ]
      }
    }
  ]
}