{
  "type": "FeatureCollection",
  "features": [
    {
      "type": "Feature",
      "properties": {
        "indoor": "corridor",
        "level": "7"
      },
      "geometry": {
        "type": "Polygon",
        "coordinates": [
          [
            [
              126.97666301613134,
              37.291881562172854
            ],
            [
              126.97667735418268,
              37.291946253155864
            ],
            [
              126.97665027747696,
              37.291950050731785
            ],
            [
              126.97661416126947,
              37.29195511612052
            ],
            [
              126.97658051111745,
              37.291959835638785
            ],
            [
              126.97650230565667,
              37.29197080414984
            ],
            [
              126.9764324203929,
              37.291980605730835
            ],
            [
              126.97636118256914,
              37.29199059252015
            ],
            [
              126.97636515595453,
              37.292009783621545
            ],
            [
              126.97643268299662,
              37.292000934860496
            ],
            [
              126.97647050128639,
              37.29199597914201
            ],
            [
              126.97657154056493,
              37.29198273892879
            ],
            [
              126.97664496373346,
              37.29197311753778
            ],
            [
              126.9767113452726,
              37.29196441888372
            ],
            [
              126.9768521246922,
              37.291945971112135
            ],
            [
              126.97696230536867,
              37.291931533007784
            ],
            [
              126.97699682063214,
              37.29192699181745
            ],
            [
              126.97706423922762,
              37.291918473243776
            ],
            [
              126.97706029137257,
              37.291898696583495
            ],
            [
              126.97702853687645,
              37.29190270815348
            ],
            [
              126.97699196727199,
              37.29190732801984
            ],
            [
              126.97695588014064,
              37.29191188693497
            ],
            [
              126.97688426386873,
              37.29192093427386
            ],
            [
              126.97684973075566,
              37.29192529686867
            ],
            [
              126.97674568945361,
              37.29193844048663
            ],
            [
              126.97670954608353,
              37.29194300732587
            ],
            [
              126.97669663140776,
              37.29187831674174
            ],
            [
              126.97666301613134,
              37.291881562172854
            ]
          ]
        ]
      }
    },
    {
      "type": "Feature",
      "properties": {
        "indoor": "corridor",
        "level": "7"
      },
      "geometry": {
        "type": "Polygon",
        "coordinates": [
          [
            [
              126.97636118256914,
              37.29199059252015
            ],
            [
              126.97636515595453,
              37.292009783621545
            ],
            [
              126.97629559477234,
              37.29201889893163
            ],
            [
              126.97626455231955,
              37.29202296673999
            ],
            [
              126.97626056091907,
              37.2920036886307
            ],
            [
              126.97636118256914,
              37.29199059252015
            ]
          ]
        ]
      }
    }
  ]
}