{
  "type": "FeatureCollection",
  "features": [
    {
      "type": "Feature",
      "properties": {
        "indoor": "room",
        "level": "1",
        "ref": "",
        "name": "",
        "room_type": "",
        "_idx": 1,
        "_centroid": [
          126.9763894,
          37.2920476
        ],
        "_area_m2": 12.0
      },
      "geometry": {
        "type": "Polygon",
        "coordinates": [
          [
            [
              126.97640981048018,
              37.29203120757601
            ],
            [
              126.97637114999623,
              37.29203629300812
            ],
            [
              126.97637221644557,
              37.29204144153512
            ],
            [
              126.9763775139755,
              37.292067016556466
            ],
            [
              126.9764162359546,
              37.292062123906724
            ],
            [
              126.97640981048018,
              37.29203120757601
            ]
          ]
        ]
      }
    },
    {
      "type": "Feature",
      "properties": {
        "indoor": "room",
        "level": "1",
        "ref": "",
        "name": "",
        "room_type": "",
        "_idx": 2,
        "_centroid": [
          126.9764991,
          37.2920221
        ],
        "_area_m2": 102.7
      },
      "geometry": {
        "type": "Polygon",
        "coordinates": [
          [
            [
              126.97640434830635,
              37.29200492618023
            ],
            [
              126.9764162359546,
              37.292062123906724
            ],
            [
              126.97659389961447,
              37.29203967551748
            ],
            [
              126.97658182551676,
              37.29198158066231
            ],
            [
              126.97640434830635,
              37.29200492618023
            ]
          ]
        ]
      }
    },
    {
      "type": "Feature",
      "properties": {
        "indoor": "room",
        "level": "1",
        "ref": "",
        "name": "",
        "room_type": "",
        "_idx": 3,
        "_centroid": [
          126.976389,
          37.2920165
        ],
        "_area_m2": 10.2
      },
      "geometry": {
        "type": "Polygon",
        "coordinates": [
          [
            [
              126.97640981048018,
              37.29203120757601
            ],
            [
              126.9764049897306,
              37.29200801241075
            ],
            [
              126.97640434830635,
              37.29200492618023
            ],
            [
              126.97637818143117,
              37.292008368193564
            ],
            [
              126.97636570566641,
              37.29201000926637
            ],
            [
              126.97637114999623,
              37.29203629300812
            ],
            [
              126.97640981048018,
              37.29203120757601
            ]
          ]
        ]
      }
    },
    {
      "type": "Feature",
      "properties": {
        "indoor": "room",
        "level": "1",
        "ref": "",
        "name": "",
        "room_type": "",
        "_idx": 4,
        "_centroid": [
          126.976607,
          37.2920082
        ],
        "_area_m2": 22.3
      },
      "geometry": {
        "type": "Polygon",
        "coordinates": [
          [
            [
              126.97658182551676,
              37.29198158066231
            ],
            [
              126.97659389961447,
              37.29203967551748
            ],
            [
              126.97663220267148,
              37.29203483579993
            ],
            [
              126.97662008837607,
              37.291976547530076
            ],
            [
              126.97658182551676,
              37.29198158066231
            ]
          ]
        ]
      }
    },
    {
      "type": "Feature",
      "properties": {
        "indoor": "room",
        "level": "1",
        "ref": "",
        "name": "",
        "room_type": "",
        "_idx": 5,
        "_centroid": [
          126.9767845,
          37.2920011
        ],
        "_area_m2": 10.1
      },
      "geometry": {
        "type": "Polygon",
        "coordinates": [
          [
            [
              126.97679934654263,
              37.29198464655415
            ],
            [
              126.9767637095153,
              37.291989334280906
            ],
            [
              126.97676955922864,
              37.29201748034602
            ],
            [
              126.97680523369601,
              37.29201297275944
            ],
            [
              126.97679934654263,
              37.29198464655415
            ]
          ]
        ]
      }
    },
    {
      "type": "Feature",
      "properties": {
        "indoor": "room",
        "level": "1",
        "ref": "",
        "name": "",
        "room_type": "",
        "_idx": 6,
        "_centroid": [
          126.9766948,
          37.2919968
        ],
        "_area_m2": 80.7
      },
      "geometry": {
        "type": "Polygon",
        "coordinates": [
          [
            [
              126.97662008837607,
              37.291976547530076
            ],
            [
              126.97663220267148,
              37.29203483579993
            ],
            [
              126.97676955922864,
              37.29201748034602
            ],
            [
              126.97675730078342,
              37.29195849848193
            ],
            [
              126.97662008837607,
              37.291976547530076
            ]
          ]
        ]
      }
    },
    {
      "type": "Feature",
      "properties": {
        "indoor": "room",
        "level": "1",
        "ref": "",
        "name": "",
        "room_type": "",
        "_idx": 7,
        "_centroid": [
          126.9769904,
          37.291975
        ],
        "_area_m2": 8.9
      },
      "geometry": {
        "type": "Polygon",
        "coordinates": [
          [
            [
              126.97700316002249,
              37.29195874628206
            ],
            [
              126.97697188577656,
              37.29196286012629
            ],
            [
              126.97697776999713,
              37.291991172228876
            ],
            [
              126.9770088494893,
              37.29198724523256
            ],
            [
              126.97700316002249,
              37.29195874628206
            ]
          ]
        ]
      }
    },
    {
      "type": "Feature",
      "properties": {
        "indoor": "room",
        "level": "1",
        "ref": "",
        "name": "",
        "room_type": "",
        "_idx": 8,
        "_centroid": [
          126.9768853,
          37.2919723
        ],
        "_area_m2": 103.1
      },
      "geometry": {
        "type": "Polygon",
        "coordinates": [
          [
            [
              126.9767929378122,
              37.291953810753895
            ],
            [
              126.97680523369601,
              37.29201297275944
            ],
            [
              126.97697776999713,
              37.291991172228876
            ],
            [
              126.97696529304427,
              37.29193113898579
            ],
            [
              126.9767929378122,
              37.291953810753895
            ]
          ]
        ]
      }
    },
    {
      "type": "Feature",
      "properties": {
        "indoor": "room",
        "level": "1",
        "ref": "",
        "name": "",
        "room_type": "",
        "_idx": 9,
        "_centroid": [
          126.9767814,
          37.2919686
        ],
        "_area_m2": 11.0
      },
      "geometry": {
        "type": "Polygon",
        "coordinates": [
          [
            [
              126.97679934654263,
              37.29198464655415
            ],
            [
              126.97679348887647,
              37.29195646221696
            ],
            [
              126.9767929378122,
              37.291953810753895
            ],
            [
              126.97675730078342,
              37.29195849848193
            ],
            [
              126.9767637095153,
              37.291989334280906
            ],
            [
              126.97679934654263,
              37.29198464655415
            ]
          ]
        ]
      }
    },
    {
      "type": "Feature",
      "properties": {
        "indoor": "room",
        "level": "1",
        "ref": "",
        "name": "",
        "room_type": "",
        "_idx": 10,
        "_centroid": [
          126.9764091,
          37.2919568
        ],
        "_area_m2": 73.1
      },
      "geometry": {
        "type": "Polygon",
        "coordinates": [
          [
            [
              126.97640498383207,
              37.29198445377612
            ],
            [
              126.97647267476081,
              37.29197495995653
            ],
            [
              126.97645812565126,
              37.29190930459456
            ],
            [
              126.97634804464394,
              37.291924746597175
            ],
            [
              126.97636167000819,
              37.29199052864605
            ],
            [
              126.97640498383207,
              37.29198445377612
            ]
          ]
        ]
      }
    },
    {
      "type": "Feature",
      "properties": {
        "indoor": "room",
        "level": "1",
        "ref": "",
        "name": "",
        "room_type": "",
        "_idx": 11,
        "_centroid": [
          126.9764968,
          37.2919445
        ],
        "_area_m2": 46.9
      },
      "geometry": {
        "type": "Polygon",
        "coordinates": [
          [
            [
              126.9764806593383,
              37.29197384009976
            ],
            [
              126.9765435949952,
              37.29196501321758
            ],
            [
              126.97652904548949,
              37.29189935606344
            ],
            [
              126.97645812565126,
              37.29190930459456
            ],
            [
              126.97647267476081,
              37.29197495995653
            ],
            [
              126.9764806593383,
              37.29197384009976
            ]
          ]
        ]
      }
    },
    {
      "type": "Feature",
      "properties": {
        "indoor": "room",
        "level": "1",
        "ref": "",
        "name": "",
        "room_type": "",
        "_idx": 12,
        "_centroid": [
          126.9769806,
          37.2919429
        ],
        "_area_m2": 10.0
      },
      "geometry": {
        "type": "Polygon",
        "coordinates": [
          [
            [
              126.97696600082766,
              37.29193454450877
            ],
            [
              126.97697188577656,
              37.29196286012629
            ],
            [
              126.97700316002249,
              37.29195874628206
            ],
            [
              126.97699682063214,
              37.29192699181745
            ],
            [
              126.97696529304427,
              37.29193113898579
            ],
            [
              126.97696600082766,
              37.29193454450877
            ]
          ]
        ]
      }
    },
    {
      "type": "Feature",
      "properties": {
        "indoor": "room",
        "level": "1",
        "ref": "",
        "name": "",
        "room_type": "",
        "_idx": 13,
        "_centroid": [
          126.9765548,
          37.2919296
        ],
        "_area_m2": 24.4
      },
      "geometry": {
        "type": "Polygon",
        "coordinates": [
          [
            [
              126.97652904548949,
              37.29189935606344
            ],
            [
              126.9765435949952,
              37.29196501321758
            ],
            [
              126.97658051111746,
              37.29195983563879
            ],
            [
              126.97656596140574,
              37.29189417755273
            ],
            [
              126.97652904548949,
              37.29189935606344
            ]
          ]
        ]
      }
    },
    {
      "type": "Feature",
      "properties": {
        "indoor": "room",
        "level": "1",
        "ref": "",
        "name": "",
        "room_type": "",
        "_idx": 14,
        "_centroid": [
          126.9765901,
          37.2919246
        ],
        "_area_m2": 22.2
      },
      "geometry": {
        "type": "Polygon",
        "coordinates": [
          [
            [
              126.97656596140574,
              37.29189417755273
            ],
            [
              126.97658051111746,
              37.29195983563879
            ],
            [
              126.97661415866274,
              37.29195511648612
            ],
            [
              126.97659960876378,
              37.29188945755058
            ],
            [
              126.97656596140574,
              37.29189417755273
            ]
          ]
        ]
      }
    },
    {
      "type": "Feature",
      "properties": {
        "indoor": "room",
        "level": "1",
        "ref": "",
        "name": "",
        "room_type": "",
        "_idx": 15,
        "_centroid": [
          126.9766249,
          37.2919198
        ],
        "_area_m2": 23.9
      },
      "geometry": {
        "type": "Polygon",
        "coordinates": [
          [
            [
              126.97659960876378,
              37.29188945755058
            ],
            [
              126.97661415866274,
              37.29195511648612
            ],
            [
              126.97665027487051,
              37.29195005109735
            ],
            [
              126.97663572477032,
              37.291884391250036
            ],
            [
              126.97659960876378,
              37.29188945755058
            ]
          ]
        ]
      }
    },
    {
      "type": "Feature",
      "properties": {
        "indoor": "room",
        "level": "1",
        "ref": "",
        "name": "",
        "room_type": "",
        "_idx": 16,
        "_centroid": [
          126.9766565,
          37.2919153
        ],
        "_area_m2": 17.9
      },
      "geometry": {
        "type": "Polygon",
        "coordinates": [
          [
            [
              126.97663572477032,
              37.291884391250036
            ],
            [
              126.97665027487051,
              37.29195005109735
            ],
            [
              126.97667735418268,
              37.291946253155864
            ],
            [
              126.97666280132279,
              37.29188059299088
            ],
            [
              126.97663572477032,
              37.291884391250036
            ]
          ]
        ]
      }
    },
    {
      "type": "Feature",
      "properties": {
        "indoor": "room",
        "level": "1",
        "ref": "",
        "name": "",
        "room_type": "",
        "_idx": 17,
        "_centroid": [
          126.9767867,
          37.2918935
        ],
        "_area_m2": 70.7
      },
      "geometry": {
        "type": "Polygon",
        "coordinates": [
          [
            [
              126.9768419568012,
              37.291859954360525
            ],
            [
              126.97675810438847,
              37.29187054941216
            ],
            [
              126.97673277477787,
              37.29187374989858
            ],
            [
              126.97674568945361,
              37.29193844048663
            ],
            [
              126.97685487195989,
              37.291924647376376
            ],
            [
              126.9768419568012,
              37.291859954360525
            ]
          ]
        ]
      }
    },
    {
      "type": "Feature",
      "properties": {
        "indoor": "room",
        "level": "1",
        "ref": "",
        "name": "",
        "room_type": "",
        "_idx": 18,
        "_centroid": [
          126.9769093,
          37.2918846
        ],
        "_area_m2": 78.9
      },
      "geometry": {
        "type": "Polygon",
        "coordinates": [
          [
            [
              126.9768419568012,
              37.291859954360525
            ],
            [
              126.97685487195989,
              37.291924647376376
            ],
            [
              126.97697669341824,
              37.29190925757756
            ],
            [
              126.9769637777221,
              37.29184456184861
            ],
            [
              126.9768419568012,
              37.291859954360525
            ]
          ]
        ]
      }
    },
    {
      "type": "Feature",
      "properties": {
        "indoor": "room",
        "level": "1",
        "ref": "",
        "name": "",
        "room_type": "",
        "_idx": 19,
        "_centroid": [
          126.9769962,
          37.2918736
        ],
        "_area_m2": 33.6
      },
      "geometry": {
        "type": "Polygon",
        "coordinates": [
          [
            [
              126.9769637777221,
              37.29184456184861
            ],
            [
              126.97697669341824,
              37.29190925757756
            ],
            [
              126.97702853687646,
              37.291902708153486
            ],
            [
              126.9770156209507,
              37.291838011270045
            ],
            [
              126.9769637777221,
              37.29184456184861
            ]
          ]
        ]
      }
    },
    {
      "type": "Feature",
      "properties": {
        "indoor": "room",
        "level": "1",
        "ref": "",
        "name": "",
        "room_type": "",
        "_idx": 20,
        "_centroid": [
          126.977038,
          37.2918684
        ],
        "_area_m2": 20.6
      },
      "geometry": {
        "type": "Polygon",
        "coordinates": [
          [
            [
              126.9770156209507,
              37.291838011270045
            ],
            [
              126.97702853687646,
              37.291902708153486
            ],
            [
              126.97706029137257,
              37.291898696583495
            ],
            [
              126.97704737500266,
              37.29183399903126
            ],
            [
              126.9770156209507,
              37.291838011270045
            ]
          ]
        ]
      }
    },
    {
      "type": "Feature",
      "properties": {
        "indoor": "room",
        "level": "1",
        "ref": "",
        "name": "",
        "room_type": "",
        "_idx": 21,
        "_centroid": [
          126.9767401,
          37.291799
        ],
        "_area_m2": 145.6
      },
      "geometry": {
        "type": "Polygon",
        "coordinates": [
          [
            [
              126.97667886762889,
              37.29173895594473
            ],
            [
              126.97669150424922,
              37.291802253846406
            ],
            [
              126.97670105089941,
              37.291850073790414
            ],
            [
              126.97672738389109,
              37.29184674652218
            ],
            [
              126.97683191759027,
              37.2918335861051
            ],
            [
              126.97680972502741,
              37.291722421614836
            ],
            [
              126.97667886762889,
              37.29173895594473
            ]
          ]
        ]
      }
    },
    {
      "type": "Feature",
      "properties": {
        "indoor": "room",
        "level": "1",
        "ref": "",
        "name": "",
        "room_type": "",
        "_idx": 22,
        "_centroid": [
          126.9780317,
          37.2917911
        ],
        "_area_m2": 15.1
      },
      "geometry": {
        "type": "Polygon",
        "coordinates": [
          [
            [
              126.97804244687875,
              37.29180989854108
            ],
            [
              126.9780515392238,
              37.29176536145681
            ],
            [
              126.9780181155782,
              37.291763346392855
            ],
            [
              126.97800734578469,
              37.291807225511874
            ],
            [
              126.97803886262729,
              37.29180989854108
            ],
            [
              126.97804244687875,
              37.29180989854108
            ]
          ]
        ]
      }
    },
    {
      "type": "Feature",
      "properties": {
        "indoor": "room",
        "level": "1",
        "ref": "",
        "name": "",
        "room_type": "",
        "_idx": 23,
        "_centroid": [
          126.9780861,
          37.2917844
        ],
        "_area_m2": 32.4
      },
      "geometry": {
        "type": "Polygon",
        "coordinates": [
          [
            [
              126.97812081539543,
              37.29181096009758
            ],
            [
              126.97812572404969,
              37.291768435987265
            ],
            [
              126.97809008086514,
              37.291767438842285
            ],
            [
              126.9780515392238,
              37.29176536145681
            ],
            [
              126.97804244687875,
              37.29180989854108
            ],
            [
              126.97812081539543,
              37.29181096009758
            ]
          ]
        ]
      }
    },
    {
      "type": "Feature",
      "properties": {
        "indoor": "room",
        "level": "1",
        "ref": "",
        "name": "",
        "room_type": "",
        "_idx": 24,
        "_centroid": [
          126.9779921,
          37.2917836
        ],
        "_area_m2": 18.0
      },
      "geometry": {
        "type": "Polygon",
        "coordinates": [
          [
            [
              126.97800734578469,
              37.291807225511874
            ],
            [
              126.9780181155782,
              37.291763346392855
            ],
            [
              126.97797790275457,
              37.29176010567133
            ],
            [
              126.97796516235194,
              37.291803712802874
            ],
            [
              126.97800734578469,
              37.291807225511874
            ]
          ]
        ]
      }
    },
    {
      "type": "Feature",
      "properties": {
        "indoor": "room",
        "level": "1",
        "ref": "",
        "name": "",
        "room_type": "",
        "_idx": 25,
        "_centroid": [
          126.9781671,
          37.2917834
        ],
        "_area_m2": 32.3
      },
      "geometry": {
        "type": "Polygon",
        "coordinates": [
          [
            [
              126.97819915058646,
              37.291773620495796
            ],
            [
              126.97819946456539,
              37.291767501830506
            ],
            [
              126.97815852100199,
              37.29176802051018
            ],
            [
              126.97812572404969,
              37.291768435987265
            ],
            [
              126.97812081539543,
              37.291810960097585
            ],
            [
              126.97819915058646,
              37.29181201007333
            ],
            [
              126.97819915058646,
              37.291773620495796
            ]
          ]
        ]
      }
    },
    {
      "type": "Feature",
      "properties": {
        "indoor": "room",
        "level": "1",
        "ref": "",
        "name": "",
        "room_type": "",
        "_idx": 26,
        "_centroid": [
          126.9779099,
          37.2917806
        ],
        "_area_m2": 17.1
      },
      "geometry": {
        "type": "Polygon",
        "coordinates": [
          [
            [
              126.97792628506141,
              37.29180047540362
            ],
            [
              126.97794145009107,
              37.291756283281636
            ],
            [
              126.97790522590955,
              37.291751957125676
            ],
            [
              126.97788687855777,
              37.291796993676755
            ],
            [
              126.97788969849124,
              37.291797428757654
            ],
            [
              126.97792628506141,
              37.29180047540362
            ]
          ]
        ]
      }
    },
    {
      "type": "Feature",
      "properties": {
        "indoor": "room",
        "level": "1",
        "ref": "",
        "name": "",
        "room_type": "",
        "_idx": 27,
        "_centroid": [
          126.9779527,
          37.2917801
        ],
        "_area_m2": 16.6
      },
      "geometry": {
        "type": "Polygon",
        "coordinates": [
          [
            [
              126.97796516235194,
              37.291803712802874
            ],
            [
              126.97797790275457,
              37.29176010567133
            ],
            [
              126.97794145009107,
              37.291756283281636
            ],
            [
              126.97792628506141,
              37.29180047540362
            ],
            [
              126.97796516235194,
              37.291803712802874
            ]
          ]
        ]
      }
    },
    {
      "type": "Feature",
      "properties": {
        "indoor": "room",
        "level": "1",
        "ref": "",
        "name": "",
        "room_type": "",
        "_idx": 28,
        "_centroid": [
          126.9778778,
          37.2917716
        ],
        "_area_m2": 17.1
      },
      "geometry": {
        "type": "Polygon",
        "coordinates": [
          [
            [
              126.97788687855777,
              37.291796993676755
            ],
            [
              126.97790522590955,
              37.291751957125676
            ],
            [
              126.97787013108166,
              37.291746472826794
            ],
            [
              126.97784899281959,
              37.29179114837509
            ],
            [
              126.97788687855777,
              37.291796993676755
            ]
          ]
        ]
      }
    },
    {
      "type": "Feature",
      "properties": {
        "indoor": "room",
        "level": "1",
        "ref": "",
        "name": "",
        "room_type": "",
        "_idx": 29,
        "_centroid": [
          126.9778404,
          37.2917658
        ],
        "_area_m2": 18.0
      },
      "geometry": {
        "type": "Polygon",
        "coordinates": [
          [
            [
              126.97784899281959,
              37.29179114837509
            ],
            [
              126.97787013108166,
              37.291746472826794
            ],
            [
              126.97783315617367,
              37.29174061459797
            ],
            [
              126.97780921287895,
              37.291785010820874
            ],
            [
              126.97784899281959,
              37.29179114837509
            ]
          ]
        ]
      }
    },
    {
      "type": "Feature",
      "properties": {
        "indoor": "room",
        "level": "1",
        "ref": "",
        "name": "",
        "room_type": "",
        "_idx": 30,
        "_centroid": [
          126.9777887,
          37.291751
        ],
        "_area_m2": 34.4
      },
      "geometry": {
        "type": "Polygon",
        "coordinates": [
          [
            [
              126.97773569960495,
              37.291768267837156
            ],
            [
              126.97780921287895,
              37.291785010820874
            ],
            [
              126.97783315617367,
              37.29174061459797
            ],
            [
              126.97780377992267,
              37.291734740788286
            ],
            [
              126.97776160099575,
              37.291726307070434
            ],
            [
              126.97773569960495,
              37.291768267837156
            ]
          ]
        ]
      }
    },
    {
      "type": "Feature",
      "properties": {
        "indoor": "room",
        "level": "1",
        "ref": "",
        "name": "",
        "room_type": "",
        "_idx": 31,
        "_centroid": [
          126.9777149,
          37.2917341
        ],
        "_area_m2": 35.3
      },
      "geometry": {
        "type": "Polygon",
        "coordinates": [
          [
            [
              126.97773569960495,
              37.291768267837156
            ],
            [
              126.97776160099575,
              37.291726307070434
            ],
            [
              126.97772591327328,
              37.29171716609774
            ],
            [
              126.97769113179207,
              37.29170781785642
            ],
            [
              126.97765995058539,
              37.29175101564831
            ],
            [
              126.97773569960495,
              37.291768267837156
            ]
          ]
        ]
      }
    },
    {
      "type": "Feature",
      "properties": {
        "indoor": "room",
        "level": "1",
        "ref": "",
        "name": "",
        "room_type": "",
        "_idx": 32,
        "_centroid": [
          126.9773073,
          37.2917339
        ],
        "_area_m2": 273.3
      },
      "geometry": {
        "type": "Polygon",
        "coordinates": [
          [
            [
              126.97734579111308,
              37.29164917319592
            ],
            [
              126.97733507733331,
              37.29168098322674
            ],
            [
              126.97727685484402,
              37.29168606761035
            ],
            [
              126.9772083363705,
              37.291700360036316
            ],
            [
              126.97717236572939,
              37.29171667747532
            ],
            [
              126.9771461659328,
              37.291737298084996
            ],
            [
              126.97714606966508,
              37.29175154320303
            ],
            [
              126.97715855450973,
              37.29176158303229
            ],
            [
              126.97716934731022,
              37.29177026218404
            ],
            [
              126.97720845865702,
              37.29177877909847
            ],
            [
              126.97722358435006,
              37.29178207287978
            ],
            [
              126.97726850473148,
              37.2917822650139
            ],
            [
              126.97730160923153,
              37.29178063023863
            ],
            [
              126.97733116826812,
              37.291777514160934
            ],
            [
              126.97737587239408,
              37.29176887223815
            ],
            [
              126.97741660746217,
              37.29175657411554
            ],
            [
              126.97743540826283,
              37.29174826457211
            ],
            [
              126.97744837529517,
              37.29173828344894
            ],
            [
              126.97745922261029,
              37.291728155473194
            ],
            [
              126.97746991861798,
              37.2917274757878
            ],
            [
              126.97745917038591,
              37.29166720492771
            ],
            [
              126.97740339467732,
              37.29165615322162
            ],
            [
              126.97734579111308,
              37.29164917319592
            ]
          ]
        ]
      }
    },
    {
      "type": "Feature",
      "properties": {
        "indoor": "room",
        "level": "1",
        "ref": "",
        "name": "",
        "room_type": "",
        "_idx": 33,
        "_centroid": [
          126.9776373,
          37.2917219
        ],
        "_area_m2": 36.3
      },
      "geometry": {
        "type": "Polygon",
        "coordinates": [
          [
            [
              126.97765995058539,
              37.29175101564831
            ],
            [
              126.97769113179207,
              37.29170781785642
            ],
            [
              126.97765582153835,
              37.2916981112646
            ],
            [
              126.97762217593885,
              37.29168745426669
            ],
            [
              126.97758676837292,
              37.29172878808233
            ],
            [
              126.97759043623472,
              37.29173020974292
            ],
            [
              126.97765480403974,
              37.29174991855992
            ],
            [
              126.97765995058539,
              37.29175101564831
            ]
          ]
        ]
      }
    },
    {
      "type": "Feature",
      "properties": {
        "indoor": "room",
        "level": "1",
        "ref": "",
        "name": "",
        "room_type": "",
        "_idx": 34,
        "_centroid": [
          126.9775702,
          37.291717
        ],
        "_area_m2": 5.5
      },
      "geometry": {
        "type": "Polygon",
        "coordinates": [
          [
            [
              126.97759615249171,
              37.29171783332315
            ],
            [
              126.97755278818677,
              37.29170561164166
            ],
            [
              126.97754501431952,
              37.291715966406855
            ],
            [
              126.97758676837292,
              37.29172878808233
            ],
            [
              126.97759615249171,
              37.29171783332315
            ]
          ]
        ]
      }
    },
    {
      "type": "Feature",
      "properties": {
        "indoor": "room",
        "level": "1",
        "ref": "",
        "name": "",
        "room_type": "",
        "_idx": 35,
        "_centroid": [
          126.9780454,
          37.2917168
        ],
        "_area_m2": 18.3
      },
      "geometry": {
        "type": "Polygon",
        "coordinates": [
          [
            [
              126.97803943395665,
              37.29168426101011
            ],
            [
              126.97802237187055,
              37.29174727781381
            ],
            [
              126.97805322346221,
              37.29174972912928
            ],
            [
              126.97806669736933,
              37.29168607799733
            ],
            [
              126.97803943395665,
              37.29168426101011
            ]
          ]
        ]
      }
    },
    {
      "type": "Feature",
      "properties": {
        "indoor": "room",
        "level": "1",
        "ref": "",
        "name": "",
        "room_type": "",
        "_idx": 36,
        "_centroid": [
          126.978159,
          37.2917147
        ],
        "_area_m2": 88.0
      },
      "geometry": {
        "type": "Polygon",
        "coordinates": [
          [
            [
              126.97810023215004,
              37.29166673671336
            ],
            [
              126.97808748269895,
              37.291750310797326
            ],
            [
              126.97812351756684,
              37.29175172341974
            ],
            [
              126.97815391219457,
              37.291751474133434
            ],
            [
              126.97819998110462,
              37.291751096292025
            ],
            [
              126.97820112309401,
              37.29169471992964
            ],
            [
              126.97820341305973,
              37.29168305292242
            ],
            [
              126.97820209212263,
              37.291668116480736
            ],
            [
              126.97810023215004,
              37.29166673671336
            ]
          ]
        ]
      }
    },
    {
      "type": "Feature",
      "properties": {
        "indoor": "room",
        "level": "1",
        "ref": "",
        "name": "",
        "room_type": "",
        "_idx": 37,
        "_centroid": [
          126.9782151,
          37.2917119
        ],
        "_area_m2": 23.1
      },
      "geometry": {
        "type": "Polygon",
        "coordinates": [
          [
            [
              126.97819998110462,
              37.291751096292025
            ],
            [
              126.97823633542686,
              37.29174922016971
            ],
            [
              126.97823485872615,
              37.29168129279832
            ],
            [
              126.97820341305973,
              37.29168305292242
            ],
            [
              126.97820112309401,
              37.29169471992964
            ],
            [
              126.97819998110462,
              37.291751096292025
            ]
          ]
        ]
      }
    },
    {
      "type": "Feature",
      "properties": {
        "indoor": "room",
        "level": "1",
        "ref": "",
        "name": "",
        "room_type": "",
        "_idx": 38,
        "_centroid": [
          126.9779712,
          37.291704
        ],
        "_area_m2": 86.4
      },
      "geometry": {
        "type": "Polygon",
        "coordinates": [
          [
            [
              126.97794058509567,
              37.29165783705055
            ],
            [
              126.97791826180794,
              37.29171987221556
            ],
            [
              126.97791243866764,
              37.29173683640108
            ],
            [
              126.97794468800674,
              37.29174021470107
            ],
            [
              126.97798038341578,
              37.29174395399613
            ],
            [
              126.97802237187055,
              37.29174727781381
            ],
            [
              126.97804438356545,
              37.29166598020366
            ],
            [
              126.97794058509567,
              37.29165783705055
            ],
            [
              126.97803720704931,
              37.29166588299254
            ],
            [
              126.97794058509567,
              37.29165783705055
            ]
          ]
        ]
      }
    },
    {
      "type": "Feature",
      "properties": {
        "indoor": "room",
        "level": "1",
        "ref": "",
        "name": "",
        "room_type": "",
        "_idx": 39,
        "_centroid": [
          126.9782527,
          37.2917025
        ],
        "_area_m2": 15.1
      },
      "geometry": {
        "type": "Polygon",
        "coordinates": [
          [
            [
              126.97823485872615,
              37.29168129279832
            ],
            [
              126.97823582204701,
              37.291725710600275
            ],
            [
              126.97827197866275,
              37.29172369670875
            ],
            [
              126.97826806420645,
              37.29167943417123
            ],
            [
              126.97823485872615,
              37.29168129279832
            ]
          ]
        ]
      }
    },
    {
      "type": "Feature",
      "properties": {
        "indoor": "room",
        "level": "1",
        "ref": "",
        "name": "",
        "room_type": "",
        "_idx": 40,
        "_centroid": [
          126.9775846,
          37.2916991
        ],
        "_area_m2": 13.5
      },
      "geometry": {
        "type": "Polygon",
        "coordinates": [
          [
            [
              126.97755278818677,
              37.29170561164166
            ],
            [
              126.97759615249171,
              37.29171783332315
            ],
            [
              126.97761712605988,
              37.2916933493574
            ],
            [
              126.9775724321538,
              37.29167944593688
            ],
            [
              126.97755278818677,
              37.29170561164166
            ]
          ]
        ]
      }
    },
    {
      "type": "Feature",
      "properties": {
        "indoor": "room",
        "level": "1",
        "ref": "",
        "name": "",
        "room_type": "",
        "_idx": 41,
        "_centroid": [
          126.9775488,
          37.2916947
        ],
        "_area_m2": 8.6
      },
      "geometry": {
        "type": "Polygon",
        "coordinates": [
          [
            [
              126.97754501431952,
              37.291715966406855
            ],
            [
              126.9775724321538,
              37.29167944593688
            ],
            [
              126.97755206461979,
              37.29167371234613
            ],
            [
              126.97752574349884,
              37.29170960960277
            ],
            [
              126.97754501431952,
              37.291715966406855
            ]
          ]
        ]
      }
    },
    {
      "type": "Feature",
      "properties": {
        "indoor": "room",
        "level": "1",
        "ref": "",
        "name": "",
        "room_type": "",
        "_idx": 42,
        "_centroid": [
          126.9767343,
          37.2916806
        ],
        "_area_m2": 131.4
      },
      "geometry": {
        "type": "Polygon",
        "coordinates": [
          [
            [
              126.97667886762889,
              37.29173895594473
            ],
            [
              126.97680972502741,
              37.291722421614836
            ],
            [
              126.97678971032576,
              37.291622166222034
            ],
            [
              126.97665885294147,
              37.29163870057119
            ],
            [
              126.97667886762889,
              37.29173895594473
            ]
          ]
        ]
      }
    },
    {
      "type": "Feature",
      "properties": {
        "indoor": "room",
        "level": "1",
        "ref": "",
        "name": "",
        "room_type": "",
        "_idx": 43,
        "_centroid": [
          126.9778713,
          37.2916751
        ],
        "_area_m2": 113.9
      },
      "geometry": {
        "type": "Polygon",
        "coordinates": [
          [
            [
              126.97783053028377,
              37.291614025327654
            ],
            [
              126.97778066407709,
              37.29169537430661
            ],
            [
              126.97781505264619,
              37.29170385444608
            ],
            [
              126.97785192433406,
              37.29171037304245
            ],
            [
              126.97788482573522,
              37.291716189725875
            ],
            [
              126.97791826180794,
              37.29171987221556
            ],
            [
              126.97794058509567,
              37.29165783705055
            ],
            [
              126.97794872342247,
              37.291635221083894
            ],
            [
              126.97787082010362,
              37.291623201537284
            ],
            [
              126.97783053028377,
              37.291614025327654
            ]
          ]
        ]
      }
    },
    {
      "type": "Feature",
      "properties": {
        "indoor": "room",
        "level": "1",
        "ref": "",
        "name": "",
        "room_type": "",
        "_idx": 44,
        "_centroid": [
          126.9768971,
          37.2916578
        ],
        "_area_m2": 26.5
      },
      "geometry": {
        "type": "Polygon",
        "coordinates": [
          [
            [
              126.97686122414841,
              37.29167955099099
            ],
            [
              126.9769397072643,
              37.291669634344025
            ],
            [
              126.97693298092064,
              37.29163594146617
            ],
            [
              126.97685450199475,
              37.291645878357514
            ],
            [
              126.97686122414841,
              37.29167955099099
            ]
          ]
        ]
      }
    },
    {
      "type": "Feature",
      "properties": {
        "indoor": "room",
        "level": "1",
        "ref": "",
        "name": "",
        "room_type": "",
        "_idx": 45,
        "_centroid": [
          126.9770286,
          37.2916445
        ],
        "_area_m2": 65.7
      },
      "geometry": {
        "type": "Polygon",
        "coordinates": [
          [
            [
              126.9769397072643,
              37.291669634344025
            ],
            [
              126.97697338533769,
              37.29166537898808
            ],
            [
              126.97714172062103,
              37.291655956669906
            ],
            [
              126.97714501422942,
              37.29162690358564
            ],
            [
              126.97706625976448,
              37.2916270697768
            ],
            [
              126.97700087475778,
              37.29163039359963
            ],
            [
              126.97693298092064,
              37.29163594146617
            ],
            [
              126.9769397072643,
              37.291669634344025
            ]
          ]
        ]
      }
    },
    {
      "type": "Feature",
      "properties": {
        "indoor": "room",
        "level": "1",
        "ref": "",
        "name": "",
        "room_type": "",
        "_idx": 46,
        "_centroid": [
          126.9777287,
          37.2916395
        ],
        "_area_m2": 115.9
      },
      "geometry": {
        "type": "Polygon",
        "coordinates": [
          [
            [
              126.97764684796118,
              37.29165797254306
            ],
            [
              126.97769104692735,
              37.29167235685033
            ],
            [
              126.97773178199537,
              37.291684073318144
            ],
            [
              126.97778066407709,
              37.29169537430661
            ],
            [
              126.97783053028377,
              37.291614025327654
            ],
            [
              126.97775135784998,
              37.29159599340336
            ],
            [
              126.9777118554398,
              37.291580682268986
            ],
            [
              126.97768545611403,
              37.29161566991735
            ],
            [
              126.97764684796118,
              37.29165797254306
            ]
          ]
        ]
      }
    },
    {
      "type": "Feature",
      "properties": {
        "indoor": "room",
        "level": "1",
        "ref": "",
        "name": "",
        "room_type": "",
        "_idx": 47,
        "_centroid": [
          126.9776417,
          37.2916291
        ],
        "_area_m2": 25.8
      },
      "geometry": {
        "type": "Polygon",
        "coordinates": [
          [
            [
              126.97760142977748,
              37.29164319031615
            ],
            [
              126.97764684796118,
              37.29165797254306
            ],
            [
              126.97768545611403,
              37.29161566991735
            ],
            [
              126.97763302927056,
              37.29159967382752
            ],
            [
              126.97760142977748,
              37.29164319031615
            ]
          ]
        ]
      }
    },
    {
      "type": "Feature",
      "properties": {
        "indoor": "room",
        "level": "1",
        "ref": "",
        "name": "",
        "room_type": "",
        "_idx": 48,
        "_centroid": [
          126.9775566,
          37.2916041
        ],
        "_area_m2": 30.2
      },
      "geometry": {
        "type": "Polygon",
        "coordinates": [
          [
            [
              126.97751555324635,
              37.29162375766564
            ],
            [
              126.9775666654628,
              37.291634653266904
            ],
            [
              126.97760081950787,
              37.29158560105382
            ],
            [
              126.97754338392976,
              37.29157251980445
            ],
            [
              126.97751555324635,
              37.29162375766564
            ]
          ]
        ]
      }
    },
    {
      "type": "Feature",
      "properties": {
        "indoor": "room",
        "level": "1",
        "ref": "",
        "name": "",
        "room_type": "",
        "_idx": 49,
        "_centroid": [
          126.9763665,
          37.2915905
        ],
        "_area_m2": 15.1
      },
      "geometry": {
        "type": "Polygon",
        "coordinates": [
          [
            [
              126.97635828062178,
              37.291613231115804
            ],
            [
              126.97639020857594,
              37.29160885359043
            ],
            [
              126.9763799964477,
              37.291561711683975
            ],
            [
              126.97634805312664,
              37.291566018278
            ],
            [
              126.9763560004661,
              37.29160270531331
            ],
            [
              126.97635828062178,
              37.291613231115804
            ]
          ]
        ]
      }
    },
    {
      "type": "Feature",
      "properties": {
        "indoor": "room",
        "level": "1",
        "ref": "",
        "name": "",
        "room_type": "",
        "_idx": 50,
        "_centroid": [
          126.9764004,
          37.2915832
        ],
        "_area_m2": 14.5
      },
      "geometry": {
        "type": "Polygon",
        "coordinates": [
          [
            [
              126.9763799964477,
              37.291561711683975
            ],
            [
              126.97639020857594,
              37.29160885359043
            ],
            [
              126.97642086981088,
              37.29160464973973
            ],
            [
              126.97641067243885,
              37.291557575951195
            ],
            [
              126.9763799964477,
              37.291561711683975
            ]
          ]
        ]
      }
    },
    {
      "type": "Feature",
      "properties": {
        "indoor": "room",
        "level": "1",
        "ref": "",
        "name": "",
        "room_type": "",
        "_idx": 51,
        "_centroid": [
          126.9774663,
          37.2915801
        ],
        "_area_m2": 212.8
      },
      "geometry": {
        "type": "Polygon",
        "coordinates": [
          [
            [
              126.9774170018308,
              37.29148027156424
            ],
            [
              126.97735735882779,
              37.2916132759104
            ],
            [
              126.97741178290622,
              37.291620029123294
            ],
            [
              126.97744896050652,
              37.291626654298874
            ],
            [
              126.97750824180933,
              37.29163721842869
            ],
            [
              126.97754338392976,
              37.29157251980445
            ],
            [
              126.97757705145173,
              37.29151053594688
            ],
            [
              126.9774170018308,
              37.29148027156424
            ]
          ]
        ]
      }
    },
    {
      "type": "Feature",
      "properties": {
        "indoor": "room",
        "level": "1",
        "ref": "",
        "name": "",
        "room_type": "",
        "_idx": 52,
        "_centroid": [
          126.9764322,
          37.2915789
        ],
        "_area_m2": 15.5
      },
      "geometry": {
        "type": "Polygon",
        "coordinates": [
          [
            [
              126.97641067243885,
              37.291557575951195
            ],
            [
              126.97642086981088,
              37.29160464973973
            ],
            [
              126.97645372660362,
              37.29160014486407
            ],
            [
              126.97644354504482,
              37.29155314407111
            ],
            [
              126.97641067243885,
              37.291557575951195
            ]
          ]
        ]
      }
    },
    {
      "type": "Feature",
      "properties": {
        "indoor": "room",
        "level": "1",
        "ref": "",
        "name": "",
        "room_type": "",
        "_idx": 53,
        "_centroid": [
          126.9768721,
          37.2915768
        ],
        "_area_m2": 20.6
      },
      "geometry": {
        "type": "Polygon",
        "coordinates": [
          [
            [
              126.9768885992856,
              37.29159222789377
            ],
            [
              126.97688691925187,
              37.29158377954731
            ],
            [
              126.97687872775002,
              37.29154258711797
            ],
            [
              126.97683948535614,
              37.29154752624938
            ],
            [
              126.97684990309982,
              37.29159991372443
            ],
            [
              126.97688914549353,
              37.291594974596634
            ],
            [
              126.9768885992856,
              37.29159222789377
            ]
          ]
        ]
      }
    },
    {
      "type": "Feature",
      "properties": {
        "indoor": "room",
        "level": "1",
        "ref": "",
        "name": "",
        "room_type": "",
        "_idx": 54,
        "_centroid": [
          126.9764637,
          37.2915746
        ],
        "_area_m2": 14.3
      },
      "geometry": {
        "type": "Polygon",
        "coordinates": [
          [
            [
              126.97644354504482,
              37.29155314407111
            ],
            [
              126.97645372660362,
              37.29160014486407
            ],
            [
              126.97648388539618,
              37.29159600990142
            ],
            [
              126.9764737183515,
              37.29154907611018
            ],
            [
              126.97644354504482,
              37.29155314407111
            ]
          ]
        ]
      }
    },
    {
      "type": "Feature",
      "properties": {
        "indoor": "room",
        "level": "1",
        "ref": "",
        "name": "",
        "room_type": "",
        "_idx": 55,
        "_centroid": [
          126.9773025,
          37.2915716
        ],
        "_area_m2": 129.7
      },
      "geometry": {
        "type": "Polygon",
        "coordinates": [
          [
            [
              126.97739816844859,
              37.29152539072512
            ],
            [
              126.97724021538642,
              37.29151216092945
            ],
            [
              126.9772207396764,
              37.29160081157117
            ],
            [
              126.977295942879,
              37.291606129689505
            ],
            [
              126.97735735882779,
              37.2916132759104
            ],
            [
              126.97739816844859,
              37.29152539072512
            ]
          ]
        ]
      }
    },
    {
      "type": "Feature",
      "properties": {
        "indoor": "room",
        "level": "1",
        "ref": "",
        "name": "",
        "room_type": "",
        "_idx": 56,
        "_centroid": [
          126.9764937,
          37.2915705
        ],
        "_area_m2": 14.0
      },
      "geometry": {
        "type": "Polygon",
        "coordinates": [
          [
            [
              126.9764737183515,
              37.29154907611018
            ],
            [
              126.97648388539618,
              37.29159600990142
            ],
            [
              126.97651362248469,
              37.291591932757086
            ],
            [
              126.9765034697522,
              37.29154506503055
            ],
            [
              126.9764737183515,
              37.29154907611018
            ]
          ]
        ]
      }
    },
    {
      "type": "Feature",
      "properties": {
        "indoor": "room",
        "level": "1",
        "ref": "",
        "name": "",
        "room_type": "",
        "_idx": 57,
        "_centroid": [
          126.9771507,
          37.291564
        ],
        "_area_m2": 135.0
      },
      "geometry": {
        "type": "Polygon",
        "coordinates": [
          [
            [
              126.97724021538642,
              37.29151216092945
            ],
            [
              126.97707495301921,
              37.29150984298948
            ],
            [
              126.97707298046068,
              37.291598855462425
            ],
            [
              126.97714470088265,
              37.29159840179867
            ],
            [
              126.9772207396764,
              37.29160081157117
            ],
            [
              126.97724021538642,
              37.29151216092945
            ]
          ]
        ]
      }
    },
    {
      "type": "Feature",
      "properties": {
        "indoor": "room",
        "level": "1",
        "ref": "",
        "name": "",
        "room_type": "",
        "_idx": 58,
        "_centroid": [
          126.9768994,
          37.2915611
        ],
        "_area_m2": 13.7
      },
      "geometry": {
        "type": "Polygon",
        "coordinates": [
          [
            [
              126.97687872775002,
              37.29154258711797
            ],
            [
              126.97688691925187,
              37.29158377954731
            ],
            [
              126.97692004826482,
              37.29157957332917
            ],
            [
              126.97691186094248,
              37.291538416903684
            ],
            [
              126.97687872775002,
              37.29154258711797
            ]
          ]
        ]
      }
    },
    {
      "type": "Feature",
      "properties": {
        "indoor": "room",
        "level": "1",
        "ref": "",
        "name": "",
        "room_type": "",
        "_idx": 59,
        "_centroid": [
          126.9769808,
          37.2915566
        ],
        "_area_m2": 136.0
      },
      "geometry": {
        "type": "Polygon",
        "coordinates": [
          [
            [
              126.97707298046068,
              37.291598855462425
            ],
            [
              126.97707495301921,
              37.29150984298948
            ],
            [
              126.97695617819922,
              37.29151643396511
            ],
            [
              126.97690867829891,
              37.29152241240575
            ],
            [
              126.97691186094248,
              37.291538416903684
            ],
            [
              126.97692589173536,
              37.2916089732389
            ],
            [
              126.97701481868481,
              37.2916013101448
            ],
            [
              126.97707298046068,
              37.291598855462425
            ]
          ]
        ]
      }
    },
    {
      "type": "Feature",
      "properties": {
        "indoor": "room",
        "level": "1",
        "ref": "",
        "name": "",
        "room_type": "",
        "_idx": 60,
        "_centroid": [
          126.9766443,
          37.2915433
        ],
        "_area_m2": 29.1
      },
      "geometry": {
        "type": "Polygon",
        "coordinates": [
          [
            [
              126.9766923622721,
              37.291516493916575
            ],
            [
              126.97659646811479,
              37.291532088639165
            ],
            [
              126.97660387592623,
              37.291560919231415
            ],
            [
              126.9766335840748,
              37.291557434101286
            ],
            [
              126.97669527099181,
              37.29154967005542
            ],
            [
              126.9766923622721,
              37.291516493916575
            ]
          ]
        ]
      }
    },
    {
      "type": "Feature",
      "properties": {
        "indoor": "room",
        "level": "1",
        "ref": "",
        "name": "",
        "room_type": "",
        "_idx": 61,
        "_centroid": [
          126.976285,
          37.2915236
        ],
        "_area_m2": 17.7
      },
      "geometry": {
        "type": "Polygon",
        "coordinates": [
          [
            [
              126.97628345970071,
              37.291545671603956
            ],
            [
              126.97630776460002,
              37.29154228683642
            ],
            [
              126.97629612161184,
              37.291489431887705
            ],
            [
              126.97626205736455,
              37.291494001586585
            ],
            [
              126.97627544423393,
              37.29154678786001
            ],
            [
              126.97628345970071,
              37.291545671603956
            ]
          ]
        ]
      }
    },
    {
      "type": "Feature",
      "properties": {
        "indoor": "room",
        "level": "1",
        "ref": "",
        "name": "",
        "room_type": "",
        "_idx": 62,
        "_centroid": [
          126.9763183,
          37.2915136
        ],
        "_area_m2": 17.4
      },
      "geometry": {
        "type": "Polygon",
        "coordinates": [
          [
            [
              126.97630776460002,
              37.29154228683642
            ],
            [
              126.97634042534061,
              37.29153773841106
            ],
            [
              126.97632883087901,
              37.291485043958616
            ],
            [
              126.97629612161184,
              37.291489431887705
            ],
            [
              126.97630776460002,
              37.29154228683642
            ]
          ]
        ]
      }
    },
    {
      "type": "Feature",
      "properties": {
        "indoor": "room",
        "level": "1",
        "ref": "",
        "name": "",
        "room_type": "",
        "_idx": 63,
        "_centroid": [
          126.9763514,
          37.2915091
        ],
        "_area_m2": 17.8
      },
      "geometry": {
        "type": "Polygon",
        "coordinates": [
          [
            [
              126.97632883087901,
              37.291485043958616
            ],
            [
              126.97634042534061,
              37.29153773841106
            ],
            [
              126.97637401581727,
              37.291533060506985
            ],
            [
              126.97636245806531,
              37.29148053289122
            ],
            [
              126.97632883087901,
              37.291485043958616
            ]
          ]
        ]
      }
    },
    {
      "type": "Feature",
      "properties": {
        "indoor": "room",
        "level": "1",
        "ref": "",
        "name": "",
        "room_type": "",
        "_idx": 64,
        "_centroid": [
          126.976384,
          37.2915046
        ],
        "_area_m2": 16.6
      },
      "geometry": {
        "type": "Polygon",
        "coordinates": [
          [
            [
              126.97636245806531,
              37.29148053289122
            ],
            [
              126.97637401581727,
              37.291533060506985
            ],
            [
              126.97640544748899,
              37.29152868324416
            ],
            [
              126.9763939240874,
              37.291476311742734
            ],
            [
              126.97636245806531,
              37.29148053289122
            ]
          ]
        ]
      }
    },
    {
      "type": "Feature",
      "properties": {
        "indoor": "room",
        "level": "1",
        "ref": "",
        "name": "",
        "room_type": "",
        "_idx": 65,
        "_centroid": [
          126.9764143,
          37.2915005
        ],
        "_area_m2": 15.4
      },
      "geometry": {
        "type": "Polygon",
        "coordinates": [
          [
            [
              126.9763939240874,
              37.291476311742734
            ],
            [
              126.97640544748899,
              37.29152868324416
            ],
            [
              126.97643472077229,
              37.29152460656455
            ],
            [
              126.9764232293625,
              37.29147238045719
            ],
            [
              126.9763939240874,
              37.291476311742734
            ]
          ]
        ]
      }
    },
    {
      "type": "Feature",
      "properties": {
        "indoor": "room",
        "level": "1",
        "ref": "",
        "name": "",
        "room_type": "",
        "_idx": 66,
        "_centroid": [
          126.9766219,
          37.2914978
        ],
        "_area_m2": 73.3
      },
      "geometry": {
        "type": "Polygon",
        "coordinates": [
          [
            [
              126.97661163304129,
              37.29152962245344
            ],
            [
              126.97662736546414,
              37.29152706397893
            ],
            [
              126.97662370873167,
              37.2915128322721
            ],
            [
              126.97664139389772,
              37.291509956233426
            ],
            [
              126.97663790155725,
              37.291496364323855
            ],
            [
              126.97665208567405,
              37.29149405764055
            ],
            [
              126.9766457885429,
              37.291469549703386
            ],
            [
              126.97666510465217,
              37.29146640843181
            ],
            [
              126.97665875807591,
              37.291441708048005
            ],
            [
              126.9765473043439,
              37.29145573587091
            ],
            [
              126.97656446536666,
              37.29153670213649
            ],
            [
              126.97658762281114,
              37.29153352710053
            ],
            [
              126.97661163304129,
              37.29152962245344
            ]
          ]
        ]
      }
    },
    {
      "type": "Feature",
      "properties": {
        "indoor": "room",
        "level": "1",
        "ref": "",
        "name": "",
        "room_type": "",
        "_idx": 67,
        "_centroid": [
          126.9764597,
          37.2914943
        ],
        "_area_m2": 32.3
      },
      "geometry": {
        "type": "Polygon",
        "coordinates": [
          [
            [
              126.9764232293625,
              37.29147238045719
            ],
            [
              126.97643472077229,
              37.29152460656455
            ],
            [
              126.97649623167433,
              37.29151604038367
            ],
            [
              126.97648480748825,
              37.29146411978759
            ],
            [
              126.9764232293625,
              37.29147238045719
            ]
          ]
        ]
      }
    },
    {
      "type": "Feature",
      "properties": {
        "indoor": "room",
        "level": "1",
        "ref": "",
        "name": "",
        "room_type": "",
        "_idx": 68,
        "_centroid": [
          126.9766664,
          37.2914883
        ],
        "_area_m2": 73.3
      },
      "geometry": {
        "type": "Polygon",
        "coordinates": [
          [
            [
              126.97665875807591,
              37.291441708048005
            ],
            [
              126.97666510465217,
              37.29146640843181
            ],
            [
              126.9766457885429,
              37.291469549703386
            ],
            [
              126.97665208567405,
              37.29149405764055
            ],
            [
              126.97663790155725,
              37.291496364323855
            ],
            [
              126.97664139389772,
              37.291509956233426
            ],
            [
              126.97662370873167,
              37.2915128322721
            ],
            [
              126.97662736546414,
              37.29152706397893
            ],
            [
              126.9766923622721,
              37.291516493916575
            ],
            [
              126.97675008879739,
              37.291505052035156
            ],
            [
              126.97673556975592,
              37.2914320403534
            ],
            [
              126.97665875807591,
              37.291441708048005
            ]
          ]
        ]
      }
    },
    {
      "type": "Feature",
      "properties": {
        "indoor": "room",
        "level": "1",
        "ref": "",
        "name": "",
        "room_type": "",
        "_idx": 69,
        "_centroid": [
          126.9765216,
          37.2914858
        ],
        "_area_m2": 32.4
      },
      "geometry": {
        "type": "Polygon",
        "coordinates": [
          [
            [
              126.97648480748825,
              37.29146411978759
            ],
            [
              126.97649623167433,
              37.29151604038367
            ],
            [
              126.97655825528973,
              37.29150740280089
            ],
            [
              126.9765473043439,
              37.29145573587091
            ],
            [
              126.97648480748825,
              37.29146411978759
            ]
          ]
        ]
      }
    }
  ]
}