{
  "type": "FeatureCollection",
  "features": [
    {
      "type": "Feature",
      "properties": {
        "indoor": "room",
        "level": "7",
        "ref": "",
        "name": "",
        "room_type": "",
        "_idx": 1,
        "_centroid": [
          126.9763209,
          37.292042
        ],
        "_area_m2": 60.6
      },
      "geometry": {
        "type": "Polygon",
        "coordinates": [
          [
            [
              126.97629559477319,
              37.2920188989355
            ],
            [
              126.97626455232071,
              37.2920229667456
            ],
            [
              126.97627700071241,
              37.29208309134902
            ],
            [
              126.97630803667755,
              37.292078992165045
            ],
            [
              126.97637758329525,
              37.29206980655153
            ],
            [
              126.97636515595453,
              37.292009783621545
            ],
            [
              126.97635853023759,
              37.292010651857126
            ],
            [
              126.97629559477319,
              37.2920188989355
            ]
          ]
        ]
      }
    },
    {
      "type": "Feature",
      "properties": {
        "indoor": "room",
        "level": "7",
        "ref": "",
        "name": "",
        "room_type": "",
        "_idx": 2,
        "_centroid": [
          126.9763907,
          37.2920373
        ],
        "_area_m2": 23.3
      },
      "geometry": {
        "type": "Polygon",
        "coordinates": [
          [
            [
              126.97640383836179,
              37.292004714669844
            ],
            [
              126.97636515595453,
              37.292009783621545
            ],
            [
              126.97637758329525,
              37.29206980655153
            ],
            [
              126.97641626570731,
              37.29206473760277
            ],
            [
              126.97640383836179,
              37.292004714669844
            ]
          ]
        ]
      }
    },
    {
      "type": "Feature",
      "properties": {
        "indoor": "room",
        "level": "7",
        "ref": "",
        "name": "",
        "room_type": "",
        "_idx": 3,
        "_centroid": [
          126.9764285,
          37.2920323
        ],
        "_area_m2": 22.2
      },
      "geometry": {
        "type": "Polygon",
        "coordinates": [
          [
            [
              126.97640383836179,
              37.292004714669844
            ],
            [
              126.97641626570731,
              37.29206473760277
            ],
            [
              126.97645309701623,
              37.29205991122283
            ],
            [
              126.9764406696715,
              37.291999888285346
            ],
            [
              126.97640383836179,
              37.292004714669844
            ]
          ]
        ]
      }
    },
    {
      "type": "Feature",
      "properties": {
        "indoor": "room",
        "level": "7",
        "ref": "",
        "name": "",
        "room_type": "",
        "_idx": 4,
        "_centroid": [
          126.9764971,
          37.2920233
        ],
        "_area_m2": 60.5
      },
      "geometry": {
        "type": "Polygon",
        "coordinates": [
          [
            [
              126.9764406696715,
              37.291999888285346
            ],
            [
              126.97645309701623,
              37.29205991122283
            ],
            [
              126.97655349587762,
              37.29204675494181
            ],
            [
              126.9765410685326,
              37.291986731992225
            ],
            [
              126.9764406696715,
              37.291999888285346
            ]
          ]
        ]
      }
    },
    {
      "type": "Feature",
      "properties": {
        "indoor": "room",
        "level": "7",
        "ref": "",
        "name": "",
        "room_type": "",
        "_idx": 5,
        "_centroid": [
          126.9765836,
          37.292012
        ],
        "_area_m2": 43.8
      },
      "geometry": {
        "type": "Polygon",
        "coordinates": [
          [
            [
              126.97655349587762,
              37.29204675494181
            ],
            [
              126.97658968676375,
              37.29204201248296
            ],
            [
              126.97662630127685,
              37.29203721451197
            ],
            [
              126.97661387393292,
              37.29197719155345
            ],
            [
              126.97657725941848,
              37.291981989529035
            ],
            [
              126.9765410685326,
              37.291986731992225
            ],
            [
              126.97655349587762,
              37.29204675494181
            ]
          ]
        ]
      }
    },
    {
      "type": "Feature",
      "properties": {
        "indoor": "room",
        "level": "7",
        "ref": "",
        "name": "",
        "room_type": "",
        "_idx": 6,
        "_centroid": [
          126.9766356,
          37.2920052
        ],
        "_area_m2": 18.7
      },
      "geometry": {
        "type": "Polygon",
        "coordinates": [
          [
            [
              126.97661387393292,
              37.29197719155345
            ],
            [
              126.97662630127685,
              37.29203721451198
            ],
            [
              126.97665739107572,
              37.29203314050033
            ],
            [
              126.97664496373349,
              37.291973117537786
            ],
            [
              126.97661387393292,
              37.29197719155345
            ]
          ]
        ]
      }
    },
    {
      "type": "Feature",
      "properties": {
        "indoor": "room",
        "level": "7",
        "ref": "",
        "name": "",
        "room_type": "",
        "_idx": 7,
        "_centroid": [
          126.9766844,
          37.2919988
        ],
        "_area_m2": 40.0
      },
      "geometry": {
        "type": "Polygon",
        "coordinates": [
          [
            [
              126.9767237726151,
              37.292024441854004
            ],
            [
              126.9767113452726,
              37.29196441888372
            ],
            [
              126.97664496373349,
              37.291973117537786
            ],
            [
              126.97665739107572,
              37.29203314050033
            ],
            [
              126.9767237726151,
              37.292024441854004
            ]
          ]
        ]
      }
    },
    {
      "type": "Feature",
      "properties": {
        "indoor": "room",
        "level": "7",
        "ref": "",
        "name": "",
        "room_type": "",
        "_idx": 8,
        "_centroid": [
          126.976738,
          37.2919917
        ],
        "_area_m2": 24.6
      },
      "geometry": {
        "type": "Polygon",
        "coordinates": [
          [
            [
              126.97676470817812,
              37.29201907765202
            ],
            [
              126.97675228083743,
              37.29195905467718
            ],
            [
              126.9767113452726,
              37.29196441888372
            ],
            [
              126.9767237726151,
              37.292024441854004
            ],
            [
              126.97676470817812,
              37.29201907765202
            ]
          ]
        ]
      }
    },
    {
      "type": "Feature",
      "properties": {
        "indoor": "room",
        "level": "7",
        "ref": "",
        "name": "",
        "room_type": "",
        "_idx": 9,
        "_centroid": [
          126.9767933,
          37.2919783
        ],
        "_area_m2": 42.8
      },
      "geometry": {
        "type": "Polygon",
        "coordinates": [
          [
            [
              126.97679053704064,
              37.29195404157449
            ],
            [
              126.97675228083743,
              37.29195905467718
            ],
            [
              126.97676470817812,
              37.29201907765202
            ],
            [
              126.97683576778918,
              37.29200976599052
            ],
            [
              126.97682334044893,
              37.291949743007194
            ],
            [
              126.97679053704064,
              37.29195404157449
            ]
          ]
        ]
      }
    },
    {
      "type": "Feature",
      "properties": {
        "indoor": "room",
        "level": "7",
        "ref": "",
        "name": "",
        "room_type": "",
        "_idx": 10,
        "_centroid": [
          126.9768439,
          37.2919779
        ],
        "_area_m2": 17.3
      },
      "geometry": {
        "type": "Polygon",
        "coordinates": [
          [
            [
              126.97682334044893,
              37.291949743007194
            ],
            [
              126.97683576778918,
              37.29200976599052
            ],
            [
              126.97686455203333,
              37.29200599409909
            ],
            [
              126.97685212469221,
              37.29194597111214
            ],
            [
              126.97682334044893,
              37.291949743007194
            ]
          ]
        ]
      }
    },
    {
      "type": "Feature",
      "properties": {
        "indoor": "room",
        "level": "7",
        "ref": "",
        "name": "",
        "room_type": "",
        "_idx": 11,
        "_centroid": [
          126.9769139,
          37.2919749
        ],
        "_area_m2": 66.4
      },
      "geometry": {
        "type": "Polygon",
        "coordinates": [
          [
            [
              126.97686455203333,
              37.29200599409909
            ],
            [
              126.97691572317608,
              37.29199928862216
            ],
            [
              126.97697473270942,
              37.291991556000184
            ],
            [
              126.97696230536867,
              37.291931533007784
            ],
            [
              126.97685212469221,
              37.29194597111214
            ],
            [
              126.97686455203333,
              37.29200599409909
            ]
          ]
        ]
      }
    },
    {
      "type": "Feature",
      "properties": {
        "indoor": "room",
        "level": "7",
        "ref": "",
        "name": "",
        "room_type": "",
        "_idx": 12,
        "_centroid": [
          126.9763706,
          37.2919598
        ],
        "_area_m2": 24.5
      },
      "geometry": {
        "type": "Polygon",
        "coordinates": [
          [
            [
              126.9763991971095,
              37.29198526537814
            ],
            [
              126.9763846457963,
              37.29191961224143
            ],
            [
              126.97634804464394,
              37.291924746597175
            ],
            [
              126.97635920065676,
              37.29197860683657
            ],
            [
              126.97636167000819,
              37.29199052864605
            ],
            [
              126.9763991971095,
              37.29198526537814
            ]
          ]
        ]
      }
    },
    {
      "type": "Feature",
      "properties": {
        "indoor": "room",
        "level": "7",
        "ref": "",
        "name": "",
        "room_type": "",
        "_idx": 13,
        "_centroid": [
          126.9769857,
          37.2919593
        ],
        "_area_m2": 20.7
      },
      "geometry": {
        "type": "Polygon",
        "coordinates": [
          [
            [
              126.97696230536869,
              37.291931533007784
            ],
            [
              126.97697473270944,
              37.29199155600019
            ],
            [
              126.9770088494893,
              37.29198724523256
            ],
            [
              126.97699682063214,
              37.29192699181745
            ],
            [
              126.97696230536869,
              37.291931533007784
            ]
          ]
        ]
      }
    },
    {
      "type": "Feature",
      "properties": {
        "indoor": "room",
        "level": "7",
        "ref": "",
        "name": "",
        "room_type": "",
        "_idx": 14,
        "_centroid": [
          126.9764134,
          37.2919571
        ],
        "_area_m2": 22.0
      },
      "geometry": {
        "type": "Polygon",
        "coordinates": [
          [
            [
              126.97641786889662,
              37.29191495175356
            ],
            [
              126.9763846457963,
              37.29191961224143
            ],
            [
              126.9763991971095,
              37.29198526537814
            ],
            [
              126.97640498383207,
              37.29198445377612
            ],
            [
              126.97643242039292,
              37.291980605730835
            ],
            [
              126.97642978287288,
              37.291968705675124
            ],
            [
              126.97642481832929,
              37.291946306467175
            ],
            [
              126.97641786889662,
              37.29191495175356
            ]
          ]
        ]
      }
    },
    {
      "type": "Feature",
      "properties": {
        "indoor": "room",
        "level": "7",
        "ref": "",
        "name": "",
        "room_type": "",
        "_idx": 15,
        "_centroid": [
          126.9764827,
          37.2919482
        ],
        "_area_m2": 72.0
      },
      "geometry": {
        "type": "Polygon",
        "coordinates": [
          [
            [
              126.97652667558978,
              37.29189968850952
            ],
            [
              126.97648775377078,
              37.29190514840619
            ],
            [
              126.97641786889662,
              37.29191495175356
            ],
            [
              126.97643242039292,
              37.291980605730835
            ],
            [
              126.97647267476081,
              37.29197495995653
            ],
            [
              126.9764806593383,
              37.29197384009976
            ],
            [
              126.97650230565668,
              37.29197080414985
            ],
            [
              126.9765412276948,
              37.291965345237344
            ],
            [
              126.97652667558978,
              37.29189968850952
            ]
          ]
        ]
      }
    },
    {
      "type": "Feature",
      "properties": {
        "indoor": "room",
        "level": "7",
        "ref": "",
        "name": "",
        "room_type": "",
        "_idx": 16,
        "_centroid": [
          126.9765537,
          37.2919306
        ],
        "_area_m2": 26.0
      },
      "geometry": {
        "type": "Polygon",
        "coordinates": [
          [
            [
              126.9765412276948,
              37.291965345237344
            ],
            [
              126.9765435949952,
              37.29196501321758
            ],
            [
              126.97658051111746,
              37.29195983563879
            ],
            [
              126.97658051372522,
              37.29195983527305
            ],
            [
              126.9765729413223,
              37.2919256698114
            ],
            [
              126.97656596140574,
              37.29189417755273
            ],
            [
              126.97656312411617,
              37.29189457556356
            ],
            [
              126.97652667558978,
              37.29189968850952
            ],
            [
              126.97652917575142,
              37.2919109688359
            ],
            [
              126.97653365550723,
              37.29193118076741
            ],
            [
              126.9765412276948,
              37.291965345237344
            ]
          ]
        ]
      }
    },
    {
      "type": "Feature",
      "properties": {
        "indoor": "room",
        "level": "7",
        "ref": "",
        "name": "",
        "room_type": "",
        "_idx": 17,
        "_centroid": [
          126.9765944,
          37.291924
        ],
        "_area_m2": 22.2
      },
      "geometry": {
        "type": "Polygon",
        "coordinates": [
          [
            [
              126.97659960876379,
              37.29188945755058
            ],
            [
              126.97659223696874,
              37.2918904916552
            ],
            [
              126.97656596140574,
              37.29189417755273
            ],
            [
              126.97658051372522,
              37.29195983527305
            ],
            [
              126.97661415866274,
              37.29195511648612
            ],
            [
              126.97661416126947,
              37.29195511612052
            ],
            [
              126.97659960876379,
              37.29188945755058
            ]
          ]
        ]
      }
    },
    {
      "type": "Feature",
      "properties": {
        "indoor": "room",
        "level": "7",
        "ref": "",
        "name": "",
        "room_type": "",
        "_idx": 18,
        "_centroid": [
          126.9766281,
          37.2919193
        ],
        "_area_m2": 23.9
      },
      "geometry": {
        "type": "Polygon",
        "coordinates": [
          [
            [
              126.97661885032807,
              37.2918867583721
            ],
            [
              126.97659960876379,
              37.29188945755058
            ],
            [
              126.97661416126947,
              37.29195511612052
            ],
            [
              126.97665027487051,
              37.29195005109735
            ],
            [
              126.97665027747696,
              37.29195005073179
            ],
            [
              126.97663572477029,
              37.29188439125004
            ],
            [
              126.97661885032807,
              37.2918867583721
            ]
          ]
        ]
      }
    },
    {
      "type": "Feature",
      "properties": {
        "indoor": "room",
        "level": "7",
        "ref": "",
        "name": "",
        "room_type": "",
        "_idx": 19,
        "_centroid": [
          126.9766524,
          37.2919091
        ],
        "_area_m2": 17.9
      },
      "geometry": {
        "type": "Polygon",
        "coordinates": [
          [
            [
              126.97663572477029,
              37.29188439125004
            ],
            [
              126.97665027747696,
              37.29195005073179
            ],
            [
              126.97667735418268,
              37.291946253155864
            ],
            [
              126.97666280132279,
              37.29188059299088
            ],
            [
              126.97663572477032,
              37.291884391250036
            ],
            [
              126.97663572477029,
              37.29188439125004
            ]
          ]
        ]
      }
    },
    {
      "type": "Feature",
      "properties": {
        "indoor": "room",
        "level": "7",
        "ref": "",
        "name": "",
        "room_type": "",
        "_idx": 20,
        "_centroid": [
          126.9767212,
          37.2919084
        ],
        "_area_m2": 23.4
      },
      "geometry": {
        "type": "Polygon",
        "coordinates": [
          [
            [
              126.97674568945361,
              37.29193844048663
            ],
            [
              126.97673277477787,
              37.29187374989858
            ],
            [
              126.97669663140779,
              37.29187831674174
            ],
            [
              126.97670954608353,
              37.29194300732587
            ],
            [
              126.97674568945361,
              37.29193844048663
            ]
          ]
        ]
      }
    },
    {
      "type": "Feature",
      "properties": {
        "indoor": "room",
        "level": "7",
        "ref": "",
        "name": "",
        "room_type": "",
        "_idx": 21,
        "_centroid": [
          126.9767745,
          37.2918963
        ],
        "_area_m2": 67.4
      },
      "geometry": {
        "type": "Polygon",
        "coordinates": [
          [
            [
              126.9767394217473,
              37.29190704507841
            ],
            [
              126.97674568945361,
              37.29193844048663
            ],
            [
              126.97678382329053,
              37.29193362300959
            ],
            [
              126.97684973075569,
              37.29192529686867
            ],
            [
              126.97683681561989,
              37.29186060396718
            ],
            [
              126.97678816539928,
              37.29186675109632
            ],
            [
              126.97675810438847,
              37.29187054941216
            ],
            [
              126.97673277477787,
              37.29187374989858
            ],
            [
              126.97673607987701,
              37.291890305395725
            ],
            [
              126.9767394217473,
              37.29190704507841
            ]
          ]
        ]
      }
    },
    {
      "type": "Feature",
      "properties": {
        "indoor": "room",
        "level": "7",
        "ref": "",
        "name": "",
        "room_type": "",
        "_idx": 22,
        "_centroid": [
          126.9768648,
          37.2918926
        ],
        "_area_m2": 25.2
      },
      "geometry": {
        "type": "Polygon",
        "coordinates": [
          [
            [
              126.97687570700748,
              37.29185568990076
            ],
            [
              126.97687134857937,
              37.291856240603835
            ],
            [
              126.9768419568012,
              37.291859954360525
            ],
            [
              126.97683681561989,
              37.29186060396718
            ],
            [
              126.97684343207766,
              37.29189374630941
            ],
            [
              126.97684808708081,
              37.29191706357565
            ],
            [
              126.97684973075569,
              37.29192529686867
            ],
            [
              126.97685487195989,
              37.291924647376376
            ],
            [
              126.97688426386871,
              37.29192093427386
            ],
            [
              126.97688862231561,
              37.2919203836679
            ],
            [
              126.97688697846807,
              37.29191214951301
            ],
            [
              126.97688232346407,
              37.29188883224537
            ],
            [
              126.97687818612495,
              37.29186810799431
            ],
            [
              126.97687570700748,
              37.29185568990076
            ]
          ]
        ]
      }
    },
    {
      "type": "Feature",
      "properties": {
        "indoor": "room",
        "level": "7",
        "ref": "",
        "name": "",
        "room_type": "",
        "_idx": 23,
        "_centroid": [
          126.9769339,
          37.2918816
        ],
        "_area_m2": 66.9
      },
      "geometry": {
        "type": "Polygon",
        "coordinates": [
          [
            [
              126.97687751068638,
              37.291864724669814
            ],
            [
              126.97688697846807,
              37.29191214951301
            ],
            [
              126.97688862231561,
              37.2919203836679
            ],
            [
              126.97695588014064,
              37.291911886934976
            ],
            [
              126.97697669341824,
              37.29190925757756
            ],
            [
              126.976991967272,
              37.29190732801983
            ],
            [
              126.97697905150669,
              37.29184263195094
            ],
            [
              126.9769637777221,
              37.29184456184861
            ],
            [
              126.97694296453497,
              37.2918471916698
            ],
            [
              126.97687570700748,
              37.29185568990076
            ],
            [
              126.97687751068638,
              37.291864724669814
            ]
          ]
        ]
      }
    },
    {
      "type": "Feature",
      "properties": {
        "indoor": "room",
        "level": "7",
        "ref": "",
        "name": "",
        "room_type": "",
        "_idx": 24,
        "_centroid": [
          126.9770038,
          37.2918727
        ],
        "_area_m2": 23.7
      },
      "geometry": {
        "type": "Polygon",
        "coordinates": [
          [
            [
              126.97697905150669,
              37.29184263195094
            ],
            [
              126.976991967272,
              37.29190732801983
            ],
            [
              126.97702853687646,
              37.291902708153486
            ],
            [
              126.9770156209507,
              37.291838011270045
            ],
            [
              126.97697905150669,
              37.29184263195094
            ]
          ]
        ]
      }
    },
    {
      "type": "Feature",
      "properties": {
        "indoor": "room",
        "level": "7",
        "ref": "",
        "name": "",
        "room_type": "",
        "_idx": 25,
        "_centroid": [
          126.977038,
          37.2918684
        ],
        "_area_m2": 20.6
      },
      "geometry": {
        "type": "Polygon",
        "coordinates": [
          [
            [
              126.9770156209507,
              37.291838011270045
            ],
            [
              126.97702853687646,
              37.291902708153486
            ],
            [
              126.97706029137257,
              37.291898696583495
            ],
            [
              126.97704737500266,
              37.29183399903126
            ],
            [
              126.9770156209507,
              37.291838011270045
            ]
          ]
        ]
      }
    }
  ]
}