{
  "type": "FeatureCollection",
  "features": [
    {
      "type": "Feature",
      "properties": {
        "indoor": "room",
        "level": "5",
        "ref": "",
        "name": "",
        "room_type": "",
        "_idx": 1,
        "_centroid": [
          126.9762863,
          37.292051
        ],
        "_area_m2": 18.7
      },
      "geometry": {
        "type": "Polygon",
        "coordinates": [
          [
            [
              126.97630803667755,
              37.292078992165045
            ],
            [
              126.97629559477319,
              37.2920188989355
            ],
            [
              126.97626455232071,
              37.2920229667456
            ],
            [
              126.97627700071241,
              37.29208309134902
            ],
            [
              126.97630803667755,
              37.292078992165045
            ]
          ]
        ]
      }
    },
    {
      "type": "Feature",
      "properties": {
        "indoor": "room",
        "level": "5",
        "ref": "",
        "name": "",
        "room_type": "",
        "_idx": 2,
        "_centroid": [
          126.976341,
          37.2920376
        ],
        "_area_m2": 41.9
      },
      "geometry": {
        "type": "Polygon",
        "coordinates": [
          [
            [
              126.97635853023759,
              37.292010651857126
            ],
            [
              126.97629559477319,
              37.2920188989355
            ],
            [
              126.97630803667755,
              37.292078992165045
            ],
            [
              126.97637758329525,
              37.29206980655153
            ],
            [
              126.97636515595453,
              37.292009783621545
            ],
            [
              126.97635853023759,
              37.292010651857126
            ]
          ]
        ]
      }
    },
    {
      "type": "Feature",
      "properties": {
        "indoor": "room",
        "level": "5",
        "ref": "",
        "name": "",
        "room_type": "",
        "_idx": 3,
        "_centroid": [
          126.976424,
          37.2920329
        ],
        "_area_m2": 63.4
      },
      "geometry": {
        "type": "Polygon",
        "coordinates": [
          [
            [
              126.97648292862856,
              37.292056002084124
            ],
            [
              126.97637758329525,
              37.29206980655153
            ],
            [
              126.97636515595045,
              37.29200978362207
            ],
            [
              126.97647050128666,
              37.291995979143266
            ],
            [
              126.97648292862856,
              37.292056002084124
            ]
          ]
        ]
      }
    },
    {
      "type": "Feature",
      "properties": {
        "indoor": "room",
        "level": "5",
        "ref": "",
        "name": "",
        "room_type": "",
        "_idx": 4,
        "_centroid": [
          126.9764948,
          37.2920236
        ],
        "_area_m2": 21.8
      },
      "geometry": {
        "type": "Polygon",
        "coordinates": [
          [
            [
              126.9765191703198,
              37.292051252967774
            ],
            [
              126.97650674297513,
              37.29199123002185
            ],
            [
              126.97647050128641,
              37.29199597914201
            ],
            [
              126.97648292862858,
              37.292056002084124
            ],
            [
              126.9765191703198,
              37.292051252967774
            ]
          ]
        ]
      }
    },
    {
      "type": "Feature",
      "properties": {
        "indoor": "room",
        "level": "5",
        "ref": "",
        "name": "",
        "room_type": "",
        "_idx": 5,
        "_centroid": [
          126.976565,
          37.2920144
        ],
        "_area_m2": 64.5
      },
      "geometry": {
        "type": "Polygon",
        "coordinates": [
          [
            [
              126.97662630127685,
              37.29203721451198
            ],
            [
              126.97661387393292,
              37.29197719155345
            ],
            [
              126.97657154056493,
              37.291982738928795
            ],
            [
              126.97654281056013,
              37.29198650371629
            ],
            [
              126.97650674297513,
              37.29199123002185
            ],
            [
              126.9765191703198,
              37.292051252967774
            ],
            [
              126.97655523790567,
              37.29204652666621
            ],
            [
              126.97658396790729,
              37.292042761882726
            ],
            [
              126.97662630127685,
              37.29203721451198
            ]
          ]
        ]
      }
    },
    {
      "type": "Feature",
      "properties": {
        "indoor": "room",
        "level": "5",
        "ref": "",
        "name": "",
        "room_type": "",
        "_idx": 6,
        "_centroid": [
          126.9766356,
          37.2920052
        ],
        "_area_m2": 18.7
      },
      "geometry": {
        "type": "Polygon",
        "coordinates": [
          [
            [
              126.97661387393292,
              37.29197719155345
            ],
            [
              126.97662630127685,
              37.29203721451198
            ],
            [
              126.97665739107572,
              37.29203314050033
            ],
            [
              126.97664496373349,
              37.291973117537786
            ],
            [
              126.97661387393292,
              37.29197719155345
            ]
          ]
        ]
      }
    },
    {
      "type": "Feature",
      "properties": {
        "indoor": "room",
        "level": "5",
        "ref": "",
        "name": "",
        "room_type": "",
        "_idx": 7,
        "_centroid": [
          126.9766844,
          37.2919988
        ],
        "_area_m2": 40.0
      },
      "geometry": {
        "type": "Polygon",
        "coordinates": [
          [
            [
              126.9767237726151,
              37.292024441854004
            ],
            [
              126.9767113452726,
              37.29196441888372
            ],
            [
              126.97664496373349,
              37.291973117537786
            ],
            [
              126.97665739107572,
              37.29203314050033
            ],
            [
              126.9767237726151,
              37.292024441854004
            ]
          ]
        ]
      }
    },
    {
      "type": "Feature",
      "properties": {
        "indoor": "room",
        "level": "5",
        "ref": "",
        "name": "",
        "room_type": "",
        "_idx": 8,
        "_centroid": [
          126.976738,
          37.2919917
        ],
        "_area_m2": 24.6
      },
      "geometry": {
        "type": "Polygon",
        "coordinates": [
          [
            [
              126.97676470817812,
              37.29201907765202
            ],
            [
              126.97675228083743,
              37.29195905467718
            ],
            [
              126.9767113452726,
              37.29196441888372
            ],
            [
              126.9767237726151,
              37.292024441854004
            ],
            [
              126.97676470817812,
              37.29201907765202
            ]
          ]
        ]
      }
    },
    {
      "type": "Feature",
      "properties": {
        "indoor": "room",
        "level": "5",
        "ref": "",
        "name": "",
        "room_type": "",
        "_idx": 9,
        "_centroid": [
          126.9767933,
          37.2919783
        ],
        "_area_m2": 42.8
      },
      "geometry": {
        "type": "Polygon",
        "coordinates": [
          [
            [
              126.97679053704064,
              37.29195404157449
            ],
            [
              126.97675228083743,
              37.29195905467718
            ],
            [
              126.97676470817812,
              37.29201907765202
            ],
            [
              126.97683576778918,
              37.29200976599052
            ],
            [
              126.97682334044893,
              37.291949743007194
            ],
            [
              126.97679053704064,
              37.29195404157449
            ]
          ]
        ]
      }
    },
    {
      "type": "Feature",
      "properties": {
        "indoor": "room",
        "level": "5",
        "ref": "",
        "name": "",
        "room_type": "",
        "_idx": 10,
        "_centroid": [
          126.9768439,
          37.2919779
        ],
        "_area_m2": 17.3
      },
      "geometry": {
        "type": "Polygon",
        "coordinates": [
          [
            [
              126.97682334044893,
              37.291949743007194
            ],
            [
              126.97683576778918,
              37.29200976599052
            ],
            [
              126.97686455203333,
              37.29200599409909
            ],
            [
              126.97685212469221,
              37.29194597111214
            ],
            [
              126.97682334044893,
              37.291949743007194
            ]
          ]
        ]
      }
    },
    {
      "type": "Feature",
      "properties": {
        "indoor": "room",
        "level": "5",
        "ref": "",
        "name": "",
        "room_type": "",
        "_idx": 11,
        "_centroid": [
          126.9769139,
          37.2919749
        ],
        "_area_m2": 66.4
      },
      "geometry": {
        "type": "Polygon",
        "coordinates": [
          [
            [
              126.97686455203333,
              37.29200599409909
            ],
            [
              126.97691572317608,
              37.29199928862216
            ],
            [
              126.97697473270942,
              37.291991556000184
            ],
            [
              126.97696230536867,
              37.291931533007784
            ],
            [
              126.97685212469221,
              37.29194597111214
            ],
            [
              126.97686455203333,
              37.29200599409909
            ]
          ]
        ]
      }
    },
    {
      "type": "Feature",
      "properties": {
        "indoor": "room",
        "level": "5",
        "ref": "",
        "name": "",
        "room_type": "",
        "_idx": 12,
        "_centroid": [
          126.9763706,
          37.2919598
        ],
        "_area_m2": 24.5
      },
      "geometry": {
        "type": "Polygon",
        "coordinates": [
          [
            [
              126.9763991971095,
              37.29198526537814
            ],
            [
              126.9763846457963,
              37.29191961224143
            ],
            [
              126.97634804464394,
              37.291924746597175
            ],
            [
              126.97635920065676,
              37.29197860683657
            ],
            [
              126.97636167000819,
              37.29199052864605
            ],
            [
              126.9763991971095,
              37.29198526537814
            ]
          ]
        ]
      }
    },
    {
      "type": "Feature",
      "properties": {
        "indoor": "room",
        "level": "5",
        "ref": "",
        "name": "",
        "room_type": "",
        "_idx": 13,
        "_centroid": [
          126.9769857,
          37.2919593
        ],
        "_area_m2": 20.7
      },
      "geometry": {
        "type": "Polygon",
        "coordinates": [
          [
            [
              126.97696230536869,
              37.291931533007784
            ],
            [
              126.97697473270944,
              37.29199155600019
            ],
            [
              126.9770088494893,
              37.29198724523256
            ],
            [
              126.97699682063214,
              37.29192699181745
            ],
            [
              126.97696230536869,
              37.291931533007784
            ]
          ]
        ]
      }
    },
    {
      "type": "Feature",
      "properties": {
        "indoor": "room",
        "level": "5",
        "ref": "",
        "name": "",
        "room_type": "",
        "_idx": 14,
        "_centroid": [
          126.9764134,
          37.2919571
        ],
        "_area_m2": 22.0
      },
      "geometry": {
        "type": "Polygon",
        "coordinates": [
          [
            [
              126.97641786889662,
              37.29191495175356
            ],
            [
              126.9763846457963,
              37.29191961224143
            ],
            [
              126.9763991971095,
              37.29198526537814
            ],
            [
              126.97640498383207,
              37.29198445377612
            ],
            [
              126.97643242039292,
              37.291980605730835
            ],
            [
              126.97642978287288,
              37.291968705675124
            ],
            [
              126.97642481832929,
              37.291946306467175
            ],
            [
              126.97641786889662,
              37.29191495175356
            ]
          ]
        ]
      }
    },
    {
      "type": "Feature",
      "properties": {
        "indoor": "room",
        "level": "5",
        "ref": "",
        "name": "",
        "room_type": "",
        "_idx": 15,
        "_centroid": [
          126.9764827,
          37.2919482
        ],
        "_area_m2": 72.0
      },
      "geometry": {
        "type": "Polygon",
        "coordinates": [
          [
            [
              126.97652667558978,
              37.29189968850952
            ],
            [
              126.97648775377078,
              37.29190514840619
            ],
            [
              126.97641786889662,
              37.29191495175356
            ],
            [
              126.97643242039292,
              37.291980605730835
            ],
            [
              126.97647267476081,
              37.29197495995653
            ],
            [
              126.9764806593383,
              37.29197384009976
            ],
            [
              126.97650230565668,
              37.29197080414985
            ],
            [
              126.9765412276948,
              37.291965345237344
            ],
            [
              126.97652667558978,
              37.29189968850952
            ]
          ]
        ]
      }
    },
    {
      "type": "Feature",
      "properties": {
        "indoor": "room",
        "level": "5",
        "ref": "",
        "name": "",
        "room_type": "",
        "_idx": 16,
        "_centroid": [
          126.9765537,
          37.2919306
        ],
        "_area_m2": 26.0
      },
      "geometry": {
        "type": "Polygon",
        "coordinates": [
          [
            [
              126.9765412276948,
              37.291965345237344
            ],
            [
              126.9765435949952,
              37.29196501321758
            ],
            [
              126.97658051111746,
              37.29195983563879
            ],
            [
              126.97658051372522,
              37.29195983527305
            ],
            [
              126.9765729413223,
              37.2919256698114
            ],
            [
              126.97656596140574,
              37.29189417755273
            ],
            [
              126.97656312411617,
              37.29189457556356
            ],
            [
              126.97652667558978,
              37.29189968850952
            ],
            [
              126.97652917575142,
              37.2919109688359
            ],
            [
              126.97653365550723,
              37.29193118076741
            ],
            [
              126.9765412276948,
              37.291965345237344
            ]
          ]
        ]
      }
    },
    {
      "type": "Feature",
      "properties": {
        "indoor": "room",
        "level": "5",
        "ref": "",
        "name": "",
        "room_type": "",
        "_idx": 17,
        "_centroid": [
          126.9765944,
          37.291924
        ],
        "_area_m2": 22.2
      },
      "geometry": {
        "type": "Polygon",
        "coordinates": [
          [
            [
              126.97659960876379,
              37.29188945755058
            ],
            [
              126.97659223696874,
              37.2918904916552
            ],
            [
              126.97656596140574,
              37.29189417755273
            ],
            [
              126.97658051372522,
              37.29195983527305
            ],
            [
              126.97661415866274,
              37.29195511648612
            ],
            [
              126.97661416126947,
              37.29195511612052
            ],
            [
              126.97659960876379,
              37.29188945755058
            ]
          ]
        ]
      }
    },
    {
      "type": "Feature",
      "properties": {
        "indoor": "room",
        "level": "5",
        "ref": "",
        "name": "",
        "room_type": "",
        "_idx": 18,
        "_centroid": [
          126.9766281,
          37.2919193
        ],
        "_area_m2": 23.9
      },
      "geometry": {
        "type": "Polygon",
        "coordinates": [
          [
            [
              126.97661885032807,
              37.2918867583721
            ],
            [
              126.97659960876379,
              37.29188945755058
            ],
            [
              126.97661416126947,
              37.29195511612052
            ],
            [
              126.97665027487051,
              37.29195005109735
            ],
            [
              126.97665027747696,
              37.29195005073179
            ],
            [
              126.97663572477029,
              37.29188439125004
            ],
            [
              126.97661885032807,
              37.2918867583721
            ]
          ]
        ]
      }
    },
    {
      "type": "Feature",
      "properties": {
        "indoor": "room",
        "level": "5",
        "ref": "",
        "name": "",
        "room_type": "",
        "_idx": 19,
        "_centroid": [
          126.9766524,
          37.2919091
        ],
        "_area_m2": 17.9
      },
      "geometry": {
        "type": "Polygon",
        "coordinates": [
          [
            [
              126.97663572477029,
              37.29188439125004
            ],
            [
              126.97665027747696,
              37.29195005073179
            ],
            [
              126.97667735418268,
              37.291946253155864
            ],
            [
              126.97666280132279,
              37.29188059299088
            ],
            [
              126.97663572477032,
              37.291884391250036
            ],
            [
              126.97663572477029,
              37.29188439125004
            ]
          ]
        ]
      }
    },
    {
      "type": "Feature",
      "properties": {
        "indoor": "room",
        "level": "5",
        "ref": "",
        "name": "",
        "room_type": "",
        "_idx": 20,
        "_centroid": [
          126.9767212,
          37.2919084
        ],
        "_area_m2": 23.4
      },
      "geometry": {
        "type": "Polygon",
        "coordinates": [
          [
            [
              126.97674568945361,
              37.29193844048663
            ],
            [
              126.97673277477787,
              37.29187374989858
            ],
            [
              126.97669663140779,
              37.29187831674174
            ],
            [
              126.97670954608353,
              37.29194300732587
            ],
            [
              126.97674568945361,
              37.29193844048663
            ]
          ]
        ]
      }
    },
    {
      "type": "Feature",
      "properties": {
        "indoor": "room",
        "level": "5",
        "ref": "",
        "name": "",
        "room_type": "",
        "_idx": 21,
        "_centroid": [
          126.9767745,
          37.2918963
        ],
        "_area_m2": 67.4
      },
      "geometry": {
        "type": "Polygon",
        "coordinates": [
          [
            [
              126.9767394217473,
              37.29190704507841
            ],
            [
              126.97674568945361,
              37.29193844048663
            ],
            [
              126.97678382329053,
              37.29193362300959
            ],
            [
              126.97684973075569,
              37.29192529686867
            ],
            [
              126.97683681561989,
              37.29186060396718
            ],
            [
              126.97678816539928,
              37.29186675109632
            ],
            [
              126.97675810438847,
              37.29187054941216
            ],
            [
              126.97673277477787,
              37.29187374989858
            ],
            [
              126.97673607987701,
              37.291890305395725
            ],
            [
              126.9767394217473,
              37.29190704507841
            ]
          ]
        ]
      }
    },
    {
      "type": "Feature",
      "properties": {
        "indoor": "room",
        "level": "5",
        "ref": "",
        "name": "",
        "room_type": "",
        "_idx": 22,
        "_centroid": [
          126.9768648,
          37.2918926
        ],
        "_area_m2": 25.2
      },
      "geometry": {
        "type": "Polygon",
        "coordinates": [
          [
            [
              126.97687570700748,
              37.29185568990076
            ],
            [
              126.97687134857937,
              37.291856240603835
            ],
            [
              126.9768419568012,
              37.291859954360525
            ],
            [
              126.97683681561989,
              37.29186060396718
            ],
            [
              126.97684343207766,
              37.29189374630941
            ],
            [
              126.97684808708081,
              37.29191706357565
            ],
            [
              126.97684973075569,
              37.29192529686867
            ],
            [
              126.97685487195989,
              37.291924647376376
            ],
            [
              126.97688426386871,
              37.29192093427386
            ],
            [
              126.97688862231561,
              37.2919203836679
            ],
            [
              126.97688697846807,
              37.29191214951301
            ],
            [
              126.97688232346407,
              37.29188883224537
            ],
            [
              126.97687818612495,
              37.29186810799431
            ],
            [
              126.97687570700748,
              37.29185568990076
            ]
          ]
        ]
      }
    },
    {
      "type": "Feature",
      "properties": {
        "indoor": "room",
        "level": "5",
        "ref": "",
        "name": "",
        "room_type": "",
        "_idx": 23,
        "_centroid": [
          126.9769339,
          37.2918816
        ],
        "_area_m2": 66.9
      },
      "geometry": {
        "type": "Polygon",
        "coordinates": [
          [
            [
              126.97687751068638,
              37.291864724669814
            ],
            [
              126.97688697846807,
              37.29191214951301
            ],
            [
              126.97688862231561,
              37.2919203836679
            ],
            [
              126.97695588014064,
              37.291911886934976
            ],
            [
              126.97697669341824,
              37.29190925757756
            ],
            [
              126.976991967272,
              37.29190732801983
            ],
            [
              126.97697905150669,
              37.29184263195094
            ],
            [
              126.9769637777221,
              37.29184456184861
            ],
            [
              126.97694296453497,
              37.2918471916698
            ],
            [
              126.97687570700748,
              37.29185568990076
            ],
            [
              126.97687751068638,
              37.291864724669814
            ]
          ]
        ]
      }
    },
    {
      "type": "Feature",
      "properties": {
        "indoor": "room",
        "level": "5",
        "ref": "",
        "name": "",
        "room_type": "",
        "_idx": 24,
        "_centroid": [
          126.9770038,
          37.2918727
        ],
        "_area_m2": 23.7
      },
      "geometry": {
        "type": "Polygon",
        "coordinates": [
          [
            [
              126.97697905150669,
              37.29184263195094
            ],
            [
              126.976991967272,
              37.29190732801983
            ],
            [
              126.97702853687646,
              37.291902708153486
            ],
            [
              126.9770156209507,
              37.291838011270045
            ],
            [
              126.97697905150669,
              37.29184263195094
            ]
          ]
        ]
      }
    },
    {
      "type": "Feature",
      "properties": {
        "indoor": "room",
        "level": "5",
        "ref": "",
        "name": "",
        "room_type": "",
        "_idx": 25,
        "_centroid": [
          126.977038,
          37.2918684
        ],
        "_area_m2": 20.6
      },
      "geometry": {
        "type": "Polygon",
        "coordinates": [
          [
            [
              126.9770156209507,
              37.291838011270045
            ],
            [
              126.97702853687646,
              37.291902708153486
            ],
            [
              126.97706029137257,
              37.291898696583495
            ],
            [
              126.97704737500266,
              37.29183399903126
            ],
            [
              126.9770156209507,
              37.291838011270045
            ]
          ]
        ]
      }
    },
    {
      "type": "Feature",
      "properties": {
        "indoor": "room",
        "level": "5",
        "ref": "",
        "name": "",
        "room_type": "",
        "_idx": 26,
        "_centroid": [
          126.977917,
          37.2917915
        ],
        "_area_m2": 22.2
      },
      "geometry": {
        "type": "Polygon",
        "coordinates": [
          [
            [
              126.97789468137525,
              37.2917677734132
            ],
            [
              126.9778834682252,
              37.29179646750454
            ],
            [
              126.97788687855777,
              37.291796993676755
            ],
            [
              126.97788969849124,
              37.291797428757654
            ],
            [
              126.97792628506141,
              37.29180047540362
            ],
            [
              126.97796516235194,
              37.291803712802874
            ],
            [
              126.97797270568489,
              37.291777893911295
            ],
            [
              126.97789468137525,
              37.2917677734132
            ]
          ]
        ]
      }
    },
    {
      "type": "Feature",
      "properties": {
        "indoor": "room",
        "level": "5",
        "ref": "",
        "name": "",
        "room_type": "",
        "_idx": 27,
        "_centroid": [
          126.9780145,
          37.2917885
        ],
        "_area_m2": 33.1
      },
      "geometry": {
        "type": "Polygon",
        "coordinates": [
          [
            [
              126.9780515392238,
              37.29176536145681
            ],
            [
              126.9780181155782,
              37.291763346392855
            ],
            [
              126.97797790275457,
              37.29176010567133
            ],
            [
              126.97796516235194,
              37.291803712802874
            ],
            [
              126.97800734578469,
              37.291807225511874
            ],
            [
              126.97803886262729,
              37.29180989854108
            ],
            [
              126.97804244687875,
              37.29180989854108
            ],
            [
              126.9780515392238,
              37.29176536145681
            ]
          ]
        ]
      }
    },
    {
      "type": "Feature",
      "properties": {
        "indoor": "room",
        "level": "5",
        "ref": "",
        "name": "",
        "room_type": "",
        "_idx": 28,
        "_centroid": [
          126.9780861,
          37.2917844
        ],
        "_area_m2": 32.4
      },
      "geometry": {
        "type": "Polygon",
        "coordinates": [
          [
            [
              126.97812081539543,
              37.29181096009758
            ],
            [
              126.97812572404969,
              37.291768435987265
            ],
            [
              126.97809008086514,
              37.291767438842285
            ],
            [
              126.9780515392238,
              37.29176536145681
            ],
            [
              126.97804244687875,
              37.29180989854108
            ],
            [
              126.97812081539543,
              37.29181096009758
            ]
          ]
        ]
      }
    },
    {
      "type": "Feature",
      "properties": {
        "indoor": "room",
        "level": "5",
        "ref": "",
        "name": "",
        "room_type": "",
        "_idx": 29,
        "_centroid": [
          126.9781671,
          37.2917834
        ],
        "_area_m2": 32.3
      },
      "geometry": {
        "type": "Polygon",
        "coordinates": [
          [
            [
              126.97819915058646,
              37.291773620495796
            ],
            [
              126.97819946456539,
              37.291767501830506
            ],
            [
              126.97815852100199,
              37.29176802051018
            ],
            [
              126.97812572404969,
              37.291768435987265
            ],
            [
              126.97812081539543,
              37.291810960097585
            ],
            [
              126.97819915058646,
              37.29181201007333
            ],
            [
              126.97819915058646,
              37.291773620495796
            ]
          ]
        ]
      }
    },
    {
      "type": "Feature",
      "properties": {
        "indoor": "room",
        "level": "5",
        "ref": "",
        "name": "",
        "room_type": "",
        "_idx": 30,
        "_centroid": [
          126.9778631,
          37.2917684
        ],
        "_area_m2": 33.4
      },
      "geometry": {
        "type": "Polygon",
        "coordinates": [
          [
            [
              126.9778834682252,
              37.29179646750454
            ],
            [
              126.97789468137525,
              37.2917677734132
            ],
            [
              126.97790176184013,
              37.29175141579258
            ],
            [
              126.97787013108166,
              37.291746472826794
            ],
            [
              126.97783315617367,
              37.29174061459797
            ],
            [
              126.97780921287895,
              37.291785010820874
            ],
            [
              126.97784899281959,
              37.29179114837509
            ],
            [
              126.9778834682252,
              37.29179646750454
            ]
          ]
        ]
      }
    },
    {
      "type": "Feature",
      "properties": {
        "indoor": "room",
        "level": "5",
        "ref": "",
        "name": "",
        "room_type": "",
        "_idx": 31,
        "_centroid": [
          126.9777887,
          37.291751
        ],
        "_area_m2": 34.4
      },
      "geometry": {
        "type": "Polygon",
        "coordinates": [
          [
            [
              126.97773569960495,
              37.291768267837156
            ],
            [
              126.97780921287895,
              37.291785010820874
            ],
            [
              126.97783315617367,
              37.29174061459797
            ],
            [
              126.97780377992267,
              37.291734740788286
            ],
            [
              126.97776160099575,
              37.291726307070434
            ],
            [
              126.97773569960495,
              37.291768267837156
            ]
          ]
        ]
      }
    },
    {
      "type": "Feature",
      "properties": {
        "indoor": "room",
        "level": "5",
        "ref": "",
        "name": "",
        "room_type": "",
        "_idx": 32,
        "_centroid": [
          126.9777174,
          37.2917347
        ],
        "_area_m2": 32.2
      },
      "geometry": {
        "type": "Polygon",
        "coordinates": [
          [
            [
              126.97769636624882,
              37.29170922472476
            ],
            [
              126.9776674235639,
              37.29175271765366
            ],
            [
              126.97773569960495,
              37.291768267837156
            ],
            [
              126.97776160099575,
              37.291726307070434
            ],
            [
              126.97772591327328,
              37.29171716609774
            ],
            [
              126.97769636624882,
              37.29170922472476
            ]
          ]
        ]
      }
    },
    {
      "type": "Feature",
      "properties": {
        "indoor": "room",
        "level": "5",
        "ref": "",
        "name": "",
        "room_type": "",
        "_idx": 33,
        "_centroid": [
          126.9776472,
          37.2917239
        ],
        "_area_m2": 39.4
      },
      "geometry": {
        "type": "Polygon",
        "coordinates": [
          [
            [
              126.9776674235639,
              37.29175271765366
            ],
            [
              126.97769636624882,
              37.29170922472476
            ],
            [
              126.97769113179207,
              37.29170781785642
            ],
            [
              126.97765582153835,
              37.2916981112646
            ],
            [
              126.97762217593885,
              37.29168745426669
            ],
            [
              126.97758676837292,
              37.29172878808233
            ],
            [
              126.97759043623472,
              37.29173020974292
            ],
            [
              126.97765480403974,
              37.29174991855992
            ],
            [
              126.97765995058539,
              37.29175101564831
            ],
            [
              126.9776674235639,
              37.29175271765366
            ]
          ]
        ]
      }
    },
    {
      "type": "Feature",
      "properties": {
        "indoor": "room",
        "level": "5",
        "ref": "",
        "name": "",
        "room_type": "",
        "_idx": 34,
        "_centroid": [
          126.9780369,
          37.291723
        ],
        "_area_m2": 18.3
      },
      "geometry": {
        "type": "Polygon",
        "coordinates": [
          [
            [
              126.97804913606734,
              37.29174705602057
            ],
            [
              126.97806247425773,
              37.29169058850535
            ],
            [
              126.97803126489865,
              37.29168760916238
            ],
            [
              126.97801582573996,
              37.29174405902839
            ],
            [
              126.97802601664343,
              37.29174556470383
            ],
            [
              126.97804913606734,
              37.29174705602057
            ]
          ]
        ]
      }
    },
    {
      "type": "Feature",
      "properties": {
        "indoor": "room",
        "level": "5",
        "ref": "",
        "name": "",
        "room_type": "",
        "_idx": 35,
        "_centroid": [
          126.9780726,
          37.2917198
        ],
        "_area_m2": 19.5
      },
      "geometry": {
        "type": "Polygon",
        "coordinates": [
          [
            [
              126.97808527222664,
              37.29174913419728
            ],
            [
              126.97809583150637,
              37.2916920885905
            ],
            [
              126.978062976867,
              37.291690636485995
            ],
            [
              126.97806247425773,
              37.29169058850535
            ],
            [
              126.97804913606734,
              37.29174705602057
            ],
            [
              126.97807988284758,
              37.29174903933936
            ],
            [
              126.97808527222664,
              37.29174913419728
            ]
          ]
        ]
      }
    },
    {
      "type": "Feature",
      "properties": {
        "indoor": "room",
        "level": "5",
        "ref": "",
        "name": "",
        "room_type": "",
        "_idx": 36,
        "_centroid": [
          126.9781622,
          37.2917163
        ],
        "_area_m2": 41.7
      },
      "geometry": {
        "type": "Polygon",
        "coordinates": [
          [
            [
              126.97819998110462,
              37.291751096292025
            ],
            [
              126.97820112309401,
              37.29169471992964
            ],
            [
              126.97820156275756,
              37.291692479914516
            ],
            [
              126.97816779758855,
              37.291693647839
            ],
            [
              126.9781630916221,
              37.29169361715142
            ],
            [
              126.97813227501067,
              37.29169341619646
            ],
            [
              126.9781297610583,
              37.2916933269106
            ],
            [
              126.97812208939575,
              37.291749782212634
            ],
            [
              126.97814568696722,
              37.29175019755115
            ],
            [
              126.97815839527046,
              37.29175040791404
            ],
            [
              126.97819998110462,
              37.291751096292025
            ]
          ]
        ]
      }
    },
    {
      "type": "Feature",
      "properties": {
        "indoor": "room",
        "level": "5",
        "ref": "",
        "name": "",
        "room_type": "",
        "_idx": 37,
        "_centroid": [
          126.9781065,
          37.2917153
        ],
        "_area_m2": 19.7
      },
      "geometry": {
        "type": "Polygon",
        "coordinates": [
          [
            [
              126.97812208939575,
              37.291749782212634
            ],
            [
              126.9781297610583,
              37.2916933269106
            ],
            [
              126.97809966411951,
              37.29169225798377
            ],
            [
              126.97809583150637,
              37.2916920885905
            ],
            [
              126.97808527222664,
              37.29174913419728
            ],
            [
              126.97812208939575,
              37.291749782212634
            ]
          ]
        ]
      }
    },
    {
      "type": "Feature",
      "properties": {
        "indoor": "room",
        "level": "5",
        "ref": "",
        "name": "",
        "room_type": "",
        "_idx": 38,
        "_centroid": [
          126.9782151,
          37.2917119
        ],
        "_area_m2": 23.1
      },
      "geometry": {
        "type": "Polygon",
        "coordinates": [
          [
            [
              126.97819998110462,
              37.291751096292025
            ],
            [
              126.97823633542686,
              37.29174922016971
            ],
            [
              126.97823485872615,
              37.29168129279832
            ],
            [
              126.97820341305973,
              37.29168305292242
            ],
            [
              126.97820112309401,
              37.29169471992964
            ],
            [
              126.97819998110462,
              37.291751096292025
            ]
          ]
        ]
      }
    },
    {
      "type": "Feature",
      "properties": {
        "indoor": "room",
        "level": "5",
        "ref": "",
        "name": "",
        "room_type": "",
        "_idx": 39,
        "_centroid": [
          126.9779671,
          37.2917107
        ],
        "_area_m2": 19.4
      },
      "geometry": {
        "type": "Polygon",
        "coordinates": [
          [
            [
              126.97797966091535,
              37.29174115550094
            ],
            [
              126.9779964943533,
              37.29168469181123
            ],
            [
              126.97796543536222,
              37.29168090749857
            ],
            [
              126.97796366416686,
              37.291680687731485
            ],
            [
              126.97794497780095,
              37.2917380558127
            ],
            [
              126.97795235096969,
              37.29173896289589
            ],
            [
              126.97797966091535,
              37.29174115550094
            ]
          ]
        ]
      }
    },
    {
      "type": "Feature",
      "properties": {
        "indoor": "room",
        "level": "5",
        "ref": "",
        "name": "",
        "room_type": "",
        "_idx": 40,
        "_centroid": [
          126.9780042,
          37.2917085
        ],
        "_area_m2": 20.0
      },
      "geometry": {
        "type": "Polygon",
        "coordinates": [
          [
            [
              126.9779964943533,
              37.29168469181123
            ],
            [
              126.97797966091535,
              37.29174115550094
            ],
            [
              126.97801582573996,
              37.29174405902839
            ],
            [
              126.97803126489865,
              37.29168760916238
            ],
            [
              126.97799775508473,
              37.2916848454222
            ],
            [
              126.9779964943533,
              37.29168469181123
            ]
          ]
        ]
      }
    },
    {
      "type": "Feature",
      "properties": {
        "indoor": "room",
        "level": "5",
        "ref": "",
        "name": "",
        "room_type": "",
        "_idx": 41,
        "_centroid": [
          126.9775709,
          37.291706
        ],
        "_area_m2": 18.0
      },
      "geometry": {
        "type": "Polygon",
        "coordinates": [
          [
            [
              126.97760972978334,
              37.29170198356784
            ],
            [
              126.97755269419712,
              37.29168339978166
            ],
            [
              126.97753421456066,
              37.29170986281458
            ],
            [
              126.97758676837292,
              37.29172878808233
            ],
            [
              126.97760972978334,
              37.29170198356784
            ]
          ]
        ]
      }
    },
    {
      "type": "Feature",
      "properties": {
        "indoor": "room",
        "level": "5",
        "ref": "",
        "name": "",
        "room_type": "",
        "_idx": 42,
        "_centroid": [
          126.9782527,
          37.2917025
        ],
        "_area_m2": 15.1
      },
      "geometry": {
        "type": "Polygon",
        "coordinates": [
          [
            [
              126.97823485872615,
              37.29168129279832
            ],
            [
              126.97823582204701,
              37.291725710600275
            ],
            [
              126.97827197866275,
              37.29172369670875
            ],
            [
              126.97826806420645,
              37.29167943417123
            ],
            [
              126.97823485872615,
              37.29168129279832
            ]
          ]
        ]
      }
    },
    {
      "type": "Feature",
      "properties": {
        "indoor": "room",
        "level": "5",
        "ref": "",
        "name": "",
        "room_type": "",
        "_idx": 43,
        "_centroid": [
          126.9779367,
          37.2917012
        ],
        "_area_m2": 19.7
      },
      "geometry": {
        "type": "Polygon",
        "coordinates": [
          [
            [
              126.97794497780095,
              37.2917380558127
            ],
            [
              126.97796366416686,
              37.291680687731485
            ],
            [
              126.97793369797711,
              37.29167696957473
            ],
            [
              126.97793180757934,
              37.29167666073243
            ],
            [
              126.97790924369545,
              37.291733659628704
            ],
            [
              126.97794497780095,
              37.2917380558127
            ]
          ]
        ]
      }
    },
    {
      "type": "Feature",
      "properties": {
        "indoor": "room",
        "level": "5",
        "ref": "",
        "name": "",
        "room_type": "",
        "_idx": 44,
        "_centroid": [
          126.9778722,
          37.2916972
        ],
        "_area_m2": 59.3
      },
      "geometry": {
        "type": "Polygon",
        "coordinates": [
          [
            [
              126.9778510242722,
              37.29172483270853
            ],
            [
              126.97787457071529,
              37.29172860356278
            ],
            [
              126.97789586424756,
              37.29173201362375
            ],
            [
              126.97790924369545,
              37.291733659628704
            ],
            [
              126.97793180757934,
              37.29167666073243
            ],
            [
              126.97790108708597,
              37.291671641795084
            ],
            [
              126.97790043539972,
              37.2916715249176
            ],
            [
              126.97786758844191,
              37.291665633938635
            ],
            [
              126.97785071490586,
              37.291662607733095
            ],
            [
              126.97783592590082,
              37.29165926783046
            ],
            [
              126.97780866117387,
              37.291716889098645
            ],
            [
              126.97783995986272,
              37.29172274792654
            ],
            [
              126.9778510242722,
              37.29172483270853
            ]
          ]
        ]
      }
    },
    {
      "type": "Feature",
      "properties": {
        "indoor": "room",
        "level": "5",
        "ref": "",
        "name": "",
        "room_type": "",
        "_idx": 45,
        "_centroid": [
          126.9778004,
          37.2916899
        ],
        "_area_m2": 21.2
      },
      "geometry": {
        "type": "Polygon",
        "coordinates": [
          [
            [
              126.97780866117387,
              37.291716889098645
            ],
            [
              126.97783592590082,
              37.29165926783046
            ],
            [
              126.97780622120605,
              37.29165255941511
            ],
            [
              126.97777054704815,
              37.291709321384666
            ],
            [
              126.97778056145387,
              37.29171162908842
            ],
            [
              126.97780866117387,
              37.291716889098645
            ]
          ]
        ]
      }
    },
    {
      "type": "Feature",
      "properties": {
        "indoor": "room",
        "level": "5",
        "ref": "",
        "name": "",
        "room_type": "",
        "_idx": 46,
        "_centroid": [
          126.9777403,
          37.2916686
        ],
        "_area_m2": 22.4
      },
      "geometry": {
        "type": "Polygon",
        "coordinates": [
          [
            [
              126.97773998339464,
              37.29170227834488
            ],
            [
              126.97777341041294,
              37.29164348482908
            ],
            [
              126.97774443834099,
              37.29163596882603
            ],
            [
              126.9777434088215,
              37.291635647428016
            ],
            [
              126.97770207112303,
              37.29169255248159
            ],
            [
              126.97773834199657,
              37.29170190010371
            ],
            [
              126.97773998339464,
              37.29170227834488
            ]
          ]
        ]
      }
    },
    {
      "type": "Feature",
      "properties": {
        "indoor": "room",
        "level": "5",
        "ref": "",
        "name": "",
        "room_type": "",
        "_idx": 47,
        "_centroid": [
          126.9777801,
          37.2916677
        ],
        "_area_m2": 20.6
      },
      "geometry": {
        "type": "Polygon",
        "coordinates": [
          [
            [
              126.97777341041294,
              37.29164348482908
            ],
            [
              126.97773998339464,
              37.29170227834488
            ],
            [
              126.97777054704815,
              37.291709321384666
            ],
            [
              126.97780622120605,
              37.29165255941511
            ],
            [
              126.97780558376189,
              37.29165241545672
            ],
            [
              126.9777846196176,
              37.29164639274732
            ],
            [
              126.97777341041294,
              37.29164348482908
            ]
          ]
        ]
      }
    },
    {
      "type": "Feature",
      "properties": {
        "indoor": "room",
        "level": "5",
        "ref": "",
        "name": "",
        "room_type": "",
        "_idx": 48,
        "_centroid": [
          126.977709,
          37.2916598
        ],
        "_area_m2": 19.1
      },
      "geometry": {
        "type": "Polygon",
        "coordinates": [
          [
            [
              126.97771468581372,
              37.29162632683192
            ],
            [
              126.9776751039607,
              37.291684261120615
            ],
            [
              126.97769699604528,
              37.29169124454758
            ],
            [
              126.97770207112303,
              37.29169255248159
            ],
            [
              126.9777434088215,
              37.291635647428016
            ],
            [
              126.977721436016,
              37.291628787901644
            ],
            [
              126.97771468581372,
              37.29162632683192
            ]
          ]
        ]
      }
    },
    {
      "type": "Feature",
      "properties": {
        "indoor": "room",
        "level": "5",
        "ref": "",
        "name": "",
        "room_type": "",
        "_idx": 49,
        "_centroid": [
          126.9774559,
          37.2916552
        ],
        "_area_m2": 42.9
      },
      "geometry": {
        "type": "Polygon",
        "coordinates": [
          [
            [
              126.97743662839196,
              37.29161933403778
            ],
            [
              126.97740736724246,
              37.29167907219222
            ],
            [
              126.97747365147696,
              37.29169063648598
            ],
            [
              126.97750597119943,
              37.29163156761438
            ],
            [
              126.97743662839196,
              37.29161933403778
            ]
          ]
        ]
      }
    },
    {
      "type": "Feature",
      "properties": {
        "indoor": "room",
        "level": "5",
        "ref": "",
        "name": "",
        "room_type": "",
        "_idx": 50,
        "_centroid": [
          126.977282,
          37.2916517
        ],
        "_area_m2": 14.9
      },
      "geometry": {
        "type": "Polygon",
        "coordinates": [
          [
            [
              126.97726128032814,
              37.29163177030181
            ],
            [
              126.97725417900216,
              37.29166116885337
            ],
            [
              126.97727338202502,
              37.29166249191169
            ],
            [
              126.97730607452176,
              37.291664907424746
            ],
            [
              126.97731513710265,
              37.29163799992636
            ],
            [
              126.97726128032814,
              37.29163177030181
            ]
          ]
        ]
      }
    },
    {
      "type": "Feature",
      "properties": {
        "indoor": "room",
        "level": "5",
        "ref": "",
        "name": "",
        "room_type": "",
        "_idx": 51,
        "_centroid": [
          126.9776718,
          37.2916512
        ],
        "_area_m2": 24.4
      },
      "geometry": {
        "type": "Polygon",
        "coordinates": [
          [
            [
              126.9776751039607,
              37.291684261120615
            ],
            [
              126.97771468581372,
              37.29162632683192
            ],
            [
              126.97768545611403,
              37.29161566991735
            ],
            [
              126.97764684796118,
              37.29165797254306
            ],
            [
              126.97763672413042,
              37.29167201821424
            ],
            [
              126.9776751039607,
              37.291684261120615
            ]
          ]
        ]
      }
    },
    {
      "type": "Feature",
      "properties": {
        "indoor": "room",
        "level": "5",
        "ref": "",
        "name": "",
        "room_type": "",
        "_idx": 52,
        "_centroid": [
          126.9772316,
          37.2916478
        ],
        "_area_m2": 13.5
      },
      "geometry": {
        "type": "Polygon",
        "coordinates": [
          [
            [
              126.97725417900216,
              37.29166116885337
            ],
            [
              126.97726128032814,
              37.29163177030181
            ],
            [
              126.9772141800294,
              37.29162859316561
            ],
            [
              126.97720852929741,
              37.29165851153708
            ],
            [
              126.9772195886131,
              37.29165878562954
            ],
            [
              126.97725417900216,
              37.29166116885337
            ]
          ]
        ]
      }
    },
    {
      "type": "Feature",
      "properties": {
        "indoor": "room",
        "level": "5",
        "ref": "",
        "name": "",
        "room_type": "",
        "_idx": 53,
        "_centroid": [
          126.9773698,
          37.2916458
        ],
        "_area_m2": 65.2
      },
      "geometry": {
        "type": "Polygon",
        "coordinates": [
          [
            [
              126.9773257912955,
              37.291606366797716
            ],
            [
              126.97730607452176,
              37.291664907424746
            ],
            [
              126.97730708479865,
              37.29166498206992
            ],
            [
              126.97733896103276,
              37.29166945222787
            ],
            [
              126.97740726502002,
              37.29167905435796
            ],
            [
              126.97740736724246,
              37.29167907219222
            ],
            [
              126.97743662839196,
              37.29161933403778
            ],
            [
              126.97743638188709,
              37.29161929054897
            ],
            [
              126.97736226126177,
              37.29160938782016
            ],
            [
              126.9773257912955,
              37.291606366797716
            ]
          ]
        ]
      }
    },
    {
      "type": "Feature",
      "properties": {
        "indoor": "room",
        "level": "5",
        "ref": "",
        "name": "",
        "room_type": "",
        "_idx": 54,
        "_centroid": [
          126.9776325,
          37.291641
        ],
        "_area_m2": 33.5
      },
      "geometry": {
        "type": "Polygon",
        "coordinates": [
          [
            [
              126.97768545611403,
              37.29161566991735
            ],
            [
              126.97763302927056,
              37.29159967382752
            ],
            [
              126.97760142977748,
              37.29164319031615
            ],
            [
              126.97759159298641,
              37.29165765637166
            ],
            [
              126.97763672413042,
              37.29167201821424
            ],
            [
              126.97764684796118,
              37.29165797254306
            ],
            [
              126.97768545611403,
              37.29161566991735
            ]
          ]
        ]
      }
    },
    {
      "type": "Feature",
      "properties": {
        "indoor": "room",
        "level": "5",
        "ref": "",
        "name": "",
        "room_type": "",
        "_idx": 55,
        "_centroid": [
          126.9769361,
          37.2916392
        ],
        "_area_m2": 64.2
      },
      "geometry": {
        "type": "Polygon",
        "coordinates": [
          [
            [
              126.97700290622727,
              37.29166327052691
            ],
            [
              126.97699647880272,
              37.29160221945985
            ],
            [
              126.97695710824426,
              37.29160586941766
            ],
            [
              126.97691100746987,
              37.29161087234825
            ],
            [
              126.9768993394712,
              37.29161213857829
            ],
            [
              126.97688740590343,
              37.291613673201134
            ],
            [
              126.97689928060998,
              37.29167409875759
            ],
            [
              126.97691593608543,
              37.291672249856845
            ],
            [
              126.97692506846815,
              37.29167123608389
            ],
            [
              126.97696601709683,
              37.291666690434255
            ],
            [
              126.97700290622727,
              37.29166327052691
            ]
          ]
        ]
      }
    },
    {
      "type": "Feature",
      "properties": {
        "indoor": "room",
        "level": "5",
        "ref": "",
        "name": "",
        "room_type": "",
        "_idx": 56,
        "_centroid": [
          126.9770431,
          37.2916304
        ],
        "_area_m2": 63.7
      },
      "geometry": {
        "type": "Polygon",
        "coordinates": [
          [
            [
              126.97710556243557,
              37.29165775824412
            ],
            [
              126.97710853609732,
              37.29159772778903
            ],
            [
              126.97707195369789,
              37.29159833373106
            ],
            [
              126.97707061944189,
              37.291598355831354
            ],
            [
              126.97699751120281,
              37.291602123748305
            ],
            [
              126.97699704511919,
              37.291602166957894
            ],
            [
              126.97699647880272,
              37.29160221945985
            ],
            [
              126.97700290622727,
              37.29166327052691
            ],
            [
              126.97700428895084,
              37.291663142337754
            ],
            [
              126.97701973771662,
              37.29166171011783
            ],
            [
              126.97707036466925,
              37.2916593068255
            ],
            [
              126.97707278081057,
              37.29165920052354
            ],
            [
              126.97710556243557,
              37.29165775824412
            ]
          ]
        ]
      }
    },
    {
      "type": "Feature",
      "properties": {
        "indoor": "room",
        "level": "5",
        "ref": "",
        "name": "",
        "room_type": "",
        "_idx": 57,
        "_centroid": [
          126.9771612,
          37.2916277
        ],
        "_area_m2": 62.8
      },
      "geometry": {
        "type": "Polygon",
        "coordinates": [
          [
            [
              126.97720852929741,
              37.29165851153708
            ],
            [
              126.97721989249618,
              37.29159834792135
            ],
            [
              126.97718398733866,
              37.29159744587533
            ],
            [
              126.97718217343886,
              37.29159740030469
            ],
            [
              126.97712830723476,
              37.29159740030469
            ],
            [
              126.97710853609732,
              37.29159772778903
            ],
            [
              126.97710556243557,
              37.29165775824412
            ],
            [
              126.97712630545018,
              37.2916568456224
            ],
            [
              126.9771728560414,
              37.29165762741633
            ],
            [
              126.97717562151419,
              37.2916576959554
            ],
            [
              126.97720852929741,
              37.29165851153708
            ]
          ]
        ]
      }
    },
    {
      "type": "Feature",
      "properties": {
        "indoor": "room",
        "level": "5",
        "ref": "",
        "name": "",
        "room_type": "",
        "_idx": 58,
        "_centroid": [
          126.9772663,
          37.291615
        ],
        "_area_m2": 31.8
      },
      "geometry": {
        "type": "Polygon",
        "coordinates": [
          [
            [
              126.9772141800294,
              37.29162859316561
            ],
            [
              126.97726128032814,
              37.29163177030181
            ],
            [
              126.97731513710265,
              37.29163799992636
            ],
            [
              126.9773257912955,
              37.291606366797716
            ],
            [
              126.97729040772192,
              37.29160343576759
            ],
            [
              126.97723749548635,
              37.291598790161636
            ],
            [
              126.97721989249618,
              37.29159834792135
            ],
            [
              126.9772141800294,
              37.29162859316561
            ]
          ]
        ]
      }
    },
    {
      "type": "Feature",
      "properties": {
        "indoor": "room",
        "level": "5",
        "ref": "",
        "name": "",
        "room_type": "",
        "_idx": 59,
        "_centroid": [
          126.9775584,
          37.2916013
        ],
        "_area_m2": 27.0
      },
      "geometry": {
        "type": "Polygon",
        "coordinates": [
          [
            [
              126.97751843655585,
              37.291618449331494
            ],
            [
              126.97757082571616,
              37.291628689328455
            ],
            [
              126.97760081950787,
              37.29158560105382
            ],
            [
              126.97754338392976,
              37.29157251980445
            ],
            [
              126.97751843655585,
              37.291618449331494
            ]
          ]
        ]
      }
    },
    {
      "type": "Feature",
      "properties": {
        "indoor": "room",
        "level": "5",
        "ref": "",
        "name": "",
        "room_type": "",
        "_idx": 60,
        "_centroid": [
          126.9775103,
          37.2915932
        ],
        "_area_m2": 19.7
      },
      "geometry": {
        "type": "Polygon",
        "coordinates": [
          [
            [
              126.97754338392976,
              37.29157251980445
            ],
            [
              126.97750443656477,
              37.29156421737986
            ],
            [
              126.97748878207324,
              37.29159254623155
            ],
            [
              126.9774787615965,
              37.291610679590384
            ],
            [
              126.97751843655585,
              37.291618449331494
            ],
            [
              126.97752815991787,
              37.29160054807513
            ],
            [
              126.97754338392976,
              37.29157251980445
            ]
          ]
        ]
      }
    },
    {
      "type": "Feature",
      "properties": {
        "indoor": "room",
        "level": "5",
        "ref": "",
        "name": "",
        "room_type": "",
        "_idx": 61,
        "_centroid": [
          126.9774357,
          37.2915823
        ],
        "_area_m2": 19.1
      },
      "geometry": {
        "type": "Polygon",
        "coordinates": [
          [
            [
              126.97744433927551,
              37.29160393849844
            ],
            [
              126.97746695792829,
              37.29155640386482
            ],
            [
              126.9774270913189,
              37.2915507017067
            ],
            [
              126.97740678769998,
              37.29159845880947
            ],
            [
              126.97743324013057,
              37.291601764898324
            ],
            [
              126.97744433927551,
              37.29160393849844
            ]
          ]
        ]
      }
    },
    {
      "type": "Feature",
      "properties": {
        "indoor": "room",
        "level": "5",
        "ref": "",
        "name": "",
        "room_type": "",
        "_idx": 62,
        "_centroid": [
          126.9774728,
          37.2915784
        ],
        "_area_m2": 18.2
      },
      "geometry": {
        "type": "Polygon",
        "coordinates": [
          [
            [
              126.9774787615965,
              37.291610679590384
            ],
            [
              126.97750443656477,
              37.29156421737986
            ],
            [
              126.9774694646508,
              37.291556762403665
            ],
            [
              126.97746695792829,
              37.29155640386482
            ],
            [
              126.97744433927551,
              37.29160393849844
            ],
            [
              126.9774787615965,
              37.291610679590384
            ]
          ]
        ]
      }
    },
    {
      "type": "Feature",
      "properties": {
        "indoor": "room",
        "level": "5",
        "ref": "",
        "name": "",
        "room_type": "",
        "_idx": 63,
        "_centroid": [
          126.9768721,
          37.2915768
        ],
        "_area_m2": 20.6
      },
      "geometry": {
        "type": "Polygon",
        "coordinates": [
          [
            [
              126.9768885992856,
              37.29159222789377
            ],
            [
              126.97688691925187,
              37.29158377954731
            ],
            [
              126.97687872775002,
              37.29154258711797
            ],
            [
              126.97683948535614,
              37.29154752624938
            ],
            [
              126.97684990309982,
              37.29159991372443
            ],
            [
              126.97688914549353,
              37.291594974596634
            ],
            [
              126.9768885992856,
              37.29159222789377
            ]
          ]
        ]
      }
    },
    {
      "type": "Feature",
      "properties": {
        "indoor": "room",
        "level": "5",
        "ref": "",
        "name": "",
        "room_type": "",
        "_idx": 64,
        "_centroid": [
          126.9773665,
          37.291572
        ],
        "_area_m2": 18.5
      },
      "geometry": {
        "type": "Polygon",
        "coordinates": [
          [
            [
              126.9773710330236,
              37.29159399010318
            ],
            [
              126.9773887515687,
              37.29154546903231
            ],
            [
              126.97738853422801,
              37.2915454513138
            ],
            [
              126.97734934144158,
              37.29154225615654
            ],
            [
              126.97733412715156,
              37.29159022054311
            ],
            [
              126.97736657306343,
              37.29159343268653
            ],
            [
              126.97736717077939,
              37.29159350739052
            ],
            [
              126.9773710330236,
              37.29159399010318
            ]
          ]
        ]
      }
    },
    {
      "type": "Feature",
      "properties": {
        "indoor": "room",
        "level": "5",
        "ref": "",
        "name": "",
        "room_type": "",
        "_idx": 65,
        "_centroid": [
          126.9773973,
          37.2915669
        ],
        "_area_m2": 18.4
      },
      "geometry": {
        "type": "Polygon",
        "coordinates": [
          [
            [
              126.97740678769998,
              37.29159845880947
            ],
            [
              126.9774270913189,
              37.2915507017067
            ],
            [
              126.9773928339723,
              37.29154580184664
            ],
            [
              126.9773887515687,
              37.29154546903231
            ],
            [
              126.9773710330236,
              37.29159399010318
            ],
            [
              126.97740678769998,
              37.29159845880947
            ]
          ]
        ]
      }
    },
    {
      "type": "Feature",
      "properties": {
        "indoor": "room",
        "level": "5",
        "ref": "",
        "name": "",
        "room_type": "",
        "_idx": 66,
        "_centroid": [
          126.9772414,
          37.2915646
        ],
        "_area_m2": 17.4
      },
      "geometry": {
        "type": "Polygon",
        "coordinates": [
          [
            [
              126.97725904403129,
              37.29158425335387
            ],
            [
              126.97727059217806,
              37.29153780237322
            ],
            [
              126.97723123535995,
              37.291536536126536
            ],
            [
              126.97722151769085,
              37.291582108426205
            ],
            [
              126.97722482241865,
              37.29158222752188
            ],
            [
              126.97725904403129,
              37.29158425335387
            ]
          ]
        ]
      }
    },
    {
      "type": "Feature",
      "properties": {
        "indoor": "room",
        "level": "5",
        "ref": "",
        "name": "",
        "room_type": "",
        "_idx": 67,
        "_centroid": [
          126.9772838,
          37.2915619
        ],
        "_area_m2": 17.6
      },
      "geometry": {
        "type": "Polygon",
        "coordinates": [
          [
            [
              126.97729587678114,
              37.29158643375846
            ],
            [
              126.97730979239189,
              37.291539063581396
            ],
            [
              126.97727059217806,
              37.29153780237322
            ],
            [
              126.97725904403129,
              37.29158425335387
            ],
            [
              126.97729587678114,
              37.29158643375846
            ]
          ]
        ]
      }
    },
    {
      "type": "Feature",
      "properties": {
        "indoor": "room",
        "level": "5",
        "ref": "",
        "name": "",
        "room_type": "",
        "_idx": 68,
        "_centroid": [
          126.9768994,
          37.2915611
        ],
        "_area_m2": 13.7
      },
      "geometry": {
        "type": "Polygon",
        "coordinates": [
          [
            [
              126.97687872775002,
              37.29154258711797
            ],
            [
              126.97688691925187,
              37.29158377954731
            ],
            [
              126.97692004826482,
              37.29157957332917
            ],
            [
              126.97691186094248,
              37.291538416903684
            ],
            [
              126.97687872775002,
              37.29154258711797
            ]
          ]
        ]
      }
    },
    {
      "type": "Feature",
      "properties": {
        "indoor": "room",
        "level": "5",
        "ref": "",
        "name": "",
        "room_type": "",
        "_idx": 69,
        "_centroid": [
          126.9770823,
          37.2915599
        ],
        "_area_m2": 61.4
      },
      "geometry": {
        "type": "Polygon",
        "coordinates": [
          [
            [
              126.9770494828383,
              37.29153071743784
            ],
            [
              126.97703020159113,
              37.29153196117685
            ],
            [
              126.97702808331128,
              37.29153212905368
            ],
            [
              126.97703183652119,
              37.291583998647894
            ],
            [
              126.97703403753727,
              37.291583840685554
            ],
            [
              126.97705151392469,
              37.29158258644163
            ],
            [
              126.97707073595117,
              37.291581206916824
            ],
            [
              126.97707337575937,
              37.29158101746329
            ],
            [
              126.97710820405325,
              37.291580331285736
            ],
            [
              126.97710892290107,
              37.29158031712319
            ],
            [
              126.97714958305143,
              37.29157951604799
            ],
            [
              126.9771510365896,
              37.29156508612305
            ],
            [
              126.97715365710766,
              37.29152918146042
            ],
            [
              126.97711015575678,
              37.291528747049526
            ],
            [
              126.97708406779529,
              37.2915284865313
            ],
            [
              126.9770494828383,
              37.29153071743784
            ]
          ]
        ]
      }
    },
    {
      "type": "Feature",
      "properties": {
        "indoor": "room",
        "level": "5",
        "ref": "",
        "name": "",
        "room_type": "",
        "_idx": 70,
        "_centroid": [
          126.9769699,
          37.2915579
        ],
        "_area_m2": 56.4
      },
      "geometry": {
        "type": "Polygon",
        "coordinates": [
          [
            [
              126.97703183652119,
              37.291583998647894
            ],
            [
              126.97702808331128,
              37.29153212905368
            ],
            [
              126.97695420656808,
              37.291537983895424
            ],
            [
              126.97691283303708,
              37.29154330347677
            ],
            [
              126.97692248592301,
              37.29159184651256
            ],
            [
              126.97703183652119,
              37.291583998647894
            ]
          ]
        ]
      }
    },
    {
      "type": "Feature",
      "properties": {
        "indoor": "room",
        "level": "5",
        "ref": "",
        "name": "",
        "room_type": "",
        "_idx": 71,
        "_centroid": [
          126.9773186,
          37.291556
        ],
        "_area_m2": 18.6
      },
      "geometry": {
        "type": "Polygon",
        "coordinates": [
          [
            [
              126.97733412715156,
              37.29159022054311
            ],
            [
              126.97734934144158,
              37.29154225615654
            ],
            [
              126.97731178715495,
              37.29153919457652
            ],
            [
              126.97731043323843,
              37.29153908419968
            ],
            [
              126.97730979239189,
              37.291539063581396
            ],
            [
              126.97729587678114,
              37.29158643375846
            ],
            [
              126.97733412715156,
              37.29159022054311
            ]
          ]
        ]
      }
    }
  ]
}