{
  "type": "FeatureCollection",
  "features": [
    {
      "type": "Feature",
      "properties": {
        "building": "university",
        "name": "약학관",
        "loc_ref": "PHAR"
      },
      "geometry": {
        "type": "Polygon",
        "coordinates": [
          [
            [
              126.9763775139755,
              37.292067016556466
            ],
            [
              126.9770088494893,
              37.29198724523256
            ],
            [
              126.97699682063214,
              37.29192699181745
            ],
            [
              126.97706423922762,
              37.291918473243776
            ],
            [
              126.97704737500266,
              37.29183399903126
            ],
            [
              126.97673277477787,
              37.29187374989858
            ],
            [
              126.97672739319768,
              37.29184679313959
            ],
            [
              126.97683191759027,
              37.2918335861051
            ],
            [
              126.97678971032576,
              37.291622166222034
            ],
            [
              126.97684829035187,
              37.29161476440237
            ],
            [
              126.97686122414841,
              37.29167955099099
            ],
            [
              126.97697338533769,
              37.29166537898808
            ],
            [
              126.97707504107939,
              37.29165968895864
            ],
            [
              126.97718167790632,
              37.29165372011987
            ],
            [
              126.97728030507547,
              37.291661933041425
            ],
            [
              126.97734396058674,
              37.291671754317534
            ],
            [
              126.97744434517111,
              37.291687242443146
            ],
            [
              126.97752978756553,
              37.29170670235908
            ],
            [
              126.97759043623472,
              37.29173020974292
            ],
            [
              126.97765482751967,
              37.291749848846294
            ],
            [
              126.97773569960495,
              37.291768267837156
            ],
            [
              126.97780921287895,
              37.291785010820874
            ],
            [
              126.97788969849124,
              37.291797428757654
            ],
            [
              126.97796191569557,
              37.291803442446515
            ],
            [
              126.97803886262729,
              37.29180984998988
            ],
            [
              126.97811852570206,
              37.2918109290821
            ],
            [
              126.9781983289707,
              37.29181201007333
            ],
            [
              126.97819915058646,
              37.291773620495796
            ],
            [
              126.97827601330586,
              37.291769318225256
            ],
            [
              126.97826806420645,
              37.29167943417123
            ],
            [
              126.97820341305973,
              37.29168305292242
            ],
            [
              126.97820209212263,
              37.291668116480736
            ],
            [
              126.97811668330164,
              37.291666959556174
            ],
            [
              126.97803720704931,
              37.29166588299254
            ],
            [
              126.97794058509567,
              37.29165783705055
            ],
            [
              126.97794872342247,
              37.2916352210839
            ],
            [
              126.97787082010362,
              37.291623201537284
            ],
            [
              126.97781295589768,
              37.291610022672245
            ],
            [
              126.97775135784998,
              37.29159599340336
            ],
            [
              126.9777118554398,
              37.291580682268986
            ],
            [
              126.97768545611403,
              37.29161566991736
            ],
            [
              126.9776137422725,
              37.29159379742207
            ],
            [
              126.97761656551866,
              37.29158918728865
            ],
            [
              126.97754338392976,
              37.29157251980445
            ],
            [
              126.97757705145173,
              37.29151053594688
            ],
            [
              126.9774170018308,
              37.29148027156424
            ],
            [
              126.97739816844859,
              37.29152539072512
            ],
            [
              126.97724021538642,
              37.29151216092945
            ],
            [
              126.97711689213206,
              37.291510431219876
            ],
            [
              126.97707495301921,
              37.29150984298948
            ],
            [
              126.97698962046647,
              37.291514578208464
            ],
            [
              126.97695617819922,
              37.29151643396511
            ],
            [
              126.97690867829891,
              37.29152241240575
            ],
            [
              126.97691186094248,
              37.291538416903684
            ],
            [
              126.97683948535614,
              37.29154752624938
            ],
            [
              126.97684175208647,
              37.29157338000687
            ],
            [
              126.97664176062696,
              37.291598551344194
            ],
            [
              126.9766335840748,
              37.291557434101286
            ],
            [
              126.97669527099181,
              37.29154967005542
            ],
            [
              126.9766923622721,
              37.291516493916575
            ],
            [
              126.97675008879739,
              37.291505052035156
            ],
            [
              126.97673556975592,
              37.2914320403534
            ],
            [
              126.9762623255745,
              37.291493944412125
            ],
            [
              126.97629209799415,
              37.29161290977922
            ],
            [
              126.97635679756834,
              37.29160259602552
            ],
            [
              126.97635828062178,
              37.291613231115804
            ],
            [
              126.97651362248469,
              37.29159193275709
            ],
            [
              126.9765034697522,
              37.29154506503055
            ],
            [
              126.97658762281114,
              37.29153352710053
            ],
            [
              126.97666301613134,
              37.291881562172854
            ],
            [
              126.97634804464394,
              37.291924746597175
            ],
            [
              126.9763775139755,
              37.292067016556466
            ]
          ]
        ]
      }
    }
  ]
}