{
  "type": "FeatureCollection",
  "features": [
    {
      "type": "Feature",
      "properties": {
        "indoor": "corridor",
        "level": "1"
      },
      "geometry": {
        "type": "Polygon",
        "coordinates": [
          [
            [
              126.97634805312664,
              37.291566018278
            ],
            [
              126.97635679756834,
              37.29160259602552
            ],
            [
              126.97634805312664,
              37.291566018278
            ],
            [
              126.9765034697522,
              37.29154506503055
            ],
            [
              126.97656446536666,
              37.29153670213649
            ],
            [
              126.97655825528973,
              37.29150740280089
            ],
            [
              126.97627544423393,
              37.29154678786001
            ],
            [
              126.97629209799415,
              37.29161290977922
            ],
            [
              126.9763560004661,
              37.29160270531331
            ],
            [
              126.97634805312664,
              37.291566018278
            ]
          ]
        ]
      }
    },
    {
      "type": "Feature",
      "properties": {
        "indoor": "corridor",
        "level": "1"
      },
      "geometry": {
        "type": "Polygon",
        "coordinates": [
          [
            [
              126.97735735882779,
              37.2916132759104
            ],
            [
              126.977295942879,
              37.291606129689505
            ],
            [
              126.9772207396764,
              37.29160081157117
            ],
            [
              126.97707298046068,
              37.291598855462425
            ],
            [
              126.97692589173536,
              37.2916089732389
            ],
            [
              126.97692004826482,
              37.291579573329166
            ],
            [
              126.97688691925187,
              37.29158377954731
            ],
            [
              126.97688914549353,
              37.291594974596634
            ],
            [
              126.97684990309982,
              37.29159991372443
            ],
            [
              126.97684829035187,
              37.29161476440237
            ],
            [
              126.97685450199475,
              37.291645878357514
            ],
            [
              126.97693298092064,
              37.29163594146617
            ],
            [
              126.97706625976448,
              37.2916270697768
            ],
            [
              126.97714501422942,
              37.29162690358563
            ],
            [
              126.97714172062103,
              37.291655956669906
            ],
            [
              126.97718167790632,
              37.29165372011987
            ],
            [
              126.97728030507547,
              37.291661933041425
            ],
            [
              126.97733903611906,
              37.291670994531735
            ],
            [
              126.97734579111308,
              37.29164917319592
            ],
            [
              126.97735735882779,
              37.2916132759104
            ]
          ]
        ]
      }
    },
    {
      "type": "Feature",
      "properties": {
        "indoor": "corridor",
        "level": "1"
      },
      "geometry": {
        "type": "Polygon",
        "coordinates": [
          [
            [
              126.97734579111308,
              37.29164917319592
            ],
            [
              126.97740339467732,
              37.29165615322162
            ],
            [
              126.97745917038591,
              37.29166720492771
            ],
            [
              126.97746363867178,
              37.291692260908455
            ],
            [
              126.97752978756553,
              37.29170670235908
            ],
            [
              126.97755206461979,
              37.29167371234613
            ],
            [
              126.9775724321538,
              37.29167944593688
            ],
            [
              126.97761712605988,
              37.2916933493574
            ],
            [
              126.97762217593885,
              37.29168745426669
            ],
            [
              126.97764684796118,
              37.29165797254306
            ],
            [
              126.97760142977748,
              37.29164319031615
            ],
            [
              126.97763302927056,
              37.29159967382752
            ],
            [
              126.9776137422725,
              37.29159379742207
            ],
            [
              126.97761656551866,
              37.29158918728865
            ],
            [
              126.97760081950787,
              37.29158560105382
            ],
            [
              126.9775666654628,
              37.291634653266904
            ],
            [
              126.97751555324635,
              37.29162375766564
            ],
            [
              126.97750824180933,
              37.29163721842869
            ],
            [
              126.97741178290622,
              37.291620029123294
            ],
            [
              126.97735735882779,
              37.2916132759104
            ],
            [
              126.97734579111308,
              37.29164917319592
            ]
          ]
        ]
      }
    },
    {
      "type": "Feature",
      "properties": {
        "indoor": "corridor",
        "level": "1"
      },
      "geometry": {
        "type": "Polygon",
        "coordinates": [
          [
            [
              126.97778066407709,
              37.29169537430661
            ],
            [
              126.97773178199537,
              37.291684073318144
            ],
            [
              126.97764684796118,
              37.29165797254306
            ],
            [
              126.97762217593885,
              37.29168745426669
            ],
            [
              126.97765582153835,
              37.2916981112646
            ],
            [
              126.97769113179207,
              37.29170781785642
            ],
            [
              126.97772591327328,
              37.29171716609774
            ],
            [
              126.97776160099575,
              37.291726307070434
            ],
            [
              126.97778066407709,
              37.29169537430661
            ]
          ]
        ]
      }
    },
    {
      "type": "Feature",
      "properties": {
        "indoor": "corridor",
        "level": "1"
      },
      "geometry": {
        "type": "Polygon",
        "coordinates": [
          [
            [
              126.97778066407709,
              37.29169537430661
            ],
            [
              126.97776160099575,
              37.291726307070434
            ],
            [
              126.97783315617367,
              37.29174061459797
            ],
            [
              126.97787013108166,
              37.291746472826794
            ],
            [
              126.97790522590955,
              37.291751957125676
            ],
            [
              126.97791243866764,
              37.29173683640108
            ],
            [
              126.97791826180794,
              37.29171987221556
            ],
            [
              126.97788482573522,
              37.291716189725875
            ],
            [
              126.97781505264619,
              37.29170385444608
            ],
            [
              126.97778066407709,
              37.29169537430661
            ]
          ]
        ]
      }
    },
    {
      "type": "Feature",
      "properties": {
        "indoor": "corridor",
        "level": "1"
      },
      "geometry": {
        "type": "Polygon",
        "coordinates": [
          [
            [
              126.97791243866764,
              37.29173683640108
            ],
            [
              126.97790522590955,
              37.291751957125676
            ],
            [
              126.97794145009107,
              37.291756283281636
            ],
            [
              126.97797790275457,
              37.29176010567133
            ],
            [
              126.9780181155782,
              37.291763346392855
            ],
            [
              126.9780515392238,
              37.29176536145681
            ],
            [
              126.97805322346221,
              37.29174972912928
            ],
            [
              126.97802237187055,
              37.29174727781381
            ],
            [
              126.97798038341578,
              37.29174395399613
            ],
            [
              126.97791243866764,
              37.29173683640108
            ]
          ]
        ]
      }
    },
    {
      "type": "Feature",
      "properties": {
        "indoor": "corridor",
        "level": "1"
      },
      "geometry": {
        "type": "Polygon",
        "coordinates": [
          [
            [
              126.9780515392238,
              37.29176536145681
            ],
            [
              126.97812572404969,
              37.291768435987265
            ],
            [
              126.97819946456539,
              37.291767501830506
            ],
            [
              126.97819998110462,
              37.291751096292025
            ],
            [
              126.97819998110462,
              37.291751096292025
            ],
            [
              126.97812351756684,
              37.29175172341974
            ],
            [
              126.97808748269895,
              37.291750310797326
            ],
            [
              126.97810023215004,
              37.29166673671336
            ],
            [
              126.97804438356545,
              37.29166598020366
            ],
            [
              126.97803943395665,
              37.29168426101011
            ],
            [
              126.97806669736933,
              37.29168607799733
            ],
            [
              126.97805322346221,
              37.29174972912928
            ],
            [
              126.9780515392238,
              37.29176536145681
            ]
          ]
        ]
      }
    },
    {
      "type": "Feature",
      "properties": {
        "indoor": "corridor",
        "level": "1"
      },
      "geometry": {
        "type": "Polygon",
        "coordinates": [
          [
            [
              126.97819946456539,
              37.291767501830506
            ],
            [
              126.97822171258196,
              37.29176635860183
            ],
            [
              126.97822220141158,
              37.29177232696612
            ],
            [
              126.97827601330586,
              37.291769318225256
            ],
            [
              126.97827197866275,
              37.29172369670875
            ],
            [
              126.97823582204701,
              37.291725710600275
            ],
            [
              126.97823633542686,
              37.29174922016971
            ],
            [
              126.97819998110462,
              37.291751096292025
            ],
            [
              126.97819946456539,
              37.291767501830506
            ]
          ]
        ]
      }
    },
    {
      "type": "Feature",
      "properties": {
        "indoor": "corridor",
        "level": "1"
      },
      "geometry": {
        "type": "Polygon",
        "coordinates": [
          [
            [
              126.97665885294147,
              37.29163870057119
            ],
            [
              126.97661157449186,
              37.29164409443014
            ],
            [
              126.97666280132279,
              37.29188059299088
            ],
            [
              126.97667735418268,
              37.291946253155864
            ],
            [
              126.97636167000819,
              37.29199052864605
            ],
            [
              126.9763657056664,
              37.292010009266356
            ],
            [
              126.97706423922762,
              37.291918473243776
            ],
            [
              126.97706029137257,
              37.291898696583495
            ],
            [
              126.97674568945361,
              37.29193844048663
            ],
            [
              126.97672738389109,
              37.29184674652218
            ],
            [
              126.97670105089941,
              37.291850073790414
            ],
            [
              126.97665885294147,
              37.29163870057119
            ]
          ]
        ]
      }
    }
  ]
}