{
  "type": "FeatureCollection",
  "features": [
    {
      "type": "Feature",
      "properties": {
        "indoor": "room",
        "level": [
          8
        ],
        "ref": "",
        "name": "",
        "room_type": "facility",
        "_idx": 1,
        "_centroid": [
          126.9763989,
          37.2919952
        ],
        "_area_m2": 13.7
      },
      "geometry": {
        "type": "Polygon",
        "coordinates": [
          [
            [
              126.9764324203929,
              37.291980605730835
            ],
            [
              126.97636118256914,
              37.29199059252015
            ],
            [
              126.97636542502006,
              37.29200974590141
            ],
            [
              126.97643666284382,
              37.291999759114645
            ],
            [
              126.9764324203929,
              37.291980605730835
            ]
          ]
        ]
      }
    },
    {
      "type": "Feature",
      "properties": {
        "indoor": "room",
        "level": [
          8
        ],
        "ref": "",
        "name": "",
        "room_type": "",
        "_idx": 2,
        "_centroid": [
          126.9765658,
          37.2919905
        ],
        "_area_m2": 363
      },
      "geometry": {
        "type": "Polygon",
        "coordinates": [
          [
            [
              126.97636542502006,
              37.2920097459014
            ],
            [
              126.97636118256914,
              37.29199059252015
            ],
            [
              126.97636166905014,
              37.29199052432066
            ],
            [
              126.97636186864474,
              37.29199147828953
            ],
            [
              126.97625993518643,
              37.29200497647019
            ],
            [
              126.97627735915552,
              37.2920830149401
            ],
            [
              126.97700833189944,
              37.29198748296973
            ],
            [
              126.9769966460651,
              37.29192691163599
            ],
            [
              126.97695972819935,
              37.291931870720745
            ],
            [
              126.97696340944243,
              37.29195014136446
            ],
            [
              126.97643910183017,
              37.292019570973345
            ],
            [
              126.97643499272797,
              37.29199998870168
            ],
            [
              126.97636542502006,
              37.2920097459014
            ]
          ]
        ]
      }
    },
    {
      "type": "Feature",
      "properties": {
        "indoor": "room",
        "level": [
          8
        ],
        "ref": "",
        "name": "",
        "room_type": "facility",
        "_idx": 3,
        "_centroid": [
          126.9764684,
          37.2919854
        ],
        "_area_m2": 13.1
      },
      "geometry": {
        "type": "Polygon",
        "coordinates": [
          [
            [
              126.97650021052031,
              37.291971097997916
            ],
            [
              126.9764324203929,
              37.291980605730835
            ],
            [
              126.97643666469381,
              37.291999758855184
            ],
            [
              126.97650445482124,
              37.29199025112468
            ],
            [
              126.97650021052031,
              37.291971097997916
            ]
          ]
        ]
      }
    },
    {
      "type": "Feature",
      "properties": {
        "indoor": "room",
        "level": [
          8
        ],
        "ref": "",
        "name": "",
        "room_type": "reserved",
        "_idx": 4,
        "_centroid": [
          126.9765375,
          37.2919757
        ],
        "_area_m2": 13.6
      },
      "geometry": {
        "type": "Polygon",
        "coordinates": [
          [
            [
              126.976570482388,
              37.291961242193295
            ],
            [
              126.97650021052031,
              37.291971097997916
            ],
            [
              126.97650445482134,
              37.29199025112466
            ],
            [
              126.97657472668901,
              37.291980395322554
            ],
            [
              126.976570482388,
              37.291961242193295
            ]
          ]
        ]
      }
    },
    {
      "type": "Feature",
      "properties": {
        "indoor": "room",
        "level": [
          8
        ],
        "ref": "",
        "name": "",
        "room_type": "reserved",
        "_idx": 5,
        "_centroid": [
          126.9766262,
          37.2919666
        ],
        "_area_m2": 13.5
      },
      "geometry": {
        "type": "Polygon",
        "coordinates": [
          [
            [
              126.97657472668901,
              37.291980395322554
            ],
            [
              126.97657191401139,
              37.291967702637585
            ],
            [
              126.9766777045961,
              37.29195286524321
            ],
            [
              126.97668051727369,
              37.29196555793068
            ],
            [
              126.97657472668901,
              37.291980395322554
            ]
          ]
        ]
      }
    },
    {
      "type": "Feature",
      "properties": {
        "indoor": "room",
        "level": [
          8
        ],
        "ref": "",
        "name": "",
        "room_type": "facility",
        "_idx": 6,
        "_centroid": [
          126.9763963,
          37.2919594
        ],
        "_area_m2": 46.5
      },
      "geometry": {
        "type": "Polygon",
        "coordinates": [
          [
            [
              126.97634804464394,
              37.291924746597175
            ],
            [
              126.97635920065676,
              37.29197860683657
            ],
            [
              126.97636167000819,
              37.29199052864605
            ],
            [
              126.9763991971095,
              37.29198526537814
            ],
            [
              126.97640498383207,
              37.29198445377612
            ],
            [
              126.97643242039292,
              37.291980605730835
            ],
            [
              126.97642978287288,
              37.291968705675124
            ],
            [
              126.97642481832929,
              37.291946306467175
            ],
            [
              126.97641786889662,
              37.29191495175356
            ],
            [
              126.9763846457963,
              37.29191961224143
            ],
            [
              126.97634804464394,
              37.291924746597175
            ]
          ]
        ]
      }
    },
    {
      "type": "Feature",
      "properties": {
        "indoor": "room",
        "level": [
          8
        ],
        "ref": "",
        "name": "",
        "room_type": "facility",
        "_idx": 7,
        "_centroid": [
          126.976459,
          37.2919498
        ],
        "_area_m2": 44.8
      },
      "geometry": {
        "type": "Polygon",
        "coordinates": [
          [
            [
              126.97645889114396,
              37.2919768931428
            ],
            [
              126.97650021052031,
              37.291971097997916
            ],
            [
              126.97648566125682,
              37.29190544194097
            ],
            [
              126.97641786889662,
              37.29191495175356
            ],
            [
              126.97643242039292,
              37.291980605730835
            ],
            [
              126.97645889114396,
              37.2919768931428
            ]
          ]
        ]
      }
    },
    {
      "type": "Feature",
      "properties": {
        "indoor": "room",
        "level": [
          8
        ],
        "ref": "530817",
        "name": "동물사체보관실",
        "room_type": "storage",
        "_idx": 8,
        "_centroid": [
          126.9767204,
          37.2919399
        ],
        "_area_m2": 12.6
      },
      "geometry": {
        "type": "Polygon",
        "coordinates": [
          [
            [
              126.97673673334904,
              37.29192310938569
            ],
            [
              126.97671029330544,
              37.29192630020302
            ],
            [
              126.97670199462775,
              37.291927301697754
            ],
            [
              126.97670926057204,
              37.291963686765506
            ],
            [
              126.97674364189345,
              37.29195934130337
            ],
            [
              126.97673673334904,
              37.29192310938569
            ]
          ]
        ]
      }
    },
    {
      "type": "Feature",
      "properties": {
        "indoor": "room",
        "level": [
          8
        ],
        "ref": "",
        "name": "",
        "room_type": "",
        "_idx": 9,
        "_centroid": [
          126.9767537,
          37.2919396
        ],
        "_area_m2": 9.7
      },
      "geometry": {
        "type": "Polygon",
        "coordinates": [
          [
            [
              126.97673673334904,
              37.29192310938569
            ],
            [
              126.97674364189345,
              37.29195934130337
            ],
            [
              126.97677055735382,
              37.29195593945291
            ],
            [
              126.97676367744992,
              37.29191985773762
            ],
            [
              126.97673673334904,
              37.29192310938569
            ]
          ]
        ]
      }
    },
    {
      "type": "Feature",
      "properties": {
        "indoor": "room",
        "level": [
          8
        ],
        "ref": "530811",
        "name": "실험동물실8~10",
        "room_type": "lab",
        "_idx": 10,
        "_centroid": [
          126.9767802,
          37.2919363
        ],
        "_area_m2": 9.4
      },
      "geometry": {
        "type": "Polygon",
        "coordinates": [
          [
            [
              126.97676367744992,
              37.29191985773762
            ],
            [
              126.97677055735382,
              37.29195593945291
            ],
            [
              126.97679673417683,
              37.29195263095898
            ],
            [
              126.97678988212714,
              37.29191669532412
            ],
            [
              126.97676367744992,
              37.29191985773762
            ]
          ]
        ]
      }
    },
    {
      "type": "Feature",
      "properties": {
        "indoor": "room",
        "level": [
          8
        ],
        "ref": "530827",
        "name": "실험동물실11~14",
        "room_type": "lab",
        "_idx": 11,
        "_centroid": [
          126.9765375,
          37.2919347
        ],
        "_area_m2": 53.1
      },
      "geometry": {
        "type": "Polygon",
        "coordinates": [
          [
            [
              126.97648566125682,
              37.29190544194097
            ],
            [
              126.97650021052031,
              37.291971097997916
            ],
            [
              126.97650230565668,
              37.29197080414985
            ],
            [
              126.9765412276948,
              37.291965345237344
            ],
            [
              126.9765435949952,
              37.29196501321758
            ],
            [
              126.97658051111746,
              37.29195983563879
            ],
            [
              126.97658051372522,
              37.29195983527305
            ],
            [
              126.9765729413223,
              37.2919256698114
            ],
            [
              126.97656596140574,
              37.29189417755273
            ],
            [
              126.97656312411617,
              37.29189457556356
            ],
            [
              126.97652667558978,
              37.29189968850952
            ],
            [
              126.97648775377078,
              37.29190514840619
            ],
            [
              126.97648566125682,
              37.29190544194097
            ]
          ]
        ]
      }
    },
    {
      "type": "Feature",
      "properties": {
        "indoor": "room",
        "level": [
          8
        ],
        "ref": "",
        "name": "",
        "room_type": "",
        "_idx": 12,
        "_centroid": [
          126.9768061,
          37.2919331
        ],
        "_area_m2": 9.2
      },
      "geometry": {
        "type": "Polygon",
        "coordinates": [
          [
            [
              126.97678988212714,
              37.29191669532412
            ],
            [
              126.97679673417683,
              37.29195263095898
            ],
            [
              126.97682228709408,
              37.29194940132062
            ],
            [
              126.97681546223471,
              37.291913608284474
            ],
            [
              126.97678988212714,
              37.29191669532412
            ]
          ]
        ]
      }
    },
    {
      "type": "Feature",
      "properties": {
        "indoor": "room",
        "level": [
          8
        ],
        "ref": "",
        "name": "",
        "room_type": "reserved",
        "_idx": 13,
        "_centroid": [
          126.9765944,
          37.291924
        ],
        "_area_m2": 22.2
      },
      "geometry": {
        "type": "Polygon",
        "coordinates": [
          [
            [
              126.97659960876379,
              37.29188945755058
            ],
            [
              126.97659223696874,
              37.2918904916552
            ],
            [
              126.97656596140574,
              37.29189417755273
            ],
            [
              126.97658051372522,
              37.29195983527305
            ],
            [
              126.97661415866274,
              37.29195511648612
            ],
            [
              126.97661416126947,
              37.29195511612052
            ],
            [
              126.97659960876379,
              37.29188945755058
            ]
          ]
        ]
      }
    },
    {
      "type": "Feature",
      "properties": {
        "indoor": "room",
        "level": [
          8
        ],
        "ref": "",
        "name": "",
        "room_type": "facility",
        "_idx": 14,
        "_centroid": [
          126.9768748,
          37.2919209
        ],
        "_area_m2": 36.5
      },
      "geometry": {
        "type": "Polygon",
        "coordinates": [
          [
            [
              126.97691801219068,
              37.29190105293896
            ],
            [
              126.97689333411836,
              37.29190421060734
            ],
            [
              126.97681546223471,
              37.291913608284474
            ],
            [
              126.97682228709408,
              37.29194940132062
            ],
            [
              126.97692507288677,
              37.29193641020358
            ],
            [
              126.97691801219068,
              37.29190105293896
            ]
          ]
        ]
      }
    },
    {
      "type": "Feature",
      "properties": {
        "indoor": "room",
        "level": [
          8
        ],
        "ref": "",
        "name": "",
        "room_type": "stairs",
        "_idx": 15,
        "_centroid": [
          126.9766281,
          37.2919193
        ],
        "_area_m2": 23.9
      },
      "geometry": {
        "type": "Polygon",
        "coordinates": [
          [
            [
              126.97661885032807,
              37.2918867583721
            ],
            [
              126.97659960876379,
              37.29188945755058
            ],
            [
              126.97661416126947,
              37.29195511612052
            ],
            [
              126.97665027487051,
              37.29195005109735
            ],
            [
              126.97665027747696,
              37.29195005073179
            ],
            [
              126.97663572477029,
              37.29188439125004
            ],
            [
              126.97661885032807,
              37.2918867583721
            ]
          ]
        ]
      }
    },
    {
      "type": "Feature",
      "properties": {
        "indoor": "room",
        "level": [
          8
        ],
        "ref": "",
        "name": "",
        "room_type": "elevator",
        "_idx": 16,
        "_centroid": [
          126.9766524,
          37.2919093
        ],
        "_area_m2": 17.8
      },
      "geometry": {
        "type": "Polygon",
        "coordinates": [
          [
            [
              126.97663572477029,
              37.29188439125004
            ],
            [
              126.97665027747696,
              37.29195005073179
            ],
            [
              126.97667735418268,
              37.291946253155864
            ],
            [
              126.97666299843026,
              37.29188149820593
            ],
            [
              126.97663572477032,
              37.291884391250036
            ],
            [
              126.97663572477029,
              37.29188439125004
            ]
          ]
        ]
      }
    },
    {
      "type": "Feature",
      "properties": {
        "indoor": "room",
        "level": [
          8
        ],
        "ref": "",
        "name": "",
        "room_type": "reserved",
        "_idx": 17,
        "_centroid": [
          126.9766812,
          37.2918967
        ],
        "_area_m2": 9.6
      },
      "geometry": {
        "type": "Polygon",
        "coordinates": [
          [
            [
              126.97666299843026,
              37.29188149820593
            ],
            [
              126.9766923228386,
              37.291878869079845
            ],
            [
              126.97669907864177,
              37.29191160139435
            ],
            [
              126.9766704202359,
              37.29191497598813
            ],
            [
              126.97666299843026,
              37.29188149820593
            ]
          ]
        ]
      }
    },
    {
      "type": "Feature",
      "properties": {
        "indoor": "room",
        "level": [
          8
        ],
        "ref": "530818",
        "name": "세척실",
        "room_type": "",
        "_idx": 18,
        "_centroid": [
          126.9767133,
          37.2918931
        ],
        "_area_m2": 11.6
      },
      "geometry": {
        "type": "Polygon",
        "coordinates": [
          [
            [
              126.97673413457564,
              37.29190739025371
            ],
            [
              126.97672784033085,
              37.2918743800118
            ],
            [
              126.9766923228386,
              37.29187886907985
            ],
            [
              126.97669886829765,
              37.29191164623329
            ],
            [
              126.97673413457564,
              37.29190739025371
            ]
          ]
        ]
      }
    },
    {
      "type": "Feature",
      "properties": {
        "indoor": "room",
        "level": [
          8
        ],
        "ref": "",
        "name": "",
        "room_type": "",
        "_idx": 19,
        "_centroid": [
          126.9767446,
          37.2918892
        ],
        "_area_m2": 9
      },
      "geometry": {
        "type": "Polygon",
        "coordinates": [
          [
            [
              126.97676141443479,
              37.29190409808539
            ],
            [
              126.97675509119287,
              37.29187093576597
            ],
            [
              126.97672784033085,
              37.2918743800118
            ],
            [
              126.97673413457564,
              37.29190739025371
            ],
            [
              126.97676141443479,
              37.29190409808539
            ]
          ]
        ]
      }
    },
    {
      "type": "Feature",
      "properties": {
        "indoor": "room",
        "level": [
          8
        ],
        "ref": "",
        "name": "",
        "room_type": "",
        "_idx": 20,
        "_centroid": [
          126.9767717,
          37.2918859
        ],
        "_area_m2": 8.9
      },
      "geometry": {
        "type": "Polygon",
        "coordinates": [
          [
            [
              126.97678828748528,
              37.29190085501126
            ],
            [
              126.9767819356787,
              37.29186754288218
            ],
            [
              126.97675509119287,
              37.29187093576597
            ],
            [
              126.97676141443479,
              37.29190409808539
            ],
            [
              126.97678828748528,
              37.29190085501126
            ]
          ]
        ]
      }
    },
    {
      "type": "Feature",
      "properties": {
        "indoor": "room",
        "level": [
          8
        ],
        "ref": "",
        "name": "",
        "room_type": "",
        "_idx": 21,
        "_centroid": [
          126.9767975,
          37.2918827
        ],
        "_area_m2": 8.3
      },
      "geometry": {
        "type": "Polygon",
        "coordinates": [
          [
            [
              126.97681316484741,
              37.29189785277934
            ],
            [
              126.97680678659742,
              37.291864401966016
            ],
            [
              126.9767819356787,
              37.29186754288218
            ],
            [
              126.97678828748528,
              37.29190085501126
            ],
            [
              126.97681316484741,
              37.29189785277934
            ]
          ]
        ]
      }
    },
    {
      "type": "Feature",
      "properties": {
        "indoor": "room",
        "level": [
          8
        ],
        "ref": "530808",
        "name": "실험동물실1",
        "room_type": "lab",
        "_idx": 22,
        "_centroid": [
          126.9768987,
          37.29188
        ],
        "_area_m2": 12.1
      },
      "geometry": {
        "type": "Polygon",
        "coordinates": [
          [
            [
              126.97688388553767,
              37.29185465740445
            ],
            [
              126.97689034582713,
              37.29188853847946
            ],
            [
              126.97689333411836,
              37.29190421060734
            ],
            [
              126.97691801219068,
              37.29190105293896
            ],
            [
              126.97690813515335,
              37.291851592487184
            ],
            [
              126.97688388553767,
              37.29185465740445
            ]
          ]
        ]
      }
    },
    {
      "type": "Feature",
      "properties": {
        "indoor": "room",
        "level": [
          8
        ],
        "ref": "530810",
        "name": "실험동물실2~7",
        "room_type": "lab",
        "_idx": 23,
        "_centroid": [
          126.9768233,
          37.2918795
        ],
        "_area_m2": 8.9
      },
      "geometry": {
        "type": "Polygon",
        "coordinates": [
          [
            [
              126.97683973085282,
              37.29189464675981
            ],
            [
              126.97683332436432,
              37.291861047848535
            ],
            [
              126.97680678659742,
              37.291864401966016
            ],
            [
              126.97681316484741,
              37.29189785277934
            ],
            [
              126.97683973085282,
              37.29189464675981
            ]
          ]
        ]
      }
    },
    {
      "type": "Feature",
      "properties": {
        "indoor": "room",
        "level": [
          8
        ],
        "ref": "",
        "name": "",
        "room_type": "facility",
        "_idx": 24,
        "_centroid": [
          126.9769683,
          37.2918772
        ],
        "_area_m2": 69.6
      },
      "geometry": {
        "type": "Polygon",
        "coordinates": [
          [
            [
              126.97702853687645,
              37.29190270815348
            ],
            [
              126.9770156209507,
              37.29183801127005
            ],
            [
              126.97690813515335,
              37.2918515924872
            ],
            [
              126.9769210510791,
              37.29191628935896
            ],
            [
              126.97702853687645,
              37.29190270815348
            ]
          ]
        ]
      }
    },
    {
      "type": "Feature",
      "properties": {
        "indoor": "room",
        "level": [
          8
        ],
        "ref": "",
        "name": "",
        "room_type": "",
        "_idx": 25,
        "_centroid": [
          126.9768496,
          37.2918762
        ],
        "_area_m2": 8.8
      },
      "geometry": {
        "type": "Polygon",
        "coordinates": [
          [
            [
              126.97686582193373,
              37.29189149805476
            ],
            [
              126.97685938771191,
              37.29185775369307
            ],
            [
              126.97683332436432,
              37.291861047848535
            ],
            [
              126.97683973085282,
              37.29189464675981
            ],
            [
              126.97686582193373,
              37.29189149805476
            ]
          ]
        ]
      }
    },
    {
      "type": "Feature",
      "properties": {
        "indoor": "room",
        "level": [
          8
        ],
        "ref": "",
        "name": "",
        "room_type": "",
        "_idx": 26,
        "_centroid": [
          126.9768749,
          37.2918731
        ],
        "_area_m2": 8.3
      },
      "geometry": {
        "type": "Polygon",
        "coordinates": [
          [
            [
              126.97686582193373,
              37.29189149805476
            ],
            [
              126.97689034582713,
              37.29188853847946
            ],
            [
              126.97688388553767,
              37.29185465740445
            ],
            [
              126.97685938771191,
              37.29185775369307
            ],
            [
              126.97686582193373,
              37.29189149805476
            ]
          ]
        ]
      }
    },
    {
      "type": "Feature",
      "properties": {
        "indoor": "room",
        "level": [
          8
        ],
        "ref": "",
        "name": "",
        "room_type": "stairs",
        "_idx": 27,
        "_centroid": [
          126.977038,
          37.2918684
        ],
        "_area_m2": 20.6
      },
      "geometry": {
        "type": "Polygon",
        "coordinates": [
          [
            [
              126.9770156209507,
              37.291838011270045
            ],
            [
              126.97702853687646,
              37.291902708153486
            ],
            [
              126.97706029137257,
              37.291898696583495
            ],
            [
              126.97704737500266,
              37.29183399903126
            ],
            [
              126.9770156209507,
              37.291838011270045
            ]
          ]
        ]
      }
    }
  ]
}