{
  "type": "FeatureCollection",
  "features": [
    {
      "type": "Feature",
      "properties": {
        "indoor": "corridor",
        "level": "4"
      },
      "geometry": {
        "type": "Polygon",
        "coordinates": [
          [
            [
              126.97812572404969,
              37.291768435987265
            ],
            [
              126.97819946456539,
              37.291767501830506
            ],
            [
              126.97822171258196,
              37.29176635860183
            ],
            [
              126.97822220141158,
              37.29177232696612
            ],
            [
              126.97827601330586,
              37.291769318225256
            ],
            [
              126.97827197866275,
              37.29172369670875
            ],
            [
              126.97823582204701,
              37.291725710600275
            ],
            [
              126.97823633542686,
              37.29174922016971
            ],
            [
              126.97819998110462,
              37.291751096292025
            ],
            [
              126.97815839527044,
              37.29175040791403
            ],
            [
              126.97812208939574,
              37.291749782212634
            ],
            [
              126.9780852722266,
              37.29174913419728
            ],
            [
              126.97807988284758,
              37.29174903933936
            ],
            [
              126.97804913606734,
              37.291747056020554
            ],
            [
              126.97802601664343,
              37.29174556470383
            ],
            [
              126.97801582573996,
              37.29174405902839
            ],
            [
              126.97797966091532,
              37.29174115550094
            ],
            [
              126.97794497780093,
              37.2917380558127
            ],
            [
              126.97790924369544,
              37.2917336596287
            ],
            [
              126.97790176184013,
              37.29175141579258
            ],
            [
              126.97789468137525,
              37.2917677734132
            ],
            [
              126.97797270568489,
              37.291777893911295
            ],
            [
              126.97797790275457,
              37.29176010567133
            ],
            [
              126.9780181155782,
              37.291763346392855
            ],
            [
              126.9780515392238,
              37.29176536145681
            ],
            [
              126.97809008086514,
              37.291767438842285
            ],
            [
              126.97812572404969,
              37.291768435987265
            ]
          ]
        ]
      }
    },
    {
      "type": "Feature",
      "properties": {
        "indoor": "corridor",
        "level": "4"
      },
      "geometry": {
        "type": "Polygon",
        "coordinates": [
          [
            [
              126.97790924369544,
              37.2917336596287
            ],
            [
              126.97789586424756,
              37.29173201362375
            ],
            [
              126.97787457071527,
              37.291728603562774
            ],
            [
              126.9778510242722,
              37.29172483270853
            ],
            [
              126.97783995986272,
              37.29172274792654
            ],
            [
              126.97778056145387,
              37.29171162908842
            ],
            [
              126.97777054704812,
              37.291709321384666
            ],
            [
              126.97770207112302,
              37.291692552481585
            ],
            [
              126.97763672413042,
              37.29167201821424
            ],
            [
              126.97759159298641,
              37.29165765637166
            ],
            [
              126.97756333142776,
              37.291668167155976
            ],
            [
              126.97762217593885,
              37.29168745426669
            ],
            [
              126.97765582153835,
              37.2916981112646
            ],
            [
              126.97769113179207,
              37.29170781785642
            ],
            [
              126.97772591327328,
              37.29171716609774
            ],
            [
              126.97776160099575,
              37.291726307070434
            ],
            [
              126.97780377992267,
              37.29173474078828
            ],
            [
              126.97783315617367,
              37.29174061459797
            ],
            [
              126.97787013108166,
              37.291746472826794
            ],
            [
              126.97790176184013,
              37.29175141579258
            ],
            [
              126.97790924369544,
              37.2917336596287
            ]
          ]
        ]
      }
    },
    {
      "type": "Feature",
      "properties": {
        "indoor": "corridor",
        "level": "4"
      },
      "geometry": {
        "type": "Polygon",
        "coordinates": [
          [
            [
              126.97763302927056,
              37.29159967382752
            ],
            [
              126.97760081950787,
              37.29158560105382
            ],
            [
              126.97757082571616,
              37.291628689328455
            ],
            [
              126.97751843655585,
              37.291618449331494
            ],
            [
              126.97750597119943,
              37.29163156761438
            ],
            [
              126.97747365147696,
              37.29169063648598
            ],
            [
              126.97753421456066,
              37.29170986281458
            ],
            [
              126.97756333142776,
              37.291668167155976
            ],
            [
              126.97759159298641,
              37.29165765637166
            ],
            [
              126.97760142977748,
              37.29164319031615
            ],
            [
              126.97763302927056,
              37.29159967382752
            ]
          ]
        ]
      }
    },
    {
      "type": "Feature",
      "properties": {
        "indoor": "corridor",
        "level": "4"
      },
      "geometry": {
        "type": "Polygon",
        "coordinates": [
          [
            [
              126.97751843655585,
              37.291618449331494
            ],
            [
              126.9774787615965,
              37.291610679590384
            ],
            [
              126.97744433927551,
              37.29160393849844
            ],
            [
              126.97740678769998,
              37.29159845880947
            ],
            [
              126.9773710330236,
              37.29159399010318
            ],
            [
              126.97733412715156,
              37.29159022054311
            ],
            [
              126.97729587678114,
              37.29158643375846
            ],
            [
              126.97725904403129,
              37.29158425335386
            ],
            [
              126.97722482241865,
              37.29158222752188
            ],
            [
              126.97722488594364,
              37.2915663125605
            ],
            [
              126.9771510365896,
              37.29156508612305
            ],
            [
              126.97714958305143,
              37.29157951604799
            ],
            [
              126.97718398733866,
              37.29159744587534
            ],
            [
              126.97723749548635,
              37.29159879016163
            ],
            [
              126.97729040772192,
              37.29160343576759
            ],
            [
              126.97736226126177,
              37.29160938782016
            ],
            [
              126.97743662839196,
              37.29161933403778
            ],
            [
              126.97750597119943,
              37.29163156761438
            ],
            [
              126.97751843655585,
              37.291618449331494
            ]
          ]
        ]
      }
    },
    {
      "type": "Feature",
      "properties": {
        "indoor": "corridor",
        "level": "4"
      },
      "geometry": {
        "type": "Polygon",
        "coordinates": [
          [
            [
              126.97718217343886,
              37.29159740030469
            ],
            [
              126.97714958305143,
              37.29157951604799
            ],
            [
              126.97703403753728,
              37.291583840685554
            ],
            [
              126.97692248592301,
              37.29159184651256
            ],
            [
              126.97692004826482,
              37.291579573329166
            ],
            [
              126.97688691925187,
              37.29158377954731
            ],
            [
              126.97688914549353,
              37.291594974596634
            ],
            [
              126.97684990309982,
              37.29159991372443
            ],
            [
              126.97684711833146,
              37.2916188540682
            ],
            [
              126.97691100746987,
              37.29161087234825
            ],
            [
              126.97699751120281,
              37.291602123748305
            ],
            [
              126.97707195369786,
              37.291598333731066
            ],
            [
              126.97718217343886,
              37.29159740030469
            ]
          ]
        ]
      }
    },
    {
      "type": "Feature",
      "properties": {
        "indoor": "corridor",
        "level": "4"
      },
      "geometry": {
        "type": "Polygon",
        "coordinates": [
          [
            [
              126.97627708376102,
              37.291559625839774
            ],
            [
              126.97627990392589,
              37.29157140486006
            ],
            [
              126.97631552476982,
              37.29156667068512
            ],
            [
              126.9763743050688,
              37.29155885851179
            ],
            [
              126.9764128700346,
              37.29155373304967
            ],
            [
              126.97645363491414,
              37.29154831520793
            ],
            [
              126.97649111425741,
              37.29154333402828
            ],
            [
              126.97660123039284,
              37.29152869907999
            ],
            [
              126.97662454979668,
              37.29152559982239
            ],
            [
              126.97661824992882,
              37.291499047782
            ],
            [
              126.97660027636545,
              37.291501550826474
            ],
            [
              126.97651111468562,
              37.291513967732804
            ],
            [
              126.97641489459974,
              37.29152736761261
            ],
            [
              126.97634194709896,
              37.291537526486756
            ],
            [
              126.97630776460002,
              37.29154228683642
            ],
            [
              126.97627544423393,
              37.29154678786001
            ],
            [
              126.97627708376102,
              37.291559625839774
            ]
          ]
        ]
      }
    },
    {
      "type": "Feature",
      "properties": {
        "indoor": "corridor",
        "level": "4"
      },
      "geometry": {
        "type": "Polygon",
        "coordinates": [
          [
            [
              126.97666301613134,
              37.291881562172854
            ],
            [
              126.97667735418268,
              37.291946253155864
            ],
            [
              126.97665027747696,
              37.291950050731785
            ],
            [
              126.97661416126947,
              37.29195511612052
            ],
            [
              126.97658051111745,
              37.291959835638785
            ],
            [
              126.97650230565667,
              37.29197080414984
            ],
            [
              126.9764324203929,
              37.291980605730835
            ],
            [
              126.97636118256914,
              37.29199059252015
            ],
            [
              126.97636515595453,
              37.292009783621545
            ],
            [
              126.97643268299662,
              37.292000934860496
            ],
            [
              126.97647050128639,
              37.29199597914201
            ],
            [
              126.97657154056493,
              37.29198273892879
            ],
            [
              126.97664496373346,
              37.29197311753778
            ],
            [
              126.9767113452726,
              37.29196441888372
            ],
            [
              126.9768521246922,
              37.291945971112135
            ],
            [
              126.97696230536867,
              37.291931533007784
            ],
            [
              126.97699682063214,
              37.29192699181745
            ],
            [
              126.97706423922762,
              37.291918473243776
            ],
            [
              126.97706029137257,
              37.291898696583495
            ],
            [
              126.97702853687645,
              37.29190270815348
            ],
            [
              126.97699196727199,
              37.29190732801984
            ],
            [
              126.97695588014064,
              37.29191188693497
            ],
            [
              126.97688426386873,
              37.29192093427386
            ],
            [
              126.97684973075566,
              37.29192529686867
            ],
            [
              126.97674568945361,
              37.29193844048663
            ],
            [
              126.97670954608353,
              37.29194300732587
            ],
            [
              126.97669663140776,
              37.29187831674174
            ],
            [
              126.97666301613134,
              37.291881562172854
            ]
          ]
        ]
      }
    },
    {
      "type": "Feature",
      "properties": {
        "indoor": "corridor",
        "level": "4"
      },
      "geometry": {
        "type": "Polygon",
        "coordinates": [
          [
            [
              126.97636118256914,
              37.29199059252015
            ],
            [
              126.97636515595453,
              37.292009783621545
            ],
            [
              126.97629559477234,
              37.29201889893163
            ],
            [
              126.97626455231955,
              37.29202296673999
            ],
            [
              126.97626056091907,
              37.2920036886307
            ],
            [
              126.97636118256914,
              37.29199059252015
            ]
          ]
        ]
      }
    },
    {
      "type": "Feature",
      "properties": {
        "indoor": "corridor",
        "level": "4"
      },
      "geometry": {
        "type": "Polygon",
        "coordinates": [
          [
            [
              126.97822220141158,
              37.29177232696612
            ],
            [
              126.97819915058646,
              37.291773620495796
            ],
            [
              126.97819946456539,
              37.291767501830506
            ],
            [
              126.97822171258196,
              37.29176635860183
            ],
            [
              126.97822220141158,
              37.29177232696612
            ]
          ]
        ]
      }
    }
  ]
}