{
  "type": "FeatureCollection",
  "features": [
    {
      "type": "Feature",
      "properties": {
        "building": "university",
        "name": "삼성학술정보관",
        "loc_ref": "SLIB"
      },
      "geometry": {
        "type": "Polygon",
        "coordinates": [
          [
            [
              126.97478813101971,
              37.293572764364775
            ],
            [
              126.97475767836553,
              37.29362120230587
            ],
            [
              126.97463529992908,
              37.29362120230585
            ],
            [
              126.97459249600647,
              37.2936942276053
            ],
            [
              126.97449398426879,
              37.29368040885069
            ],
            [
              126.97444355421212,
              37.29379063520985
            ],
            [
              126.97441724414207,
              37.293909338961846
            ],
            [
              126.9745141501674,
              37.29400121406872
            ],
            [
              126.97450845247421,
              37.294053023337895
            ],
            [
              126.97462376487556,
              37.29411725699588
            ],
            [
              126.97472168863555,
              37.294153583214765
            ],
            [
              126.97482029414843,
              37.294174602263155
            ],
            [
              126.9749248199933,
              37.294181877293155
            ],
            [
              126.97502679467335,
              37.294167572866314
            ],
            [
              126.97511387096678,
              37.294142359823844
            ],
            [
              126.97522943062324,
              37.29408928295513
            ],
            [
              126.97530529684732,
              37.294028928619156
            ],
            [
              126.97536797680318,
              37.293957715126474
            ],
            [
              126.97534472874118,
              37.29390690133206
            ],
            [
              126.97537913396289,
              37.29385949394597
            ],
            [
              126.97540548386637,
              37.29380190031147
            ],
            [
              126.97534618294664,
              37.293700730564254
            ],
            [
              126.97524571494084,
              37.293586583852495
            ],
            [
              126.9751544218899,
              37.29362851528576
            ],
            [
              126.97508443359045,
              37.29356216014186
            ],
            [
              126.97496074487002,
              37.293597974629066
            ],
            [
              126.97491533385622,
              37.293554920931015
            ],
            [
              126.97478813101971,
              37.293572764364775
            ]
          ]
        ]
      }
    }
  ]
}