{
  "type": "FeatureCollection",
  "features": [
    {
      "type": "Feature",
      "properties": {
        "indoor": "corridor",
        "level": "4"
      },
      "geometry": {
        "type": "Polygon",
        "coordinates": [
          [
            [
              126.97488484725191,
              37.29393884935937
            ],
            [
              126.97486965390527,
              37.293995428341596
            ],
            [
              126.97488286666396,
              37.29405504051837
            ],
            [
              126.97490039943334,
              37.294052577981184
            ],
            [
              126.97491876618987,
              37.2941353378967
            ],
            [
              126.97488281931862,
              37.29414038675154
            ],
            [
              126.97487653747848,
              37.29411208102786
            ],
            [
              126.97485827110026,
              37.29411486646023
            ],
            [
              126.97487533770196,
              37.294191767865975
            ],
            [
              126.97507219827081,
              37.29416826766626
            ],
            [
              126.97505518200745,
              37.29409149528249
            ],
            [
              126.97503598798941,
              37.29409415444005
            ],
            [
              126.9750419879446,
              37.29412122448428
            ],
            [
              126.97500633537194,
              37.29412622562733
            ],
            [
              126.97498834172396,
              37.29404504352309
            ],
            [
              126.97500548411499,
              37.294042638882004
            ],
            [
              126.97499366480042,
              37.29398931352428
            ],
            [
              126.97495249858531,
              37.293930605776815
            ],
            [
              126.97488484725191,
              37.29393884935937
            ]
          ]
        ]
      }
    },
    {
      "type": "Feature",
      "properties": {
        "indoor": "corridor",
        "level": "4"
      },
      "geometry": {
        "type": "Polygon",
        "coordinates": [
          [
            [
              126.97488484725191,
              37.29393884935937
            ],
            [
              126.97488354753524,
              37.29393209894379
            ],
            [
              126.97484949553602,
              37.29393624831459
            ],
            [
              126.97485317715136,
              37.293955369736
            ],
            [
              126.97484325094399,
              37.293956579283275
            ],
            [
              126.97483128082938,
              37.29394821588744
            ],
            [
              126.97482017036266,
              37.29393718659028
            ],
            [
              126.97481030399564,
              37.29392542115566
            ],
            [
              126.97480037062692,
              37.2939110064864
            ],
            [
              126.97478209025334,
              37.29392622159757
            ],
            [
              126.97477127937906,
              37.293877445959374
            ],
            [
              126.97478493216276,
              37.293871175178026
            ],
            [
              126.97478218331568,
              37.29385877314357
            ],
            [
              126.97477940416631,
              37.293833502206404
            ],
            [
              126.97478195344799,
              37.293810321459894
            ],
            [
              126.9747904935097,
              37.29378496608281
            ],
            [
              126.97480228337713,
              37.293764852102484
            ],
            [
              126.97481418902069,
              37.29375132552767
            ],
            [
              126.97481997938401,
              37.29374584772481
            ],
            [
              126.97481040395367,
              37.29370237280116
            ],
            [
              126.97473021591553,
              37.29369672256554
            ],
            [
              126.9747128319158,
              37.2937345925802
            ],
            [
              126.97468010405164,
              37.29374153900862
            ],
            [
              126.97474002855859,
              37.29401361117164
            ],
            [
              126.97486967825161,
              37.2939955388799
            ],
            [
              126.97488484725191,
              37.29393884935937
            ]
          ]
        ]
      }
    },
    {
      "type": "Feature",
      "properties": {
        "indoor": "corridor",
        "level": "4"
      },
      "geometry": {
        "type": "Polygon",
        "coordinates": [
          [
            [
              126.97495249858531,
              37.2939306057768
            ],
            [
              126.97499366480042,
              37.29398931352428
            ],
            [
              126.97512414245713,
              37.293971010814964
            ],
            [
              126.97506150331937,
              37.2936884005028
            ],
            [
              126.97503360079865,
              37.29369034253917
            ],
            [
              126.97499818835368,
              37.29365676842097
            ],
            [
              126.97495575630016,
              37.293682193417816
            ],
            [
              126.97496529324343,
              37.29368152963934
            ],
            [
              126.9749737447736,
              37.29368466487413
            ],
            [
              126.97498176983109,
              37.29369104913028
            ],
            [
              126.97498534304515,
              37.29369885920655
            ],
            [
              126.97499720540829,
              37.29375237899377
            ],
            [
              126.97498448792007,
              37.29376469762455
            ],
            [
              126.97499402709636,
              37.293776153132164
            ],
            [
              126.97500516865395,
              37.29379233708622
            ],
            [
              126.97501424391821,
              37.2938136565381
            ],
            [
              126.97502150276217,
              37.29383733016353
            ],
            [
              126.97502315758554,
              37.29385764157102
            ],
            [
              126.97502249987554,
              37.29388084872765
            ],
            [
              126.9750170606045,
              37.293902520550404
            ],
            [
              126.97500961483252,
              37.29392278802708
            ],
            [
              126.97500079192567,
              37.293936995056264
            ],
            [
              126.97498982013508,
              37.293938332012296
            ],
            [
              126.97498610515773,
              37.29391903731255
            ],
            [
              126.97495109265739,
              37.29392330372496
            ],
            [
              126.97495249858531,
              37.2939306057768
            ]
          ]
        ]
      }
    },
    {
      "type": "Feature",
      "properties": {
        "indoor": "corridor",
        "level": "4"
      },
      "geometry": {
        "type": "Polygon",
        "coordinates": [
          [
            [
              126.97495575630016,
              37.293682193417816
            ],
            [
              126.97499818835368,
              37.29365676842097
            ],
            [
              126.97495477932544,
              37.293618008827515
            ],
            [
              126.97494042692907,
              37.29362311684392
            ],
            [
              126.97490681210591,
              37.293630328160624
            ],
            [
              126.97486111105422,
              37.29363753947663
            ],
            [
              126.97481012227757,
              37.293643548906104
            ],
            [
              126.97475346808127,
              37.293646553620654
            ],
            [
              126.97473021591553,
              37.29369672256554
            ],
            [
              126.97481040395367,
              37.29370237280116
            ],
            [
              126.97485872545904,
              37.293695594437786
            ],
            [
              126.97495575630016,
              37.293682193417816
            ]
          ]
        ]
      }
    }
  ]
}