{
  "type": "FeatureCollection",
  "features": [
    {
      "type": "Feature",
      "properties": {
        "indoor": "corridor",
        "level": "1"
      },
      "geometry": {
        "type": "Polygon",
        "coordinates": [
          [
            [
              126.97504013169309,
              37.29416371322978
            ],
            [
              126.97502942185788,
              37.294104358769324
            ],
            [
              126.97501256020294,
              37.29410626654275
            ],
            [
              126.97499155577599,
              37.29398877569049
            ],
            [
              126.97503243650947,
              37.293984150326004
            ],
            [
              126.97502806969656,
              37.29395972399491
            ],
            [
              126.97505090409402,
              37.293914548265285
            ],
            [
              126.97505939208148,
              37.293858793851804
            ],
            [
              126.97505040247401,
              37.293808509230864
            ],
            [
              126.97503174693747,
              37.29376308755719
            ],
            [
              126.97501039556228,
              37.29373149987371
            ],
            [
              126.97497901992453,
              37.293699858627015
            ],
            [
              126.97498453646612,
              37.293683231306915
            ],
            [
              126.97503237229651,
              37.29366921874577
            ],
            [
              126.97502740528998,
              37.29366454522785
            ],
            [
              126.97503100020644,
              37.29366350430882
            ],
            [
              126.97502303426387,
              37.29363985344118
            ],
            [
              126.9750091554004,
              37.2936438721097
            ],
            [
              126.97496074487002,
              37.293597974629066
            ],
            [
              126.97491533385622,
              37.293554920931015
            ],
            [
              126.97478813101971,
              37.293572764364775
            ],
            [
              126.97475767836553,
              37.29362120230587
            ],
            [
              126.97476643453209,
              37.293707508090144
            ],
            [
              126.97477596073291,
              37.29372526689011
            ],
            [
              126.974754324975,
              37.29376810517543
            ],
            [
              126.97474732130705,
              37.29381421535911
            ],
            [
              126.97475068736603,
              37.293863499067164
            ],
            [
              126.97476264641409,
              37.29390434988035
            ],
            [
              126.9747899986386,
              37.29394508492989
            ],
            [
              126.97482201430489,
              37.2939775557904
            ],
            [
              126.97483062069446,
              37.29400695424283
            ],
            [
              126.97487039628402,
              37.294002445088964
            ],
            [
              126.97489123595534,
              37.29411878607865
            ],
            [
              126.97487561050717,
              37.29412055745259
            ],
            [
              126.97488611224635,
              37.29417918511817
            ],
            [
              126.97492482042003,
              37.29418187921851
            ],
            [
              126.97502679552682,
              37.29416757473175
            ],
            [
              126.97504013169309,
              37.29416371322978
            ]
          ],
          [
            [
              126.97499387212261,
              37.29381535983493
            ],
            [
              126.97498750757352,
              37.29380144867876
            ],
            [
              126.97498004786843,
              37.29378872213017
            ],
            [
              126.97499811680913,
              37.29377666044952
            ],
            [
              126.97500858756584,
              37.29379452397222
            ],
            [
              126.9750165921557,
              37.29381828953452
            ],
            [
              126.97499387212261,
              37.29381535983493
            ]
          ],
          [
            [
              126.97488487390298,
              37.293938928485964
            ],
            [
              126.97487784326333,
              37.293902245553504
            ],
            [
              126.97494543330068,
              37.29389404703801
            ],
            [
              126.97495246394031,
              37.29393072997448
            ],
            [
              126.97488487390298,
              37.293938928485964
            ]
          ]
        ]
      }
    },
    {
      "type": "Feature",
      "properties": {
        "indoor": "corridor",
        "level": "1"
      },
      "geometry": {
        "type": "MultiPolygon",
        "coordinates": []
      }
    },
    {
      "type": "Feature",
      "properties": {
        "indoor": "corridor",
        "level": "1"
      },
      "geometry": {
        "type": "MultiPolygon",
        "coordinates": []
      }
    }
  ]
}