{
  "type": "FeatureCollection",
  "features": [
    {
      "type": "Feature",
      "properties": {
        "indoor": "room",
        "level": [
          1
        ],
        "ref": "",
        "name": "",
        "room_type": "",
        "_idx": 1,
        "_centroid": [
          126.9747978,
          37.2941464
        ],
        "_area_m2": 34.5
      },
      "geometry": {
        "type": "Polygon",
        "coordinates": [
          [
            [
              126.97482788916996,
              37.294175131051055
            ],
            [
              126.97481556554071,
              37.294106238370446
            ],
            [
              126.97475798484321,
              37.29411275708096
            ],
            [
              126.97476701756077,
              37.29416324438158
            ],
            [
              126.97482029414843,
              37.294174602263155
            ],
            [
              126.97482788916996,
              37.294175131051055
            ]
          ]
        ]
      }
    },
    {
      "type": "Feature",
      "properties": {
        "indoor": "room",
        "level": [
          1
        ],
        "ref": "",
        "name": "",
        "room_type": "",
        "_idx": 2,
        "_centroid": [
          126.975064,
          37.2941331
        ],
        "_area_m2": 25.8
      },
      "geometry": {
        "type": "Polygon",
        "coordinates": [
          [
            [
              126.97509596411176,
              37.29414754528778
            ],
            [
              126.97508871700512,
              37.29410738144655
            ],
            [
              126.97503115337852,
              37.29411395494943
            ],
            [
              126.97504013169309,
              37.29416371322978
            ],
            [
              126.97509596411176,
              37.29414754528778
            ]
          ]
        ]
      }
    },
    {
      "type": "Feature",
      "properties": {
        "indoor": "room",
        "level": [
          1
        ],
        "ref": "",
        "name": "",
        "room_type": "",
        "_idx": 3,
        "_centroid": [
          126.9748606,
          37.294127
        ],
        "_area_m2": 42.4
      },
      "geometry": {
        "type": "Polygon",
        "coordinates": [
          [
            [
              126.9748493413341,
              37.294102414612766
            ],
            [
              126.97481556554071,
              37.294106238370446
            ],
            [
              126.97482788916996,
              37.294175131051055
            ],
            [
              126.97488611229045,
              37.294179184717194
            ],
            [
              126.97487561050717,
              37.29412055745259
            ],
            [
              126.97489123635036,
              37.29411878828393
            ],
            [
              126.97488868206426,
              37.29410450487366
            ],
            [
              126.97485049244635,
              37.29410884966924
            ],
            [
              126.9748493413341,
              37.294102414612766
            ]
          ]
        ]
      }
    },
    {
      "type": "Feature",
      "properties": {
        "indoor": "room",
        "level": [
          1
        ],
        "ref": "",
        "name": "",
        "room_type": "",
        "_idx": 4,
        "_centroid": [
          126.9751112,
          37.2941045
        ],
        "_area_m2": 49.5
      },
      "geometry": {
        "type": "Polygon",
        "coordinates": [
          [
            [
              126.97513770880134,
              37.29404893037826
            ],
            [
              126.97507937222423,
              37.294055592154066
            ],
            [
              126.97508871700512,
              37.29410738144655
            ],
            [
              126.97509596411176,
              37.29414754528778
            ],
            [
              126.97511387096678,
              37.294142359823844
            ],
            [
              126.97515145152077,
              37.29412509770831
            ],
            [
              126.97513770880134,
              37.29404893037826
            ]
          ]
        ]
      }
    },
    {
      "type": "Feature",
      "properties": {
        "indoor": "room",
        "level": [
          1
        ],
        "ref": "",
        "name": "",
        "room_type": "",
        "_idx": 5,
        "_centroid": [
          126.9750568,
          37.2940917
        ],
        "_area_m2": 14.9
      },
      "geometry": {
        "type": "Polygon",
        "coordinates": [
          [
            [
              126.97504874493374,
              37.29408639787294
            ],
            [
              126.9750343031764,
              37.29408804705617
            ],
            [
              126.97503881998617,
              37.2941130794579
            ],
            [
              126.97508871700512,
              37.29410738144655
            ],
            [
              126.97508296688414,
              37.294075513958106
            ],
            [
              126.97504751162158,
              37.29407956278895
            ],
            [
              126.97504874493374,
              37.29408639787294
            ]
          ]
        ]
      }
    },
    {
      "type": "Feature",
      "properties": {
        "indoor": "room",
        "level": [
          1
        ],
        "ref": "",
        "name": "",
        "room_type": "",
        "_idx": 6,
        "_centroid": [
          126.9748624,
          37.2940886
        ],
        "_area_m2": 16.4
      },
      "geometry": {
        "type": "Polygon",
        "coordinates": [
          [
            [
              126.97484276442069,
              37.294065647717986
            ],
            [
              126.9748493413341,
              37.294102414612766
            ],
            [
              126.97485049244635,
              37.29410884966924
            ],
            [
              126.97488868206426,
              37.29410450487366
            ],
            [
              126.97488096120125,
              37.29406133672941
            ],
            [
              126.97484276442069,
              37.294065647717986
            ]
          ]
        ]
      }
    },
    {
      "type": "Feature",
      "properties": {
        "indoor": "room",
        "level": [
          1
        ],
        "ref": "",
        "name": "",
        "room_type": "",
        "_idx": 7,
        "_centroid": [
          126.9747965,
          37.2940859
        ],
        "_area_m2": 33.5
      },
      "geometry": {
        "type": "Polygon",
        "coordinates": [
          [
            [
              126.9748493413341,
              37.294102414612766
            ],
            [
              126.97484276442069,
              37.294065647717986
            ],
            [
              126.97478109298795,
              37.29407260811721
            ],
            [
              126.9747514062524,
              37.294075980816054
            ],
            [
              126.97475798484321,
              37.29411275708096
            ],
            [
              126.9748493413341,
              37.294102414612766
            ]
          ]
        ]
      }
    },
    {
      "type": "Feature",
      "properties": {
        "indoor": "room",
        "level": [
          1
        ],
        "ref": "",
        "name": "",
        "room_type": "",
        "_idx": 8,
        "_centroid": [
          126.9750319,
          37.2940805
        ],
        "_area_m2": 6.1
      },
      "geometry": {
        "type": "Polygon",
        "coordinates": [
          [
            [
              126.97504751162158,
              37.29407956278895
            ],
            [
              126.97504590531722,
              37.294070660560855
            ],
            [
              126.97500712926926,
              37.29407508861058
            ],
            [
              126.975009968777,
              37.294090825934234
            ],
            [
              126.97504874493374,
              37.29408639787294
            ],
            [
              126.97504751162158,
              37.29407956278895
            ]
          ]
        ]
      }
    },
    {
      "type": "Feature",
      "properties": {
        "indoor": "room",
        "level": [
          1
        ],
        "ref": "",
        "name": "",
        "room_type": "",
        "_idx": 9,
        "_centroid": [
          126.9750243,
          37.2940605
        ],
        "_area_m2": 9.6
      },
      "geometry": {
        "type": "Polygon",
        "coordinates": [
          [
            [
              126.97504590531722,
              37.294070660560855
            ],
            [
              126.97504142641459,
              37.29404583822709
            ],
            [
              126.97500265053695,
              37.29405026625884
            ],
            [
              126.97500712926926,
              37.29407508861058
            ],
            [
              126.97504590531722,
              37.294070660560855
            ]
          ]
        ]
      }
    },
    {
      "type": "Feature",
      "properties": {
        "indoor": "room",
        "level": [
          1
        ],
        "ref": "",
        "name": "",
        "room_type": "",
        "_idx": 10,
        "_centroid": [
          126.9750643,
          37.294052
        ],
        "_area_m2": 18.7
      },
      "geometry": {
        "type": "Polygon",
        "coordinates": [
          [
            [
              126.9750734278432,
              37.29402264804721
            ],
            [
              126.97503797258136,
              37.29402669688078
            ],
            [
              126.97504751162158,
              37.29407956278895
            ],
            [
              126.97508296688414,
              37.294075513958106
            ],
            [
              126.97507937222423,
              37.294055592154066
            ],
            [
              126.9750734278432,
              37.29402264804721
            ]
          ]
        ]
      }
    },
    {
      "type": "Feature",
      "properties": {
        "indoor": "room",
        "level": [
          1
        ],
        "ref": "",
        "name": "",
        "room_type": "",
        "_idx": 11,
        "_centroid": [
          126.974761,
          37.2940449
        ],
        "_area_m2": 17.4
      },
      "geometry": {
        "type": "Polygon",
        "coordinates": [
          [
            [
              126.9747514062524,
              37.294075980816054
            ],
            [
              126.97478109298795,
              37.29407260811721
            ],
            [
              126.97477056307254,
              37.29401374828647
            ],
            [
              126.97474087369962,
              37.294017109742235
            ],
            [
              126.9747514062524,
              37.294075980816054
            ]
          ]
        ]
      }
    },
    {
      "type": "Feature",
      "properties": {
        "indoor": "room",
        "level": [
          1
        ],
        "ref": "",
        "name": "",
        "room_type": "",
        "_idx": 12,
        "_centroid": [
          126.9748366,
          37.294041
        ],
        "_area_m2": 58.6
      },
      "geometry": {
        "type": "Polygon",
        "coordinates": [
          [
            [
              126.97487039628402,
              37.294002445088964
            ],
            [
              126.97477056307254,
              37.29401374828647
            ],
            [
              126.97478109298795,
              37.29407260811721
            ],
            [
              126.97488096120125,
              37.29406133672941
            ],
            [
              126.97487979587095,
              37.294054838666064
            ],
            [
              126.97487039628402,
              37.294002445088964
            ]
          ]
        ]
      }
    },
    {
      "type": "Feature",
      "properties": {
        "indoor": "room",
        "level": [
          1
        ],
        "ref": "",
        "name": "",
        "room_type": "",
        "_idx": 13,
        "_centroid": [
          126.9750203,
          37.2940385
        ],
        "_area_m2": 7.4
      },
      "geometry": {
        "type": "Polygon",
        "coordinates": [
          [
            [
              126.97504142641459,
              37.29404583822709
            ],
            [
              126.97503797258136,
              37.29402669688078
            ],
            [
              126.97499919683406,
              37.29403112489881
            ],
            [
              126.97500265053695,
              37.29405026625884
            ],
            [
              126.97504142641459,
              37.29404583822709
            ]
          ]
        ]
      }
    },
    {
      "type": "Feature",
      "properties": {
        "indoor": "room",
        "level": [
          1
        ],
        "ref": "",
        "name": "",
        "room_type": "",
        "_idx": 14,
        "_centroid": [
          126.9751056,
          37.2940358
        ],
        "_area_m2": 19.2
      },
      "geometry": {
        "type": "Polygon",
        "coordinates": [
          [
            [
              126.97507937222423,
              37.294055592154066
            ],
            [
              126.97513770880134,
              37.29404893037826
            ],
            [
              126.97513176475442,
              37.29401598623024
            ],
            [
              126.9750734278432,
              37.29402264804721
            ],
            [
              126.97507937222423,
              37.294055592154066
            ]
          ]
        ]
      }
    },
    {
      "type": "Feature",
      "properties": {
        "indoor": "room",
        "level": [
          1
        ],
        "ref": "",
        "name": "",
        "room_type": "",
        "_idx": 15,
        "_centroid": [
          126.9750417,
          37.2940047
        ],
        "_area_m2": 34.3
      },
      "geometry": {
        "type": "Polygon",
        "coordinates": [
          [
            [
              126.97508058699859,
              37.29402183050339
            ],
            [
              126.97507295327344,
              37.293979523927995
            ],
            [
              126.97503268530238,
              37.29398412217685
            ],
            [
              126.97499156333001,
              37.29398881794469
            ],
            [
              126.97499919683406,
              37.29403112489881
            ],
            [
              126.9750734278432,
              37.29402264804721
            ],
            [
              126.97508058699859,
              37.29402183050339
            ]
          ]
        ]
      }
    },
    {
      "type": "Feature",
      "properties": {
        "indoor": "room",
        "level": [
          1
        ],
        "ref": "",
        "name": "",
        "room_type": "",
        "_idx": 16,
        "_centroid": [
          126.9751024,
          37.2939978
        ],
        "_area_m2": 21.6
      },
      "geometry": {
        "type": "Polygon",
        "coordinates": [
          [
            [
              126.97508058699859,
              37.29402183050339
            ],
            [
              126.97513176475442,
              37.29401598623024
            ],
            [
              126.975124131494,
              37.29397367982441
            ],
            [
              126.97507295327344,
              37.293979523927995
            ],
            [
              126.97508058699859,
              37.29402183050339
            ]
          ]
        ]
      }
    },
    {
      "type": "Feature",
      "properties": {
        "indoor": "room",
        "level": [
          1
        ],
        "ref": "",
        "name": "",
        "room_type": "",
        "_idx": 17,
        "_centroid": [
          126.9749152,
          37.2939165
        ],
        "_area_m2": 24.8
      },
      "geometry": {
        "type": "Polygon",
        "coordinates": [
          [
            [
              126.97488487390298,
              37.29393892848597
            ],
            [
              126.97495246394034,
              37.29393072997448
            ],
            [
              126.97494543330068,
              37.29389404703801
            ],
            [
              126.97487784326333,
              37.293902245553504
            ],
            [
              126.97488487390298,
              37.29393892848597
            ]
          ]
        ]
      }
    },
    {
      "type": "Feature",
      "properties": {
        "indoor": "room",
        "level": [
          1
        ],
        "ref": "",
        "name": "",
        "room_type": "",
        "_idx": 18,
        "_centroid": [
          126.9746756,
          37.2939
        ],
        "_area_m2": 1222.4
      },
      "geometry": {
        "type": "Polygon",
        "coordinates": [
          [
            [
              126.97449398426879,
              37.29368040885069
            ],
            [
              126.97444355421212,
              37.29379063520985
            ],
            [
              126.97441724414207,
              37.293909338961846
            ],
            [
              126.9745141501674,
              37.29400121406872
            ],
            [
              126.97450845247421,
              37.294053023337895
            ],
            [
              126.97462376487556,
              37.29411725699588
            ],
            [
              126.97472168863555,
              37.294153583214765
            ],
            [
              126.97476701715716,
              37.294163245579824
            ],
            [
              126.97474087369962,
              37.294017109742256
            ],
            [
              126.97483061968826,
              37.294006948625494
            ],
            [
              126.97482202146503,
              37.2939775544638
            ],
            [
              126.97479001112268,
              37.29394507713971
            ],
            [
              126.97476266927994,
              37.293904340163344
            ],
            [
              126.97475072086243,
              37.293863492861114
            ],
            [
              126.97474736611676,
              37.29381421342218
            ],
            [
              126.97475437913121,
              37.293768110381386
            ],
            [
              126.97477601917606,
              37.29372528557098
            ],
            [
              126.97476647946219,
              37.29370749283674
            ],
            [
              126.97468855851503,
              37.293705436380286
            ],
            [
              126.97459220206188,
              37.29369615997749
            ],
            [
              126.97449398426879,
              37.29368040885069
            ]
          ]
        ]
      }
    },
    {
      "type": "Feature",
      "properties": {
        "indoor": "room",
        "level": [
          1
        ],
        "ref": "123",
        "name": "",
        "room_type": "store",
        "_idx": 19,
        "_centroid": [
          126.9751489,
          37.2938429
        ],
        "_area_m2": 1301
      },
      "geometry": {
        "type": "Polygon",
        "coordinates": [
          [
            [
              126.9751544218899,
              37.29362851528576
            ],
            [
              126.97507808443855,
              37.293657283031244
            ],
            [
              126.97498390660884,
              37.29368187048171
            ],
            [
              126.97497916201486,
              37.29369988846252
            ],
            [
              126.97501039556228,
              37.293731499873715
            ],
            [
              126.97503167754485,
              37.29376311724272
            ],
            [
              126.97505040247401,
              37.293808509230864
            ],
            [
              126.97505947370772,
              37.293858784616354
            ],
            [
              126.97505107368728,
              37.29391456460543
            ],
            [
              126.9750282961804,
              37.29395979644567
            ],
            [
              126.97503268530238,
              37.29398412217685
            ],
            [
              126.975124131494,
              37.29397367982441
            ],
            [
              126.97515145221081,
              37.294125098658995
            ],
            [
              126.97522943062324,
              37.29408928295513
            ],
            [
              126.97530529684732,
              37.294028928619156
            ],
            [
              126.97536750010133,
              37.29395785315642
            ],
            [
              126.97534407853401,
              37.29390666012766
            ],
            [
              126.97540548386637,
              37.29380190031147
            ],
            [
              126.97534618294664,
              37.293700730564254
            ],
            [
              126.97524571494084,
              37.293586583852495
            ],
            [
              126.9751544218899,
              37.29362851528576
            ]
          ]
        ]
      }
    },
    {
      "type": "Feature",
      "properties": {
        "indoor": "room",
        "level": [
          1
        ],
        "ref": "",
        "name": "",
        "room_type": "",
        "_idx": 20,
        "_centroid": [
          126.9749975,
          37.2937992
        ],
        "_area_m2": 7.9
      },
      "geometry": {
        "type": "Polygon",
        "coordinates": [
          [
            [
              126.97499387212261,
              37.29381535983493
            ],
            [
              126.9750165921557,
              37.29381828953452
            ],
            [
              126.97500858756584,
              37.29379452397222
            ],
            [
              126.97499811680913,
              37.29377666044952
            ],
            [
              126.97498004786843,
              37.29378872213017
            ],
            [
              126.97498750757352,
              37.29380144867876
            ],
            [
              126.97499387212261,
              37.29381535983493
            ]
          ]
        ]
      }
    },
    {
      "type": "Feature",
      "properties": {
        "indoor": "room",
        "level": [
          1
        ],
        "ref": "",
        "name": "",
        "room_type": "",
        "_idx": 21,
        "_centroid": [
          126.974688,
          37.2936703
        ],
        "_area_m2": 120.3
      },
      "geometry": {
        "type": "Polygon",
        "coordinates": [
          [
            [
              126.97476647946219,
              37.29370749283673
            ],
            [
              126.97475767836553,
              37.29362120230587
            ],
            [
              126.97463529992908,
              37.29362120230584
            ],
            [
              126.97459220206188,
              37.29369615997749
            ],
            [
              126.97468855851503,
              37.293705436380286
            ],
            [
              126.97476647946219,
              37.29370749283673
            ]
          ]
        ]
      }
    },
    {
      "type": "Feature",
      "properties": {
        "indoor": "room",
        "level": [
          1
        ],
        "ref": "",
        "name": "",
        "room_type": "",
        "_idx": 22,
        "_centroid": [
          126.9750611,
          37.2936261
        ],
        "_area_m2": 65.5
      },
      "geometry": {
        "type": "Polygon",
        "coordinates": [
          [
            [
              126.97503237229651,
              37.29366921874577
            ],
            [
              126.97507808443855,
              37.293657283031244
            ],
            [
              126.97514994596352,
              37.29363020203757
            ],
            [
              126.9750822040564,
              37.29356304598583
            ],
            [
              126.97496325019573,
              37.293600349900956
            ],
            [
              126.9750091554004,
              37.2936438721097
            ],
            [
              126.97502303426387,
              37.29363985344118
            ],
            [
              126.97502307204384,
              37.29363993601799
            ],
            [
              126.97506886992382,
              37.29362667509638
            ],
            [
              126.97506710937517,
              37.29361873196442
            ],
            [
              126.9750205392477,
              37.29362526460448
            ],
            [
              126.97501497979871,
              37.293600181830755
            ],
            [
              126.97507135243316,
              37.29359227413807
            ],
            [
              126.97508189326349,
              37.2935937527571
            ],
            [
              126.97508929371259,
              37.293597875132505
            ],
            [
              126.97509653078615,
              37.2936060975372
            ],
            [
              126.97510030330123,
              37.29361729813295
            ],
            [
              126.97510030330123,
              37.29362686739532
            ],
            [
              126.97509783076869,
              37.29363420834175
            ],
            [
              126.97509189251359,
              37.29364239076452
            ],
            [
              126.97508524829658,
              37.293646091883055
            ],
            [
              126.97503100950574,
              37.29366350232653
            ],
            [
              126.97502740528998,
              37.29366454522785
            ],
            [
              126.97503237229651,
              37.29366921874577
            ]
          ]
        ]
      }
    },
    {
      "type": "Feature",
      "properties": {
        "indoor": "room",
        "level": [
          1
        ],
        "ref": "",
        "name": "",
        "room_type": "",
        "_idx": 23,
        "_centroid": [
          126.9750693,
          37.2936221
        ],
        "_area_m2": 37.6
      },
      "geometry": {
        "type": "Polygon",
        "coordinates": [
          [
            [
              126.97503100950574,
              37.29366350232653
            ],
            [
              126.97508524829658,
              37.293646091883055
            ],
            [
              126.97509189251359,
              37.29364239076452
            ],
            [
              126.97509783076869,
              37.29363420834176
            ],
            [
              126.97510030330123,
              37.293626867395325
            ],
            [
              126.97510030330123,
              37.29361729813295
            ],
            [
              126.97509653078615,
              37.2936060975372
            ],
            [
              126.97508929371259,
              37.293597875132505
            ],
            [
              126.97508189326349,
              37.2935937527571
            ],
            [
              126.97507135243316,
              37.29359227413807
            ],
            [
              126.97501497979871,
              37.293600181830755
            ],
            [
              126.9750205392477,
              37.29362526460448
            ],
            [
              126.97506710937517,
              37.29361873196442
            ],
            [
              126.97506886992382,
              37.29362667509638
            ],
            [
              126.97502307204384,
              37.29363993601799
            ],
            [
              126.97503100950574,
              37.29366350232653
            ]
          ]
        ]
      }
    }
  ]
}