{
  "type": "FeatureCollection",
  "features": [
    {
      "type": "Feature",
      "properties": {
        "indoor": "corridor",
        "level": "2"
      },
      "geometry": {
        "type": "Polygon",
        "coordinates": [
          [
            [
              126.97508943397898,
              37.29385011295538
            ],
            [
              126.97520523360079,
              37.293858172678334
            ],
            [
              126.97522788359058,
              37.29385974913106
            ],
            [
              126.97522788359058,
              37.29384604698583
            ],
            [
              126.97522441030111,
              37.29381446419353
            ],
            [
              126.97539853152195,
              37.29379003934015
            ],
            [
              126.97534618294664,
              37.293700730564254
            ],
            [
              126.97524571494084,
              37.293586583852495
            ],
            [
              126.9751544218899,
              37.29362851528576
            ],
            [
              126.97500923890817,
              37.29367336442062
            ],
            [
              126.97493897719085,
              37.293688341716276
            ],
            [
              126.97492884946563,
              37.293734035292964
            ],
            [
              126.97496914504926,
              37.29375648165955
            ],
            [
              126.97499408084488,
              37.29374926143221
            ],
            [
              126.97500642059656,
              37.29376626455898
            ],
            [
              126.97503224632833,
              37.2937369226993
            ],
            [
              126.97506638552785,
              37.29378396360687
            ],
            [
              126.97506921783922,
              37.29379015426341
            ],
            [
              126.97507184054851,
              37.29380008482218
            ],
            [
              126.97506973849806,
              37.29380956869768
            ],
            [
              126.9750638342463,
              37.29384022615851
            ],
            [
              126.97505248727903,
              37.293873915189934
            ],
            [
              126.97504092992375,
              37.2939082288457
            ],
            [
              126.97502585483738,
              37.293910343500364
            ],
            [
              126.97502420590556,
              37.29390290398206
            ],
            [
              126.97500087546031,
              37.29389218821319
            ],
            [
              126.97499536779902,
              37.29390422643369
            ],
            [
              126.97498602772656,
              37.29391709623194
            ],
            [
              126.97495070016417,
              37.2939213966872
            ],
            [
              126.97495248575423,
              37.293930767189806
            ],
            [
              126.97488484725191,
              37.29393884935937
            ],
            [
              126.97488322746445,
              37.293930304521574
            ],
            [
              126.9748571374991,
              37.2939339489743
            ],
            [
              126.97486070200526,
              37.2939500310196
            ],
            [
              126.97476320445696,
              37.29396370745956
            ],
            [
              126.97475483242967,
              37.293958118837516
            ],
            [
              126.97475257639172,
              37.29394794023285
            ],
            [
              126.974760552819,
              37.293911952839444
            ],
            [
              126.97477547239305,
              37.29384949264857
            ],
            [
              126.97479849424785,
              37.293847890313586
            ],
            [
              126.97478823122931,
              37.29381202471469
            ],
            [
              126.97479663833674,
              37.29377409414481
            ],
            [
              126.97478696177104,
              37.29377288075597
            ],
            [
              126.9747778692477,
              37.293731857754665
            ],
            [
              126.97482853450562,
              37.29372475067889
            ],
            [
              126.97483572574657,
              37.293726969477305
            ],
            [
              126.9748420551748,
              37.29373049524079
            ],
            [
              126.97482731545544,
              37.293702528996945
            ],
            [
              126.97470991561649,
              37.293710700111994
            ],
            [
              126.97459173938438,
              37.293694122919675
            ],
            [
              126.97458182414961,
              37.29373947728162
            ],
            [
              126.97466611797773,
              37.29376370747963
            ],
            [
              126.97466114162849,
              37.29378647032641
            ],
            [
              126.97466162310216,
              37.293822238101356
            ],
            [
              126.97455759200696,
              37.29381210073676
            ],
            [
              126.97452899336955,
              37.29390995642863
            ],
            [
              126.97467383149956,
              37.29389518544134
            ],
            [
              126.97469150733872,
              37.293940318530495
            ],
            [
              126.9747152808184,
              37.293986420747636
            ],
            [
              126.97457335505581,
              37.294089176700034
            ],
            [
              126.97461633315247,
              37.294113117228065
            ],
            [
              126.97461385661983,
              37.29410194383664
            ],
            [
              126.97466553942914,
              37.294067443804316
            ],
            [
              126.9747543695731,
              37.294054983199224
            ],
            [
              126.97474451563113,
              37.2940105250491
            ],
            [
              126.97487366867226,
              37.29399240815491
            ],
            [
              126.97488853032027,
              37.29405945963955
            ],
            [
              126.97490469462294,
              37.2940571161291
            ],
            [
              126.97492451730909,
              37.294146550301626
            ],
            [
              126.97488582623573,
              37.294151977666715
            ],
            [
              126.97487955069627,
              37.294123664278374
            ],
            [
              126.97486077644382,
              37.29412629782524
            ],
            [
              126.97487228449552,
              37.294178218760024
            ],
            [
              126.9749248199933,
              37.294181877293155
            ],
            [
              126.97502679467335,
              37.294167572866314
            ],
            [
              126.97507225941769,
              37.294154410610105
            ],
            [
              126.97505870273474,
              37.29409328615739
            ],
            [
              126.97503714019034,
              37.29409632911528
            ],
            [
              126.97504453774893,
              37.29412970473501
            ],
            [
              126.97501275112629,
              37.2941341635838
            ],
            [
              126.97499369903481,
              37.29404820609699
            ],
            [
              126.97501250439802,
              37.294045573536444
            ],
            [
              126.9749998513878,
              37.29398830846325
            ],
            [
              126.97507752690142,
              37.29397741255665
            ],
            [
              126.97512536553634,
              37.2939707020082
            ],
            [
              126.97513413914254,
              37.29401028600134
            ],
            [
              126.97514154837393,
              37.29404371432666
            ],
            [
              126.97514692901265,
              37.29406799022435
            ],
            [
              126.97515883523243,
              37.29412170761712
            ],
            [
              126.97518913091044,
              37.294108488565406
            ],
            [
              126.97517747257528,
              37.294053226609066
            ],
            [
              126.97520921039671,
              37.29399908081077
            ],
            [
              126.97521535533163,
              37.293980836590386
            ],
            [
              126.97519209077116,
              37.293971708084065
            ],
            [
              126.97508171654073,
              37.29392028795068
            ],
            [
              126.97508943397898,
              37.29385011295538
            ]
          ]
        ]
      }
    },
    {
      "type": "Feature",
      "properties": {
        "indoor": "corridor",
        "level": "2"
      },
      "geometry": {
        "type": "MultiPolygon",
        "coordinates": []
      }
    },
    {
      "type": "Feature",
      "properties": {
        "indoor": "corridor",
        "level": "2"
      },
      "geometry": {
        "type": "Polygon",
        "coordinates": [
          [
            [
              126.97520523360079,
              37.293858172678334
            ],
            [
              126.97520523360079,
              37.29391297576292
            ],
            [
              126.9751922854785,
              37.29397139403437
            ],
            [
              126.97519209077116,
              37.293971708084065
            ],
            [
              126.97521535533163,
              37.293980836590386
            ],
            [
              126.9752234174789,
              37.29395690019504
            ],
            [
              126.97522793433966,
              37.293915828215475
            ],
            [
              126.97522788359058,
              37.293876073208594
            ],
            [
              126.97522788359058,
              37.29385974913106
            ],
            [
              126.97520523360079,
              37.293858172678334
            ]
          ]
        ]
      }
    }
  ]
}