{
  "type": "FeatureCollection",
  "features": [
    {
      "type": "Feature",
      "properties": {
        "indoor": "room",
        "level": [
          5
        ],
        "ref": "",
        "name": "",
        "room_type": "",
        "_idx": 1,
        "_centroid": [
          126.9748205,
          37.2941591
        ],
        "_area_m2": 86.9
      },
      "geometry": {
        "type": "Polygon",
        "coordinates": [
          [
            [
              126.97485203020256,
              37.29409393068168
            ],
            [
              126.97476406813142,
              37.29410629430522
            ],
            [
              126.97478330780085,
              37.294193098021616
            ],
            [
              126.97482767608403,
              37.2941993217497
            ],
            [
              126.97487518014141,
              37.29420262804528
            ],
            [
              126.97485203020256,
              37.29409393068168
            ]
          ]
        ]
      }
    },
    {
      "type": "Feature",
      "properties": {
        "indoor": "room",
        "level": [
          5
        ],
        "ref": "",
        "name": "",
        "room_type": "",
        "_idx": 2,
        "_centroid": [
          126.9751222,
          37.294139
        ],
        "_area_m2": 57.8
      },
      "geometry": {
        "type": "Polygon",
        "coordinates": [
          [
            [
              126.97515028704646,
              37.294094087614205
            ],
            [
              126.97506068425633,
              37.29410665659532
            ],
            [
              126.97507629753792,
              37.29417709912588
            ],
            [
              126.97512258138622,
              37.294163697586264
            ],
            [
              126.97516002119683,
              37.29414980875716
            ],
            [
              126.97516323210156,
              37.29414279063284
            ],
            [
              126.97515028704646,
              37.294094087614205
            ]
          ]
        ]
      }
    },
    {
      "type": "Feature",
      "properties": {
        "indoor": "room",
        "level": [
          5
        ],
        "ref": "",
        "name": "",
        "room_type": "",
        "_idx": 3,
        "_centroid": [
          126.9751024,
          37.2940863
        ],
        "_area_m2": 25.4
      },
      "geometry": {
        "type": "Polygon",
        "coordinates": [
          [
            [
              126.97514404453224,
              37.2940659232044
            ],
            [
              126.9750544417421,
              37.294078492190216
            ],
            [
              126.97506068425633,
              37.29410665659532
            ],
            [
              126.97515028704646,
              37.29409408761421
            ],
            [
              126.97514404453224,
              37.2940659232044
            ]
          ]
        ]
      }
    },
    {
      "type": "Feature",
      "properties": {
        "indoor": "room",
        "level": [
          5
        ],
        "ref": "",
        "name": "",
        "room_type": "",
        "_idx": 4,
        "_centroid": [
          126.9748045,
          37.2940837
        ],
        "_area_m2": 29.1
      },
      "geometry": {
        "type": "Polygon",
        "coordinates": [
          [
            [
              126.97476406813142,
              37.29410629430522
            ],
            [
              126.97485203020256,
              37.29409393068168
            ],
            [
              126.97484502914112,
              37.29406105587228
            ],
            [
              126.97475678485766,
              37.294073434295065
            ],
            [
              126.97476406813142,
              37.29410629430522
            ]
          ]
        ]
      }
    },
    {
      "type": "Feature",
      "properties": {
        "indoor": "room",
        "level": [
          5
        ],
        "ref": "",
        "name": "",
        "room_type": "",
        "_idx": 5,
        "_centroid": [
          126.9748802,
          37.2940793
        ],
        "_area_m2": 31.8
      },
      "geometry": {
        "type": "Polygon",
        "coordinates": [
          [
            [
              126.97484502914112,
              37.29406105587228
            ],
            [
              126.97485699679689,
              37.29411725383957
            ],
            [
              126.97491354217206,
              37.29410930334419
            ],
            [
              126.97490110487503,
              37.294053189875655
            ],
            [
              126.97488448132101,
              37.2940555217368
            ],
            [
              126.97484502914112,
              37.29406105587228
            ]
          ]
        ]
      }
    },
    {
      "type": "Feature",
      "properties": {
        "indoor": "room",
        "level": [
          5
        ],
        "ref": "",
        "name": "",
        "room_type": "",
        "_idx": 6,
        "_centroid": [
          126.9750199,
          37.2940634
        ],
        "_area_m2": 29.2
      },
      "geometry": {
        "type": "Polygon",
        "coordinates": [
          [
            [
              126.97505706170264,
              37.29409031269001
            ],
            [
              126.97504556593863,
              37.29403844713319
            ],
            [
              126.975006449804,
              37.294043934131345
            ],
            [
              126.97498952518234,
              37.29404630822488
            ],
            [
              126.97500098804116,
              37.294098025317666
            ],
            [
              126.97505706170264,
              37.29409031269001
            ]
          ]
        ]
      }
    },
    {
      "type": "Feature",
      "properties": {
        "indoor": "room",
        "level": [
          5
        ],
        "ref": "",
        "name": "",
        "room_type": "",
        "_idx": 7,
        "_centroid": [
          126.9750642,
          37.2940485
        ],
        "_area_m2": 17.9
      },
      "geometry": {
        "type": "Polygon",
        "coordinates": [
          [
            [
              126.9750863430067,
              37.2940740172568
            ],
            [
              126.97507402569114,
              37.294018445084106
            ],
            [
              126.97504212442658,
              37.294022920020836
            ],
            [
              126.97505444174212,
              37.29407849219022
            ],
            [
              126.9750863430067,
              37.2940740172568
            ]
          ]
        ]
      }
    },
    {
      "type": "Feature",
      "properties": {
        "indoor": "room",
        "level": [
          5
        ],
        "ref": "",
        "name": "",
        "room_type": "",
        "_idx": 8,
        "_centroid": [
          126.975109,
          37.2940422
        ],
        "_area_m2": 32.3
      },
      "geometry": {
        "type": "Polygon",
        "coordinates": [
          [
            [
              126.97513172721672,
              37.29401035102573
            ],
            [
              126.97507402569114,
              37.294018445084106
            ],
            [
              126.9750863430067,
              37.2940740172568
            ],
            [
              126.97514404453224,
              37.29406592320441
            ],
            [
              126.97513172721672,
              37.29401035102573
            ]
          ]
        ]
      }
    },
    {
      "type": "Feature",
      "properties": {
        "indoor": "room",
        "level": [
          5
        ],
        "ref": "",
        "name": "",
        "room_type": "",
        "_idx": 9,
        "_centroid": [
          126.9748144,
          37.2940363
        ],
        "_area_m2": 72.6
      },
      "geometry": {
        "type": "Polygon",
        "coordinates": [
          [
            [
              126.97474427791128,
              37.29401700656196
            ],
            [
              126.97475678485766,
              37.294073434295065
            ],
            [
              126.97488448132101,
              37.2940555217368
            ],
            [
              126.97487197437464,
              37.29399909399025
            ],
            [
              126.97474427791128,
              37.29401700656196
            ]
          ]
        ]
      }
    },
    {
      "type": "Feature",
      "properties": {
        "indoor": "room",
        "level": [
          5
        ],
        "ref": "",
        "name": "",
        "room_type": "",
        "_idx": 10,
        "_centroid": [
          126.9750243,
          37.2940334
        ],
        "_area_m2": 6.1
      },
      "geometry": {
        "type": "Polygon",
        "coordinates": [
          [
            [
              126.97504212442658,
              37.294022920020836
            ],
            [
              126.97500300829196,
              37.294028407020114
            ],
            [
              126.975006449804,
              37.294043934131345
            ],
            [
              126.97504556593863,
              37.2940384471332
            ],
            [
              126.97504212442658,
              37.294022920020836
            ]
          ]
        ]
      }
    },
    {
      "type": "Feature",
      "properties": {
        "indoor": "room",
        "level": [
          5
        ],
        "ref": "",
        "name": "",
        "room_type": "",
        "_idx": 11,
        "_centroid": [
          126.9750631,
          37.2940002
        ],
        "_area_m2": 49.6
      },
      "geometry": {
        "type": "Polygon",
        "coordinates": [
          [
            [
              126.97512324149989,
              37.2939720658924
            ],
            [
              126.9749945225751,
              37.293990121895966
            ],
            [
              126.97500300829196,
              37.294028407020114
            ],
            [
              126.97513172721672,
              37.29401035102573
            ],
            [
              126.97512324149989,
              37.2939720658924
            ]
          ]
        ]
      }
    },
    {
      "type": "Feature",
      "properties": {
        "indoor": "room",
        "level": [
          5
        ],
        "ref": "",
        "name": "",
        "room_type": "",
        "_idx": 12,
        "_centroid": [
          126.9749152,
          37.2939165
        ],
        "_area_m2": 24.6
      },
      "geometry": {
        "type": "Polygon",
        "coordinates": [
          [
            [
              126.97487784326333,
              37.29390247232156
            ],
            [
              126.97488484725191,
              37.29393884935937
            ],
            [
              126.97495249858531,
              37.293930605776815
            ],
            [
              126.97494549459671,
              37.29389422873504
            ],
            [
              126.97487784326333,
              37.29390247232156
            ]
          ]
        ]
      }
    },
    {
      "type": "Feature",
      "properties": {
        "indoor": "room",
        "level": [
          5
        ],
        "ref": "480501",
        "name": "FREE COMMUNITY ZONE",
        "room_type": "lounge",
        "_idx": 13,
        "_centroid": [
          126.974915,
          37.2939028
        ],
        "_area_m2": 2078.8
      },
      "geometry": {
        "type": "Polygon",
        "coordinates": [
          [
            [
              126.9747356478891,
              37.29368703683187
            ],
            [
              126.9747132237078,
              37.293736049996156
            ],
            [
              126.97460596919034,
              37.293728585005475
            ],
            [
              126.97459385885689,
              37.29376454051596
            ],
            [
              126.97457460165766,
              37.29376588083011
            ],
            [
              126.97455035439398,
              37.29383787077296
            ],
            [
              126.97453010415931,
              37.29392923418449
            ],
            [
              126.9745141501674,
              37.29400121406872
            ],
            [
              126.97450845247421,
              37.294053023337895
            ],
            [
              126.97462306502746,
              37.29411730564273
            ],
            [
              126.97462715685326,
              37.2941545607188
            ],
            [
              126.97466901481027,
              37.29416668496169
            ],
            [
              126.97471399470408,
              37.29418337576663
            ],
            [
              126.97478328301177,
              37.29419310149889
            ],
            [
              126.9747771477559,
              37.29416540290517
            ],
            [
              126.97474427791128,
              37.29401700656196
            ],
            [
              126.9747902641351,
              37.2940105501927
            ],
            [
              126.97478750068329,
              37.29398546547306
            ],
            [
              126.97474984609809,
              37.29394269808666
            ],
            [
              126.97472838579404,
              37.29389581375398
            ],
            [
              126.97471568018086,
              37.29383853990112
            ],
            [
              126.97472079480855,
              37.29379195167636
            ],
            [
              126.97478519445723,
              37.29379642617432
            ],
            [
              126.97499057136326,
              37.293767591599156
            ],
            [
              126.97505287590617,
              37.293749542713144
            ],
            [
              126.9750632768773,
              37.293772265765675
            ],
            [
              126.97508155907704,
              37.293812206960375
            ],
            [
              126.97508785190081,
              37.29386932901658
            ],
            [
              126.97508296648513,
              37.293913829345115
            ],
            [
              126.97507020365141,
              37.2939517448271
            ],
            [
              126.97507617752491,
              37.29397867357903
            ],
            [
              126.97512324149989,
              37.293972065892405
            ],
            [
              126.97515665950452,
              37.29412270587113
            ],
            [
              126.97516344967536,
              37.294142853631584
            ],
            [
              126.97523298940516,
              37.294110913846744
            ],
            [
              126.9752913351686,
              37.294071966069566
            ],
            [
              126.97527834402474,
              37.29404980274834
            ],
            [
              126.97530487703732,
              37.29402869476789
            ],
            [
              126.97536713718327,
              37.29395795824003
            ],
            [
              126.97534391585754,
              37.29390720288376
            ],
            [
              126.97529895702921,
              37.293830501439274
            ],
            [
              126.97524234000983,
              37.29375248804354
            ],
            [
              126.97518359748618,
              37.29368574779975
            ],
            [
              126.97516278337402,
              37.293690184626705
            ],
            [
              126.97513900062782,
              37.29366316387451
            ],
            [
              126.97503962414957,
              37.293691938632435
            ],
            [
              126.97497540542363,
              37.29363105361175
            ],
            [
              126.97474930844582,
              37.293662769429446
            ],
            [
              126.97473516586683,
              37.29368689726088
            ],
            [
              126.9747356478891,
              37.29368703683187
            ]
          ]
        ]
      }
    },
    {
      "type": "Feature",
      "properties": {
        "indoor": "room",
        "level": [
          5
        ],
        "ref": "",
        "name": "",
        "room_type": "",
        "_idx": 14,
        "_centroid": [
          126.9746496,
          37.2937158
        ],
        "_area_m2": 70
      },
      "geometry": {
        "type": "Polygon",
        "coordinates": [
          [
            [
              126.97457460165768,
              37.29376588083011
            ],
            [
              126.97459381851502,
              37.29376453189649
            ],
            [
              126.97460597652635,
              37.29372851874296
            ],
            [
              126.97471314780955,
              37.29373602797979
            ],
            [
              126.97473560786625,
              37.293687025222134
            ],
            [
              126.97473750431465,
              37.293682887599644
            ],
            [
              126.97468072834093,
              37.293682861293085
            ],
            [
              126.97461356171858,
              37.293678186445185
            ],
            [
              126.97459140901955,
              37.29371597986536
            ],
            [
              126.97457460165768,
              37.29376588083011
            ]
          ]
        ]
      }
    },
    {
      "type": "Feature",
      "properties": {
        "indoor": "room",
        "level": [
          5
        ],
        "ref": "",
        "name": "",
        "room_type": "",
        "_idx": 15,
        "_centroid": [
          126.9751047,
          37.2936598
        ],
        "_area_m2": 71.7
      },
      "geometry": {
        "type": "Polygon",
        "coordinates": [
          [
            [
              126.97503962414957,
              37.293691938632435
            ],
            [
              126.9751389088934,
              37.29366321497455
            ],
            [
              126.9751628681186,
              37.293690436233135
            ],
            [
              126.97518281328294,
              37.29368618463489
            ],
            [
              126.97515334480897,
              37.29365270404351
            ],
            [
              126.97511024266456,
              37.29361183939019
            ],
            [
              126.97505470548407,
              37.2936324418419
            ],
            [
              126.97499507978694,
              37.29364970665011
            ],
            [
              126.97503962414957,
              37.293691938632435
            ]
          ]
        ]
      }
    }
  ]
}