{
  "type": "FeatureCollection",
  "features": [
    {
      "type": "Feature",
      "properties": {
        "indoor": "room",
        "level": [
          4
        ],
        "ref": "",
        "name": "",
        "room_type": "",
        "_idx": 1,
        "_centroid": [
          126.9748204,
          37.2941559
        ],
        "_area_m2": 88.2
      },
      "geometry": {
        "type": "Polygon",
        "coordinates": [
          [
            [
              126.97485346656258,
              37.294093217374964
            ],
            [
              126.9747609197298,
              37.29410619933033
            ],
            [
              126.97477956380375,
              37.29419031589718
            ],
            [
              126.97483262621665,
              37.294197759188094
            ],
            [
              126.97487533770196,
              37.294191767865975
            ],
            [
              126.97485346656258,
              37.294093217374964
            ]
          ]
        ]
      }
    },
    {
      "type": "Feature",
      "properties": {
        "indoor": "room",
        "level": [
          4
        ],
        "ref": "",
        "name": "",
        "room_type": "",
        "_idx": 2,
        "_centroid": [
          126.9751095,
          37.2941234
        ],
        "_area_m2": 84.5
      },
      "geometry": {
        "type": "Polygon",
        "coordinates": [
          [
            [
              126.97516249403115,
              37.29414404223483
            ],
            [
              126.97514460272694,
              37.29406332168275
            ],
            [
              126.97505182713203,
              37.29407635906045
            ],
            [
              126.97507219827081,
              37.29416826766626
            ],
            [
              126.97511645677986,
              37.294165187260354
            ],
            [
              126.97516249403115,
              37.29414404223483
            ]
          ]
        ]
      }
    },
    {
      "type": "Feature",
      "properties": {
        "indoor": "room",
        "level": [
          4
        ],
        "ref": "",
        "name": "",
        "room_type": "",
        "_idx": 3,
        "_centroid": [
          126.9748808,
          37.2940958
        ],
        "_area_m2": 40
      },
      "geometry": {
        "type": "Polygon",
        "coordinates": [
          [
            [
              126.97485827110026,
              37.29411486646023
            ],
            [
              126.97487653747848,
              37.29411208102786
            ],
            [
              126.97488281931862,
              37.29414038675154
            ],
            [
              126.97491876618987,
              37.2941353378967
            ],
            [
              126.97490039943334,
              37.29405257798119
            ],
            [
              126.97488286666396,
              37.29405504051837
            ],
            [
              126.9748461388658,
              37.29406019906243
            ],
            [
              126.97485827110026,
              37.29411486646023
            ]
          ]
        ]
      }
    },
    {
      "type": "Feature",
      "properties": {
        "indoor": "room",
        "level": [
          4
        ],
        "ref": "",
        "name": "",
        "room_type": "",
        "_idx": 4,
        "_centroid": [
          126.9747935,
          37.2940812
        ],
        "_area_m2": 30.8
      },
      "geometry": {
        "type": "Polygon",
        "coordinates": [
          [
            [
              126.9747609197298,
              37.29410619933033
            ],
            [
              126.97485346656258,
              37.294093217374964
            ],
            [
              126.9748461388658,
              37.294060199062436
            ],
            [
              126.97475360078734,
              37.29407317839325
            ],
            [
              126.97475360465167,
              37.294073195805716
            ],
            [
              126.9747609197298,
              37.29410619933033
            ]
          ]
        ]
      }
    },
    {
      "type": "Feature",
      "properties": {
        "indoor": "room",
        "level": [
          4
        ],
        "ref": "",
        "name": "",
        "room_type": "",
        "_idx": 5,
        "_centroid": [
          126.9750252,
          37.2940797
        ],
        "_area_m2": 39.6
      },
      "geometry": {
        "type": "Polygon",
        "coordinates": [
          [
            [
              126.97505518200745,
              37.29409149528249
            ],
            [
              126.97504318116219,
              37.29403735094565
            ],
            [
              126.97500548411499,
              37.294042638882004
            ],
            [
              126.97498834172396,
              37.29404504352309
            ],
            [
              126.97500633537194,
              37.29412622562733
            ],
            [
              126.9750419879446,
              37.29412122448428
            ],
            [
              126.97503598798941,
              37.29409415444005
            ],
            [
              126.97505518200745,
              37.29409149528249
            ]
          ]
        ]
      }
    },
    {
      "type": "Feature",
      "properties": {
        "indoor": "room",
        "level": [
          4
        ],
        "ref": "",
        "name": "",
        "room_type": "",
        "_idx": 6,
        "_centroid": [
          126.9750644,
          37.2940475
        ],
        "_area_m2": 19.5
      },
      "geometry": {
        "type": "Polygon",
        "coordinates": [
          [
            [
              126.97507691142566,
              37.294018552306134
            ],
            [
              126.97504015726277,
              37.29402370798114
            ],
            [
              126.97505182713203,
              37.29407635906045
            ],
            [
              126.97508858129551,
              37.294071203388704
            ],
            [
              126.97507691142566,
              37.294018552306134
            ]
          ]
        ]
      }
    },
    {
      "type": "Feature",
      "properties": {
        "indoor": "room",
        "level": [
          4
        ],
        "ref": "",
        "name": "",
        "room_type": "",
        "_idx": 7,
        "_centroid": [
          126.974763,
          37.2940411
        ],
        "_area_m2": 19.3
      },
      "geometry": {
        "type": "Polygon",
        "coordinates": [
          [
            [
              126.97478569674931,
              37.294068676148434
            ],
            [
              126.97477248287939,
              37.29400905897008
            ],
            [
              126.9747403869164,
              37.29401356121901
            ],
            [
              126.97475360078734,
              37.294073178393255
            ],
            [
              126.97478569674931,
              37.294068676148434
            ]
          ]
        ]
      }
    },
    {
      "type": "Feature",
      "properties": {
        "indoor": "room",
        "level": [
          4
        ],
        "ref": "",
        "name": "",
        "room_type": "",
        "_idx": 8,
        "_centroid": [
          126.9751108,
          37.2940409
        ],
        "_area_m2": 29.7
      },
      "geometry": {
        "type": "Polygon",
        "coordinates": [
          [
            [
              126.97507691142566,
              37.294018552306134
            ],
            [
              126.97508858129551,
              37.294071203388704
            ],
            [
              126.97514460774153,
              37.29406334430724
            ],
            [
              126.9751329378723,
              37.294010693218816
            ],
            [
              126.97507691142566,
              37.294018552306134
            ]
          ]
        ]
      }
    },
    {
      "type": "Feature",
      "properties": {
        "indoor": "room",
        "level": [
          4
        ],
        "ref": "",
        "name": "",
        "room_type": "",
        "_idx": 9,
        "_centroid": [
          126.9750228,
          37.2940332
        ],
        "_area_m2": 5.2
      },
      "geometry": {
        "type": "Polygon",
        "coordinates": [
          [
            [
              126.97504015726277,
              37.29402370798114
            ],
            [
              126.97500246021552,
              37.29402899591845
            ],
            [
              126.97500548411499,
              37.29404263888201
            ],
            [
              126.9750431811622,
              37.29403735094565
            ],
            [
              126.97504015726277,
              37.29402370798114
            ]
          ]
        ]
      }
    },
    {
      "type": "Feature",
      "properties": {
        "indoor": "room",
        "level": [
          4
        ],
        "ref": "",
        "name": "",
        "room_type": "",
        "_idx": 10,
        "_centroid": [
          126.9748277,
          37.2940321
        ],
        "_area_m2": 58.3
      },
      "geometry": {
        "type": "Polygon",
        "coordinates": [
          [
            [
              126.97477248287939,
              37.29400905897008
            ],
            [
              126.97478569674931,
              37.294068676148434
            ],
            [
              126.97488286777623,
              37.29405504553021
            ],
            [
              126.97486965390527,
              37.293995428341596
            ],
            [
              126.97477248287939,
              37.29400905897008
            ]
          ]
        ]
      }
    },
    {
      "type": "Feature",
      "properties": {
        "indoor": "room",
        "level": [
          4
        ],
        "ref": "",
        "name": "",
        "room_type": "",
        "_idx": 11,
        "_centroid": [
          126.9750456,
          37.2940066
        ],
        "_area_m2": 31.8
      },
      "geometry": {
        "type": "Polygon",
        "coordinates": [
          [
            [
              126.97507691142566,
              37.294018552306134
            ],
            [
              126.97508198584433,
              37.29401784049413
            ],
            [
              126.97507319043085,
              37.293978158093275
            ],
            [
              126.97499366480042,
              37.29398931352428
            ],
            [
              126.97500246021555,
              37.29402899591845
            ],
            [
              126.97507691142566,
              37.294018552306134
            ]
          ]
        ]
      }
    },
    {
      "type": "Feature",
      "properties": {
        "indoor": "room",
        "level": [
          4
        ],
        "ref": "",
        "name": "",
        "room_type": "",
        "_idx": 12,
        "_centroid": [
          126.9745995,
          37.2940016
        ],
        "_area_m2": 719.6
      },
      "geometry": {
        "type": "Polygon",
        "coordinates": [
          [
            [
              126.97450845247421,
              37.294053023337895
            ],
            [
              126.97462376487556,
              37.29411725699588
            ],
            [
              126.97462376487552,
              37.294151123305305
            ],
            [
              126.97470207582481,
              37.29417379832993
            ],
            [
              126.97477956380375,
              37.29419031589718
            ],
            [
              126.97468007613328,
              37.29374145576138
            ],
            [
              126.97457647071735,
              37.29376354072496
            ],
            [
              126.97454724608224,
              37.29385030842932
            ],
            [
              126.97453117256745,
              37.29392282764274
            ],
            [
              126.97451380919857,
              37.294001166239454
            ],
            [
              126.97450810887537,
              37.29405299942328
            ],
            [
              126.97450845247421,
              37.294053023337895
            ]
          ]
        ]
      }
    },
    {
      "type": "Feature",
      "properties": {
        "indoor": "room",
        "level": [
          4
        ],
        "ref": "",
        "name": "",
        "room_type": "",
        "_idx": 13,
        "_centroid": [
          126.9751031,
          37.2939944
        ],
        "_area_m2": 20.4
      },
      "geometry": {
        "type": "Polygon",
        "coordinates": [
          [
            [
              126.97507319043085,
              37.293978158093275
            ],
            [
              126.97508198584433,
              37.29401784049413
            ],
            [
              126.9751329378723,
              37.294010693218816
            ],
            [
              126.97512414245713,
              37.293971010814964
            ],
            [
              126.97507319043085,
              37.293978158093275
            ]
          ]
        ]
      }
    },
    {
      "type": "Feature",
      "properties": {
        "indoor": "room",
        "level": [
          4
        ],
        "ref": "",
        "name": "",
        "room_type": "",
        "_idx": 14,
        "_centroid": [
          126.9752552,
          37.29392
        ],
        "_area_m2": 784.8
      },
      "geometry": {
        "type": "Polygon",
        "coordinates": [
          [
            [
              126.97536797680318,
              37.293957715126474
            ],
            [
              126.97534472874118,
              37.29390690133205
            ],
            [
              126.97531328911528,
              37.293851047412176
            ],
            [
              126.97527883768151,
              37.29380357631462
            ],
            [
              126.97524072446592,
              37.293751059563306
            ],
            [
              126.97517841219849,
              37.29368026355652
            ],
            [
              126.97506150331937,
              37.2936884005028
            ],
            [
              126.97516249403115,
              37.29414404223484
            ],
            [
              126.97522943121909,
              37.29411329780514
            ],
            [
              126.97529542338197,
              37.29406924579673
            ],
            [
              126.9752845345184,
              37.294045445810525
            ],
            [
              126.97530529684732,
              37.294028928619156
            ],
            [
              126.97536797680318,
              37.293957715126474
            ]
          ]
        ]
      }
    },
    {
      "type": "Feature",
      "properties": {
        "indoor": "room",
        "level": [
          4
        ],
        "ref": "",
        "name": "",
        "room_type": "",
        "_idx": 15,
        "_centroid": [
          126.9749152,
          37.2939165
        ],
        "_area_m2": 24.6
      },
      "geometry": {
        "type": "Polygon",
        "coordinates": [
          [
            [
              126.97488484725191,
              37.29393884935937
            ],
            [
              126.97495249858531,
              37.29393060577682
            ],
            [
              126.97494549459671,
              37.29389422873504
            ],
            [
              126.97487784326333,
              37.29390247232156
            ],
            [
              126.97488484725191,
              37.29393884935937
            ]
          ]
        ]
      }
    },
    {
      "type": "Feature",
      "properties": {
        "indoor": "room",
        "level": [
          4
        ],
        "ref": "",
        "name": "",
        "room_type": "",
        "_idx": 16,
        "_centroid": [
          126.9747944,
          37.2938902
        ],
        "_area_m2": 17
      },
      "geometry": {
        "type": "Polygon",
        "coordinates": [
          [
            [
              126.97478209025334,
              37.29392622159757
            ],
            [
              126.97481954903289,
              37.29389506208415
            ],
            [
              126.97480450700341,
              37.29386218437
            ],
            [
              126.97477127937906,
              37.293877445959374
            ],
            [
              126.97478209025334,
              37.29392622159757
            ]
          ]
        ]
      }
    },
    {
      "type": "Feature",
      "properties": {
        "indoor": "room",
        "level": [
          4
        ],
        "ref": "",
        "name": "",
        "room_type": "",
        "_idx": 17,
        "_centroid": [
          126.9744913,
          37.293848
        ],
        "_area_m2": 209.6
      },
      "geometry": {
        "type": "Polygon",
        "coordinates": [
          [
            [
              126.9745141501674,
              37.29400121406872
            ],
            [
              126.97454724608224,
              37.29385030842932
            ],
            [
              126.97457647071735,
              37.29376354072496
            ],
            [
              126.97448975460037,
              37.29375074671857
            ],
            [
              126.974459539029,
              37.29382886914675
            ],
            [
              126.97443440454451,
              37.29383191599824
            ],
            [
              126.97441724414207,
              37.293909338961846
            ],
            [
              126.9745141501674,
              37.29400121406872
            ]
          ]
        ]
      }
    },
    {
      "type": "Feature",
      "properties": {
        "indoor": "room",
        "level": [
          4
        ],
        "ref": "",
        "name": "",
        "room_type": "",
        "_idx": 18,
        "_centroid": [
          126.97531,
          37.2937691
        ],
        "_area_m2": 236.6
      },
      "geometry": {
        "type": "Polygon",
        "coordinates": [
          [
            [
              126.97534472874118,
              37.29390690133205
            ],
            [
              126.97537913396289,
              37.29385949394597
            ],
            [
              126.97540548386637,
              37.29380190031147
            ],
            [
              126.97534149142723,
              37.293711831014825
            ],
            [
              126.97532562825225,
              37.293714234784304
            ],
            [
              126.97526066477384,
              37.29364512638127
            ],
            [
              126.97517841219849,
              37.29368026355652
            ],
            [
              126.97524072446592,
              37.293751059563306
            ],
            [
              126.97531328911528,
              37.293851047412176
            ],
            [
              126.97534472874118,
              37.29390690133205
            ]
          ]
        ]
      }
    },
    {
      "type": "Feature",
      "properties": {
        "indoor": "room",
        "level": [
          4
        ],
        "ref": "",
        "name": "",
        "room_type": "",
        "_idx": 19,
        "_centroid": [
          126.9746586,
          37.2937301
        ],
        "_area_m2": 54.1
      },
      "geometry": {
        "type": "Polygon",
        "coordinates": [
          [
            [
              126.97457647071735,
              37.29376354072496
            ],
            [
              126.97468007613328,
              37.29374145576138
            ],
            [
              126.97471259530052,
              37.293734523838395
            ],
            [
              126.97473032076898,
              37.29369578078487
            ],
            [
              126.97459356990973,
              37.29371496353562
            ],
            [
              126.97457647071735,
              37.29376354072496
            ]
          ]
        ]
      }
    },
    {
      "type": "Feature",
      "properties": {
        "indoor": "room",
        "level": [
          4
        ],
        "ref": "",
        "name": "",
        "room_type": "",
        "_idx": 20,
        "_centroid": [
          126.9748405,
          37.2937259
        ],
        "_area_m2": 26.2
      },
      "geometry": {
        "type": "Polygon",
        "coordinates": [
          [
            [
              126.97482325896927,
              37.293760662262045
            ],
            [
              126.97486966245796,
              37.29374493923431
            ],
            [
              126.97485872545904,
              37.29369559443779
            ],
            [
              126.97481034136705,
              37.29370238152535
            ],
            [
              126.97482325896927,
              37.293760662262045
            ]
          ]
        ]
      }
    },
    {
      "type": "Feature",
      "properties": {
        "indoor": "room",
        "level": [
          4
        ],
        "ref": "",
        "name": "",
        "room_type": "",
        "_idx": 21,
        "_centroid": [
          126.9749687,
          37.29372
        ],
        "_area_m2": 41.9
      },
      "geometry": {
        "type": "Polygon",
        "coordinates": [
          [
            [
              126.97495545209398,
              37.29379281265153
            ],
            [
              126.97499720540829,
              37.29375237899377
            ],
            [
              126.97498534304515,
              37.29369885920655
            ],
            [
              126.97498176983109,
              37.29369104913028
            ],
            [
              126.9749737447736,
              37.29368466487413
            ],
            [
              126.97496529324343,
              37.29368152963934
            ],
            [
              126.97495575630016,
              37.293682193417816
            ],
            [
              126.97493486773598,
              37.293776436987585
            ],
            [
              126.97495545209398,
              37.29379281265153
            ]
          ]
        ]
      }
    },
    {
      "type": "Feature",
      "properties": {
        "indoor": "room",
        "level": [
          4
        ],
        "ref": "",
        "name": "",
        "room_type": "",
        "_idx": 22,
        "_centroid": [
          126.9749065,
          37.2937124
        ],
        "_area_m2": 29.7
      },
      "geometry": {
        "type": "Polygon",
        "coordinates": [
          [
            [
              126.97485872545904,
              37.293695594437786
            ],
            [
              126.97486456188977,
              37.29372192684698
            ],
            [
              126.97489373442939,
              37.29371919255864
            ],
            [
              126.9749216838329,
              37.293723098683614
            ],
            [
              126.97494460552079,
              37.293732502742515
            ],
            [
              126.97495575630016,
              37.293682193417816
            ],
            [
              126.97485872545904,
              37.293695594437786
            ]
          ]
        ]
      }
    },
    {
      "type": "Feature",
      "properties": {
        "indoor": "room",
        "level": [
          4
        ],
        "ref": "",
        "name": "",
        "room_type": "",
        "_idx": 23,
        "_centroid": [
          126.9750816,
          37.2936706
        ],
        "_area_m2": 58.4
      },
      "geometry": {
        "type": "Polygon",
        "coordinates": [
          [
            [
              126.97517841219849,
              37.29368026355652
            ],
            [
              126.97513628522474,
              37.29363739684317
            ],
            [
              126.97499818835368,
              37.29365676842097
            ],
            [
              126.97503360079865,
              37.29369034253918
            ],
            [
              126.97506150331937,
              37.2936884005028
            ],
            [
              126.97517841219849,
              37.29368026355652
            ]
          ]
        ]
      }
    }
  ]
}