{
  "type": "FeatureCollection",
  "features": [
    {
      "type": "Feature",
      "properties": {
        "indoor": "corridor",
        "level": "3"
      },
      "geometry": {
        "type": "Polygon",
        "coordinates": [
          [
            [
              126.97488484725191,
              37.29393884935937
            ],
            [
              126.97488286582573,
              37.293928558308565
            ],
            [
              126.97485616407734,
              37.293931812022414
            ],
            [
              126.97485977976528,
              37.29395059103364
            ],
            [
              126.97485007461793,
              37.29395177364398
            ],
            [
              126.97483684713089,
              37.29394076523097
            ],
            [
              126.97481784211867,
              37.29391810215421
            ],
            [
              126.97480523168909,
              37.29389525756727
            ],
            [
              126.97479256166248,
              37.293865493393234
            ],
            [
              126.97479085882894,
              37.293844401424536
            ],
            [
              126.97477552773927,
              37.29384547145614
            ],
            [
              126.9747652999299,
              37.29378769422549
            ],
            [
              126.97477311090414,
              37.29378410660774
            ],
            [
              126.97478301200233,
              37.293785495484556
            ],
            [
              126.97479347127667,
              37.29379029947902
            ],
            [
              126.9748007278835,
              37.293768754664406
            ],
            [
              126.97481494968675,
              37.29374293447118
            ],
            [
              126.97483693089627,
              37.29372107774937
            ],
            [
              126.97484517379895,
              37.293716225398164
            ],
            [
              126.97484237132612,
              37.29369070269322
            ],
            [
              126.97475767836553,
              37.29362120230587
            ],
            [
              126.97475767836553,
              37.293621235547896
            ],
            [
              126.97473833532564,
              37.29366351421344
            ],
            [
              126.97469462344775,
              37.29366351421344
            ],
            [
              126.97465286339245,
              37.29365765631088
            ],
            [
              126.97473907195554,
              37.294133275879965
            ],
            [
              126.9747673184881,
              37.29413003564596
            ],
            [
              126.97474610565955,
              37.29401300304049
            ],
            [
              126.97487779933167,
              37.29399789608787
            ],
            [
              126.97488484725191,
              37.29393884935937
            ]
          ]
        ]
      }
    },
    {
      "type": "Feature",
      "properties": {
        "indoor": "corridor",
        "level": "3"
      },
      "geometry": {
        "type": "MultiPolygon",
        "coordinates": []
      }
    },
    {
      "type": "Feature",
      "properties": {
        "indoor": "corridor",
        "level": "3"
      },
      "geometry": {
        "type": "MultiPolygon",
        "coordinates": []
      }
    },
    {
      "type": "Feature",
      "properties": {
        "indoor": "corridor",
        "level": "3"
      },
      "geometry": {
        "type": "MultiPolygon",
        "coordinates": []
      }
    },
    {
      "type": "Feature",
      "properties": {
        "indoor": "corridor",
        "level": "3"
      },
      "geometry": {
        "type": "Polygon",
        "coordinates": [
          [
            [
              126.97495049621426,
              37.2939202059423
            ],
            [
              126.97495249858531,
              37.293930605776815
            ],
            [
              126.97495249858531,
              37.29393060577683
            ],
            [
              126.97499944464403,
              37.29398709437363
            ],
            [
              126.97513144838716,
              37.2939718642831
            ],
            [
              126.97514885635782,
              37.29406735312108
            ],
            [
              126.9751660748481,
              37.29406536651936
            ],
            [
              126.97515214574558,
              37.2939889605034
            ],
            [
              126.97516332376492,
              37.293987720518494
            ],
            [
              126.97509495776082,
              37.293612707859566
            ],
            [
              126.9750105524375,
              37.29363714769174
            ],
            [
              126.97496102826102,
              37.29359774917983
            ],
            [
              126.97494935278434,
              37.29368325670321
            ],
            [
              126.97494309357074,
              37.29371149320642
            ],
            [
              126.97496586469327,
              37.293721918370956
            ],
            [
              126.97498749376915,
              37.293739125161316
            ],
            [
              126.9750045121173,
              37.29376257499772
            ],
            [
              126.9750220099386,
              37.29378668549979
            ],
            [
              126.97503267590544,
              37.293818352670655
            ],
            [
              126.97503267590544,
              37.29383822132649
            ],
            [
              126.97506993635919,
              37.29383562797603
            ],
            [
              126.97507787764728,
              37.29384917611558
            ],
            [
              126.97507787764728,
              37.29386285868963
            ],
            [
              126.9750719776353,
              37.29387575448479
            ],
            [
              126.97505380422291,
              37.29389640601729
            ],
            [
              126.97503063467974,
              37.293887840779995
            ],
            [
              126.97502169029147,
              37.29391713236936
            ],
            [
              126.97501014333292,
              37.29393396729927
            ],
            [
              126.9749984177205,
              37.29393539611153
            ],
            [
              126.9749944615273,
              37.29391484859376
            ],
            [
              126.97495049621426,
              37.2939202059423
            ]
          ]
        ]
      }
    },
    {
      "type": "Feature",
      "properties": {
        "indoor": "corridor",
        "level": "3"
      },
      "geometry": {
        "type": "Polygon",
        "coordinates": [
          [
            [
              126.97495249858531,
              37.29393060577682
            ],
            [
              126.97488484725191,
              37.29393884935937
            ],
            [
              126.97487779933167,
              37.29399789608787
            ],
            [
              126.97488868525343,
              37.29405795448711
            ],
            [
              126.97490617732778,
              37.29405594792329
            ],
            [
              126.97492204639222,
              37.29414349858896
            ],
            [
              126.97488575042114,
              37.29414766219443
            ],
            [
              126.97488063337252,
              37.29411943111547
            ],
            [
              126.9748622210213,
              37.29412154324499
            ],
            [
              126.97487175284715,
              37.29417403743983
            ],
            [
              126.97507132976898,
              37.29415502886955
            ],
            [
              126.9750611473996,
              37.29409917507413
            ],
            [
              126.97503983796865,
              37.29410143527239
            ],
            [
              126.97504462120354,
              37.29412767296402
            ],
            [
              126.97500794442566,
              37.29413190458288
            ],
            [
              126.9749926782012,
              37.294048164053905
            ],
            [
              126.97501020913687,
              37.294046141402994
            ],
            [
              126.97499944464403,
              37.29398709437363
            ],
            [
              126.97495249858531,
              37.29393060577683
            ],
            [
              126.97495249858531,
              37.29393060577682
            ]
          ]
        ]
      }
    },
    {
      "type": "Feature",
      "properties": {
        "indoor": "corridor",
        "level": "3"
      },
      "geometry": {
        "type": "Polygon",
        "coordinates": [
          [
            [
              126.97475767836553,
              37.29362120230587
            ],
            [
              126.97484237132612,
              37.29369070269322
            ],
            [
              126.97494935278434,
              37.29368325670321
            ],
            [
              126.97496102826102,
              37.29359774917983
            ],
            [
              126.97490755127427,
              37.29360914858049
            ],
            [
              126.97484783652325,
              37.29361752508789
            ],
            [
              126.97479452594052,
              37.29362123554792
            ],
            [
              126.97475767836553,
              37.29362120230587
            ]
          ]
        ]
      }
    },
    {
      "type": "Feature",
      "properties": {
        "indoor": "corridor",
        "level": "3"
      },
      "geometry": {
        "type": "MultiPolygon",
        "coordinates": []
      }
    },
    {
      "type": "Feature",
      "properties": {
        "indoor": "corridor",
        "level": "3"
      },
      "geometry": {
        "type": "MultiPolygon",
        "coordinates": []
      }
    },
    {
      "type": "Feature",
      "properties": {
        "indoor": "corridor",
        "level": "3"
      },
      "geometry": {
        "type": "Polygon",
        "coordinates": [
          [
            [
              126.97495249858531,
              37.293930605776815
            ],
            [
              126.97488484725191,
              37.29393884935937
            ],
            [
              126.97495249858531,
              37.29393060577682
            ],
            [
              126.97495249858531,
              37.293930605776815
            ]
          ]
        ]
      }
    },
    {
      "type": "Feature",
      "properties": {
        "indoor": "corridor",
        "level": "3"
      },
      "geometry": {
        "type": "MultiPolygon",
        "coordinates": []
      }
    }
  ]
}