{
  "type": "FeatureCollection",
  "features": [
    {
      "type": "Feature",
      "properties": {
        "indoor": "room",
        "level": [
          2
        ],
        "ref": "480207",
        "name": "공조실-1",
        "room_type": "facility",
        "_idx": 1,
        "_centroid": [
          126.9748185,
          37.2941459
        ],
        "_area_m2": 60.6
      },
      "geometry": {
        "type": "Polygon",
        "coordinates": [
          [
            [
              126.97485478767292,
              37.294099278225445
            ],
            [
              126.97476668896158,
              37.29411161994315
            ],
            [
              126.97477844324258,
              37.29416567905501
            ],
            [
              126.97482029482204,
              37.29417460026315
            ],
            [
              126.97487228449552,
              37.294178218760024
            ],
            [
              126.97485478767292,
              37.294099278225445
            ]
          ]
        ]
      }
    },
    {
      "type": "Feature",
      "properties": {
        "indoor": "room",
        "level": [
          2
        ],
        "ref": "480206",
        "name": "정보교육실",
        "room_type": "classroom",
        "_idx": 2,
        "_centroid": [
          126.9746701,
          37.2941202
        ],
        "_area_m2": 148
      },
      "geometry": {
        "type": "Polygon",
        "coordinates": [
          [
            [
              126.97462376487556,
              37.29411725699588
            ],
            [
              126.97462586278809,
              37.29416250525028
            ],
            [
              126.97468299507013,
              37.294179055905325
            ],
            [
              126.97477844324258,
              37.29416567905501
            ],
            [
              126.9747543695731,
              37.294054983199224
            ],
            [
              126.97466553942914,
              37.294067443804316
            ],
            [
              126.97461385661983,
              37.29410194383664
            ],
            [
              126.97461633315247,
              37.294113117228065
            ],
            [
              126.97462376487556,
              37.29411725699588
            ]
          ]
        ]
      }
    },
    {
      "type": "Feature",
      "properties": {
        "indoor": "room",
        "level": [
          2
        ],
        "ref": "480208",
        "name": "공조실-2",
        "room_type": "facility",
        "_idx": 3,
        "_centroid": [
          126.9751096,
          37.2941134
        ],
        "_area_m2": 59.9
      },
      "geometry": {
        "type": "Polygon",
        "coordinates": [
          [
            [
              126.97515883523243,
              37.29412170761712
            ],
            [
              126.97514692901265,
              37.29406799022435
            ],
            [
              126.97505592947321,
              37.29408075513808
            ],
            [
              126.97507225941769,
              37.294154410610105
            ],
            [
              126.97511387110097,
              37.29414236011716
            ],
            [
              126.97515883523243,
              37.29412170761712
            ]
          ]
        ]
      }
    },
    {
      "type": "Feature",
      "properties": {
        "indoor": "room",
        "level": [
          2
        ],
        "ref": "",
        "name": "",
        "room_type": "",
        "_idx": 4,
        "_centroid": [
          126.9748844,
          37.2941043
        ],
        "_area_m2": 46.4
      },
      "geometry": {
        "type": "Polygon",
        "coordinates": [
          [
            [
              126.97484724564947,
              37.29406525082649
            ],
            [
              126.97486077644382,
              37.29412629782524
            ],
            [
              126.97487955069627,
              37.294123664278374
            ],
            [
              126.97488582623573,
              37.294151977666715
            ],
            [
              126.97492451730909,
              37.294146550301626
            ],
            [
              126.97490469462294,
              37.2940571161291
            ],
            [
              126.97488851396797,
              37.294059385862674
            ],
            [
              126.97484724564947,
              37.29406525082649
            ]
          ]
        ]
      }
    },
    {
      "type": "Feature",
      "properties": {
        "indoor": "room",
        "level": [
          2
        ],
        "ref": "",
        "name": "",
        "room_type": "",
        "_idx": 5,
        "_centroid": [
          126.974807,
          37.2940884
        ],
        "_area_m2": 30.2
      },
      "geometry": {
        "type": "Polygon",
        "coordinates": [
          [
            [
              126.97475937387846,
              37.294077561174554
            ],
            [
              126.97476668981666,
              37.29411162771839
            ],
            [
              126.97485478767292,
              37.294099278225445
            ],
            [
              126.97484724564947,
              37.29406525082649
            ],
            [
              126.97475937387846,
              37.294077561174554
            ]
          ]
        ]
      }
    },
    {
      "type": "Feature",
      "properties": {
        "indoor": "room",
        "level": [
          2
        ],
        "ref": "",
        "name": "",
        "room_type": "",
        "_idx": 6,
        "_centroid": [
          126.9750356,
          37.294075
        ],
        "_area_m2": 38.9
      },
      "geometry": {
        "type": "Polygon",
        "coordinates": [
          [
            [
              126.97504705617527,
              37.294040721448525
            ],
            [
              126.97504705732598,
              37.294040726640176
            ],
            [
              126.97501250439802,
              37.294045573536444
            ],
            [
              126.97499369903481,
              37.294048206097
            ],
            [
              126.97501275112629,
              37.2941341635838
            ],
            [
              126.97504453774893,
              37.29412970473501
            ],
            [
              126.97503714019034,
              37.29409632911528
            ],
            [
              126.97505870273474,
              37.29409328615739
            ],
            [
              126.97505592947321,
              37.29408075513808
            ],
            [
              126.97504705618861,
              37.29404072144665
            ],
            [
              126.97504705617527,
              37.294040721448525
            ]
          ]
        ]
      }
    },
    {
      "type": "Feature",
      "properties": {
        "indoor": "room",
        "level": [
          2
        ],
        "ref": "480209",
        "name": "솦공방_인",
        "room_type": "lounge",
        "_idx": 7,
        "_centroid": [
          126.9752382,
          37.294064
        ],
        "_area_m2": 94.4
      },
      "geometry": {
        "type": "Polygon",
        "coordinates": [
          [
            [
              126.97520921039671,
              37.29399908081077
            ],
            [
              126.97517747257528,
              37.294053226609066
            ],
            [
              126.9751905959228,
              37.29411543290294
            ],
            [
              126.97525455130015,
              37.29410714536123
            ],
            [
              126.975303560759,
              37.294071147146944
            ],
            [
              126.97529390947915,
              37.29403798678404
            ],
            [
              126.97520921039671,
              37.29399908081077
            ]
          ]
        ]
      }
    },
    {
      "type": "Feature",
      "properties": {
        "indoor": "room",
        "level": [
          2
        ],
        "ref": "",
        "name": "",
        "room_type": "",
        "_idx": 8,
        "_centroid": [
          126.975116,
          37.2940598
        ],
        "_area_m2": 13.8
      },
      "geometry": {
        "type": "Polygon",
        "coordinates": [
          [
            [
              126.97508510062178,
              37.29405163250898
            ],
            [
              126.97509048126302,
              37.29407590840375
            ],
            [
              126.97514692901265,
              37.29406799022435
            ],
            [
              126.97514154837391,
              37.29404371432666
            ],
            [
              126.97508510062178,
              37.29405163250898
            ]
          ]
        ]
      }
    },
    {
      "type": "Feature",
      "properties": {
        "indoor": "room",
        "level": [
          2
        ],
        "ref": "",
        "name": "",
        "room_type": "",
        "_idx": 9,
        "_centroid": [
          126.9750602,
          37.2940466
        ],
        "_area_m2": 20.1
      },
      "geometry": {
        "type": "Polygon",
        "coordinates": [
          [
            [
              126.97505592947321,
              37.29408075513808
            ],
            [
              126.97509048126302,
              37.29407590840375
            ],
            [
              126.97507769139034,
              37.294018204186756
            ],
            [
              126.97504313958684,
              37.294023050926896
            ],
            [
              126.97504705732598,
              37.294040726640176
            ],
            [
              126.97504706057073,
              37.29404074127944
            ],
            [
              126.97505592947321,
              37.29408075513808
            ]
          ]
        ]
      }
    },
    {
      "type": "Feature",
      "properties": {
        "indoor": "room",
        "level": [
          2
        ],
        "ref": "",
        "name": "",
        "room_type": "",
        "_idx": 10,
        "_centroid": [
          126.9748113,
          37.2940434
        ],
        "_area_m2": 87.2
      },
      "geometry": {
        "type": "Polygon",
        "coordinates": [
          [
            [
              126.97484724564947,
              37.29406525082649
            ],
            [
              126.97488853032027,
              37.29405945963955
            ],
            [
              126.97487366867226,
              37.293992408154914
            ],
            [
              126.97474451563113,
              37.2940105250491
            ],
            [
              126.9747543695731,
              37.294054983199224
            ],
            [
              126.97475937387846,
              37.29407756117456
            ],
            [
              126.97484724564947,
              37.29406525082649
            ]
          ]
        ]
      }
    },
    {
      "type": "Feature",
      "properties": {
        "indoor": "room",
        "level": [
          2
        ],
        "ref": "",
        "name": "",
        "room_type": "",
        "_idx": 11,
        "_centroid": [
          126.9750278,
          37.2940343
        ],
        "_area_m2": 6.2
      },
      "geometry": {
        "type": "Polygon",
        "coordinates": [
          [
            [
              126.97501250439802,
              37.294045573536444
            ],
            [
              126.97504705732598,
              37.294040726640176
            ],
            [
              126.97504313958684,
              37.294023050926896
            ],
            [
              126.97500858665862,
              37.29402789782481
            ],
            [
              126.97501250439802,
              37.294045573536444
            ]
          ]
        ]
      }
    },
    {
      "type": "Feature",
      "properties": {
        "indoor": "room",
        "level": [
          2
        ],
        "ref": "",
        "name": "",
        "room_type": "",
        "_idx": 12,
        "_centroid": [
          126.9751096,
          37.294031
        ],
        "_area_m2": 19
      },
      "geometry": {
        "type": "Polygon",
        "coordinates": [
          [
            [
              126.97508510062178,
              37.29405163250898
            ],
            [
              126.97514154837391,
              37.29404371432666
            ],
            [
              126.97513413914255,
              37.29401028600134
            ],
            [
              126.97507769139034,
              37.294018204186756
            ],
            [
              126.97508510062178,
              37.29405163250898
            ]
          ]
        ]
      }
    },
    {
      "type": "Feature",
      "properties": {
        "indoor": "room",
        "level": [
          2
        ],
        "ref": "",
        "name": "",
        "room_type": "",
        "_idx": 13,
        "_centroid": [
          126.9750431,
          37.2940027
        ],
        "_area_m2": 31
      },
      "geometry": {
        "type": "Polygon",
        "coordinates": [
          [
            [
              126.97508630050399,
              37.294016996547235
            ],
            [
              126.9750775269014,
              37.29397741255666
            ],
            [
              126.9749998513878,
              37.29398830846325
            ],
            [
              126.97500858665862,
              37.29402789782481
            ],
            [
              126.97508630050399,
              37.294016996547235
            ]
          ]
        ]
      }
    },
    {
      "type": "Feature",
      "properties": {
        "indoor": "room",
        "level": [
          2
        ],
        "ref": "",
        "name": "",
        "room_type": "",
        "_idx": 14,
        "_centroid": [
          126.9751058,
          37.2939938
        ],
        "_area_m2": 19.1
      },
      "geometry": {
        "type": "Polygon",
        "coordinates": [
          [
            [
              126.9750775269014,
              37.29397741255666
            ],
            [
              126.97508630050399,
              37.294016996547235
            ],
            [
              126.97513413914255,
              37.29401028600134
            ],
            [
              126.97512536553634,
              37.2939707020082
            ],
            [
              126.9750775269014,
              37.29397741255666
            ]
          ]
        ]
      }
    },
    {
      "type": "Feature",
      "properties": {
        "indoor": "room",
        "level": [
          2
        ],
        "ref": "480205",
        "name": "Lab Space / Digital A/V Room",
        "room_type": "lab",
        "_idx": 15,
        "_centroid": [
          126.9746008,
          37.2939822
        ],
        "_area_m2": 263
      },
      "geometry": {
        "type": "Polygon",
        "coordinates": [
          [
            [
              126.9745141501674,
              37.29400121406872
            ],
            [
              126.97450845247421,
              37.294053023337895
            ],
            [
              126.97457335505581,
              37.294089176700034
            ],
            [
              126.9747152808184,
              37.293986420747636
            ],
            [
              126.97469150733872,
              37.293940318530495
            ],
            [
              126.97467383149956,
              37.29389518544134
            ],
            [
              126.97452899336955,
              37.29390995642863
            ],
            [
              126.9745141501674,
              37.29400121406872
            ]
          ]
        ]
      }
    },
    {
      "type": "Feature",
      "properties": {
        "indoor": "room",
        "level": [
          2
        ],
        "ref": "480210",
        "name": "HQ_SW중심대학사업단,SKKU",
        "room_type": "lab",
        "_idx": 16,
        "_centroid": [
          126.9752565,
          37.2939694
        ],
        "_area_m2": 88.9
      },
      "geometry": {
        "type": "Polygon",
        "coordinates": [
          [
            [
              126.97522793433966,
              37.293915828215475
            ],
            [
              126.9752234174789,
              37.29395690019504
            ],
            [
              126.97520921039671,
              37.29399908081077
            ],
            [
              126.97529390947915,
              37.29403798678404
            ],
            [
              126.97532791022564,
              37.29393705436889
            ],
            [
              126.97522793433966,
              37.293915828215475
            ]
          ]
        ]
      }
    },
    {
      "type": "Feature",
      "properties": {
        "indoor": "room",
        "level": [
          2
        ],
        "ref": "",
        "name": "",
        "room_type": "",
        "_idx": 17,
        "_centroid": [
          126.9753327,
          37.2939436
        ],
        "_area_m2": 35.4
      },
      "geometry": {
        "type": "Polygon",
        "coordinates": [
          [
            [
              126.97533520129882,
              37.2938847054862
            ],
            [
              126.97532791022564,
              37.29393705436889
            ],
            [
              126.97529390947915,
              37.29403798678404
            ],
            [
              126.97530529684732,
              37.294028928619156
            ],
            [
              126.97536797680318,
              37.293957715126474
            ],
            [
              126.97534472874118,
              37.29390690133205
            ],
            [
              126.97534927564249,
              37.293900633272415
            ],
            [
              126.97533753992118,
              37.29389525669718
            ],
            [
              126.97533520129882,
              37.2938847054862
            ]
          ]
        ]
      }
    },
    {
      "type": "Feature",
      "properties": {
        "indoor": "room",
        "level": [
          2
        ],
        "ref": "",
        "name": "",
        "room_type": "",
        "_idx": 18,
        "_centroid": [
          126.9749152,
          37.2939165
        ],
        "_area_m2": 24.7
      },
      "geometry": {
        "type": "Polygon",
        "coordinates": [
          [
            [
              126.97488484725191,
              37.29393884935937
            ],
            [
              126.97495248575423,
              37.293930767189806
            ],
            [
              126.97494546116656,
              37.29389405510665
            ],
            [
              126.97487784326333,
              37.29390247232156
            ],
            [
              126.97488484725191,
              37.29393884935937
            ]
          ]
        ]
      }
    },
    {
      "type": "Feature",
      "properties": {
        "indoor": "room",
        "level": [
          2
        ],
        "ref": "480211",
        "name": "시네마룸",
        "room_type": "lounge",
        "_idx": 19,
        "_centroid": [
          126.9751548,
          37.2939026
        ],
        "_area_m2": 107.8
      },
      "geometry": {
        "type": "Polygon",
        "coordinates": [
          [
            [
              126.97508171654073,
              37.29392028795068
            ],
            [
              126.9751922854785,
              37.29397139403438
            ],
            [
              126.97520523360079,
              37.29391297576292
            ],
            [
              126.97520523360079,
              37.293858172678334
            ],
            [
              126.97508943397898,
              37.29385011295538
            ],
            [
              126.97508171654073,
              37.29392028795068
            ]
          ]
        ]
      }
    },
    {
      "type": "Feature",
      "properties": {
        "indoor": "room",
        "level": [
          2
        ],
        "ref": "480212",
        "name": "솦공방_의",
        "room_type": "lounge",
        "_idx": 20,
        "_centroid": [
          126.975271,
          37.2938985
        ],
        "_area_m2": 47.5
      },
      "geometry": {
        "type": "Polygon",
        "coordinates": [
          [
            [
              126.97533520129882,
              37.2938847054862
            ],
            [
              126.97527894393608,
              37.29387958547426
            ],
            [
              126.97522788359058,
              37.293876073208594
            ],
            [
              126.9752279111466,
              37.29389765960331
            ],
            [
              126.97522793433966,
              37.293915828215475
            ],
            [
              126.97532791024227,
              37.29393705431954
            ],
            [
              126.97533520129882,
              37.2938847054862
            ]
          ]
        ]
      }
    },
    {
      "type": "Feature",
      "properties": {
        "indoor": "room",
        "level": [
          2
        ],
        "ref": "480204",
        "name": "셀프 스튜디오",
        "room_type": "lounge",
        "_idx": 21,
        "_centroid": [
          126.9747791,
          37.2938954
        ],
        "_area_m2": 25.6
      },
      "geometry": {
        "type": "Polygon",
        "coordinates": [
          [
            [
              126.97477547239305,
              37.29384949264857
            ],
            [
              126.974760552819,
              37.293911952839444
            ],
            [
              126.97476228496525,
              37.293917095560175
            ],
            [
              126.97476621884127,
              37.29392156501653
            ],
            [
              126.97477562222223,
              37.29392288407366
            ],
            [
              126.97481491813389,
              37.293896652655675
            ],
            [
              126.97479849424785,
              37.293847890313586
            ],
            [
              126.97477547239305,
              37.29384949264857
            ]
          ]
        ]
      }
    },
    {
      "type": "Feature",
      "properties": {
        "indoor": "room",
        "level": [
          2
        ],
        "ref": "480214",
        "name": "솦공방_격물",
        "room_type": "lounge",
        "_idx": 22,
        "_centroid": [
          126.9753036,
          37.2938622
        ],
        "_area_m2": 20.7
      },
      "geometry": {
        "type": "Polygon",
        "coordinates": [
          [
            [
              126.97532503310785,
              37.29383882943085
            ],
            [
              126.97527523011708,
              37.293845815541275
            ],
            [
              126.97527894393608,
              37.29387958547426
            ],
            [
              126.97533520129882,
              37.2938847054862
            ],
            [
              126.97532503310785,
              37.29383882943085
            ]
          ]
        ]
      }
    },
    {
      "type": "Feature",
      "properties": {
        "indoor": "room",
        "level": [
          2
        ],
        "ref": "",
        "name": "",
        "room_type": "",
        "_idx": 23,
        "_centroid": [
          126.9750133,
          37.2938572
        ],
        "_area_m2": 19.3
      },
      "geometry": {
        "type": "Polygon",
        "coordinates": [
          [
            [
              126.97502420590556,
              37.29390290398206
            ],
            [
              126.97502743617206,
              37.29389051385916
            ],
            [
              126.97502869428412,
              37.29387907379268
            ],
            [
              126.97502869428412,
              37.293860729406276
            ],
            [
              126.97502447530034,
              37.293841694519784
            ],
            [
              126.9750165921557,
              37.29381828953452
            ],
            [
              126.97499387212261,
              37.29381535983493
            ],
            [
              126.97499705663624,
              37.293822128787305
            ],
            [
              126.9750003915966,
              37.29384251286898
            ],
            [
              126.97500394793542,
              37.293864250062725
            ],
            [
              126.97500087546031,
              37.29389218821319
            ],
            [
              126.97502420590556,
              37.29390290398206
            ]
          ]
        ]
      }
    },
    {
      "type": "Feature",
      "properties": {
        "indoor": "room",
        "level": [
          2
        ],
        "ref": "480213",
        "name": "솦공방_예",
        "room_type": "lounge",
        "_idx": 24,
        "_centroid": [
          126.975246,
          37.2938448
        ],
        "_area_m2": 31.4
      },
      "geometry": {
        "type": "Polygon",
        "coordinates": [
          [
            [
              126.97527106259277,
              37.29380792004436
            ],
            [
              126.97522441030111,
              37.29381446419353
            ],
            [
              126.97522788359058,
              37.29384604698583
            ],
            [
              126.97522788359058,
              37.293876073208594
            ],
            [
              126.97527893939984,
              37.29387962672235
            ],
            [
              126.97527106259277,
              37.29380792004436
            ]
          ]
        ]
      }
    },
    {
      "type": "Feature",
      "properties": {
        "indoor": "room",
        "level": [
          2
        ],
        "ref": "480216",
        "name": "솦공방_치지",
        "room_type": "lounge",
        "_idx": 25,
        "_centroid": [
          126.9753644,
          37.2938415
        ],
        "_area_m2": 55.9
      },
      "geometry": {
        "type": "Polygon",
        "coordinates": [
          [
            [
              126.97540548386637,
              37.29380190031147
            ],
            [
              126.97539853152195,
              37.29379003934016
            ],
            [
              126.97531676137514,
              37.29380150964809
            ],
            [
              126.97533753992118,
              37.29389525669718
            ],
            [
              126.97534927564249,
              37.293900633272415
            ],
            [
              126.97537907547994,
              37.29385946715272
            ],
            [
              126.97540548386637,
              37.29380190031147
            ]
          ]
        ]
      }
    },
    {
      "type": "Feature",
      "properties": {
        "indoor": "room",
        "level": [
          2
        ],
        "ref": "213",
        "name": "",
        "room_type": "",
        "_idx": 26,
        "_centroid": [
          126.9749139,
          37.2938378
        ],
        "_area_m2": 374
      },
      "geometry": {
        "type": "Polygon",
        "coordinates": [
          [
            [
              126.97480472747677,
              37.29390345528243
            ],
            [
              126.97482250357982,
              37.29393087888754
            ],
            [
              126.97484688844318,
              37.29395196871311
            ],
            [
              126.97486070200526,
              37.2939500310196
            ],
            [
              126.9748571374991,
              37.2939339489743
            ],
            [
              126.97488322746445,
              37.29393030452157
            ],
            [
              126.97487784326333,
              37.29390247232156
            ],
            [
              126.97494546116656,
              37.29389405510665
            ],
            [
              126.97495070016417,
              37.2939213966872
            ],
            [
              126.97498602772656,
              37.29391709623194
            ],
            [
              126.97500087546031,
              37.29389218821319
            ],
            [
              126.97500394793542,
              37.293864250062725
            ],
            [
              126.9750003915966,
              37.29384251286898
            ],
            [
              126.97499705663624,
              37.293822128787305
            ],
            [
              126.97499387212261,
              37.29381535983493
            ],
            [
              126.9750165921557,
              37.29381828953452
            ],
            [
              126.97502385185527,
              37.2938187481891
            ],
            [
              126.97500209060667,
              37.29377118406828
            ],
            [
              126.97500642059656,
              37.29376626455898
            ],
            [
              126.97499408084488,
              37.29374926143221
            ],
            [
              126.97496914504926,
              37.29375648165955
            ],
            [
              126.97492884946563,
              37.293734035292964
            ],
            [
              126.97493897719085,
              37.29368834171627
            ],
            [
              126.97482731545544,
              37.29370252899694
            ],
            [
              126.97485257042418,
              37.293748434680744
            ],
            [
              126.97482667114558,
              37.293777860095965
            ],
            [
              126.97479663833674,
              37.29377409414481
            ],
            [
              126.97478823122931,
              37.29381202471469
            ],
            [
              126.97479849424785,
              37.293847890313586
            ],
            [
              126.97481491813389,
              37.293896652655675
            ],
            [
              126.97480472747677,
              37.29390345528243
            ]
          ]
        ]
      }
    },
    {
      "type": "Feature",
      "properties": {
        "indoor": "room",
        "level": [
          2
        ],
        "ref": "480215",
        "name": "솦공방_치지",
        "room_type": "lounge",
        "_idx": 27,
        "_centroid": [
          126.975297,
          37.2938235
        ],
        "_area_m2": 18
      },
      "geometry": {
        "type": "Polygon",
        "coordinates": [
          [
            [
              126.97532503310785,
              37.29383882943085
            ],
            [
              126.97531676137514,
              37.29380150964809
            ],
            [
              126.97527106259277,
              37.29380792004436
            ],
            [
              126.97527523011708,
              37.293845815541275
            ],
            [
              126.97532503310785,
              37.29383882943085
            ]
          ]
        ]
      }
    },
    {
      "type": "Feature",
      "properties": {
        "indoor": "room",
        "level": [
          2
        ],
        "ref": "480203",
        "name": "Multimedia Zone",
        "room_type": "lounge",
        "_idx": 28,
        "_centroid": [
          126.9745163,
          37.2938172
        ],
        "_area_m2": 298.1
      },
      "geometry": {
        "type": "Polygon",
        "coordinates": [
          [
            [
              126.9745141501674,
              37.29400121406872
            ],
            [
              126.97452899336955,
              37.29390995642863
            ],
            [
              126.97455759200696,
              37.29381210073676
            ],
            [
              126.97458182414961,
              37.29373947728162
            ],
            [
              126.97459173938438,
              37.293694122919675
            ],
            [
              126.9744939442167,
              37.29368059205745
            ],
            [
              126.9744439164316,
              37.29379073932952
            ],
            [
              126.9744179666355,
              37.293909438925155
            ],
            [
              126.9745141501674,
              37.29400121406872
            ]
          ]
        ]
      }
    },
    {
      "type": "Feature",
      "properties": {
        "indoor": "room",
        "level": [
          2
        ],
        "ref": "480202",
        "name": "미디어자료실",
        "room_type": "lounge",
        "_idx": 29,
        "_centroid": [
          126.9746316,
          37.2937878
        ],
        "_area_m2": 61.8
      },
      "geometry": {
        "type": "Polygon",
        "coordinates": [
          [
            [
              126.97466162310216,
              37.293822238101356
            ],
            [
              126.97466119006909,
              37.29380296168216
            ],
            [
              126.97466114162849,
              37.29378647032641
            ],
            [
              126.97466611797773,
              37.29376370747963
            ],
            [
              126.97458182414961,
              37.29373947728162
            ],
            [
              126.97455759200696,
              37.29381210073676
            ],
            [
              126.97466162310216,
              37.293822238101356
            ]
          ]
        ]
      }
    },
    {
      "type": "Feature",
      "properties": {
        "indoor": "room",
        "level": [
          2
        ],
        "ref": "480217",
        "name": "솦공방_지",
        "room_type": "lounge",
        "_idx": 30,
        "_centroid": [
          126.975048,
          37.2937875
        ],
        "_area_m2": 32.6
      },
      "geometry": {
        "type": "Polygon",
        "coordinates": [
          [
            [
              126.97502385185527,
              37.2938187481891
            ],
            [
              126.97506973849806,
              37.29380956869768
            ],
            [
              126.97507184054851,
              37.29380008482218
            ],
            [
              126.9750700357186,
              37.29379194192351
            ],
            [
              126.97506638552785,
              37.29378396360687
            ],
            [
              126.97503224632833,
              37.2937369226993
            ],
            [
              126.97500209060667,
              37.29377118406828
            ],
            [
              126.97502385185527,
              37.2938187481891
            ]
          ]
        ]
      }
    },
    {
      "type": "Feature",
      "properties": {
        "indoor": "room",
        "level": [
          2
        ],
        "ref": "480201",
        "name": "스터디룸2-2",
        "room_type": "classroom",
        "_idx": 31,
        "_centroid": [
          126.9748214,
          37.2937447
        ],
        "_area_m2": 28.2
      },
      "geometry": {
        "type": "Polygon",
        "coordinates": [
          [
            [
              126.97478696177104,
              37.29377288075597
            ],
            [
              126.97482667114558,
              37.29377786009597
            ],
            [
              126.97485257042418,
              37.293748434680744
            ],
            [
              126.9748420551748,
              37.29373049524079
            ],
            [
              126.97483521524441,
              37.29372668510565
            ],
            [
              126.97482853450562,
              37.29372475067889
            ],
            [
              126.9747778692477,
              37.293731857754665
            ],
            [
              126.97478696177104,
              37.29377288075597
            ]
          ]
        ]
      }
    },
    {
      "type": "Feature",
      "properties": {
        "indoor": "room",
        "level": [
          2
        ],
        "ref": "",
        "name": "",
        "room_type": "",
        "_idx": 32,
        "_centroid": [
          126.9748645,
          37.2936357
        ],
        "_area_m2": 505.7
      },
      "geometry": {
        "type": "Polygon",
        "coordinates": [
          [
            [
              126.97459249600647,
              37.2936942276053
            ],
            [
              126.97470991561649,
              37.293710700111994
            ],
            [
              126.97482731545544,
              37.29370252899694
            ],
            [
              126.97493897719085,
              37.29368834171627
            ],
            [
              126.97500923890817,
              37.29367336442062
            ],
            [
              126.9751544218899,
              37.29362851528576
            ],
            [
              126.97508443359045,
              37.293562160141846
            ],
            [
              126.97496074487002,
              37.293597974629066
            ],
            [
              126.97491533385622,
              37.293554920931015
            ],
            [
              126.97478813101971,
              37.293572764364775
            ],
            [
              126.97475767836553,
              37.29362120230587
            ],
            [
              126.97463529992908,
              37.29362120230584
            ],
            [
              126.97459249600647,
              37.2936942276053
            ]
          ]
        ]
      }
    }
  ]
}