{
  "type": "FeatureCollection",
  "features": [
    {
      "type": "Feature",
      "properties": {
        "indoor": "corridor",
        "level": "5"
      },
      "geometry": {
        "type": "Polygon",
        "coordinates": [
          [
            [
              126.97472079480855,
              37.29379195167636
            ],
            [
              126.97471568018086,
              37.29383853990112
            ],
            [
              126.97472838579404,
              37.29389581375397
            ],
            [
              126.97474984609809,
              37.29394269808666
            ],
            [
              126.97478750068329,
              37.29398546547306
            ],
            [
              126.9747902641351,
              37.2940105501927
            ],
            [
              126.97487197437464,
              37.29399909399025
            ],
            [
              126.97488448132101,
              37.2940555217368
            ],
            [
              126.97490110487503,
              37.294053189875655
            ],
            [
              126.97491354217206,
              37.29410930334419
            ],
            [
              126.97485699679689,
              37.29411725383957
            ],
            [
              126.97487518014141,
              37.29420262804528
            ],
            [
              126.97494925554166,
              37.29419919370479
            ],
            [
              126.97501459671474,
              37.294191081034825
            ],
            [
              126.97507629753792,
              37.294177099125875
            ],
            [
              126.97505706170264,
              37.29409031269001
            ],
            [
              126.97500098804116,
              37.294098025317666
            ],
            [
              126.97498952518234,
              37.29404630822488
            ],
            [
              126.975006449804,
              37.294043934131345
            ],
            [
              126.9749945225751,
              37.293990121895966
            ],
            [
              126.97507617752491,
              37.293978673579026
            ],
            [
              126.97507020365141,
              37.2939517448271
            ],
            [
              126.97508296648513,
              37.293913829345115
            ],
            [
              126.97508785190081,
              37.29386932901658
            ],
            [
              126.97508073147526,
              37.293812438930445
            ],
            [
              126.97505309226847,
              37.293750031246574
            ],
            [
              126.97499102022978,
              37.29376742954883
            ],
            [
              126.97499920213629,
              37.29378177272005
            ],
            [
              126.97501159959329,
              37.29379926979263
            ],
            [
              126.97502015520905,
              37.29381858785677
            ],
            [
              126.97502417459881,
              37.29383788433557
            ],
            [
              126.9750239341136,
              37.29385642704387
            ],
            [
              126.97499793920863,
              37.29385440258925
            ],
            [
              126.97499439005144,
              37.29388264869189
            ],
            [
              126.97501966799616,
              37.293892202769456
            ],
            [
              126.97501745987562,
              37.29391014700921
            ],
            [
              126.97500898780562,
              37.2939242197555
            ],
            [
              126.9750018645938,
              37.29393605194477
            ],
            [
              126.97498895115731,
              37.29393775428332
            ],
            [
              126.97498512241266,
              37.29391937308712
            ],
            [
              126.97495110487942,
              37.29392336720335
            ],
            [
              126.9749522326303,
              37.29392940485154
            ],
            [
              126.97488504244312,
              37.29393882200203
            ],
            [
              126.97488346357382,
              37.29393169258581
            ],
            [
              126.97484880478595,
              37.29393655024484
            ],
            [
              126.97485465843184,
              37.293953929640026
            ],
            [
              126.97484398708357,
              37.293955426560316
            ],
            [
              126.97483096609758,
              37.29394506787816
            ],
            [
              126.97481931495423,
              37.29393402160671
            ],
            [
              126.97480780856391,
              37.29392094867219
            ],
            [
              126.97479845483049,
              37.29390499086212
            ],
            [
              126.97479066143237,
              37.29389169503839
            ],
            [
              126.9747855704321,
              37.293876579915455
            ],
            [
              126.97478093116182,
              37.29385564881688
            ],
            [
              126.97480312678393,
              37.29385410398832
            ],
            [
              126.97480312678393,
              37.293822881941324
            ],
            [
              126.97478076656594,
              37.29381640748523
            ],
            [
              126.97478519361034,
              37.29379643387505
            ],
            [
              126.97472079480855,
              37.29379195167636
            ]
          ]
        ]
      }
    }
  ]
}