{
  "type": "FeatureCollection",
  "features": [
    {
      "type": "Feature",
      "properties": {
        "indoor": "room",
        "level": [
          -1
        ],
        "ref": "",
        "name": "",
        "room_type": "",
        "_idx": 1,
        "_centroid": [
          126.9744016,
          37.2941753
        ],
        "_area_m2": 120.2
      },
      "geometry": {
        "type": "Polygon",
        "coordinates": [
          [
            [
              126.97429601845234,
              37.29405571672198
            ],
            [
              126.97431694686668,
              37.29415013961608
            ],
            [
              126.97442701426495,
              37.29423770207111
            ],
            [
              126.97448702658849,
              37.29422984377538
            ],
            [
              126.97448105987716,
              37.29420292375697
            ],
            [
              126.97429601845234,
              37.29405571672198
            ]
          ]
        ]
      }
    },
    {
      "type": "Feature",
      "properties": {
        "indoor": "room",
        "level": [
          -1
        ],
        "ref": "",
        "name": "",
        "room_type": "",
        "_idx": 2,
        "_centroid": [
          126.9747987,
          37.2940798
        ],
        "_area_m2": 30.5
      },
      "geometry": {
        "type": "Polygon",
        "coordinates": [
          [
            [
              126.97475002387856,
              37.29406825714341
            ],
            [
              126.97475600463403,
              37.29410168817589
            ],
            [
              126.97484744589813,
              37.294091335130254
            ],
            [
              126.97484146514263,
              37.294057904093165
            ],
            [
              126.97475002387856,
              37.29406825714341
            ]
          ]
        ]
      }
    },
    {
      "type": "Feature",
      "properties": {
        "indoor": "room",
        "level": [
          -1
        ],
        "ref": "",
        "name": "",
        "room_type": "",
        "_idx": 3,
        "_centroid": [
          126.9754755,
          37.2940731
        ],
        "_area_m2": 22
      },
      "geometry": {
        "type": "Polygon",
        "coordinates": [
          [
            [
              126.97552016518978,
              37.29406798172579
            ],
            [
              126.97547811371093,
              37.29403620116037
            ],
            [
              126.9754544085678,
              37.29407793091703
            ],
            [
              126.97544292748731,
              37.29407954141963
            ],
            [
              126.9754464128835,
              37.29409526651262
            ],
            [
              126.97551075591761,
              37.294081550943645
            ],
            [
              126.97552016518978,
              37.29406798172579
            ]
          ]
        ]
      }
    },
    {
      "type": "Feature",
      "properties": {
        "indoor": "room",
        "level": [
          -1
        ],
        "ref": "48B107",
        "name": "기계실",
        "room_type": "facility",
        "_idx": 4,
        "_centroid": [
          126.974792,
          37.2940628
        ],
        "_area_m2": 1381.4
      },
      "geometry": {
        "type": "Polygon",
        "coordinates": [
          [
            [
              126.97523344808887,
              37.29412514002572
            ],
            [
              126.97521622201835,
              37.29404742100854
            ],
            [
              126.9750837329943,
              37.294066005842815
            ],
            [
              126.97508207226669,
              37.29405851312075
            ],
            [
              126.97504949228629,
              37.29406308326161
            ],
            [
              126.97504250849202,
              37.294031574398005
            ],
            [
              126.9750036286757,
              37.294037028247224
            ],
            [
              126.97487957240787,
              37.29405358955887
            ],
            [
              126.97484146514263,
              37.29405790409316
            ],
            [
              126.9748474458981,
              37.294091335130254
            ],
            [
              126.97475600463403,
              37.29410168817589
            ],
            [
              126.97475326319531,
              37.294086364172664
            ],
            [
              126.97468853266143,
              37.29409369301086
            ],
            [
              126.97467614316572,
              37.29402443858718
            ],
            [
              126.97467035130374,
              37.2939977321782
            ],
            [
              126.97464192022349,
              37.294001720337356
            ],
            [
              126.97462430015541,
              37.293922223586684
            ],
            [
              126.9742772214331,
              37.29397090995923
            ],
            [
              126.97429601845234,
              37.29405571672198
            ],
            [
              126.97448105987716,
              37.29420292375697
            ],
            [
              126.97448702658849,
              37.29422984377538
            ],
            [
              126.97523344808887,
              37.29412514002572
            ]
          ]
        ]
      }
    },
    {
      "type": "Feature",
      "properties": {
        "indoor": "room",
        "level": [
          -1
        ],
        "ref": "48B109",
        "name": "전기실",
        "room_type": "facility",
        "_idx": 5,
        "_centroid": [
          126.9753822,
          37.2940626
        ],
        "_area_m2": 193.8
      },
      "geometry": {
        "type": "Polygon",
        "coordinates": [
          [
            [
              126.97547900678265,
              37.29403462902576
            ],
            [
              126.97539819915036,
              37.294045964280066
            ],
            [
              126.97538995215413,
              37.294008756203915
            ],
            [
              126.97521314916287,
              37.294033557170394
            ],
            [
              126.97523344808887,
              37.29412514002572
            ],
            [
              126.9754464128835,
              37.29409526651262
            ],
            [
              126.97544292748731,
              37.29407954141963
            ],
            [
              126.9754544085678,
              37.29407793091703
            ],
            [
              126.97547900678265,
              37.29403462902576
            ]
          ]
        ]
      }
    },
    {
      "type": "Feature",
      "properties": {
        "indoor": "room",
        "level": [
          -1
        ],
        "ref": "",
        "name": "",
        "room_type": "",
        "_idx": 6,
        "_centroid": [
          126.9747147,
          37.2940554
        ],
        "_area_m2": 44.7
      },
      "geometry": {
        "type": "Polygon",
        "coordinates": [
          [
            [
              126.97474087369962,
              37.294017109742235
            ],
            [
              126.97467614316575,
              37.29402443858718
            ],
            [
              126.97468853266143,
              37.29409369301086
            ],
            [
              126.97475326319531,
              37.294086364172664
            ],
            [
              126.97474087369962,
              37.294017109742235
            ]
          ]
        ]
      }
    },
    {
      "type": "Feature",
      "properties": {
        "indoor": "room",
        "level": [
          -1
        ],
        "ref": "",
        "name": "",
        "room_type": "",
        "_idx": 7,
        "_centroid": [
          126.9747603,
          37.294041
        ],
        "_area_m2": 15.1
      },
      "geometry": {
        "type": "Polygon",
        "coordinates": [
          [
            [
              126.97477971325148,
              37.29406489568993
            ],
            [
              126.97477056307254,
              37.29401374828647
            ],
            [
              126.97474087369962,
              37.294017109742235
            ],
            [
              126.97475002387856,
              37.29406825714341
            ],
            [
              126.97477971325148,
              37.29406489568993
            ]
          ]
        ]
      }
    },
    {
      "type": "Feature",
      "properties": {
        "indoor": "room",
        "level": [
          -1
        ],
        "ref": "",
        "name": "",
        "room_type": "",
        "_idx": 8,
        "_centroid": [
          126.9750603,
          37.2940361
        ],
        "_area_m2": 16.2
      },
      "geometry": {
        "type": "Polygon",
        "coordinates": [
          [
            [
              126.97507110606558,
              37.29400903677821
            ],
            [
              126.97503852608519,
              37.294013606922086
            ],
            [
              126.97504949228629,
              37.29406308326162
            ],
            [
              126.97508207226669,
              37.29405851312075
            ],
            [
              126.97507110606558,
              37.29400903677821
            ]
          ]
        ]
      }
    },
    {
      "type": "Feature",
      "properties": {
        "indoor": "room",
        "level": [
          -1
        ],
        "ref": "",
        "name": "",
        "room_type": "",
        "_idx": 9,
        "_centroid": [
          126.9748251,
          37.2940337
        ],
        "_area_m2": 50.9
      },
      "geometry": {
        "type": "Polygon",
        "coordinates": [
          [
            [
              126.97477056307254,
              37.29401374828647
            ],
            [
              126.97477971325148,
              37.29406489568993
            ],
            [
              126.97487957240787,
              37.29405358955887
            ],
            [
              126.97487042222895,
              37.29400244214773
            ],
            [
              126.97477056307254,
              37.29401374828647
            ]
          ]
        ]
      }
    },
    {
      "type": "Feature",
      "properties": {
        "indoor": "room",
        "level": [
          -1
        ],
        "ref": "",
        "name": "",
        "room_type": "",
        "_idx": 10,
        "_centroid": [
          126.975105,
          37.2940337
        ],
        "_area_m2": 31.6
      },
      "geometry": {
        "type": "Polygon",
        "coordinates": [
          [
            [
              126.97512619931076,
              37.29400130859439
            ],
            [
              126.97507110606558,
              37.29400903677822
            ],
            [
              126.9750837329943,
              37.29406600584282
            ],
            [
              126.97513882623949,
              37.29405827766484
            ],
            [
              126.97512619931076,
              37.29400130859439
            ]
          ]
        ]
      }
    },
    {
      "type": "Feature",
      "properties": {
        "indoor": "room",
        "level": [
          -1
        ],
        "ref": "",
        "name": "",
        "room_type": "",
        "_idx": 11,
        "_centroid": [
          126.9755132,
          37.2940305
        ],
        "_area_m2": 26.9
      },
      "geometry": {
        "type": "Polygon",
        "coordinates": [
          [
            [
              126.97547811371093,
              37.29403620116037
            ],
            [
              126.97552016518978,
              37.29406798172579
            ],
            [
              126.9755490369668,
              37.294025187548826
            ],
            [
              126.97550540037366,
              37.293992561748254
            ],
            [
              126.97547811371093,
              37.29403620116037
            ]
          ]
        ]
      }
    },
    {
      "type": "Feature",
      "properties": {
        "indoor": "room",
        "level": [
          -1
        ],
        "ref": "",
        "name": "",
        "room_type": "",
        "_idx": 12,
        "_centroid": [
          126.9750211,
          37.2940253
        ],
        "_area_m2": 7
      },
      "geometry": {
        "type": "Polygon",
        "coordinates": [
          [
            [
              126.97503852608519,
              37.29401360692208
            ],
            [
              126.97499964626884,
              37.29401906077259
            ],
            [
              126.9750036286757,
              37.294037028247224
            ],
            [
              126.97504250849202,
              37.29403157439801
            ],
            [
              126.97503852608519,
              37.29401360692208
            ]
          ]
        ]
      }
    },
    {
      "type": "Feature",
      "properties": {
        "indoor": "room",
        "level": [
          -1
        ],
        "ref": "48B110",
        "name": "발전기실",
        "room_type": "facility",
        "_idx": 13,
        "_centroid": [
          126.9754431,
          37.2940205
        ],
        "_area_m2": 36.8
      },
      "geometry": {
        "type": "Polygon",
        "coordinates": [
          [
            [
              126.97550540037366,
              37.293992561748254
            ],
            [
              126.97538995215413,
              37.294008756203915
            ],
            [
              126.97539819915036,
              37.294045964280066
            ],
            [
              126.97547900678265,
              37.29403462902576
            ],
            [
              126.97550540037366,
              37.293992561748254
            ]
          ]
        ]
      }
    },
    {
      "type": "Feature",
      "properties": {
        "indoor": "room",
        "level": [
          -1
        ],
        "ref": "",
        "name": "",
        "room_type": "",
        "_idx": 14,
        "_centroid": [
          126.9747081,
          37.2940067
        ],
        "_area_m2": 19.3
      },
      "geometry": {
        "type": "Polygon",
        "coordinates": [
          [
            [
              126.97467614316572,
              37.29402443858718
            ],
            [
              126.97474567041996,
              37.29401656665353
            ],
            [
              126.97474006040883,
              37.2939879537586
            ],
            [
              126.97467035130374,
              37.29399773217819
            ],
            [
              126.97467614316572,
              37.29402443858718
            ]
          ]
        ]
      }
    },
    {
      "type": "Feature",
      "properties": {
        "indoor": "room",
        "level": [
          -1
        ],
        "ref": "",
        "name": "",
        "room_type": "",
        "_idx": 15,
        "_centroid": [
          126.9755354,
          37.293995
        ],
        "_area_m2": 17
      },
      "geometry": {
        "type": "Polygon",
        "coordinates": [
          [
            [
              126.97550540037366,
              37.293992561748254
            ],
            [
              126.9755490369668,
              37.294025187548826
            ],
            [
              126.97556604545751,
              37.29399617048159
            ],
            [
              126.9755209356138,
              37.29396605808584
            ],
            [
              126.97550540037366,
              37.293992561748254
            ]
          ]
        ]
      }
    },
    {
      "type": "Feature",
      "properties": {
        "indoor": "room",
        "level": [
          -1
        ],
        "ref": "",
        "name": "",
        "room_type": "",
        "_idx": 16,
        "_centroid": [
          126.9750352,
          37.2939946
        ],
        "_area_m2": 30.2
      },
      "geometry": {
        "type": "Polygon",
        "coordinates": [
          [
            [
              126.9750791655711,
              37.29400790623422
            ],
            [
              126.97507082584968,
              37.29397014196813
            ],
            [
              126.97499127645933,
              37.293981298584484
            ],
            [
              126.97499964626884,
              37.29401906077259
            ],
            [
              126.9750791655711,
              37.29400790623422
            ]
          ]
        ]
      }
    },
    {
      "type": "Feature",
      "properties": {
        "indoor": "room",
        "level": [
          -1
        ],
        "ref": "",
        "name": "",
        "room_type": "",
        "_idx": 17,
        "_centroid": [
          126.9750985,
          37.2939857
        ],
        "_area_m2": 17.9
      },
      "geometry": {
        "type": "Polygon",
        "coordinates": [
          [
            [
              126.97507082584968,
              37.29397014196813
            ],
            [
              126.9750791655711,
              37.29400790623422
            ],
            [
              126.97512619931076,
              37.29400130859439
            ],
            [
              126.97511782950123,
              37.29396354639738
            ],
            [
              126.97507082584968,
              37.29397014196813
            ]
          ]
        ]
      }
    },
    {
      "type": "Feature",
      "properties": {
        "indoor": "room",
        "level": [
          -1
        ],
        "ref": "",
        "name": "",
        "room_type": "",
        "_idx": 18,
        "_centroid": [
          126.9755561,
          37.2939604
        ],
        "_area_m2": 26.4
      },
      "geometry": {
        "type": "Polygon",
        "coordinates": [
          [
            [
              126.97552092561133,
              37.293966054375275
            ],
            [
              126.97556604362143,
              37.29399617222237
            ],
            [
              126.97557678227292,
              37.29398137532067
            ],
            [
              126.9755608372505,
              37.2938979102739
            ],
            [
              126.97552092561133,
              37.293966054375275
            ]
          ]
        ]
      }
    },
    {
      "type": "Feature",
      "properties": {
        "indoor": "room",
        "level": [
          -1
        ],
        "ref": "",
        "name": "",
        "room_type": "",
        "_idx": 19,
        "_centroid": [
          126.9746822,
          37.2939551
        ],
        "_area_m2": 78.6
      },
      "geometry": {
        "type": "Polygon",
        "coordinates": [
          [
            [
              126.97464192022349,
              37.294001720337356
            ],
            [
              126.97474006040886,
              37.2939879537586
            ],
            [
              126.97472244034078,
              37.29390845699338
            ],
            [
              126.97462430015541,
              37.293922223586684
            ],
            [
              126.97464192022349,
              37.294001720337356
            ]
          ]
        ]
      }
    },
    {
      "type": "Feature",
      "properties": {
        "indoor": "room",
        "level": [
          -1
        ],
        "ref": "48B112",
        "name": "Creative Community Zone",
        "room_type": "lounge",
        "_idx": 20,
        "_centroid": [
          126.9751556,
          37.2939539
        ],
        "_area_m2": 154.2
      },
      "geometry": {
        "type": "Polygon",
        "coordinates": [
          [
            [
              126.97521622201835,
              37.29404742100854
            ],
            [
              126.97517237063495,
              37.293849575965694
            ],
            [
              126.97509497485606,
              37.29386043265054
            ],
            [
              126.97513882623949,
              37.29405827766484
            ],
            [
              126.97521622201835,
              37.29404742100854
            ]
          ]
        ]
      }
    },
    {
      "type": "Feature",
      "properties": {
        "indoor": "room",
        "level": [
          -1
        ],
        "ref": "48B104",
        "name": "복사실",
        "room_type": "store",
        "_idx": 21,
        "_centroid": [
          126.9743152,
          37.293917
        ],
        "_area_m2": 92.1
      },
      "geometry": {
        "type": "Polygon",
        "coordinates": [
          [
            [
              126.97437415939429,
              37.29395731201649
            ],
            [
              126.97435325451572,
              37.29386299506721
            ],
            [
              126.97425631655452,
              37.293876593026994
            ],
            [
              126.9742772214331,
              37.29397090995923
            ],
            [
              126.97437415939429,
              37.29395731201649
            ]
          ]
        ]
      }
    },
    {
      "type": "Feature",
      "properties": {
        "indoor": "room",
        "level": [
          -1
        ],
        "ref": "",
        "name": "",
        "room_type": "",
        "_idx": 22,
        "_centroid": [
          126.974915,
          37.2939168
        ],
        "_area_m2": 24.2
      },
      "geometry": {
        "type": "Polygon",
        "coordinates": [
          [
            [
              126.97488487390298,
              37.293938928485964
            ],
            [
              126.97495246394031,
              37.29393072997448
            ],
            [
              126.97494436651874,
              37.293894196680654
            ],
            [
              126.97487811898685,
              37.29390348954094
            ],
            [
              126.97488487390298,
              37.293938928485964
            ]
          ]
        ]
      }
    },
    {
      "type": "Feature",
      "properties": {
        "indoor": "room",
        "level": [
          -1
        ],
        "ref": "48B111",
        "name": "제1서고",
        "room_type": "lounge",
        "_idx": 23,
        "_centroid": [
          126.9753981,
          37.2939144
        ],
        "_area_m2": 647.4
      },
      "geometry": {
        "type": "Polygon",
        "coordinates": [
          [
            [
              126.97550540037366,
              37.293992561748254
            ],
            [
              126.9755608372505,
              37.2938979102739
            ],
            [
              126.97553873293114,
              37.293798184511346
            ],
            [
              126.97517237063495,
              37.293849575965694
            ],
            [
              126.97521314916287,
              37.294033557170394
            ],
            [
              126.97550540037366,
              37.293992561748254
            ]
          ]
        ]
      }
    },
    {
      "type": "Feature",
      "properties": {
        "indoor": "room",
        "level": [
          -1
        ],
        "ref": "48B103",
        "name": "노트북존",
        "room_type": "lounge",
        "_idx": 24,
        "_centroid": [
          126.9743902,
          37.2938926
        ],
        "_area_m2": 71.8
      },
      "geometry": {
        "type": "Polygon",
        "coordinates": [
          [
            [
              126.97437415939427,
              37.29395731201649
            ],
            [
              126.97443300365315,
              37.29394905765495
            ],
            [
              126.97440614371965,
              37.29382787313311
            ],
            [
              126.9743472994608,
              37.29383612750795
            ],
            [
              126.97437415939427,
              37.29395731201649
            ]
          ]
        ]
      }
    },
    {
      "type": "Feature",
      "properties": {
        "indoor": "room",
        "level": [
          -1
        ],
        "ref": "48B102",
        "name": "B열람실",
        "room_type": "lounge",
        "_idx": 25,
        "_centroid": [
          126.9745357,
          37.2938722
        ],
        "_area_m2": 283.4
      },
      "geometry": {
        "type": "Polygon",
        "coordinates": [
          [
            [
              126.97466519277839,
              37.293916487383136
            ],
            [
              126.97463833284488,
              37.29379530280883
            ],
            [
              126.97440614371963,
              37.29382787313311
            ],
            [
              126.97443300365315,
              37.29394905765495
            ],
            [
              126.97466519277839,
              37.293916487383136
            ]
          ]
        ]
      }
    },
    {
      "type": "Feature",
      "properties": {
        "indoor": "room",
        "level": [
          -1
        ],
        "ref": "",
        "name": "",
        "room_type": "",
        "_idx": 26,
        "_centroid": [
          126.9746804,
          37.2938519
        ],
        "_area_m2": 69.9
      },
      "geometry": {
        "type": "Polygon",
        "coordinates": [
          [
            [
              126.97472244034076,
              37.29390845699338
            ],
            [
              126.97469558040721,
              37.29378727240614
            ],
            [
              126.97463833284482,
              37.29379530280884
            ],
            [
              126.97466519277839,
              37.29391648738314
            ],
            [
              126.97472244034076,
              37.29390845699338
            ]
          ]
        ]
      }
    },
    {
      "type": "Feature",
      "properties": {
        "indoor": "room",
        "level": [
          -1
        ],
        "ref": "",
        "name": "",
        "room_type": "",
        "_idx": 27,
        "_centroid": [
          126.9751113,
          37.2937967
        ],
        "_area_m2": 70.9
      },
      "geometry": {
        "type": "Polygon",
        "coordinates": [
          [
            [
              126.97509497485609,
              37.293860432650554
            ],
            [
              126.97515399231544,
              37.293852153982705
            ],
            [
              126.97512756441584,
              37.293732918525244
            ],
            [
              126.97506854695654,
              37.29374119720622
            ],
            [
              126.97509497485609,
              37.293860432650554
            ]
          ]
        ]
      }
    },
    {
      "type": "Feature",
      "properties": {
        "indoor": "room",
        "level": [
          -1
        ],
        "ref": "48A114",
        "name": "",
        "room_type": "",
        "_idx": 28,
        "_centroid": [
          126.9751907,
          37.2937855
        ],
        "_area_m2": 119.8
      },
      "geometry": {
        "type": "Polygon",
        "coordinates": [
          [
            [
              126.97512756441584,
              37.293732918525244
            ],
            [
              126.97515399231544,
              37.293852153982705
            ],
            [
              126.97525375331367,
              37.29383816001718
            ],
            [
              126.97522732541407,
              37.29371892453754
            ],
            [
              126.97512756441584,
              37.293732918525244
            ]
          ]
        ]
      }
    },
    {
      "type": "Feature",
      "properties": {
        "indoor": "room",
        "level": [
          -1
        ],
        "ref": "48B108",
        "name": "오디토리움",
        "room_type": "lounge",
        "_idx": 29,
        "_centroid": [
          126.9749012,
          37.2937842
        ],
        "_area_m2": 710.6
      },
      "geometry": {
        "type": "Polygon",
        "coordinates": [
          [
            [
              126.97488487390298,
              37.293938928485964
            ],
            [
              126.97487811898685,
              37.29390348954094
            ],
            [
              126.97494436651874,
              37.293894196680654
            ],
            [
              126.97495246394031,
              37.29393072997448
            ],
            [
              126.97503174967166,
              37.2939200571049
            ],
            [
              126.97503509459511,
              37.293904965748695
            ],
            [
              126.97504073367735,
              37.293853689329076
            ],
            [
              126.97503456519814,
              37.29379759904036
            ],
            [
              126.97501565968918,
              37.29374146870987
            ],
            [
              126.97499399772683,
              37.293694121553074
            ],
            [
              126.9749622654755,
              37.29365039716373
            ],
            [
              126.97492316407974,
              37.293628615980374
            ],
            [
              126.97488456799367,
              37.29362038866331
            ],
            [
              126.97485242739819,
              37.29362262567491
            ],
            [
              126.97482451022344,
              37.29362857662662
            ],
            [
              126.97479350825506,
              37.29364584607612
            ],
            [
              126.97476342755901,
              37.29368002224629
            ],
            [
              126.97475653415331,
              37.2937427044232
            ],
            [
              126.97475653415331,
              37.29381984406647
            ],
            [
              126.974783675894,
              37.293900427617224
            ],
            [
              126.97481221734502,
              37.293949120365035
            ],
            [
              126.97488487390298,
              37.293938928485964
            ]
          ]
        ]
      }
    },
    {
      "type": "Feature",
      "properties": {
        "indoor": "room",
        "level": [
          -1
        ],
        "ref": "48B114",
        "name": "응용AI융합학부강의실2",
        "room_type": "classroom",
        "_idx": 30,
        "_centroid": [
          126.9753074,
          37.2937692
        ],
        "_area_m2": 160.5
      },
      "geometry": {
        "type": "Polygon",
        "coordinates": [
          [
            [
              126.97522732541404,
              37.29371892453754
            ],
            [
              126.97525375331367,
              37.293838160017174
            ],
            [
              126.97538738674756,
              37.29381941459454
            ],
            [
              126.97536095884794,
              37.2937001790852
            ],
            [
              126.97522732541404,
              37.29371892453754
            ]
          ]
        ]
      }
    },
    {
      "type": "Feature",
      "properties": {
        "indoor": "room",
        "level": [
          -1
        ],
        "ref": "48B113",
        "name": "응용AI융합학부강의실1",
        "room_type": "classroom",
        "_idx": 31,
        "_centroid": [
          126.9754498,
          37.2937492
        ],
        "_area_m2": 181.7
      },
      "geometry": {
        "type": "Polygon",
        "coordinates": [
          [
            [
              126.97536095884794,
              37.2937001790852
            ],
            [
              126.97538738674756,
              37.29381941459454
            ],
            [
              126.97553873293114,
              37.293798184511246
            ],
            [
              126.97551230503153,
              37.29367894896826
            ],
            [
              126.97536095884794,
              37.2937001790852
            ]
          ]
        ]
      }
    },
    {
      "type": "Feature",
      "properties": {
        "indoor": "room",
        "level": [
          -1
        ],
        "ref": "48B101",
        "name": "A열람실",
        "room_type": "lounge",
        "_idx": 32,
        "_centroid": [
          126.9744932,
          37.2937021
        ],
        "_area_m2": 584.9
      },
      "geometry": {
        "type": "Polygon",
        "coordinates": [
          [
            [
              126.97463463590506,
              37.29376794398849
            ],
            [
              126.97463202580006,
              37.29375616790346
            ],
            [
              126.97469136375524,
              37.293747844266576
            ],
            [
              126.97464795533557,
              37.29355199697296
            ],
            [
              126.97443727878351,
              37.29358154971759
            ],
            [
              126.97441442119283,
              37.29362054576183
            ],
            [
              126.97438805594751,
              37.29367817306814
            ],
            [
              126.97436964264757,
              37.2937328420798
            ],
            [
              126.97435953588135,
              37.29377844106808
            ],
            [
              126.97435684018768,
              37.29380506942072
            ],
            [
              126.97463463590506,
              37.29376794398849
            ]
          ]
        ]
      }
    },
    {
      "type": "Feature",
      "properties": {
        "indoor": "room",
        "level": [
          -1
        ],
        "ref": "",
        "name": "",
        "room_type": "",
        "_idx": 33,
        "_centroid": [
          126.9743326,
          37.2936972
        ],
        "_area_m2": 295.7
      },
      "geometry": {
        "type": "Polygon",
        "coordinates": [
          [
            [
              126.97424985807591,
              37.29381936681817
            ],
            [
              126.97435684018768,
              37.29380506942072
            ],
            [
              126.97435953588135,
              37.29377844106808
            ],
            [
              126.97436964264757,
              37.2937328420798
            ],
            [
              126.97438805594751,
              37.29367817306814
            ],
            [
              126.97441442119283,
              37.29362054576183
            ],
            [
              126.97443727878351,
              37.29358154971759
            ],
            [
              126.97425856627777,
              37.29360657612891
            ],
            [
              126.9742728338776,
              37.2936709477703
            ],
            [
              126.97421864655979,
              37.293678548908886
            ],
            [
              126.97424985807591,
              37.29381936681817
            ]
          ]
        ]
      }
    },
    {
      "type": "Feature",
      "properties": {
        "indoor": "room",
        "level": [
          -1
        ],
        "ref": "",
        "name": "",
        "room_type": "",
        "_idx": 34,
        "_centroid": [
          126.9750815,
          37.2936511
        ],
        "_area_m2": 24
      },
      "geometry": {
        "type": "Polygon",
        "coordinates": [
          [
            [
              126.97503100950574,
              37.29366350232653
            ],
            [
              126.97504343727935,
              37.29370040034681
            ],
            [
              126.97506474744537,
              37.29369741105928
            ],
            [
              126.97505881203946,
              37.29367063209204
            ],
            [
              126.97507419139565,
              37.293664926864516
            ],
            [
              126.97513423149272,
              37.293643098198984
            ],
            [
              126.97509653078615,
              37.2936060975372
            ],
            [
              126.97510030330123,
              37.29361729813295
            ],
            [
              126.97510030330123,
              37.29362686739532
            ],
            [
              126.97509783076869,
              37.293634208341736
            ],
            [
              126.97509189251359,
              37.29364239076452
            ],
            [
              126.97508524829658,
              37.293646091883055
            ],
            [
              126.97503100950574,
              37.29366350232653
            ]
          ]
        ]
      }
    },
    {
      "type": "Feature",
      "properties": {
        "indoor": "room",
        "level": [
          -1
        ],
        "ref": "",
        "name": "",
        "room_type": "",
        "_idx": 35,
        "_centroid": [
          126.9742386,
          37.2936426
        ],
        "_area_m2": 35.1
      },
      "geometry": {
        "type": "Polygon",
        "coordinates": [
          [
            [
              126.97421864655979,
              37.293678548908886
            ],
            [
              126.9742728338776,
              37.2936709477703
            ],
            [
              126.97425856627777,
              37.29360657612891
            ],
            [
              126.97420437895995,
              37.293614177274
            ],
            [
              126.97421864655979,
              37.293678548908886
            ]
          ]
        ]
      }
    },
    {
      "type": "Feature",
      "properties": {
        "indoor": "room",
        "level": [
          -1
        ],
        "ref": "",
        "name": "",
        "room_type": "",
        "_idx": 36,
        "_centroid": [
          126.9753352,
          37.2936286
        ],
        "_area_m2": 21.9
      },
      "geometry": {
        "type": "Polygon",
        "coordinates": [
          [
            [
              126.97534305323818,
              37.293582887460644
            ],
            [
              126.9753041778991,
              37.293619744742955
            ],
            [
              126.97532501442646,
              37.29364190068261
            ],
            [
              126.97533028571209,
              37.293646898327815
            ],
            [
              126.97533359274253,
              37.293648125125976
            ],
            [
              126.97533887725423,
              37.293645697920056
            ],
            [
              126.97537128956355,
              37.29361496817714
            ],
            [
              126.97534305323818,
              37.293582887460644
            ]
          ]
        ]
      }
    },
    {
      "type": "Feature",
      "properties": {
        "indoor": "room",
        "level": [
          -1
        ],
        "ref": "",
        "name": "",
        "room_type": "",
        "_idx": 37,
        "_centroid": [
          126.9750449,
          37.2936277
        ],
        "_area_m2": 5.3
      },
      "geometry": {
        "type": "Polygon",
        "coordinates": [
          [
            [
              126.97502307204384,
              37.29363993601799
            ],
            [
              126.97506886992382,
              37.29362667509638
            ],
            [
              126.97506710937517,
              37.29361873196442
            ],
            [
              126.9750205392477,
              37.29362526460448
            ],
            [
              126.97502307204384,
              37.29363993601799
            ]
          ]
        ]
      }
    },
    {
      "type": "Feature",
      "properties": {
        "indoor": "room",
        "level": [
          -1
        ],
        "ref": "",
        "name": "",
        "room_type": "",
        "_idx": 38,
        "_centroid": [
          126.9750693,
          37.2936221
        ],
        "_area_m2": 37.6
      },
      "geometry": {
        "type": "Polygon",
        "coordinates": [
          [
            [
              126.97502307204384,
              37.29363993601799
            ],
            [
              126.97503100950574,
              37.29366350232653
            ],
            [
              126.97508524829658,
              37.293646091883055
            ],
            [
              126.97509189251359,
              37.29364239076452
            ],
            [
              126.97509783076869,
              37.29363420834174
            ],
            [
              126.97510030330123,
              37.29362686739532
            ],
            [
              126.97510030330123,
              37.29361729813295
            ],
            [
              126.97509653078615,
              37.2936060975372
            ],
            [
              126.97508929371259,
              37.293597875132505
            ],
            [
              126.97508189326349,
              37.2935937527571
            ],
            [
              126.97507135243316,
              37.29359227413807
            ],
            [
              126.97501497979871,
              37.293600181830755
            ],
            [
              126.9750205392477,
              37.29362526460448
            ],
            [
              126.97506710937517,
              37.29361873196442
            ],
            [
              126.97506886992382,
              37.29362667509638
            ],
            [
              126.97502307204384,
              37.29363993601799
            ]
          ]
        ]
      }
    },
    {
      "type": "Feature",
      "properties": {
        "indoor": "room",
        "level": [
          -1
        ],
        "ref": "48B115",
        "name": "응용AI융합학부강의실3",
        "room_type": "classroom",
        "_idx": 39,
        "_centroid": [
          126.9751347,
          37.2936072
        ],
        "_area_m2": 217.6
      },
      "geometry": {
        "type": "Polygon",
        "coordinates": [
          [
            [
              126.97507419139565,
              37.293664926864516
            ],
            [
              126.9750856977313,
              37.29369620651142
            ],
            [
              126.9753113702799,
              37.29366563355537
            ],
            [
              126.97521120514733,
              37.29356468183451
            ],
            [
              126.97516752268125,
              37.293570809411314
            ],
            [
              126.97515891567612,
              37.29353197683291
            ],
            [
              126.97507040109824,
              37.293544393258436
            ],
            [
              126.97508189326349,
              37.2935937527571
            ],
            [
              126.97508929371259,
              37.293597875132505
            ],
            [
              126.97509653078615,
              37.2936060975372
            ],
            [
              126.97513423149272,
              37.293643098198984
            ],
            [
              126.97507419139565,
              37.293664926864516
            ]
          ]
        ]
      }
    },
    {
      "type": "Feature",
      "properties": {
        "indoor": "room",
        "level": [
          -1
        ],
        "ref": "",
        "name": "",
        "room_type": "",
        "_idx": 40,
        "_centroid": [
          126.9753084,
          37.2935841
        ],
        "_area_m2": 24.1
      },
      "geometry": {
        "type": "Polygon",
        "coordinates": [
          [
            [
              126.9752735790283,
              37.29358536117345
            ],
            [
              126.9753041778991,
              37.293619744742955
            ],
            [
              126.97534305323818,
              37.293582887460644
            ],
            [
              126.97531263733703,
              37.29354833040264
            ],
            [
              126.9752735790283,
              37.29358536117345
            ]
          ]
        ]
      }
    },
    {
      "type": "Feature",
      "properties": {
        "indoor": "room",
        "level": [
          -1
        ],
        "ref": "",
        "name": "",
        "room_type": "",
        "_idx": 41,
        "_centroid": [
          126.9750545,
          37.2935559
        ],
        "_area_m2": 39
      },
      "geometry": {
        "type": "Polygon",
        "coordinates": [
          [
            [
              126.97505952546716,
              37.29349551600381
            ],
            [
              126.97501942122086,
              37.29350137487226
            ],
            [
              126.97504052689293,
              37.29359659820253
            ],
            [
              126.97507135243316,
              37.29359227413807
            ],
            [
              126.97508189326349,
              37.2935937527571
            ],
            [
              126.97505952546716,
              37.29349551600381
            ]
          ]
        ]
      }
    },
    {
      "type": "Feature",
      "properties": {
        "indoor": "room",
        "level": [
          -1
        ],
        "ref": "",
        "name": "",
        "room_type": "",
        "_idx": 42,
        "_centroid": [
          126.9752775,
          37.2935522
        ],
        "_area_m2": 22.5
      },
      "geometry": {
        "type": "Polygon",
        "coordinates": [
          [
            [
              126.9752422426238,
              37.29355617352315
            ],
            [
              126.9752735790283,
              37.29358536117345
            ],
            [
              126.97531263733703,
              37.29354833040264
            ],
            [
              126.97528157625624,
              37.293518881706305
            ],
            [
              126.9752422426238,
              37.29355617352315
            ]
          ]
        ]
      }
    },
    {
      "type": "Feature",
      "properties": {
        "indoor": "room",
        "level": [
          -1
        ],
        "ref": "",
        "name": "",
        "room_type": "",
        "_idx": 43,
        "_centroid": [
          126.9753654,
          37.2935452
        ],
        "_area_m2": 289
      },
      "geometry": {
        "type": "Polygon",
        "coordinates": [
          [
            [
              126.97523139318092,
              37.29347130361617
            ],
            [
              126.9752497334364,
              37.29348869183915
            ],
            [
              126.97528157625624,
              37.293518881706305
            ],
            [
              126.97531263733703,
              37.29354833040264
            ],
            [
              126.97534305323818,
              37.293582887460644
            ],
            [
              126.97537128956355,
              37.29361496817713
            ],
            [
              126.97540564618038,
              37.293654002447624
            ],
            [
              126.97550495645709,
              37.29364007167035
            ],
            [
              126.9754766247415,
              37.29351224634809
            ],
            [
              126.975429285247,
              37.29351888692074
            ],
            [
              126.97541342446443,
              37.29344732711178
            ],
            [
              126.97523139318092,
              37.29347130361617
            ]
          ]
        ]
      }
    },
    {
      "type": "Feature",
      "properties": {
        "indoor": "room",
        "level": [
          -1
        ],
        "ref": "",
        "name": "",
        "room_type": "",
        "_idx": 44,
        "_centroid": [
          126.9752464,
          37.2935221
        ],
        "_area_m2": 22.7
      },
      "geometry": {
        "type": "Polygon",
        "coordinates": [
          [
            [
              126.97521192094547,
              37.293524541491955
            ],
            [
              126.9752422426238,
              37.29355617352315
            ],
            [
              126.97528157625624,
              37.293518881706305
            ],
            [
              126.9752497334364,
              37.29348869183915
            ],
            [
              126.97521192094547,
              37.293524541491955
            ]
          ]
        ]
      }
    },
    {
      "type": "Feature",
      "properties": {
        "indoor": "room",
        "level": [
          -1
        ],
        "ref": "",
        "name": "",
        "room_type": "",
        "_idx": 45,
        "_centroid": [
          126.9750878,
          37.2935167
        ],
        "_area_m2": 22.5
      },
      "geometry": {
        "type": "Polygon",
        "coordinates": [
          [
            [
              126.97505952546716,
              37.29349551600381
            ],
            [
              126.97507039924753,
              37.29354438489941
            ],
            [
              126.97511613561576,
              37.29353797619489
            ],
            [
              126.97510531279225,
              37.293489093160574
            ],
            [
              126.97505952546716,
              37.29349551600381
            ]
          ]
        ]
      }
    },
    {
      "type": "Feature",
      "properties": {
        "indoor": "room",
        "level": [
          -1
        ],
        "ref": "",
        "name": "",
        "room_type": "",
        "_idx": 46,
        "_centroid": [
          126.9751321,
          37.2935105
        ],
        "_area_m2": 21.1
      },
      "geometry": {
        "type": "Polygon",
        "coordinates": [
          [
            [
              126.97515891567612,
              37.29353197683291
            ],
            [
              126.97514808105889,
              37.29348309381699
            ],
            [
              126.97510530134936,
              37.29348909476573
            ],
            [
              126.97511613596659,
              37.29353797777775
            ],
            [
              126.97515891567612,
              37.29353197683291
            ]
          ]
        ]
      }
    },
    {
      "type": "Feature",
      "properties": {
        "indoor": "room",
        "level": [
          -1
        ],
        "ref": "",
        "name": "",
        "room_type": "",
        "_idx": 47,
        "_centroid": [
          126.9752,
          37.2934999
        ],
        "_area_m2": 40.1
      },
      "geometry": {
        "type": "Polygon",
        "coordinates": [
          [
            [
              126.97515891567612,
              37.29353197683291
            ],
            [
              126.97521192094547,
              37.293524541491955
            ],
            [
              126.9752497334364,
              37.29348869183915
            ],
            [
              126.97523139318092,
              37.29347130361617
            ],
            [
              126.97514805880127,
              37.29348299339635
            ],
            [
              126.97515891567612,
              37.29353197683291
            ]
          ]
        ]
      }
    },
    {
      "type": "Feature",
      "properties": {
        "indoor": "room",
        "level": [
          -1
        ],
        "ref": "",
        "name": "",
        "room_type": "",
        "_idx": 48,
        "_centroid": [
          126.9754451,
          37.2934798
        ],
        "_area_m2": 34.2
      },
      "geometry": {
        "type": "Polygon",
        "coordinates": [
          [
            [
              126.9754766247415,
              37.29351224634809
            ],
            [
              126.97546098744068,
              37.29344065518376
            ],
            [
              126.97541342446443,
              37.29344732711178
            ],
            [
              126.975429285247,
              37.29351888692074
            ],
            [
              126.9754766247415,
              37.29351224634809
            ]
          ]
        ]
      }
    }
  ]
}