{
  "type": "FeatureCollection",
  "features": [
    {
      "type": "Feature",
      "properties": {
        "indoor": "room",
        "level": [
          3
        ],
        "ref": "480304",
        "name": "공조실-3",
        "room_type": "facility",
        "_idx": 1,
        "_centroid": [
          126.9748076,
          37.2941393
        ],
        "_area_m2": 72.3
      },
      "geometry": {
        "type": "Polygon",
        "coordinates": [
          [
            [
              126.97485792102441,
              37.29409786261986
            ],
            [
              126.97476344786264,
              37.29410871927022
            ],
            [
              126.97476731745918,
              37.29413002996936
            ],
            [
              126.97477749867477,
              37.29418610008159
            ],
            [
              126.97487175284715,
              37.29417403743983
            ],
            [
              126.97485792102441,
              37.29409786261986
            ]
          ]
        ]
      }
    },
    {
      "type": "Feature",
      "properties": {
        "indoor": "room",
        "level": [
          3
        ],
        "ref": "480305",
        "name": "공조실-4",
        "room_type": "facility",
        "_idx": 2,
        "_centroid": [
          126.9751101,
          37.2941112
        ],
        "_area_m2": 70.4
      },
      "geometry": {
        "type": "Polygon",
        "coordinates": [
          [
            [
              126.9751629136628,
              37.294144462291634
            ],
            [
              126.97514885635782,
              37.29406735312108
            ],
            [
              126.97505727246403,
              37.294077919709814
            ],
            [
              126.97507132976898,
              37.29415502886955
            ],
            [
              126.9751629136628,
              37.294144462291634
            ]
          ]
        ]
      }
    },
    {
      "type": "Feature",
      "properties": {
        "indoor": "room",
        "level": [
          3
        ],
        "ref": "",
        "name": "",
        "room_type": "",
        "_idx": 3,
        "_centroid": [
          126.9748847,
          37.2941084
        ],
        "_area_m2": 42.6
      },
      "geometry": {
        "type": "Polygon",
        "coordinates": [
          [
            [
              126.97486226187283,
              37.29412176862552
            ],
            [
              126.97488062440557,
              37.2941194321441
            ],
            [
              126.9748857517443,
              37.29414766949431
            ],
            [
              126.97492207419457,
              37.29414349539969
            ],
            [
              126.9749061766913,
              37.294055944411795
            ],
            [
              126.97485145145671,
              37.294062233320396
            ],
            [
              126.97486226187283,
              37.29412176862552
            ]
          ]
        ]
      }
    },
    {
      "type": "Feature",
      "properties": {
        "indoor": "room",
        "level": [
          3
        ],
        "ref": "",
        "name": "",
        "room_type": "",
        "_idx": 4,
        "_centroid": [
          126.9751713,
          37.2940963
        ],
        "_area_m2": 25.6
      },
      "geometry": {
        "type": "Polygon",
        "coordinates": [
          [
            [
              126.97518218412056,
              37.29406350789479
            ],
            [
              126.9751660748481,
              37.29406536651936
            ],
            [
              126.97514885635782,
              37.29406735312108
            ],
            [
              126.9751629136628,
              37.294144462291634
            ],
            [
              126.97519624142545,
              37.29414061706929
            ],
            [
              126.97518218412056,
              37.29406350789479
            ]
          ]
        ]
      }
    },
    {
      "type": "Feature",
      "properties": {
        "indoor": "room",
        "level": [
          3
        ],
        "ref": "",
        "name": "",
        "room_type": "",
        "_idx": 5,
        "_centroid": [
          126.9750328,
          37.2940916
        ],
        "_area_m2": 42.9
      },
      "geometry": {
        "type": "Polygon",
        "coordinates": [
          [
            [
              126.9750611473996,
              37.29409917507413
            ],
            [
              126.97505062898625,
              37.29404147791827
            ],
            [
              126.9749926782012,
              37.29404816405391
            ],
            [
              126.97500794442566,
              37.29413190458288
            ],
            [
              126.97504462120354,
              37.29412767296402
            ],
            [
              126.97503983796865,
              37.29410143527239
            ],
            [
              126.9750611473996,
              37.29409917507413
            ]
          ]
        ]
      }
    },
    {
      "type": "Feature",
      "properties": {
        "indoor": "room",
        "level": [
          3
        ],
        "ref": "",
        "name": "",
        "room_type": "",
        "_idx": 6,
        "_centroid": [
          126.9748074,
          37.2940855
        ],
        "_area_m2": 33.6
      },
      "geometry": {
        "type": "Polygon",
        "coordinates": [
          [
            [
              126.97475697829816,
              37.29407308997539
            ],
            [
              126.97476344786264,
              37.29410871927022
            ],
            [
              126.97485792102441,
              37.29409786261986
            ],
            [
              126.97485145145671,
              37.294062233320396
            ],
            [
              126.97475697829816,
              37.29407308997539
            ]
          ]
        ]
      }
    },
    {
      "type": "Feature",
      "properties": {
        "indoor": "room",
        "level": [
          3
        ],
        "ref": "480306",
        "name": "Service+ Center",
        "room_type": "lab",
        "_idx": 7,
        "_centroid": [
          126.9752205,
          37.2940493
        ],
        "_area_m2": 136.4
      },
      "geometry": {
        "type": "Polygon",
        "coordinates": [
          [
            [
              126.97516332376492,
              37.293987720518494
            ],
            [
              126.97515214574558,
              37.2939889605034
            ],
            [
              126.9751660748481,
              37.29406536651936
            ],
            [
              126.97518218412056,
              37.29406350789479
            ],
            [
              126.97519619249826,
              37.294140348686746
            ],
            [
              126.97525140363256,
              37.294111549657245
            ],
            [
              126.97529715015858,
              37.294077312103575
            ],
            [
              126.97528711303336,
              37.29404340684586
            ],
            [
              126.97526019816029,
              37.29403696346434
            ],
            [
              126.97524941028797,
              37.2939777881829
            ],
            [
              126.97516332376492,
              37.293987720518494
            ]
          ]
        ]
      }
    },
    {
      "type": "Feature",
      "properties": {
        "indoor": "room",
        "level": [
          3
        ],
        "ref": "",
        "name": "",
        "room_type": "",
        "_idx": 8,
        "_centroid": [
          126.975069,
          37.2940483
        ],
        "_area_m2": 18.5
      },
      "geometry": {
        "type": "Polygon",
        "coordinates": [
          [
            [
              126.97505727246403,
              37.294077919709814
            ],
            [
              126.97509086609459,
              37.294074043809275
            ],
            [
              126.97508078094823,
              37.29401872325296
            ],
            [
              126.97504718731713,
              37.29402259915658
            ],
            [
              126.97505727246403,
              37.294077919709814
            ]
          ]
        ]
      }
    },
    {
      "type": "Feature",
      "properties": {
        "indoor": "room",
        "level": [
          3
        ],
        "ref": "",
        "name": "",
        "room_type": "",
        "_idx": 9,
        "_centroid": [
          126.9751148,
          37.294043
        ],
        "_area_m2": 32
      },
      "geometry": {
        "type": "Polygon",
        "coordinates": [
          [
            [
              126.97508078094823,
              37.29401872325296
            ],
            [
              126.97509086609459,
              37.294074043809275
            ],
            [
              126.97514885635782,
              37.29406735312108
            ],
            [
              126.97513877121092,
              37.29401203256007
            ],
            [
              126.97508078094823,
              37.29401872325296
            ]
          ]
        ]
      }
    },
    {
      "type": "Feature",
      "properties": {
        "indoor": "room",
        "level": [
          3
        ],
        "ref": "",
        "name": "",
        "room_type": "",
        "_idx": 10,
        "_centroid": [
          126.9747669,
          37.2940413
        ],
        "_area_m2": 18.4
      },
      "geometry": {
        "type": "Polygon",
        "coordinates": [
          [
            [
              126.97477681898107,
              37.29400947352044
            ],
            [
              126.9747460684983,
              37.29401300730336
            ],
            [
              126.97475697829816,
              37.29407308997539
            ],
            [
              126.97478772878134,
              37.29406955619499
            ],
            [
              126.97477681898107,
              37.29400947352044
            ]
          ]
        ]
      }
    },
    {
      "type": "Feature",
      "properties": {
        "indoor": "room",
        "level": [
          3
        ],
        "ref": "",
        "name": "",
        "room_type": "",
        "_idx": 11,
        "_centroid": [
          126.9750287,
          37.2940344
        ],
        "_area_m2": 7.6
      },
      "geometry": {
        "type": "Polygon",
        "coordinates": [
          [
            [
              126.97505062898625,
              37.29404147791827
            ],
            [
              126.97504718731713,
              37.29402259915658
            ],
            [
              126.97500676746776,
              37.29402726264247
            ],
            [
              126.97501020913687,
              37.294046141402994
            ],
            [
              126.97505062898625,
              37.29404147791827
            ]
          ]
        ]
      }
    },
    {
      "type": "Feature",
      "properties": {
        "indoor": "room",
        "level": [
          3
        ],
        "ref": "",
        "name": "",
        "room_type": "",
        "_idx": 12,
        "_centroid": [
          126.9748328,
          37.2940337
        ],
        "_area_m2": 60.5
      },
      "geometry": {
        "type": "Polygon",
        "coordinates": [
          [
            [
              126.97477681898107,
              37.29400947352044
            ],
            [
              126.97478772878134,
              37.29406955619499
            ],
            [
              126.97488870433307,
              37.29405795229843
            ],
            [
              126.97487779453323,
              37.29399786961431
            ],
            [
              126.97477681898107,
              37.29400947352044
            ]
          ]
        ]
      }
    },
    {
      "type": "Feature",
      "properties": {
        "indoor": "room",
        "level": [
          3
        ],
        "ref": "",
        "name": "",
        "room_type": "",
        "_idx": 13,
        "_centroid": [
          126.9750435,
          37.2940025
        ],
        "_area_m2": 32.4
      },
      "geometry": {
        "type": "Polygon",
        "coordinates": [
          [
            [
              126.97508030973837,
              37.29397776446654
            ],
            [
              126.97499944464403,
              37.29398709437363
            ],
            [
              126.97500676746776,
              37.29402726264247
            ],
            [
              126.975087632563,
              37.29401793273989
            ],
            [
              126.97508030973837,
              37.29397776446654
            ]
          ]
        ]
      }
    },
    {
      "type": "Feature",
      "properties": {
        "indoor": "room",
        "level": [
          3
        ],
        "ref": "",
        "name": "",
        "room_type": "",
        "_idx": 14,
        "_centroid": [
          126.9751095,
          37.2939949
        ],
        "_area_m2": 20.5
      },
      "geometry": {
        "type": "Polygon",
        "coordinates": [
          [
            [
              126.97508030973837,
              37.29397776446654
            ],
            [
              126.975087632563,
              37.29401793273989
            ],
            [
              126.9751387712109,
              37.29401203256007
            ],
            [
              126.97513144838716,
              37.2939718642831
            ],
            [
              126.97508030973837,
              37.29397776446654
            ]
          ]
        ]
      }
    },
    {
      "type": "Feature",
      "properties": {
        "indoor": "room",
        "level": [
          3
        ],
        "ref": "480303",
        "name": "자료실-1",
        "room_type": "lounge",
        "_idx": 15,
        "_centroid": [
          126.9746073,
          37.2939623
        ],
        "_area_m2": 928.4
      },
      "geometry": {
        "type": "Polygon",
        "coordinates": [
          [
            [
              126.97441724414207,
              37.293909338961846
            ],
            [
              126.97451453663548,
              37.294001242807504
            ],
            [
              126.97450845247421,
              37.294053023337895
            ],
            [
              126.97462242610747,
              37.29411731690825
            ],
            [
              126.97462523355819,
              37.29415701961862
            ],
            [
              126.97467871302618,
              37.2941740193497
            ],
            [
              126.97474475756081,
              37.294189862614935
            ],
            [
              126.97477749867477,
              37.29418610008159
            ],
            [
              126.97476731745918,
              37.29413002996936
            ],
            [
              126.97473907195554,
              37.294133275879965
            ],
            [
              126.97465277864494,
              37.29365803866929
            ],
            [
              126.9746166766298,
              37.293652974449444
            ],
            [
              126.97459249600647,
              37.2936942276053
            ],
            [
              126.97456789264439,
              37.29377096684642
            ],
            [
              126.97444875916135,
              37.29377925861683
            ],
            [
              126.97444355421212,
              37.29379063520985
            ],
            [
              126.97441724414207,
              37.293909338961846
            ]
          ]
        ]
      }
    },
    {
      "type": "Feature",
      "properties": {
        "indoor": "room",
        "level": [
          3
        ],
        "ref": "",
        "name": "",
        "room_type": "",
        "_idx": 16,
        "_centroid": [
          126.9749152,
          37.2939165
        ],
        "_area_m2": 24.6
      },
      "geometry": {
        "type": "Polygon",
        "coordinates": [
          [
            [
              126.97488484725191,
              37.29393884935937
            ],
            [
              126.97495249858532,
              37.293930605776836
            ],
            [
              126.97494549459674,
              37.29389422873504
            ],
            [
              126.97487784326333,
              37.29390247232156
            ],
            [
              126.97488484725191,
              37.29393884935937
            ]
          ]
        ]
      }
    },
    {
      "type": "Feature",
      "properties": {
        "indoor": "room",
        "level": [
          3
        ],
        "ref": "480308",
        "name": "교수 라운지",
        "room_type": "lounge",
        "_idx": 17,
        "_centroid": [
          126.975054,
          37.293863
        ],
        "_area_m2": 30.4
      },
      "geometry": {
        "type": "Polygon",
        "coordinates": [
          [
            [
              126.97501312285218,
              37.293881367675695
            ],
            [
              126.97505380422291,
              37.293896406017296
            ],
            [
              126.9750719776353,
              37.29387575448479
            ],
            [
              126.97507787764728,
              37.29386285868963
            ],
            [
              126.97507787764728,
              37.29384917611558
            ],
            [
              126.97506993635919,
              37.29383562797603
            ],
            [
              126.97501312285218,
              37.29383958223097
            ],
            [
              126.97501312285218,
              37.293881367675695
            ]
          ]
        ]
      }
    },
    {
      "type": "Feature",
      "properties": {
        "indoor": "room",
        "level": [
          3
        ],
        "ref": "480307",
        "name": "자료실-2",
        "room_type": "lounge",
        "_idx": 18,
        "_centroid": [
          126.9752632,
          37.2938448
        ],
        "_area_m2": 760.3
      },
      "geometry": {
        "type": "Polygon",
        "coordinates": [
          [
            [
              126.9753323850015,
              37.29368505404096
            ],
            [
              126.97521291087568,
              37.29369862655799
            ],
            [
              126.9751544218899,
              37.29362851528576
            ],
            [
              126.97512571449843,
              37.29360129812787
            ],
            [
              126.97509495776082,
              37.293612707859566
            ],
            [
              126.97516332376492,
              37.293987720518494
            ],
            [
              126.97524941028797,
              37.2939777881829
            ],
            [
              126.97526019816029,
              37.29403696346434
            ],
            [
              126.97528712019813,
              37.294043387904935
            ],
            [
              126.97530581847028,
              37.29402936893298
            ],
            [
              126.97536797680318,
              37.293957715126474
            ],
            [
              126.97534472874118,
              37.29390690133205
            ],
            [
              126.97537913396289,
              37.29385949394597
            ],
            [
              126.97540613407358,
              37.2938021415162
            ],
            [
              126.9753323850015,
              37.29368505404096
            ]
          ]
        ]
      }
    },
    {
      "type": "Feature",
      "properties": {
        "indoor": "room",
        "level": [
          3
        ],
        "ref": "480302",
        "name": "스터디룸3-1",
        "room_type": "classroom",
        "_idx": 19,
        "_centroid": [
          126.9747941,
          37.293809
        ],
        "_area_m2": 30.3
      },
      "geometry": {
        "type": "Polygon",
        "coordinates": [
          [
            [
              126.97477552773927,
              37.29384547145614
            ],
            [
              126.97483205262267,
              37.29384153728988
            ],
            [
              126.9748355614139,
              37.29380963167627
            ],
            [
              126.97478301200233,
              37.293785495484556
            ],
            [
              126.97477311090414,
              37.29378410660774
            ],
            [
              126.9747652999299,
              37.29378769422549
            ],
            [
              126.97477552773927,
              37.29384547145614
            ]
          ]
        ]
      }
    },
    {
      "type": "Feature",
      "properties": {
        "indoor": "room",
        "level": [
          3
        ],
        "ref": "",
        "name": "",
        "room_type": "",
        "_idx": 20,
        "_centroid": [
          126.9745191,
          37.2937472
        ],
        "_area_m2": 61.2
      },
      "geometry": {
        "type": "Polygon",
        "coordinates": [
          [
            [
              126.97456789264439,
              37.29377096684642
            ],
            [
              126.97458635237254,
              37.29371338994511
            ],
            [
              126.97447353042247,
              37.29372511540352
            ],
            [
              126.97444875916135,
              37.29377925861683
            ],
            [
              126.97456789264439,
              37.29377096684642
            ]
          ]
        ]
      }
    },
    {
      "type": "Feature",
      "properties": {
        "indoor": "room",
        "level": [
          3
        ],
        "ref": "480301",
        "name": "스터디룸3-2",
        "room_type": "classroom",
        "_idx": 21,
        "_centroid": [
          126.9748936,
          37.2937156
        ],
        "_area_m2": 54.3
      },
      "geometry": {
        "type": "Polygon",
        "coordinates": [
          [
            [
              126.97484783115972,
              37.29374034930475
            ],
            [
              126.97493495382477,
              37.2937482209384
            ],
            [
              126.97494935278434,
              37.29368325670321
            ],
            [
              126.97484237132612,
              37.293690702693226
            ],
            [
              126.97484783115972,
              37.29374034930475
            ]
          ]
        ]
      }
    },
    {
      "type": "Feature",
      "properties": {
        "indoor": "room",
        "level": [
          3
        ],
        "ref": "",
        "name": "",
        "room_type": "",
        "_idx": 22,
        "_centroid": [
          126.9752531,
          37.2936691
        ],
        "_area_m2": 57.8
      },
      "geometry": {
        "type": "Polygon",
        "coordinates": [
          [
            [
              126.9753323850015,
              37.29368505404096
            ],
            [
              126.9752917863761,
              37.29363892792924
            ],
            [
              126.97517546466817,
              37.293653739460474
            ],
            [
              126.97521291087568,
              37.29369862655799
            ],
            [
              126.9753323850015,
              37.29368505404096
            ]
          ]
        ]
      }
    }
  ]
}