{
  "type": "FeatureCollection",
  "features": [
    {
      "type": "Feature",
      "properties": {
        "indoor": "corridor",
        "level": "-1"
      },
      "geometry": {
        "type": "Polygon",
        "coordinates": [
          [
            [
              126.97425631655452,
              37.293876593026994
            ],
            [
              126.97435325451569,
              37.29386299506721
            ],
            [
              126.9743472994608,
              37.29383612750795
            ],
            [
              126.97440614371963,
              37.29382787313311
            ],
            [
              126.97463833284482,
              37.29379530280883
            ],
            [
              126.97469558040719,
              37.29378727240614
            ],
            [
              126.97472244034076,
              37.29390845699338
            ],
            [
              126.97474006040883,
              37.2939879537586
            ],
            [
              126.97474567041996,
              37.29401656665353
            ],
            [
              126.97487042222895,
              37.29400244214773
            ],
            [
              126.97481221734502,
              37.293949120365035
            ],
            [
              126.974783675894,
              37.293900427617224
            ],
            [
              126.97475653415331,
              37.29381984406647
            ],
            [
              126.97475653415331,
              37.2937427044232
            ],
            [
              126.97476342755901,
              37.29368002224629
            ],
            [
              126.97479350825506,
              37.29364584607612
            ],
            [
              126.97464795533557,
              37.29355199697296
            ],
            [
              126.97469136375524,
              37.293747844266576
            ],
            [
              126.97463202580006,
              37.29375616790346
            ],
            [
              126.97463463590506,
              37.29376794398849
            ],
            [
              126.97424985807591,
              37.29381936681817
            ],
            [
              126.97425631655452,
              37.293876593026994
            ]
          ]
        ]
      }
    },
    {
      "type": "Feature",
      "properties": {
        "indoor": "corridor",
        "level": "-1"
      },
      "geometry": {
        "type": "Polygon",
        "coordinates": [
          [
            [
              126.97479350825506,
              37.29364584607612
            ],
            [
              126.97482451022344,
              37.29362857662662
            ],
            [
              126.97485242739819,
              37.29362262567491
            ],
            [
              126.97488456799367,
              37.29362038866331
            ],
            [
              126.97492316407974,
              37.293628615980374
            ],
            [
              126.9749622654755,
              37.29365039716373
            ],
            [
              126.97499399772683,
              37.293694121553074
            ],
            [
              126.97501565968918,
              37.29374146870987
            ],
            [
              126.97506854695654,
              37.29374119720622
            ],
            [
              126.97512756441584,
              37.293732918525244
            ],
            [
              126.97522732541404,
              37.29371892453754
            ],
            [
              126.97536095884794,
              37.2937001790852
            ],
            [
              126.97551230503153,
              37.29367894896826
            ],
            [
              126.97550495645709,
              37.29364007167035
            ],
            [
              126.97540564618038,
              37.293654002447624
            ],
            [
              126.97537128956355,
              37.29361496817713
            ],
            [
              126.97533887725423,
              37.293645697920056
            ],
            [
              126.97533359274253,
              37.293648125125976
            ],
            [
              126.97533028571209,
              37.293646898327815
            ],
            [
              126.97532501442646,
              37.29364190068261
            ],
            [
              126.9753041778991,
              37.293619744742955
            ],
            [
              126.9752735790283,
              37.29358536117345
            ],
            [
              126.9752422426238,
              37.29355617352315
            ],
            [
              126.97521192094547,
              37.293524541491955
            ],
            [
              126.97515891567612,
              37.29353197683291
            ],
            [
              126.97516752268125,
              37.293570809411314
            ],
            [
              126.97521120514733,
              37.29356468183451
            ],
            [
              126.9753113702799,
              37.293665633555364
            ],
            [
              126.9750856977313,
              37.29369620651142
            ],
            [
              126.97507419139565,
              37.293664926864516
            ],
            [
              126.97505881203946,
              37.29367063209204
            ],
            [
              126.97506474744537,
              37.29369741105928
            ],
            [
              126.97504343727935,
              37.29370040034681
            ],
            [
              126.97503100950574,
              37.29366350232653
            ],
            [
              126.97502307204384,
              37.29363993601799
            ],
            [
              126.9750205392477,
              37.29362526460448
            ],
            [
              126.97501497979871,
              37.293600181830755
            ],
            [
              126.97504052689293,
              37.29359659820253
            ],
            [
              126.97501942122086,
              37.29350137487226
            ],
            [
              126.97464795533557,
              37.29355199697296
            ],
            [
              126.97479350825506,
              37.29364584607612
            ]
          ]
        ]
      }
    },
    {
      "type": "Feature",
      "properties": {
        "indoor": "corridor",
        "level": "-1"
      },
      "geometry": {
        "type": "Polygon",
        "coordinates": [
          [
            [
              126.97501565968918,
              37.29374146870987
            ],
            [
              126.97503456519814,
              37.29379759904036
            ],
            [
              126.97504073367735,
              37.293853689329076
            ],
            [
              126.97503509459511,
              37.293904965748695
            ],
            [
              126.97503174967166,
              37.2939200571049
            ],
            [
              126.97499127645933,
              37.293981298584484
            ],
            [
              126.97507082584968,
              37.293970141968124
            ],
            [
              126.97511782950123,
              37.29396354639738
            ],
            [
              126.97509497485606,
              37.29386043265054
            ],
            [
              126.97506854695654,
              37.29374119720622
            ],
            [
              126.97501565968918,
              37.29374146870987
            ]
          ]
        ]
      }
    },
    {
      "type": "Feature",
      "properties": {
        "indoor": "corridor",
        "level": "-1"
      },
      "geometry": {
        "type": "Polygon",
        "coordinates": [
          [
            [
              126.97481221734502,
              37.293949120365035
            ],
            [
              126.97487042222895,
              37.29400244214773
            ],
            [
              126.97487957240787,
              37.29405358955887
            ],
            [
              126.9750036286757,
              37.294037028247224
            ],
            [
              126.97499127645933,
              37.293981298584484
            ],
            [
              126.97503174967166,
              37.2939200571049
            ],
            [
              126.97481221734502,
              37.293949120365035
            ]
          ]
        ]
      }
    }
  ]
}