{
"type": "FeatureCollection",
"name": "Benjin_corridor_L1",
"crs": { "type": "name", "properties": { "name": "urn:ogc:def:crs:OGC:1.3:CRS84" } },
"features": [
{ "type": "Feature", "properties": { "id": null }, "geometry": { "type": "MultiPolygon", "coordinates": [ [ [ [ 126.9750002399267, 37.29598146160756 ], [ 126.97447331342282, 37.296046826003057 ], [ 126.974430696974608, 37.296052086177419 ], [ 126.974434705597162, 37.296072544168162 ], [ 126.974475334335892, 37.296067133376489 ], [ 126.975003914584192, 37.296001961029383 ], [ 126.9750002399267, 37.29598146160756 ] ] ] ] } },
{ "type": "Feature", "properties": { "id": null }, "geometry": { "type": "MultiPolygon", "coordinates": [ [ [ [ 126.973871568107327, 37.295744541983922 ], [ 126.973856483722159, 37.295760713523293 ], [ 126.97434042952213, 37.296046388830355 ], [ 126.974356772310642, 37.29602886825802 ], [ 126.973874299991635, 37.295746142849048 ], [ 126.973874081779542, 37.295746014978285 ], [ 126.973871568107327, 37.295744541983922 ] ] ] ] } },
{ "type": "Feature", "properties": { "id": null }, "geometry": { "type": "MultiPolygon", "coordinates": [ [ [ [ 126.974406516926166, 37.296156401140578 ], [ 126.97445114311661, 37.296150653936557 ], [ 126.974434705597162, 37.296072544168162 ], [ 126.974430696974608, 37.296052086177419 ], [ 126.974415800088096, 37.295975707895963 ], [ 126.974409565560379, 37.29597227033107 ], [ 126.974357022282447, 37.296029014739752 ], [ 126.974356772310642, 37.29602886825802 ], [ 126.97434042952213, 37.296046388830355 ], [ 126.974389733693343, 37.296073929455098 ], [ 126.974406516926166, 37.296156401140578 ] ] ] ] } },
{ "type": "Feature", "properties": { "id": null }, "geometry": { "type": "MultiPolygon", "coordinates": [ [ [ [ 126.974220312404057, 37.295287059477708 ], [ 126.974207932562322, 37.295304117496478 ], [ 126.974667522840619, 37.295515204937836 ], [ 126.974674506771493, 37.295505956343632 ], [ 126.974680106491604, 37.295498240585168 ], [ 126.974220312404057, 37.295287059477708 ] ] ] ] } },
{ "type": "Feature", "properties": { "id": null }, "geometry": { "type": "MultiPolygon", "coordinates": [ [ [ [ 126.974220312404057, 37.295287059477708 ], [ 126.974177640467573, 37.295268532590804 ], [ 126.974109777539397, 37.295275894393519 ], [ 126.973680711978218, 37.295322439612718 ], [ 126.973692414821286, 37.295390712036806 ], [ 126.973727144091669, 37.295387565644937 ], [ 126.973721232068911, 37.295346268147959 ], [ 126.973754927496458, 37.295343215418065 ], [ 126.973753217329786, 37.295331269315405 ], [ 126.974180650280132, 37.295292544835306 ], [ 126.974207932562322, 37.295304117496478 ], [ 126.974220312404057, 37.295287059477708 ] ] ] ] } },
{ "type": "Feature", "properties": { "id": null }, "geometry": { "type": "MultiPolygon", "coordinates": [ [ [ [ 126.975767041741818, 37.295038854092141 ], [ 126.975742633728927, 37.295041919683428 ], [ 126.975155459832521, 37.295115229840242 ], [ 126.975140289480436, 37.295106609556534 ], [ 126.975188952634355, 37.295052411662319 ], [ 126.975159577499582, 37.295036440410357 ], [ 126.97511215984116, 37.295091634113554 ], [ 126.974609652235756, 37.294809726382525 ], [ 126.974580395128072, 37.29481351932246 ], [ 126.974571356418622, 37.294769395483279 ], [ 126.974652139368402, 37.29475892264086 ], [ 126.974625101275606, 37.294744135515607 ], [ 126.974523117790426, 37.294754689457868 ], [ 126.974540057897727, 37.294825649977582 ], [ 126.97414360482891, 37.294885546602039 ], [ 126.974126178531975, 37.294812549536708 ], [ 126.974094396489633, 37.294817351209943 ], [ 126.974114719498175, 37.294911855533442 ], [ 126.974607772503433, 37.294844752741 ], [ 126.975092017812074, 37.295108505324002 ], [ 126.975039379549017, 37.295169666909089 ], [ 126.975070210173328, 37.295186755545529 ], [ 126.975070208444805, 37.29518678533907 ], [ 126.975123602093134, 37.295125967479784 ], [ 126.975146391138239, 37.295139454698827 ], [ 126.975771427223435, 37.295060951640458 ], [ 126.975767041741818, 37.295038854092141 ] ] ] ] } },
{ "type": "Feature", "properties": { "id": null }, "geometry": { "type": "MultiPolygon", "coordinates": [ [ [ [ 126.974953570091117, 37.294352327142903 ], [ 126.974953552774423, 37.294352328212803 ], [ 126.974953570424191, 37.294352329063194 ], [ 126.974940907710078, 37.294353112127787 ], [ 126.974942392446167, 37.294368298428587 ], [ 126.97496126649385, 37.294367130600797 ], [ 126.975421862051732, 37.294627498022159 ], [ 126.975437472448277, 37.294614307340133 ], [ 126.97543746584239, 37.294614179597033 ], [ 126.974970164817719, 37.29435130184995 ], [ 126.974953570091117, 37.294352327142903 ] ] ] ] } },
{ "type": "Feature", "properties": { "id": null }, "geometry": { "type": "MultiPolygon", "coordinates": [ [ [ [ 126.974584136583189, 37.294456187900103 ], [ 126.97457295964243, 37.294396034569203 ], [ 126.974903481354346, 37.294357167721067 ], [ 126.974900679854329, 37.294342090274419 ], [ 126.974897603635327, 37.294342456540825 ], [ 126.974531845339641, 37.294385462425218 ], [ 126.974546822311936, 37.294466067198357 ], [ 126.974584904963436, 37.294461588972311 ], [ 126.974584136583189, 37.294456187900103 ] ] ] ] } },
{ "type": "Feature", "properties": { "id": null }, "geometry": { "type": "MultiPolygon", "coordinates": [ [ [ [ 126.974953570424191, 37.294352329063194 ], [ 126.974948466794402, 37.294322904434985 ], [ 126.974898307127347, 37.294328410479167 ], [ 126.974900679854329, 37.294342090274419 ], [ 126.974906245433502, 37.294371673612751 ], [ 126.974942392446167, 37.294368298428587 ], [ 126.974940907710078, 37.294353112127787 ], [ 126.974953552774423, 37.294352328212803 ], [ 126.974953570424191, 37.294352329063194 ] ] ] ] } },
{ "type": "Feature", "properties": { "id": null }, "geometry": { "type": "MultiPolygon", "coordinates": [ [ [ [ 126.9738637090353, 37.295662047434909 ], [ 126.973710892690832, 37.295682576918495 ], [ 126.973723536930152, 37.295742313460281 ], [ 126.973393383545556, 37.295786538578895 ], [ 126.973411037715024, 37.295863013653154 ], [ 126.97344807229068, 37.295858517160241 ], [ 126.973436250008504, 37.2957968953882 ], [ 126.973748309854855, 37.295759007106625 ], [ 126.973763195225899, 37.295836594768602 ], [ 126.973778283110377, 37.295844550085725 ], [ 126.973856483722159, 37.295760713523293 ], [ 126.973871568107327, 37.295744541983922 ], [ 126.973821799398635, 37.295715377868255 ], [ 126.973866188577915, 37.29566833222475 ], [ 126.9738637090353, 37.295662047434909 ] ] ] ] } }
]
}
