{
"type": "FeatureCollection",
"name": "Benjin_corridor_L2",
"crs": { "type": "name", "properties": { "name": "urn:ogc:def:crs:OGC:1.3:CRS84" } },
"features": [
{ "type": "Feature", "properties": { "": null }, "geometry": { "type": "MultiPolygon", "coordinates": [ [ [ [ 126.975767041741818, 37.295038854092141 ], [ 126.975742633728927, 37.295041919683428 ], [ 126.975155459832521, 37.295115229840242 ], [ 126.975140289480436, 37.295106609556534 ], [ 126.975188952634355, 37.295052411662319 ], [ 126.975159577499582, 37.295036440410357 ], [ 126.97511215984116, 37.295091634113554 ], [ 126.974609652235756, 37.294809726382525 ], [ 126.974580395128072, 37.29481351932246 ], [ 126.974571356418622, 37.294769395483279 ], [ 126.974652139368402, 37.29475892264086 ], [ 126.974630627618154, 37.294742583853065 ], [ 126.974523117790426, 37.294754689457868 ], [ 126.974540057897727, 37.294825649977582 ], [ 126.97414360482891, 37.294885546602039 ], [ 126.974126178531975, 37.294812549536708 ], [ 126.974094396489633, 37.294817351209943 ], [ 126.974114719498175, 37.294911855533442 ], [ 126.974607772503433, 37.294844752741 ], [ 126.975092017812074, 37.295108505324002 ], [ 126.975039379549017, 37.295169666909089 ], [ 126.975070210173328, 37.295186755545529 ], [ 126.975070208444805, 37.29518678533907 ], [ 126.975123602093134, 37.295125967479784 ], [ 126.975146391138239, 37.295139454698827 ], [ 126.975771427223435, 37.295060951640458 ], [ 126.975767041741818, 37.295038854092141 ] ] ] ] } },
{ "type": "Feature", "properties": { "": null }, "geometry": { "type": "MultiPolygon", "coordinates": [ [ [ [ 126.97496126649385, 37.294367130600797 ], [ 126.975421862051732, 37.294627498022159 ], [ 126.975437472448277, 37.294614307340133 ], [ 126.97543746584239, 37.294614179597033 ], [ 126.974970164817719, 37.29435130184995 ], [ 126.974953570091117, 37.294352327142903 ], [ 126.974948466794402, 37.294322904434985 ], [ 126.974898307127347, 37.294328410479167 ], [ 126.974900679854329, 37.294342090274419 ], [ 126.974906245433502, 37.294371673612751 ], [ 126.974942392446167, 37.294368298428587 ], [ 126.97496126649385, 37.294367130600797 ] ], [ [ 126.974953570424191, 37.294352329063194 ], [ 126.974940907710078, 37.294353112127787 ], [ 126.974953552774423, 37.294352328212803 ], [ 126.974953570424191, 37.294352329063194 ] ] ], [ [ [ 126.97457295964243, 37.294396034569203 ], [ 126.974903481354346, 37.294357167721067 ], [ 126.974900679854329, 37.294342090274419 ], [ 126.974897603635327, 37.294342456540825 ], [ 126.974531845339641, 37.294385462425218 ], [ 126.974532265662717, 37.294388056946715 ], [ 126.974579248939548, 37.294685885997559 ], [ 126.974619915925658, 37.294681207375213 ], [ 126.974584136583189, 37.294456187900103 ], [ 126.97457295964243, 37.294396034569203 ] ] ] ] } },
{ "type": "Feature", "properties": { "": null }, "geometry": { "type": "MultiPolygon", "coordinates": [ [ [ [ 126.974219048354058, 37.295261214543345 ], [ 126.974177589226485, 37.295268663076754 ], [ 126.974109804720854, 37.29527606017345 ], [ 126.973680711978218, 37.295322439612718 ], [ 126.973750249197209, 37.295678967525895 ], [ 126.973708244926343, 37.295683238432325 ], [ 126.973721938184667, 37.295739190099695 ], [ 126.973394544826164, 37.295785238785882 ], [ 126.973399212982429, 37.295801083488598 ], [ 126.973747457438876, 37.29575503481211 ], [ 126.973746523807577, 37.295755282385713 ], [ 126.973754304068024, 37.295795141725449 ], [ 126.973800985630518, 37.295820641788872 ], [ 126.973856483722159, 37.295760713523293 ], [ 126.97434042952213, 37.296046388830355 ], [ 126.974389733693343, 37.296073929455098 ], [ 126.974406516926166, 37.296156401140578 ], [ 126.97445114311661, 37.296150653936557 ], [ 126.974434705597162, 37.296072544168162 ], [ 126.974475334335892, 37.296067133376489 ], [ 126.975003914584192, 37.296001961029383 ], [ 126.9750002399267, 37.29598146160756 ], [ 126.97447331342282, 37.296046826003057 ], [ 126.974430696974608, 37.296052086177419 ], [ 126.974415800088096, 37.295975707895963 ], [ 126.974409565560379, 37.29597227033107 ], [ 126.974357022282447, 37.296029014739752 ], [ 126.974356772310642, 37.29602886825802 ], [ 126.973816282810049, 37.295711955319653 ], [ 126.973784769227464, 37.295675457601405 ], [ 126.973784769227478, 37.295675457601405 ], [ 126.973721232068911, 37.295346268147959 ], [ 126.973754927496458, 37.295343215418065 ], [ 126.973753217329786, 37.295331269315405 ], [ 126.974180650280132, 37.295292544835306 ], [ 126.974207932562322, 37.295304117496478 ], [ 126.974667522840619, 37.295515204937836 ], [ 126.974674506771493, 37.295505956343632 ], [ 126.974680106491604, 37.295498240585168 ], [ 126.974220076831614, 37.295287109932467 ], [ 126.974255559078287, 37.295238493533148 ], [ 126.974249973814295, 37.295235616843414 ], [ 126.974241908841975, 37.295207943629627 ], [ 126.974162872805024, 37.294936748508036 ], [ 126.974128773556416, 37.294942868068013 ], [ 126.974219048354058, 37.295261214543345 ] ] ] ] } }
]
}
