{
"type": "FeatureCollection",
"name": "Benjin_rooms_L3",
"crs": { "type": "name", "properties": { "name": "urn:ogc:def:crs:OGC:1.3:CRS84" } },
"features": [
{ "type": "Feature", "properties": { "": null }, "geometry": { "type": "MultiPolygon", "coordinates": [ [ [ [ 126.97390310887377, 37.295794001971693 ], [ 126.973835541225313, 37.295874830039587 ], [ 126.973941823210438, 37.295930779096821 ], [ 126.974014110156332, 37.295853761091813 ], [ 126.97390310887377, 37.295794001971693 ] ] ] ] } },
{ "type": "Feature", "properties": { "": null }, "geometry": { "type": "MultiPolygon", "coordinates": [ [ [ [ 126.974569941979567, 37.294380976768402 ], [ 126.974556879235166, 37.29430694305676 ], [ 126.974293103842399, 37.294335560868738 ], [ 126.974385314789856, 37.29440048589764 ], [ 126.974531845339641, 37.294385462425218 ], [ 126.974569941979567, 37.294380976768402 ] ] ] ] } },
{ "type": "Feature", "properties": { "": null }, "geometry": { "type": "MultiPolygon", "coordinates": [ [ [ [ 126.973913935944779, 37.295699120633031 ], [ 126.973868457673618, 37.295673916781219 ], [ 126.973866188577915, 37.29566833222475 ], [ 126.973821913558254, 37.295715256876775 ], [ 126.973871670883298, 37.295744431800735 ], [ 126.973913935944779, 37.295699120633031 ] ] ] ] } },
{ "type": "Feature", "properties": { "": null }, "geometry": { "type": "MultiPolygon", "coordinates": [ [ [ [ 126.974356772310642, 37.29602886825802 ], [ 126.974357022282447, 37.296029014739752 ], [ 126.974409565560379, 37.29597227033107 ], [ 126.974356772310642, 37.29602886825802 ] ] ] ] } },
{ "type": "Feature", "properties": { "": null }, "geometry": { "type": "MultiPolygon", "coordinates": [ [ [ [ 126.974049200023401, 37.295773636405976 ], [ 126.974005766993415, 37.295823058290672 ], [ 126.974029736099993, 37.295837112439713 ], [ 126.974075498026124, 37.295788355423539 ], [ 126.974049200023401, 37.295773636405976 ] ] ], [ [ [ 126.974029484422914, 37.295762565262635 ], [ 126.973986113956499, 37.295811534844482 ], [ 126.974005766993415, 37.295823058290672 ], [ 126.974049200023401, 37.295773636405976 ], [ 126.974029484422914, 37.295762565262635 ] ] ], [ [ [ 126.973986113956499, 37.295811534844482 ], [ 126.974029484422914, 37.295762565262635 ], [ 126.973914974129542, 37.295699695990322 ], [ 126.973872519435631, 37.295744929344558 ], [ 126.973986113956499, 37.295811534844482 ] ] ] ] } },
{ "type": "Feature", "properties": { "": null }, "geometry": { "type": "MultiPolygon", "coordinates": [ [ [ [ 126.973580672058532, 37.295759059529978 ], [ 126.973572292695494, 37.29570139644553 ], [ 126.973538551474547, 37.295704499395583 ], [ 126.973547304127251, 37.2957637528121 ], [ 126.973580672058532, 37.295759059529978 ] ] ] ] } },
{ "type": "Feature", "properties": { "": null }, "geometry": { "type": "MultiPolygon", "coordinates": [ [ [ [ 126.973411037715024, 37.295863013653154 ], [ 126.973393383545556, 37.295786538578895 ], [ 126.973376932603728, 37.295720652168185 ], [ 126.973363601668083, 37.295720652168185 ], [ 126.973227438215631, 37.295733485356415 ], [ 126.973330127861857, 37.295818092575999 ], [ 126.973341133301616, 37.295871595470622 ], [ 126.973411037715024, 37.295863013653154 ] ] ] ] } },
{ "type": "Feature", "properties": { "": null }, "geometry": { "type": "MultiPolygon", "coordinates": [ [ [ [ 126.974917085833496, 37.295991776740685 ], [ 126.974905414056167, 37.295931448215455 ], [ 126.974785713520859, 37.295946342183875 ], [ 126.974797125448873, 37.296006657635779 ], [ 126.974917085833496, 37.295991776740685 ] ] ] ] } },
{ "type": "Feature", "properties": { "": null }, "geometry": { "type": "MultiPolygon", "coordinates": [ [ [ [ 126.974406516926166, 37.296156401140578 ], [ 126.97445114311661, 37.296150653936571 ], [ 126.97445114311661, 37.296150653936557 ], [ 126.974406516926166, 37.296156401140578 ] ] ] ] } },
{ "type": "Feature", "properties": { "": null }, "geometry": { "type": "MultiPolygon", "coordinates": [ [ [ [ 126.97527084241402, 37.295173265988879 ], [ 126.975166175770354, 37.295187566327414 ], [ 126.97515554089442, 37.295138305511031 ], [ 126.975146391138239, 37.295139454698827 ], [ 126.975123602093134, 37.295125967479784 ], [ 126.975070208444805, 37.29518678533907 ], [ 126.975066541693423, 37.295249986765775 ], [ 126.975207166757244, 37.295330728092814 ], [ 126.975265862436046, 37.29528500711104 ], [ 126.975263416782724, 37.295195510640738 ], [ 126.975274626172705, 37.295194050125531 ], [ 126.97527084241402, 37.295173265988879 ] ] ] ] } },
{ "type": "Feature", "properties": { "": null }, "geometry": { "type": "MultiPolygon", "coordinates": [ [ [ [ 126.974630982120942, 37.294821692489052 ], [ 126.9746745542258, 37.294771183180188 ], [ 126.974652139368402, 37.29475892264086 ], [ 126.974571356418622, 37.294769395483279 ], [ 126.974580395128072, 37.29481351932246 ], [ 126.974609652235756, 37.294809726382525 ], [ 126.974630982120942, 37.294821692489052 ] ] ] ] } },
{ "type": "Feature", "properties": { "": null }, "geometry": { "type": "MultiPolygon", "coordinates": [ [ [ [ 126.974893662052907, 37.294342860620759 ], [ 126.974897603635327, 37.294342456540825 ], [ 126.974900679854329, 37.294342090274419 ], [ 126.974893662052907, 37.294342860620759 ] ] ] ] } },
{ "type": "Feature", "properties": { "": null }, "geometry": { "type": "MultiPolygon", "coordinates": [ [ [ [ 126.974561546058823, 37.294573666660796 ], [ 126.974427236523567, 37.294589533769518 ], [ 126.97444490367522, 37.294703551053992 ], [ 126.974620201159951, 37.294682841727216 ], [ 126.974619915925658, 37.294681207375213 ], [ 126.974579248939548, 37.294685885997559 ], [ 126.974561546058823, 37.294573666660796 ] ] ] ] } },
{ "type": "Feature", "properties": { "": null }, "geometry": { "type": "MultiPolygon", "coordinates": [ [ [ [ 126.97512865208293, 37.294461716876036 ], [ 126.975087604790573, 37.294438511299546 ], [ 126.975033862326356, 37.294493445718068 ], [ 126.975066505408776, 37.294512789055567 ], [ 126.97507731034311, 37.294519191744158 ], [ 126.97512865208293, 37.294461716876036 ] ] ] ] } },
{ "type": "Feature", "properties": { "": null }, "geometry": { "type": "MultiPolygon", "coordinates": [ [ [ [ 126.975087604790573, 37.294438511299546 ], [ 126.97512865208293, 37.294461716876036 ], [ 126.975120814995336, 37.294457274949849 ], [ 126.975087604790573, 37.294438511299539 ], [ 126.975087604790573, 37.294438511299546 ] ] ] ] } },
{ "type": "Feature", "properties": { "": null }, "geometry": { "type": "MultiPolygon", "coordinates": [ [ [ [ 126.975238348836641, 37.294471752664258 ], [ 126.975219109077031, 37.294491344140859 ], [ 126.97543746584239, 37.294614179597033 ], [ 126.975437547112207, 37.294614244249601 ], [ 126.97543400109933, 37.294557358809527 ], [ 126.975391202166875, 37.294522338125503 ], [ 126.975365522807394, 37.294560277199139 ], [ 126.975238348836641, 37.294471752664258 ] ] ] ] } },
{ "type": "Feature", "properties": { "": null }, "geometry": { "type": "MultiPolygon", "coordinates": [ [ [ [ 126.975100680088246, 37.294424722532689 ], [ 126.975141155073445, 37.294379222350173 ], [ 126.97510078594479, 37.294359821832309 ], [ 126.975062272740132, 37.294403116679909 ], [ 126.975100680088246, 37.294424722532689 ] ] ] ] } },
{ "type": "Feature", "properties": { "": null }, "geometry": { "type": "MultiPolygon", "coordinates": [ [ [ [ 126.975062272740132, 37.294403116679909 ], [ 126.97510078594479, 37.294359821832309 ], [ 126.975070730738025, 37.294345377959104 ], [ 126.975033678097915, 37.294387030913498 ], [ 126.975062272740132, 37.294403116679909 ] ] ] ] } },
{ "type": "Feature", "properties": { "": null }, "geometry": { "type": "MultiPolygon", "coordinates": [ [ [ [ 126.975033678097915, 37.294387030913498 ], [ 126.975070730738025, 37.294345377959104 ], [ 126.975029418071728, 37.294325523997742 ], [ 126.974994373065229, 37.294364920072958 ], [ 126.975033678097915, 37.294387030913498 ] ] ] ] } },
{ "type": "Feature", "properties": { "": null }, "geometry": { "type": "MultiPolygon", "coordinates": [ [ [ [ 126.974818724554027, 37.294278451495899 ], [ 126.974831366629758, 37.29435019554294 ], [ 126.974883573000866, 37.2943440485477 ], [ 126.974871012573203, 37.29427286175482 ], [ 126.974818724554027, 37.294278451495899 ] ] ] ] } },
{ "type": "Feature", "properties": { "": null }, "geometry": { "type": "MultiPolygon", "coordinates": [ [ [ [ 126.974803935582585, 37.294353425388508 ], [ 126.974791247604927, 37.294281515704078 ], [ 126.974751422124683, 37.294285836494183 ], [ 126.974764173787278, 37.294358107107641 ], [ 126.974803935582585, 37.294353425388508 ] ] ] ] } },
{ "type": "Feature", "properties": { "": null }, "geometry": { "type": "MultiPolygon", "coordinates": [ [ [ [ 126.974764173787278, 37.294358107107641 ], [ 126.974751422124683, 37.294285836494183 ], [ 126.974712049433109, 37.294290108159828 ], [ 126.974724864055304, 37.294362735598952 ], [ 126.974764173787278, 37.294358107107641 ] ] ] ] } },
{ "type": "Feature", "properties": { "": null }, "geometry": { "type": "MultiPolygon", "coordinates": [ [ [ [ 126.974672253036005, 37.294294425794604 ], [ 126.974684769907768, 37.294367456450622 ], [ 126.974724864055304, 37.294362735598952 ], [ 126.974712049433109, 37.294290108159828 ], [ 126.974672253036005, 37.294294425794604 ] ] ] ] } },
{ "type": "Feature", "properties": { "": null }, "geometry": { "type": "MultiPolygon", "coordinates": [ [ [ [ 126.974589893117766, 37.294303362057562 ], [ 126.974602537863632, 37.294377138793465 ], [ 126.974646603330143, 37.294371950342189 ], [ 126.974633663369119, 37.294298612507475 ], [ 126.974589893117766, 37.294303362057562 ] ] ] ] } },
{ "type": "Feature", "properties": { "": null }, "geometry": { "type": "MultiPolygon", "coordinates": [ [ [ [ 126.974871012573203, 37.29427286175482 ], [ 126.974883573000866, 37.2943440485477 ], [ 126.974893662052907, 37.294342860620759 ], [ 126.974900679854329, 37.294342090274419 ], [ 126.974898307127347, 37.294328410479167 ], [ 126.974948466794402, 37.294322904434985 ], [ 126.974953570091117, 37.294352327142903 ], [ 126.974970164817719, 37.29435130184995 ], [ 126.974994373065229, 37.294364920072958 ], [ 126.975029418071728, 37.294325523997742 ], [ 126.974910631296581, 37.294268437678816 ], [ 126.974871012573203, 37.29427286175482 ] ] ] ] } },
{ "type": "Feature", "properties": { "": null }, "geometry": { "type": "MultiPolygon", "coordinates": [ [ [ [ 126.974886245408257, 37.294359194537684 ], [ 126.974896874319072, 37.294419434371306 ], [ 126.974906962816647, 37.294418248773987 ], [ 126.974911294413346, 37.29442081555171 ], [ 126.974962907453914, 37.294368057737529 ], [ 126.97496126649385, 37.294367130600797 ], [ 126.974942392446167, 37.294368298428587 ], [ 126.974906245433502, 37.294371673612751 ], [ 126.974900679854329, 37.294342090274419 ], [ 126.974903481354346, 37.294357167721067 ], [ 126.974886245408257, 37.294359194537684 ] ] ] ] } },
{ "type": "Feature", "properties": { "": null }, "geometry": { "type": "MultiPolygon", "coordinates": [ [ [ [ 126.974620345183624, 37.294451931995454 ], [ 126.974620345186324, 37.294451931995134 ], [ 126.974619484639135, 37.294447322021085 ], [ 126.974609184478226, 37.294391772618205 ], [ 126.97457295964243, 37.294396034569203 ], [ 126.974584136583189, 37.294456187900103 ], [ 126.974593510033145, 37.29445508565459 ], [ 126.974620345183624, 37.294451931995454 ] ] ] ] } },
{ "type": "Feature", "properties": { "": null }, "geometry": { "type": "MultiPolygon", "coordinates": [ [ [ [ 126.974409769661463, 37.294476809080059 ], [ 126.974543769230451, 37.294460978566711 ], [ 126.974532265662717, 37.294388056946715 ], [ 126.974531845339641, 37.294385462425218 ], [ 126.974385314789856, 37.29440048589764 ], [ 126.974399489760231, 37.294410466386793 ], [ 126.974409769661463, 37.294476809080059 ] ] ] ] } },
{ "type": "Feature", "properties": { "": null }, "geometry": { "type": "MultiPolygon", "coordinates": [ [ [ [ 126.974543769230451, 37.294460978566711 ], [ 126.974409769661463, 37.294476809080059 ], [ 126.974427236523567, 37.294589533769518 ], [ 126.974561546058823, 37.294573666660796 ], [ 126.974543769230451, 37.294460978566711 ] ] ] ] } },
{ "type": "Feature", "properties": { "": null }, "geometry": { "type": "MultiPolygon", "coordinates": [ [ [ [ 126.974620201159951, 37.294682841727216 ], [ 126.97444490367522, 37.294703551053992 ], [ 126.97445390554573, 37.294761645808023 ], [ 126.97449059355894, 37.294757265983684 ], [ 126.974630627618154, 37.294742583853065 ], [ 126.974620201159951, 37.294682841727216 ] ] ] ] } },
{ "type": "Feature", "properties": { "": null }, "geometry": { "type": "MultiPolygon", "coordinates": [ [ [ [ 126.974619484639135, 37.294447322021085 ], [ 126.974620345186324, 37.294451931995134 ], [ 126.974620345183624, 37.294451931995454 ], [ 126.974620345186338, 37.294451931995134 ], [ 126.974619484639135, 37.294447322021085 ] ] ] ] } },
{ "type": "Feature", "properties": { "": null }, "geometry": { "type": "MultiPolygon", "coordinates": [ [ [ [ 126.975721619323068, 37.295066993629881 ], [ 126.975638335407851, 37.295077488248246 ], [ 126.975651735530136, 37.295144787664327 ], [ 126.975734434763496, 37.295133852648455 ], [ 126.975721619323068, 37.295066993629881 ] ] ] ] } },
{ "type": "Feature", "properties": { "": null }, "geometry": { "type": "MultiPolygon", "coordinates": [ [ [ [ 126.975450935005554, 37.295078330224598 ], [ 126.975450549022568, 37.295076482836734 ], [ 126.975291404725837, 37.295088057999621 ], [ 126.975293480594047, 37.295097993491758 ], [ 126.975450935005554, 37.295078330224598 ] ] ] ] } },
{ "type": "Feature", "properties": { "": null }, "geometry": { "type": "MultiPolygon", "coordinates": [ [ [ [ 126.975293480594047, 37.295097993491758 ], [ 126.975291404725837, 37.295088057999621 ], [ 126.975258525476121, 37.295090449431036 ], [ 126.975252265280403, 37.295087026775427 ], [ 126.975255546396411, 37.295102730801148 ], [ 126.975293480594047, 37.295097993491758 ] ] ] ] } },
{ "type": "Feature", "properties": { "": null }, "geometry": { "type": "MultiPolygon", "coordinates": [ [ [ [ 126.975255546396411, 37.295102730801148 ], [ 126.975252265280403, 37.295087026775427 ], [ 126.975188952634355, 37.295052411662319 ], [ 126.975140289480436, 37.295106609556534 ], [ 126.975155459832521, 37.295115229840242 ], [ 126.975255546396411, 37.295102730801148 ] ] ] ] } },
{ "type": "Feature", "properties": { "": null }, "geometry": { "type": "MultiPolygon", "coordinates": [ [ [ [ 126.975003068874187, 37.295149734343717 ], [ 126.975055728541349, 37.295088692837247 ], [ 126.975026557320604, 37.295072807281983 ], [ 126.974974085142847, 37.295133631472069 ], [ 126.975003068874187, 37.295149734343717 ] ] ] ] } },
{ "type": "Feature", "properties": { "": null }, "geometry": { "type": "MultiPolygon", "coordinates": [ [ [ [ 126.974724911467462, 37.294995194786125 ], [ 126.974775771812773, 37.294936238878527 ], [ 126.974741628488445, 37.294917645701695 ], [ 126.974690987586655, 37.294976347250859 ], [ 126.974724911467462, 37.294995194786125 ] ] ] ] } },
{ "type": "Feature", "properties": { "": null }, "geometry": { "type": "MultiPolygon", "coordinates": [ [ [ [ 126.974741628488445, 37.294917645701695 ], [ 126.974697604082195, 37.294893601563885 ], [ 126.974647193183628, 37.294952015820151 ], [ 126.974690987586655, 37.294976347250859 ], [ 126.974741628488445, 37.294917645701695 ] ] ] ] } },
{ "type": "Feature", "properties": { "": null }, "geometry": { "type": "MultiPolygon", "coordinates": [ [ [ [ 126.975092017812074, 37.295108505324002 ], [ 126.975055728541349, 37.295088692837247 ], [ 126.975003068874187, 37.295149734343717 ], [ 126.975017301268679, 37.295157641621742 ], [ 126.975039379549017, 37.295169666909089 ], [ 126.975092017812074, 37.295108505324002 ] ] ] ] } },
{ "type": "Feature", "properties": { "": null }, "geometry": { "type": "MultiPolygon", "coordinates": [ [ [ [ 126.973763195225899, 37.295836594768602 ], [ 126.973778283110377, 37.295844550085725 ], [ 126.9738007196746, 37.295820496508973 ], [ 126.973755352210119, 37.295795714278903 ], [ 126.973763195225899, 37.295836594768602 ] ] ], [ [ [ 126.973866188577915, 37.29566833222475 ], [ 126.97376028869283, 37.295392592652398 ], [ 126.973730057681053, 37.295391994121616 ], [ 126.973784769227478, 37.295675457601405 ], [ 126.973784769227464, 37.295675457601405 ], [ 126.973816282810049, 37.295711955319653 ], [ 126.973821913558254, 37.295715256876775 ], [ 126.973866188577915, 37.29566833222475 ] ] ] ] } },
{ "type": "Feature", "properties": { "": null }, "geometry": { "type": "MultiPolygon", "coordinates": [ [ [ [ 126.974992106670982, 37.295024284054684 ], [ 126.975039133708577, 37.294970327571484 ], [ 126.975011662511477, 37.294955320771862 ], [ 126.974964872313606, 37.29500900552793 ], [ 126.974992106670982, 37.295024284054684 ] ] ] ] } },
{ "type": "Feature", "properties": { "": null }, "geometry": { "type": "MultiPolygon", "coordinates": [ [ [ [ 126.974820958994755, 37.294928269879861 ], [ 126.974866497672338, 37.294876021000363 ], [ 126.974835241941989, 37.29485894680878 ], [ 126.974789972731145, 37.294910886526502 ], [ 126.974820958994755, 37.294928269879861 ] ] ] ] } },
{ "type": "Feature", "properties": { "": null }, "geometry": { "type": "MultiPolygon", "coordinates": [ [ [ [ 126.974789972731145, 37.294910886526502 ], [ 126.974835241941989, 37.29485894680878 ], [ 126.974808996424741, 37.294844609566148 ], [ 126.974763953485478, 37.294896289679748 ], [ 126.974789972731145, 37.294910886526502 ] ] ] ] } },
{ "type": "Feature", "properties": { "": null }, "geometry": { "type": "MultiPolygon", "coordinates": [ [ [ [ 126.974723187709429, 37.294873420001146 ], [ 126.974767478489724, 37.294821984238787 ], [ 126.974722805901777, 37.294797525927876 ], [ 126.974678506041442, 37.294848353499653 ], [ 126.974723187709429, 37.294873420001146 ] ] ] ] } },
{ "type": "Feature", "properties": { "": null }, "geometry": { "type": "MultiPolygon", "coordinates": [ [ [ [ 126.975159577499582, 37.295036440410357 ], [ 126.975127179472395, 37.295018614573522 ], [ 126.975079584224105, 37.295073359129873 ], [ 126.97511215984116, 37.295091634113554 ], [ 126.975159577499582, 37.295036440410357 ] ] ] ] } },
{ "type": "Feature", "properties": { "": null }, "geometry": { "type": "MultiPolygon", "coordinates": [ [ [ [ 126.974508040757868, 37.294830478708512 ], [ 126.974540057897727, 37.294825649977582 ], [ 126.974523117790426, 37.294754689457868 ], [ 126.97449059355894, 37.294757265983684 ], [ 126.974508040757868, 37.294830478708512 ] ] ] ] } },
{ "type": "Feature", "properties": { "": null }, "geometry": { "type": "MultiPolygon", "coordinates": [ [ [ [ 126.97425298829819, 37.294892851946514 ], [ 126.974259918450443, 37.294923966643971 ], [ 126.974325425664659, 37.294915338700861 ], [ 126.974317977170443, 37.294884192873951 ], [ 126.97425298829819, 37.294892851946514 ] ] ], [ [ [ 126.974259918450443, 37.294923966643971 ], [ 126.97425298829819, 37.294892851946514 ], [ 126.974214787086268, 37.294898236684105 ], [ 126.974222130638807, 37.294928943669674 ], [ 126.974259918450443, 37.294923966643971 ] ] ] ] } },
{ "type": "Feature", "properties": { "": null }, "geometry": { "type": "MultiPolygon", "coordinates": [ [ [ [ 126.974526379165653, 37.294855735064836 ], [ 126.974533371690129, 37.294887943313682 ], [ 126.974612436009764, 37.294932705321337 ], [ 126.974662568783458, 37.294874592744691 ], [ 126.974607772503433, 37.294844752741 ], [ 126.974526379165653, 37.294855735064836 ] ] ] ] } },
{ "type": "Feature", "properties": { "": null }, "geometry": { "type": "MultiPolygon", "coordinates": [ [ [ [ 126.974181084343613, 37.294903000611967 ], [ 126.974187754285708, 37.294933593064926 ], [ 126.974222130638807, 37.294928943669674 ], [ 126.974214787086268, 37.294898236684105 ], [ 126.974181084343613, 37.294903000611967 ] ] ], [ [ [ 126.974187754285708, 37.294933593064926 ], [ 126.974181084343613, 37.294903000611967 ], [ 126.974144152164456, 37.29490809653484 ], [ 126.974150333080402, 37.294938654275867 ], [ 126.974187754285708, 37.294933593064926 ] ] ] ] } },
{ "type": "Feature", "properties": { "": null }, "geometry": { "type": "MultiPolygon", "coordinates": [ [ [ [ 126.974667522840619, 37.295515204937843 ], [ 126.974633765024862, 37.295499700166836 ], [ 126.974633765035449, 37.295499700152256 ], [ 126.974633765035435, 37.295499700152249 ], [ 126.974543485348434, 37.295596238436431 ], [ 126.974586920287166, 37.29562194429743 ], [ 126.974655586083799, 37.295531012399557 ], [ 126.974667522840619, 37.295515204937843 ] ] ] ] } },
{ "type": "Feature", "properties": { "": null }, "geometry": { "type": "MultiPolygon", "coordinates": [ [ [ [ 126.974287605986746, 37.295318102444128 ], [ 126.974327434329723, 37.295275512875143 ], [ 126.97427830230599, 37.295250207430598 ], [ 126.974255559078287, 37.295238493533148 ], [ 126.974220076831614, 37.295287109932467 ], [ 126.974287605986746, 37.295318102444128 ] ] ] ] } },
{ "type": "Feature", "properties": { "": null }, "geometry": { "type": "MultiPolygon", "coordinates": [ [ [ [ 126.974142794762528, 37.294991704070164 ], [ 126.973986809718525, 37.295020046528968 ], [ 126.974006752174162, 37.295094706794202 ], [ 126.974163860906373, 37.295066160187972 ], [ 126.974142794762528, 37.294991704070164 ] ] ] ] } },
{ "type": "Feature", "properties": { "": null }, "geometry": { "type": "MultiPolygon", "coordinates": [ [ [ [ 126.974163860906373, 37.295066160187972 ], [ 126.974006752174162, 37.295094706794202 ], [ 126.974025717339245, 37.295165708293716 ], [ 126.974183894693198, 37.295136967546142 ], [ 126.974163860906373, 37.295066160187972 ] ] ] ] } },
{ "type": "Feature", "properties": { "": null }, "geometry": { "type": "MultiPolygon", "coordinates": [ [ [ [ 126.974114719498175, 37.294911855533442 ], [ 126.974105556197784, 37.2948673072882 ], [ 126.973951730340232, 37.294888716880557 ], [ 126.973986809718525, 37.295020046528968 ], [ 126.974142794762528, 37.294991704070164 ], [ 126.974128773556416, 37.294942868068013 ], [ 126.974114719498175, 37.294911855533442 ] ] ] ] } },
{ "type": "Feature", "properties": { "": null }, "geometry": { "type": "MultiPolygon", "coordinates": [ [ [ [ 126.974043364802313, 37.295231776600318 ], [ 126.974093337104065, 37.295224253030725 ], [ 126.974203881821225, 37.295207609993611 ], [ 126.974183894693198, 37.295136967546142 ], [ 126.974025717339245, 37.295165708293716 ], [ 126.974043364802313, 37.295231776600318 ] ] ] ] } },
{ "type": "Feature", "properties": { "": null }, "geometry": { "type": "MultiPolygon", "coordinates": [ [ [ [ 126.97401437154528, 37.295236193944945 ], [ 126.974043364802313, 37.295231776600318 ], [ 126.974041861035914, 37.295231854833219 ], [ 126.974032212477894, 37.295233440801354 ], [ 126.97401437154528, 37.295236193944945 ] ] ] ] } },
{ "type": "Feature", "properties": { "": null }, "geometry": { "type": "MultiPolygon", "coordinates": [ [ [ [ 126.974093337104065, 37.295224253030725 ], [ 126.974105910760073, 37.295276481060824 ], [ 126.974109804720854, 37.29527606017345 ], [ 126.974177589226485, 37.295268663076754 ], [ 126.974219048354058, 37.295261214543345 ], [ 126.974203881821225, 37.295207609993611 ], [ 126.974093337104065, 37.295224253030725 ] ] ] ] } },
{ "type": "Feature", "properties": { "": null }, "geometry": { "type": "MultiPolygon", "coordinates": [ [ [ [ 126.973988639787692, 37.295309868708351 ], [ 126.973996754091587, 37.295367629459513 ], [ 126.97404457093819, 37.29536258152789 ], [ 126.974031074156699, 37.295306096101328 ], [ 126.973988639787692, 37.295309868708351 ] ] ] ] } },
{ "type": "Feature", "properties": { "": null }, "geometry": { "type": "MultiPolygon", "coordinates": [ [ [ [ 126.974031074156699, 37.295306096101328 ], [ 126.97404457093819, 37.29536258152789 ], [ 126.974134118293549, 37.2953531281875 ], [ 126.974163421918448, 37.29537052494495 ], [ 126.974207932562322, 37.295304117496478 ], [ 126.974180650280132, 37.295292544835306 ], [ 126.974031074156699, 37.295306096101328 ] ] ] ] } },
{ "type": "Feature", "properties": { "": null }, "geometry": { "type": "MultiPolygon", "coordinates": [ [ [ [ 126.97401437154528, 37.295236193944945 ], [ 126.9740260601328, 37.295285111892689 ], [ 126.974026146080078, 37.29528510260289 ], [ 126.97401437154528, 37.295236193944945 ] ] ] ] } },
{ "type": "Feature", "properties": { "": null }, "geometry": { "type": "MultiPolygon", "coordinates": [ [ [ [ 126.97401437154528, 37.295236193944945 ], [ 126.974093337100825, 37.295224253031215 ], [ 126.974043364802313, 37.295231776600318 ], [ 126.97401437154528, 37.295236193944945 ] ] ] ] } },
{ "type": "Feature", "properties": { "": null }, "geometry": { "type": "MultiPolygon", "coordinates": [ [ [ [ 126.97376028869283, 37.295392592652398 ], [ 126.973754927496458, 37.295343215418065 ], [ 126.973721232068911, 37.295346268147959 ], [ 126.973730057681038, 37.295391994121616 ], [ 126.97376028869283, 37.295392592652398 ] ] ] ] } },
{ "type": "Feature", "properties": { "": null }, "geometry": { "type": "MultiPolygon", "coordinates": [ [ [ [ 126.974577679593139, 37.295972109438672 ], [ 126.974590539071528, 37.296032284347611 ], [ 126.974680502980107, 37.296021124467707 ], [ 126.974668848115428, 37.295960883385831 ], [ 126.974577679593139, 37.295972109438672 ] ] ] ] } },
{ "type": "Feature", "properties": { "": null }, "geometry": { "type": "MultiPolygon", "coordinates": [ [ [ [ 126.974505860124609, 37.29604278863642 ], [ 126.974494468577547, 37.295982580893906 ], [ 126.974440454452733, 37.295989301704864 ], [ 126.974415800088096, 37.295975707895963 ], [ 126.974430696974608, 37.296052086177419 ], [ 126.97447331342282, 37.296046826003057 ], [ 126.974505860124609, 37.29604278863642 ] ] ] ] } },
{ "type": "Feature", "properties": { "": null }, "geometry": { "type": "MultiPolygon", "coordinates": [ [ [ [ 126.97495839731117, 37.296007573171579 ], [ 126.974972460682991, 37.296081902308778 ], [ 126.975017187233306, 37.296076003748404 ], [ 126.975003914584192, 37.296001961029383 ], [ 126.97495839731117, 37.296007573171579 ] ] ] ] } },
{ "type": "Feature", "properties": { "": null }, "geometry": { "type": "MultiPolygon", "coordinates": [ ] } },
{ "type": "Feature", "properties": { "": null }, "geometry": { "type": "MultiPolygon", "coordinates": [ [ [ [ 126.973966396879604, 37.295943735938536 ], [ 126.974037748247923, 37.295867714759936 ], [ 126.974037748247923, 37.295867714759929 ], [ 126.974014110156332, 37.295853761091813 ], [ 126.973941823210438, 37.295930779096821 ], [ 126.973966396879604, 37.295943735938536 ] ] ], [ [ [ 126.974037748247923, 37.295867714759929 ], [ 126.974037748247923, 37.295867714759936 ], [ 126.973966396879604, 37.295943735938536 ], [ 126.974037748247952, 37.295867714759943 ], [ 126.974037748247923, 37.295867714759929 ] ] ] ] } },
{ "type": "Feature", "properties": { "": null }, "geometry": { "type": "MultiPolygon", "coordinates": [ [ [ [ 126.974042169092328, 37.295983526523422 ], [ 126.97410559824236, 37.295907766906247 ], [ 126.974037748247952, 37.295867714759943 ], [ 126.973966396879604, 37.295943735938536 ], [ 126.974042169092328, 37.295983526523422 ] ] ] ] } },
{ "type": "Feature", "properties": { "": null }, "geometry": { "type": "MultiPolygon", "coordinates": [ [ [ [ 126.974170831151767, 37.295946274175918 ], [ 126.974104747137631, 37.296016683221374 ], [ 126.974127123812906, 37.296028481664571 ], [ 126.974192355889073, 37.295958980321807 ], [ 126.974170831151767, 37.295946274175918 ] ] ] ] } },
{ "type": "Feature", "properties": { "": null }, "geometry": { "type": "MultiPolygon", "coordinates": [ [ [ [ 126.974332974199029, 37.296041822822993 ], [ 126.974275140302993, 37.296106525615627 ], [ 126.974377302323035, 37.296160392098265 ], [ 126.974406516926166, 37.296156401140578 ], [ 126.974389733693343, 37.296073929455098 ], [ 126.97434042952213, 37.296046388830355 ], [ 126.974332974199029, 37.296041822822993 ] ] ] ] } },
{ "type": "Feature", "properties": { "": null }, "geometry": { "type": "MultiPolygon", "coordinates": [ [ [ [ 126.973872519435631, 37.295744929344558 ], [ 126.973914974129542, 37.295699695990322 ], [ 126.973913935944779, 37.295699120633031 ], [ 126.973871670883298, 37.295744431800735 ], [ 126.973872519435631, 37.295744929344558 ] ] ] ] } },
{ "type": "Feature", "properties": { "": null }, "geometry": { "type": "MultiPolygon", "coordinates": [ [ [ [ 126.974236138316556, 37.295876692822631 ], [ 126.974186832839891, 37.295929225217847 ], [ 126.974208409182182, 37.295941876383182 ], [ 126.974258184936303, 37.295888842937799 ], [ 126.974236138316556, 37.295876692822631 ] ] ] ] } },
{ "type": "Feature", "properties": { "": null }, "geometry": { "type": "MultiPolygon", "coordinates": [ [ [ [ 126.97416447810734, 37.295837440943679 ], [ 126.974120296123843, 37.295890211793591 ], [ 126.974186832839891, 37.295929225217847 ], [ 126.974236138316556, 37.295876692822631 ], [ 126.97416447810734, 37.295837440943679 ] ] ] ] } },
{ "type": "Feature", "properties": { "": null }, "geometry": { "type": "MultiPolygon", "coordinates": [ [ [ [ 126.973414459165738, 37.29571603184543 ], [ 126.97342269276362, 37.295781279708812 ], [ 126.973457299514976, 37.295776412183578 ], [ 126.97344927388572, 37.295712812382028 ], [ 126.973414459165738, 37.29571603184543 ] ] ] ] } },
{ "type": "Feature", "properties": { "": null }, "geometry": { "type": "MultiPolygon", "coordinates": [ [ [ [ 126.97344927388572, 37.295712812382028 ], [ 126.973457299514976, 37.295776412183578 ], [ 126.973489700928425, 37.295771854844581 ], [ 126.973481870014979, 37.295709798081035 ], [ 126.97344927388572, 37.295712812382028 ] ] ] ] } },
{ "type": "Feature", "properties": { "": null }, "geometry": { "type": "MultiPolygon", "coordinates": [ [ [ [ 126.973414459165738, 37.29571603184543 ], [ 126.973376912544268, 37.295719030282093 ], [ 126.973363601668083, 37.295720652168185 ], [ 126.973376932603728, 37.295720652168185 ], [ 126.973393383545556, 37.295786538578895 ], [ 126.973394869141003, 37.295786339578555 ], [ 126.973394544826164, 37.295785238785882 ], [ 126.97342269276362, 37.295781279708812 ], [ 126.973414459165738, 37.29571603184543 ] ] ] ] } },
{ "type": "Feature", "properties": { "": null }, "geometry": { "type": "MultiPolygon", "coordinates": [ [ [ [ 126.973638490291961, 37.295731916606805 ], [ 126.973640847401171, 37.295750595719099 ], [ 126.973721938184667, 37.295739190099695 ], [ 126.973708244926343, 37.295683238432325 ], [ 126.973710973977134, 37.295682960948149 ], [ 126.973710892690832, 37.295682576918495 ], [ 126.973654426779405, 37.295690140718392 ], [ 126.973655162703523, 37.295693772978197 ], [ 126.973633924794854, 37.295695736936821 ], [ 126.973638490291961, 37.295731916606805 ] ] ] ] } },
{ "type": "Feature", "properties": { "": null }, "geometry": { "type": "MultiPolygon", "coordinates": [ [ [ [ 126.973519443804776, 37.295767671435406 ], [ 126.973511261314684, 37.295707277995433 ], [ 126.973481870014979, 37.295709798081035 ], [ 126.973489700928425, 37.295771854844581 ], [ 126.973519443804776, 37.295767671435406 ] ] ] ] } },
{ "type": "Feature", "properties": { "": null }, "geometry": { "type": "MultiPolygon", "coordinates": [ [ [ [ 126.973728770704341, 37.295568844021524 ], [ 126.973632490512017, 37.295581102071601 ], [ 126.973654426779405, 37.295690140718392 ], [ 126.973710892690832, 37.295682576918495 ], [ 126.973710973977134, 37.295682960948149 ], [ 126.973750249197209, 37.295678967525895 ], [ 126.973728770704341, 37.295568844021524 ] ] ] ] } },
{ "type": "Feature", "properties": { "": null }, "geometry": { "type": "MultiPolygon", "coordinates": [ [ [ [ 126.973619025992363, 37.295514916097801 ], [ 126.973715848324858, 37.295502589013672 ], [ 126.973704585581373, 37.295444843212316 ], [ 126.973607290736467, 37.295457230464784 ], [ 126.973619025992363, 37.295514916097801 ] ] ] ] } },
{ "type": "Feature", "properties": { "": null }, "geometry": { "type": "MultiPolygon", "coordinates": [ [ [ [ 126.973632490512017, 37.295581102071601 ], [ 126.973728770704341, 37.295568844021524 ], [ 126.973715848324858, 37.295502589013672 ], [ 126.973619025992363, 37.295514916097801 ], [ 126.973632490512017, 37.295581102071601 ] ] ] ] } },
{ "type": "Feature", "properties": { "": null }, "geometry": { "type": "MultiPolygon", "coordinates": [ [ [ [ 126.974943106797909, 37.29592675822385 ], [ 126.974905414056167, 37.295931448215455 ], [ 126.974917085833496, 37.295991776740685 ], [ 126.974954529737303, 37.295987131883919 ], [ 126.9750002399267, 37.29598146160756 ], [ 126.974989390814343, 37.295921216315136 ], [ 126.974943106797909, 37.29592675822385 ] ] ] ] } },
{ "type": "Feature", "properties": { "": null }, "geometry": { "type": "MultiPolygon", "coordinates": [ [ [ [ 126.974909075641975, 37.296090143559326 ], [ 126.974972460682991, 37.296081902308757 ], [ 126.97495839731117, 37.296007573171579 ], [ 126.974893749065359, 37.296015544104904 ], [ 126.974909075641975, 37.296090143559326 ] ] ] ] } },
{ "type": "Feature", "properties": { "": null }, "geometry": { "type": "MultiPolygon", "coordinates": [ [ [ [ 126.974972460682991, 37.296081902308757 ], [ 126.974909075641975, 37.296090143559326 ], [ 126.974972460682991, 37.296081902308778 ], [ 126.974972460682991, 37.296081902308757 ] ] ] ] } },
{ "type": "Feature", "properties": { "": null }, "geometry": { "type": "MultiPolygon", "coordinates": [ [ [ [ 126.974893749065359, 37.296015544104904 ], [ 126.974800971154679, 37.296026983340894 ], [ 126.974760359971427, 37.296031990577049 ], [ 126.974776140306446, 37.296107788116394 ], [ 126.974815283970841, 37.296102630854122 ], [ 126.974909075641975, 37.296090143559326 ], [ 126.974893749065359, 37.296015544104904 ] ] ] ] } },
{ "type": "Feature", "properties": { "": null }, "geometry": { "type": "MultiPolygon", "coordinates": [ [ [ [ 126.974582000646251, 37.296053981742794 ], [ 126.974596660427181, 37.296131463039082 ], [ 126.974638205808844, 37.29612598401286 ], [ 126.974735033107947, 37.296113214379041 ], [ 126.974776140306446, 37.296107788116394 ], [ 126.974760359971427, 37.296031990577049 ], [ 126.974720592930382, 37.296036893733024 ], [ 126.974622184125479, 37.296049027241253 ], [ 126.974582000646251, 37.296053981742794 ] ] ] ] } },
{ "type": "Feature", "properties": { "": null }, "geometry": { "type": "MultiPolygon", "coordinates": [ [ [ [ 126.974582000646251, 37.296053981742794 ], [ 126.97448700171266, 37.296065694824193 ], [ 126.974475334335892, 37.296067133376489 ], [ 126.974434705597162, 37.296072544168162 ], [ 126.97445114311661, 37.296150653936557 ], [ 126.97445114311661, 37.296150653936571 ], [ 126.974501812031974, 37.29614397169405 ], [ 126.974596660427181, 37.296131463039082 ], [ 126.974582000646251, 37.296053981742794 ] ] ] ] } },
{ "type": "Feature", "properties": { "": null }, "geometry": { "type": "MultiPolygon", "coordinates": [ [ [ [ 126.974785713520859, 37.295946342183875 ], [ 126.974705352083291, 37.295956341309697 ], [ 126.974668848115428, 37.295960883385831 ], [ 126.974680502980107, 37.296021124467707 ], [ 126.974716758389718, 37.296016627041759 ], [ 126.974797125448873, 37.296006657635779 ], [ 126.974785713520859, 37.295946342183875 ] ] ] ] } },
{ "type": "Feature", "properties": { "": null }, "geometry": { "type": "MultiPolygon", "coordinates": [ [ [ [ 126.974522773095416, 37.295979115377222 ], [ 126.974494468577547, 37.295982580893906 ], [ 126.974505860124609, 37.29604278863642 ], [ 126.974534406875108, 37.296039247457379 ], [ 126.974578185357061, 37.296033816806258 ], [ 126.974590539071528, 37.296032284347611 ], [ 126.974577679593139, 37.295972109438672 ], [ 126.974566788743488, 37.295973582318709 ], [ 126.974522773095416, 37.295979115377222 ] ] ] ] } },
{ "type": "Feature", "properties": { "": null }, "geometry": { "type": "MultiPolygon", "coordinates": [ [ [ [ 126.974157838166562, 37.296044676275812 ], [ 126.974244570204377, 37.296090407065066 ], [ 126.974275140302993, 37.296106525615627 ], [ 126.974332974199029, 37.296041822822993 ], [ 126.97430533080086, 37.296025669902782 ], [ 126.974221900870916, 37.295976420852881 ], [ 126.974192355889073, 37.295958980321807 ], [ 126.974127123812906, 37.296028481664571 ], [ 126.974157838166562, 37.296044676275812 ] ] ] ] } },
{ "type": "Feature", "properties": { "": null }, "geometry": { "type": "MultiPolygon", "coordinates": [ [ [ [ 126.974292320155214, 37.295991077104006 ], [ 126.974321654951311, 37.296008277394513 ], [ 126.974356772310642, 37.29602886825802 ], [ 126.974409565560379, 37.29597227033107 ], [ 126.974373899017962, 37.295952614138749 ], [ 126.974343924819323, 37.295936095054664 ], [ 126.974313035488919, 37.295919071632206 ], [ 126.974288446260786, 37.295905520259844 ], [ 126.974258184936303, 37.295888842937799 ], [ 126.974208409182182, 37.295941876383182 ], [ 126.974238024998201, 37.295959241448124 ], [ 126.974262089729422, 37.295973351666127 ], [ 126.974292320155214, 37.295991077104006 ] ] ] ] } },
{ "type": "Feature", "properties": { "": null }, "geometry": { "type": "MultiPolygon", "coordinates": [ [ [ [ 126.97410559824236, 37.295907766906247 ], [ 126.974042169092328, 37.295983526523422 ], [ 126.974104747137631, 37.296016683221374 ], [ 126.974170831151767, 37.295946274175918 ], [ 126.97410559824236, 37.295907766906247 ] ] ] ] } },
{ "type": "Feature", "properties": { "": null }, "geometry": { "type": "MultiPolygon", "coordinates": [ [ [ [ 126.974053430864174, 37.295851005729652 ], [ 126.974099691240824, 37.295801717650271 ], [ 126.974075498026124, 37.295788355423539 ], [ 126.974029736099993, 37.295837112439713 ], [ 126.974053430864174, 37.295851005729652 ] ] ], [ [ [ 126.974099691240824, 37.295801717650271 ], [ 126.974053430864174, 37.295851005729652 ], [ 126.974106590560353, 37.295882175614551 ], [ 126.974120296123843, 37.295890211793591 ], [ 126.97416447810734, 37.295837440943679 ], [ 126.974151474700648, 37.295830318327781 ], [ 126.974099691240824, 37.295801717650271 ] ] ] ] } },
{ "type": "Feature", "properties": { "": null }, "geometry": { "type": "MultiPolygon", "coordinates": [ [ [ [ 126.973835541225313, 37.295874830039587 ], [ 126.97390310887377, 37.295794001971693 ], [ 126.973848420223447, 37.295765070298117 ], [ 126.973778397417831, 37.295844748345573 ], [ 126.973835541225313, 37.295874830039587 ] ] ] ] } },
{ "type": "Feature", "properties": { "": null }, "geometry": { "type": "MultiPolygon", "coordinates": [ [ [ [ 126.973511261314684, 37.295707277995433 ], [ 126.973519443804776, 37.295767671435406 ], [ 126.973547304127251, 37.2957637528121 ], [ 126.973538551474547, 37.295704499395583 ], [ 126.973511261314684, 37.295707277995433 ] ] ] ] } },
{ "type": "Feature", "properties": { "": null }, "geometry": { "type": "MultiPolygon", "coordinates": [ [ [ [ 126.973572292695494, 37.29570139644553 ], [ 126.973580672058532, 37.295759059529978 ], [ 126.973611515968685, 37.295754721257673 ], [ 126.973603352564737, 37.295698544301885 ], [ 126.973572292695494, 37.29570139644553 ] ] ] ] } },
{ "type": "Feature", "properties": { "": null }, "geometry": { "type": "MultiPolygon", "coordinates": [ [ [ [ 126.973638490291961, 37.295731916606805 ], [ 126.973633924794825, 37.295695736936821 ], [ 126.973603352564737, 37.295698544301885 ], [ 126.973611515968685, 37.295754721257673 ], [ 126.973640847401157, 37.295750595719099 ], [ 126.973638490291961, 37.295731916606805 ] ] ] ] } },
{ "type": "Feature", "properties": { "": null }, "geometry": { "type": "MultiPolygon", "coordinates": [ [ [ [ 126.973504406963556, 37.295851591483277 ], [ 126.97349125577901, 37.295788870037065 ], [ 126.973399212982429, 37.295801083488598 ], [ 126.973394869141003, 37.295786339578555 ], [ 126.973393383545556, 37.295786538578895 ], [ 126.973411037715024, 37.295863013653154 ], [ 126.97344807229068, 37.295858517160241 ], [ 126.973504406963556, 37.295851591483277 ] ] ] ] } },
{ "type": "Feature", "properties": { "": null }, "geometry": { "type": "MultiPolygon", "coordinates": [ [ [ [ 126.973640847401171, 37.295750595719099 ], [ 126.973638490291961, 37.295731916606805 ], [ 126.973640847401157, 37.295750595719099 ], [ 126.973640847401171, 37.295750595719099 ] ] ] ] } },
{ "type": "Feature", "properties": { "": null }, "geometry": { "type": "MultiPolygon", "coordinates": [ [ [ [ 126.973633924794825, 37.295695736936821 ], [ 126.973638490291961, 37.295731916606805 ], [ 126.973633924794854, 37.295695736936821 ], [ 126.973633924794825, 37.295695736936821 ] ] ] ] } },
{ "type": "Feature", "properties": { "": null }, "geometry": { "type": "MultiPolygon", "coordinates": [ [ [ [ 126.973685111739329, 37.295763278839821 ], [ 126.973691166169104, 37.295828195639672 ], [ 126.973737329133598, 37.295822956477082 ], [ 126.973763195225899, 37.295836594768602 ], [ 126.973755352210119, 37.295795714278903 ], [ 126.973754304068024, 37.295795141725449 ], [ 126.973747275363166, 37.295759132707893 ], [ 126.973746523807577, 37.295755282385713 ], [ 126.973747457438876, 37.29575503481211 ], [ 126.973685111739329, 37.295763278839821 ] ] ] ] } },
{ "type": "Feature", "properties": { "": null }, "geometry": { "type": "MultiPolygon", "coordinates": [ [ [ [ 126.973643148093259, 37.295768827730335 ], [ 126.973643148090915, 37.295768827730647 ], [ 126.973519528900368, 37.295785174006973 ], [ 126.97349125577901, 37.295788870037065 ], [ 126.973504406963556, 37.295851591483277 ], [ 126.973527551052484, 37.295848746193244 ], [ 126.973651312986206, 37.295833531137767 ], [ 126.973651312996907, 37.295833531136452 ], [ 126.973643148093259, 37.295768827730335 ] ] ] ] } },
{ "type": "Feature", "properties": { "": null }, "geometry": { "type": "MultiPolygon", "coordinates": [ [ [ [ 126.973691166169104, 37.295828195639672 ], [ 126.973685111739329, 37.295763278839821 ], [ 126.973643148093259, 37.295768827730335 ], [ 126.973651312996907, 37.295833531136452 ], [ 126.973691166169104, 37.295828195639672 ] ] ] ] } },
{ "type": "Feature", "properties": { "": null }, "geometry": { "type": "MultiPolygon", "coordinates": [ [ [ [ 126.974633765035449, 37.295499700152256 ], [ 126.974633765024862, 37.295499700166836 ], [ 126.974667522840619, 37.295515204937843 ], [ 126.974667522840619, 37.295515204937836 ], [ 126.974633765035449, 37.295499700152256 ] ] ] ] } },
{ "type": "Feature", "properties": { "": null }, "geometry": { "type": "MultiPolygon", "coordinates": [ [ [ [ 126.974669045403232, 37.295451087919261 ], [ 126.974646138493711, 37.295482650969561 ], [ 126.974680106491604, 37.295498240585168 ], [ 126.974701810345266, 37.295468335209385 ], [ 126.974669045403232, 37.295451087919261 ] ] ] ] } },
{ "type": "Feature", "properties": { "": null }, "geometry": { "type": "MultiPolygon", "coordinates": [ [ [ [ 126.974620588036643, 37.295470924585061 ], [ 126.974644178175652, 37.295438420117414 ], [ 126.974628613097721, 37.2954306349734 ], [ 126.97461251488501, 37.295422343590346 ], [ 126.974588078575138, 37.295456013990517 ], [ 126.97460172016109, 37.295462265171921 ], [ 126.974620588036643, 37.295470924585061 ] ] ] ] } },
{ "type": "Feature", "properties": { "": null }, "geometry": { "type": "MultiPolygon", "coordinates": [ [ [ [ 126.974588078575138, 37.295456013990517 ], [ 126.97461251488501, 37.295422343590346 ], [ 126.974582733874811, 37.295407004883636 ], [ 126.974557389715201, 37.295441926200525 ], [ 126.974580994717826, 37.295452767852026 ], [ 126.974588078575138, 37.295456013990517 ] ] ] ] } },
{ "type": "Feature", "properties": { "": null }, "geometry": { "type": "MultiPolygon", "coordinates": [ [ [ [ 126.974557389715201, 37.295441926200525 ], [ 126.974582733874811, 37.295407004883636 ], [ 126.974569495453736, 37.295400186436012 ], [ 126.974552698870326, 37.29539153535719 ], [ 126.97452644093228, 37.295427715763267 ], [ 126.97453855260575, 37.295433274416865 ], [ 126.974557389715201, 37.295441926200525 ] ] ] ] } },
{ "type": "Feature", "properties": { "": null }, "geometry": { "type": "MultiPolygon", "coordinates": [ [ [ [ 126.97452644093228, 37.295427715763267 ], [ 126.974552698870326, 37.29539153535719 ], [ 126.974526963528163, 37.295378280371452 ], [ 126.974523887951449, 37.295376696295932 ], [ 126.974496750086971, 37.295414089147222 ], [ 126.97452644093228, 37.295427715763267 ] ] ] ] } },
{ "type": "Feature", "properties": { "": null }, "geometry": { "type": "MultiPolygon", "coordinates": [ [ [ [ 126.974646138493711, 37.295482650969561 ], [ 126.974669045403232, 37.295451087919261 ], [ 126.974660274912324, 37.29544647117978 ], [ 126.974644178175652, 37.295438420117414 ], [ 126.974620588036643, 37.295470924585061 ], [ 126.974633144347237, 37.295476687304905 ], [ 126.974646138493711, 37.295482650969561 ] ] ] ] } },
{ "type": "Feature", "properties": { "": null }, "geometry": { "type": "MultiPolygon", "coordinates": [ [ [ [ 126.974465728325384, 37.295346945722798 ], [ 126.974489569710613, 37.29535914138021 ], [ 126.974489645886479, 37.295359059923349 ], [ 126.974465728325384, 37.295346945722798 ] ] ] ] } },
{ "type": "Feature", "properties": { "": null }, "geometry": { "type": "MultiPolygon", "coordinates": [ [ [ [ 126.974489569710613, 37.29535914138021 ], [ 126.974523887949474, 37.295376696294916 ], [ 126.974489645886479, 37.295359059923349 ], [ 126.974489569710613, 37.29535914138021 ] ] ] ] } },
{ "type": "Feature", "properties": { "": null }, "geometry": { "type": "MultiPolygon", "coordinates": [ [ [ [ 126.974489569710613, 37.29535914138021 ], [ 126.974465728325384, 37.295346945722798 ], [ 126.974434536062603, 37.295385536015289 ], [ 126.97445577193956, 37.295395282222877 ], [ 126.974494459427859, 37.295413037849023 ], [ 126.974496750086971, 37.295414089147222 ], [ 126.974523887951449, 37.295376696295932 ], [ 126.974523887949474, 37.295376696294916 ], [ 126.974489569710613, 37.29535914138021 ] ] ] ] } },
{ "type": "Feature", "properties": { "": null }, "geometry": { "type": "MultiPolygon", "coordinates": [ [ [ [ 126.974396145869008, 37.295310902747481 ], [ 126.974347362238788, 37.295285765756006 ], [ 126.974327434329723, 37.295275512875143 ], [ 126.974287605986746, 37.295318102444128 ], [ 126.974311940321925, 37.295329270689386 ], [ 126.974358839749286, 37.295350795185676 ], [ 126.97440330156239, 37.295371200938682 ], [ 126.974434536062603, 37.295385536015289 ], [ 126.974465728325384, 37.295346945722798 ], [ 126.974439033380023, 37.295332991956293 ], [ 126.974396145869008, 37.295310902747481 ] ] ] ] } },
{ "type": "Feature", "properties": { "": null }, "geometry": { "type": "MultiPolygon", "coordinates": [ [ [ [ 126.974603465419364, 37.2954857837098 ], [ 126.97451599924652, 37.29557994281835 ], [ 126.974543485348434, 37.295596238436431 ], [ 126.974633765035435, 37.295499700152249 ], [ 126.974603465419364, 37.2954857837098 ] ] ] ] } },
{ "type": "Feature", "properties": { "": null }, "geometry": { "type": "MultiPolygon", "coordinates": [ [ [ [ 126.974207932562322, 37.295304117496478 ], [ 126.974163421918462, 37.295370524944943 ], [ 126.974182683125136, 37.295381959794447 ], [ 126.974236733800083, 37.295413794582117 ], [ 126.974277201125673, 37.295438093563838 ], [ 126.974318055527675, 37.295462356789542 ], [ 126.974388485251211, 37.295387044414056 ], [ 126.974344033468839, 37.295366627939977 ], [ 126.974300470136939, 37.295346619526605 ], [ 126.974207932562322, 37.295304117496478 ] ] ] ] } },
{ "type": "Feature", "properties": { "": null }, "geometry": { "type": "MultiPolygon", "coordinates": [ [ [ [ 126.974446078970288, 37.295413496911799 ], [ 126.97437650494976, 37.295497069609979 ], [ 126.974401817294435, 37.295512102485311 ], [ 126.974479622551726, 37.29542890330552 ], [ 126.974446078970288, 37.295413496911799 ] ] ] ] } },
{ "type": "Feature", "properties": { "": null }, "geometry": { "type": "MultiPolygon", "coordinates": [ [ [ [ 126.974603465419364, 37.2954857837098 ], [ 126.974571783480386, 37.295471232344113 ], [ 126.974563692826933, 37.295467516348765 ], [ 126.97452370578246, 37.295449150505739 ], [ 126.974479622551726, 37.29542890330552 ], [ 126.974401817294435, 37.295512102485311 ], [ 126.974442332968664, 37.295536164542284 ], [ 126.974442332974959, 37.295536164546021 ], [ 126.974479083931826, 37.295557990756116 ], [ 126.974486168764145, 37.295562257293149 ], [ 126.97451599924652, 37.29557994281835 ], [ 126.974603465419364, 37.2954857837098 ] ] ] ] } },
{ "type": "Feature", "properties": { "": null }, "geometry": { "type": "MultiPolygon", "coordinates": [ [ [ [ 126.974414883173736, 37.295399168846778 ], [ 126.974347648284663, 37.295479931780413 ], [ 126.974366268718754, 37.295490990363405 ], [ 126.97437650494976, 37.295497069609979 ], [ 126.974446078970288, 37.295413496911799 ], [ 126.974440943791265, 37.295411138350595 ], [ 126.974414883173736, 37.295399168846778 ] ] ] ] } },
{ "type": "Feature", "properties": { "": null }, "geometry": { "type": "MultiPolygon", "coordinates": [ [ [ [ 126.974414883173736, 37.295399168846778 ], [ 126.974388485251211, 37.295387044414056 ], [ 126.974318055527675, 37.295462356789542 ], [ 126.974347648284663, 37.295479931780413 ], [ 126.974414883173736, 37.295399168846778 ] ] ] ] } },
{ "type": "Feature", "properties": { "": null }, "geometry": { "type": "MultiPolygon", "coordinates": [ [ [ [ 126.973684642624733, 37.295343255320965 ], [ 126.973680711978218, 37.295322439612718 ], [ 126.973673828843175, 37.295285988256076 ], [ 126.973493051078748, 37.295312421664256 ], [ 126.9735694377096, 37.295370851755614 ], [ 126.973593459196721, 37.29538922640667 ], [ 126.973594155399169, 37.295392662614418 ], [ 126.973607290736467, 37.295457230464784 ], [ 126.973704585581373, 37.295444843212316 ], [ 126.973684642624733, 37.295343255320965 ] ] ] ] } },
{ "type": "Feature", "properties": { "": null }, "geometry": { "type": "MultiPolygon", "coordinates": [ [ [ [ 126.973673828843175, 37.295285988256076 ], [ 126.973680711978218, 37.295322439612718 ], [ 126.973693280832947, 37.295321081080225 ], [ 126.973706524264273, 37.295319649634621 ], [ 126.97369946025583, 37.295282240419084 ], [ 126.973684522055621, 37.295284424689619 ], [ 126.973673828843175, 37.295285988256076 ] ] ] ] } },
{ "type": "Feature", "properties": { "": null }, "geometry": { "type": "MultiPolygon", "coordinates": [ [ [ [ 126.97369946025583, 37.295282240419084 ], [ 126.973706524264273, 37.295319649634621 ], [ 126.973734652180426, 37.295316609366523 ], [ 126.973727391073069, 37.295278156362095 ], [ 126.97369946025583, 37.295282240419084 ] ] ] ] } },
{ "type": "Feature", "properties": { "": null }, "geometry": { "type": "MultiPolygon", "coordinates": [ [ [ [ 126.973727391073069, 37.295278156362095 ], [ 126.973734652180426, 37.295316609366523 ], [ 126.97376801354352, 37.295313003429719 ], [ 126.973760518665074, 37.29527331243029 ], [ 126.973727391073069, 37.295278156362095 ] ] ] ] } },
{ "type": "Feature", "properties": { "": null }, "geometry": { "type": "MultiPolygon", "coordinates": [ [ [ [ 126.973760518665074, 37.29527331243029 ], [ 126.97376801354352, 37.295313003429719 ], [ 126.973778188497846, 37.295311903647246 ], [ 126.973797192638543, 37.295309849542619 ], [ 126.973789493295243, 37.295269075746489 ], [ 126.973768682189345, 37.295272118756003 ], [ 126.973760518665074, 37.29527331243029 ] ] ] ] } },
{ "type": "Feature", "properties": { "": null }, "geometry": { "type": "MultiPolygon", "coordinates": [ [ [ [ 126.973789493295243, 37.295269075746489 ], [ 126.973797192638543, 37.295309849542619 ], [ 126.973825667609233, 37.295306771762355 ], [ 126.973817768735103, 37.295264941298619 ], [ 126.973789493295243, 37.295269075746489 ] ] ] ] } },
{ "type": "Feature", "properties": { "": null }, "geometry": { "type": "MultiPolygon", "coordinates": [ [ [ [ 126.973817768735103, 37.295264941298619 ], [ 126.973825667609233, 37.295306771762355 ], [ 126.9738526162987, 37.295303858953574 ], [ 126.973844528588756, 37.295261028460466 ], [ 126.973817768735103, 37.295264941298619 ] ] ] ] } },
{ "type": "Feature", "properties": { "": null }, "geometry": { "type": "MultiPolygon", "coordinates": [ [ [ [ 126.973844528588756, 37.295261028460466 ], [ 126.9738526162987, 37.295303858953574 ], [ 126.973884386250958, 37.295300425027932 ], [ 126.973876075921424, 37.295256415594913 ], [ 126.973844528588756, 37.295261028460466 ] ] ] ] } },
{ "type": "Feature", "properties": { "": null }, "geometry": { "type": "MultiPolygon", "coordinates": [ [ [ [ 126.973876075921424, 37.295256415594913 ], [ 126.973884386250958, 37.295300425027932 ], [ 126.97391784078367, 37.295296809020684 ], [ 126.973909296030499, 37.295251558135227 ], [ 126.973876075921424, 37.295256415594913 ] ] ] ] } },
{ "type": "Feature", "properties": { "": null }, "geometry": { "type": "MultiPolygon", "coordinates": [ [ [ [ 126.973909296030499, 37.295251558135227 ], [ 126.97391784078367, 37.295296809020684 ], [ 126.97394489428315, 37.295293884883286 ], [ 126.973955138614286, 37.295292777602072 ], [ 126.973946332506486, 37.295246142644615 ], [ 126.973933920283699, 37.295247957565557 ], [ 126.973909296030499, 37.295251558135227 ] ] ] ] } },
{ "type": "Feature", "properties": { "": null }, "geometry": { "type": "MultiPolygon", "coordinates": [ [ [ [ 126.973946332506486, 37.295246142644615 ], [ 126.973955138614286, 37.295292777602072 ], [ 126.973991874731411, 37.295288806897496 ], [ 126.973982811205204, 37.295240808712443 ], [ 126.973946332506486, 37.295246142644615 ] ] ] ] } },
{ "type": "Feature", "properties": { "": null }, "geometry": { "type": "MultiPolygon", "coordinates": [ [ [ [ 126.97401437154528, 37.295236193944945 ], [ 126.974026146080078, 37.29528510260289 ], [ 126.974105910760073, 37.295276481060824 ], [ 126.974093337104065, 37.295224253030725 ], [ 126.974093337100825, 37.295224253031215 ], [ 126.97401437154528, 37.295236193944945 ] ] ], [ [ [ 126.973991874731411, 37.295288806897496 ], [ 126.9740260601328, 37.295285111892689 ], [ 126.97401437154528, 37.295236193944945 ], [ 126.973982811205204, 37.295240808712443 ], [ 126.973991874731411, 37.295288806897496 ] ] ] ] } },
{ "type": "Feature", "properties": { "": null }, "geometry": { "type": "MultiPolygon", "coordinates": [ [ [ [ 126.973793803265522, 37.295327513448484 ], [ 126.973802671358612, 37.295388159256156 ], [ 126.973825619958305, 37.295385758740906 ], [ 126.97387070860367, 37.29538104228839 ], [ 126.973936214091836, 37.295374051736829 ], [ 126.973927647290651, 37.295315466346672 ], [ 126.973860673859264, 37.295321533991455 ], [ 126.973815480323054, 37.2953256284259 ], [ 126.973793803265522, 37.295327513448484 ] ] ] ] } },
{ "type": "Feature", "properties": { "": null }, "geometry": { "type": "MultiPolygon", "coordinates": [ [ [ [ 126.973793803265522, 37.295327513448484 ], [ 126.973753217329786, 37.295331269315405 ], [ 126.973754927496458, 37.295343215418065 ], [ 126.97376028869283, 37.295392592652398 ], [ 126.973802671358612, 37.295388159256156 ], [ 126.973793803265522, 37.295327513448484 ] ] ] ] } },
{ "type": "Feature", "properties": { "": null }, "geometry": { "type": "MultiPolygon", "coordinates": [ [ [ [ 126.973936214091836, 37.295374051736829 ], [ 126.973963357436119, 37.295371155079572 ], [ 126.973996754091587, 37.295367629459513 ], [ 126.973988639787692, 37.295309868708351 ], [ 126.973949576304918, 37.295313479626472 ], [ 126.973927647290651, 37.295315466346672 ], [ 126.973936214091836, 37.295374051736829 ] ] ] ] } },
{ "type": "Feature", "properties": { "": null }, "geometry": { "type": "MultiPolygon", "coordinates": [ [ [ [ 126.975616573717645, 37.294972869671746 ], [ 126.975637250822814, 37.295055062679062 ], [ 126.975767041741818, 37.295038854092141 ], [ 126.97575132461283, 37.29495134038131 ], [ 126.975616573717645, 37.294972869671746 ] ] ] ] } },
{ "type": "Feature", "properties": { "": null }, "geometry": { "type": "MultiPolygon", "coordinates": [ [ [ [ 126.975490250952987, 37.294993069957904 ], [ 126.975459069045414, 37.294998034356759 ], [ 126.975472520138496, 37.295074884794886 ], [ 126.975450549022568, 37.295076482836734 ], [ 126.975450935005554, 37.295078330224598 ], [ 126.975492763476282, 37.295073106589477 ], [ 126.975509848830811, 37.295070972931313 ], [ 126.975490250952987, 37.294993069957904 ] ] ] ] } },
{ "type": "Feature", "properties": { "": null }, "geometry": { "type": "MultiPolygon", "coordinates": [ [ [ [ 126.975490250952987, 37.294993069957904 ], [ 126.975509848830811, 37.295070972931313 ], [ 126.975523454278473, 37.29506927385188 ], [ 126.975548741400033, 37.295066115938283 ], [ 126.975528811111843, 37.294986891594398 ], [ 126.975506970852962, 37.294990381035234 ], [ 126.975490250952987, 37.294993069957904 ] ] ] ] } },
{ "type": "Feature", "properties": { "": null }, "geometry": { "type": "MultiPolygon", "coordinates": [ [ [ [ 126.975528811111843, 37.294986891594398 ], [ 126.975548741400033, 37.295066115938283 ], [ 126.975567065898517, 37.295063827532985 ], [ 126.975637250822814, 37.295055062679062 ], [ 126.975616573717645, 37.294972869671746 ], [ 126.975550274839392, 37.294983462312359 ], [ 126.975528811111843, 37.294986891594398 ] ] ] ] } },
{ "type": "Feature", "properties": { "": null }, "geometry": { "type": "MultiPolygon", "coordinates": [ [ [ [ 126.975459069045414, 37.294998034356759 ], [ 126.975490250952987, 37.294993069957904 ], [ 126.97547649654264, 37.294995249947434 ], [ 126.975459069045414, 37.294998034356759 ] ] ] ] } },
{ "type": "Feature", "properties": { "": null }, "geometry": { "type": "MultiPolygon", "coordinates": [ [ [ [ 126.975721619323068, 37.295066993629881 ], [ 126.975734434763496, 37.295133852648455 ], [ 126.975783118105525, 37.295127415428951 ], [ 126.975771427223435, 37.295060951640458 ], [ 126.975721619323068, 37.295066993629881 ] ] ] ] } },
{ "type": "Feature", "properties": { "": null }, "geometry": { "type": "MultiPolygon", "coordinates": [ [ [ [ 126.97552810077471, 37.295091512868616 ], [ 126.975542239141333, 37.295159181786417 ], [ 126.975585802755219, 37.295153505712982 ], [ 126.975651735530136, 37.295144787664327 ], [ 126.975638335407851, 37.295077488248246 ], [ 126.975571706042544, 37.295086036149804 ], [ 126.97552810077471, 37.295091512868616 ] ] ] ] } },
{ "type": "Feature", "properties": { "": null }, "geometry": { "type": "MultiPolygon", "coordinates": [ [ [ [ 126.975384489248015, 37.295179735636268 ], [ 126.975370944764308, 37.295111251292923 ], [ 126.975298160587755, 37.295120392813864 ], [ 126.97526023191692, 37.295125156565483 ], [ 126.97527084241402, 37.295173265988879 ], [ 126.975274626172705, 37.295194050125531 ], [ 126.975312518607467, 37.295189112972174 ], [ 126.975384489248015, 37.295179735636268 ] ] ] ] } },
{ "type": "Feature", "properties": { "": null }, "geometry": { "type": "MultiPolygon", "coordinates": [ [ [ [ 126.975489135734236, 37.295166100836774 ], [ 126.975475681704069, 37.295098073841579 ], [ 126.975455592064264, 37.295100619791661 ], [ 126.975370944764308, 37.295111251292923 ], [ 126.975384489248015, 37.295179735636268 ], [ 126.975469799694039, 37.29516862020499 ], [ 126.975489135734236, 37.295166100836774 ] ] ] ] } },
{ "type": "Feature", "properties": { "": null }, "geometry": { "type": "MultiPolygon", "coordinates": [ [ [ [ 126.975475681704069, 37.295098073841579 ], [ 126.975489135734236, 37.295166100836774 ], [ 126.97551158212157, 37.295163176209286 ], [ 126.975542239141333, 37.295159181786417 ], [ 126.97552810077471, 37.295091512868616 ], [ 126.975497414442529, 37.295095366999576 ], [ 126.975475681704069, 37.295098073841579 ] ] ] ] } },
{ "type": "Feature", "properties": { "": null }, "geometry": { "type": "MultiPolygon", "coordinates": [ [ [ [ 126.975238949530848, 37.295177417700351 ], [ 126.97522725097069, 37.295129298894558 ], [ 126.97515554089442, 37.295138305511031 ], [ 126.975166175770354, 37.295187566327414 ], [ 126.975238949530848, 37.295177417700351 ] ] ] ] } },
{ "type": "Feature", "properties": { "": null }, "geometry": { "type": "MultiPolygon", "coordinates": [ [ [ [ 126.97522725097069, 37.295129298894558 ], [ 126.975238949530848, 37.295177417700351 ], [ 126.97527084241402, 37.295173265988879 ], [ 126.97526023191692, 37.295125156565483 ], [ 126.97522725097069, 37.295129298894558 ] ] ] ] } },
{ "type": "Feature", "properties": { "": null }, "geometry": { "type": "MultiPolygon", "coordinates": [ [ [ [ 126.975079584224105, 37.295073359129873 ], [ 126.975127179472395, 37.295018614573522 ], [ 126.975099798707049, 37.295003467280416 ], [ 126.975052248652148, 37.295058023821539 ], [ 126.975079584224105, 37.295073359129873 ] ] ] ] } },
{ "type": "Feature", "properties": { "": null }, "geometry": { "type": "MultiPolygon", "coordinates": [ [ [ [ 126.975099798707049, 37.295003467280416 ], [ 126.975069302606585, 37.294986808054858 ], [ 126.975039133708577, 37.294970327571484 ], [ 126.974992106670982, 37.295024284054684 ], [ 126.975022015471197, 37.295041062949004 ], [ 126.975052248652148, 37.295058023821539 ], [ 126.975099798707049, 37.295003467280416 ] ] ] ] } },
{ "type": "Feature", "properties": { "": null }, "geometry": { "type": "MultiPolygon", "coordinates": [ [ [ [ 126.975011662511477, 37.294955320771862 ], [ 126.974990982364773, 37.294944056562812 ], [ 126.974944782680112, 37.29499773520498 ], [ 126.974964872313606, 37.29500900552793 ], [ 126.975011662511477, 37.294955320771862 ] ] ], [ [ [ 126.974944782680112, 37.29499773520498 ], [ 126.974990982364773, 37.294944056562812 ], [ 126.974945698049197, 37.294919286103841 ], [ 126.974926376119399, 37.294908731036742 ], [ 126.97488070968474, 37.294961790131609 ], [ 126.974899476555919, 37.294972318382356 ], [ 126.974944782680112, 37.29499773520498 ] ] ], [ [ [ 126.97488070968474, 37.294961790131609 ], [ 126.974926376119399, 37.294908731036742 ], [ 126.974893874855937, 37.294890976442858 ], [ 126.974848486261934, 37.29494371272957 ], [ 126.97488070968474, 37.294961790131609 ] ] ], [ [ [ 126.974848486261934, 37.29494371272957 ], [ 126.974893874855937, 37.294890976442858 ], [ 126.974866497672338, 37.294876021000363 ], [ 126.974820958994755, 37.294928269879861 ], [ 126.974848486261934, 37.29494371272957 ] ] ] ] } },
{ "type": "Feature", "properties": { "": null }, "geometry": { "type": "MultiPolygon", "coordinates": [ [ [ [ 126.974936039625248, 37.295023169932946 ], [ 126.974888563663043, 37.295086117182201 ], [ 126.974974085142847, 37.295133631472069 ], [ 126.975026557320604, 37.295072807281983 ], [ 126.974936039625248, 37.295023169932946 ] ] ] ] } },
{ "type": "Feature", "properties": { "": null }, "geometry": { "type": "MultiPolygon", "coordinates": [ [ [ [ 126.974900196373653, 37.295004025888915 ], [ 126.974849317329401, 37.295064312582028 ], [ 126.974865786307831, 37.295073462468309 ], [ 126.974888563663043, 37.295086117182201 ], [ 126.974936039625248, 37.295023169932946 ], [ 126.974917557931946, 37.295013450293553 ], [ 126.974900196373653, 37.295004025888915 ] ] ] ] } },
{ "type": "Feature", "properties": { "": null }, "geometry": { "type": "MultiPolygon", "coordinates": [ [ [ [ 126.974849317329401, 37.295064312582028 ], [ 126.974900196373653, 37.295004025888915 ], [ 126.974863508260668, 37.294984016865051 ], [ 126.974812084021579, 37.295043626385002 ], [ 126.974849317329401, 37.295064312582028 ] ] ] ] } },
{ "type": "Feature", "properties": { "": null }, "geometry": { "type": "MultiPolygon", "coordinates": [ [ [ [ 126.974804970964996, 37.294952139644231 ], [ 126.97475969764966, 37.295014521401484 ], [ 126.974776573044934, 37.295023897086097 ], [ 126.974812084021579, 37.295043626385002 ], [ 126.974863508260668, 37.294984016865051 ], [ 126.974827767574567, 37.294964553824776 ], [ 126.974804970964996, 37.294952139644231 ] ] ] ] } },
{ "type": "Feature", "properties": { "": null }, "geometry": { "type": "MultiPolygon", "coordinates": [ [ [ [ 126.97475969764966, 37.295014521401484 ], [ 126.974804970964996, 37.294952139644231 ], [ 126.974775771812773, 37.294936238878527 ], [ 126.974724911467462, 37.294995194786125 ], [ 126.97475969764966, 37.295014521401484 ] ] ] ] } },
{ "type": "Feature", "properties": { "": null }, "geometry": { "type": "MultiPolygon", "coordinates": [ [ [ [ 126.974808996424741, 37.294844609566148 ], [ 126.974767478489724, 37.294821984238787 ], [ 126.974723187709429, 37.294873420001146 ], [ 126.974763953485478, 37.294896289679748 ], [ 126.974808996424741, 37.294844609566148 ] ] ] ] } },
{ "type": "Feature", "properties": { "": null }, "geometry": { "type": "MultiPolygon", "coordinates": [ [ [ [ 126.9746745542258, 37.294771183180188 ], [ 126.974630982120942, 37.294821692489052 ], [ 126.974678506041442, 37.294848353499653 ], [ 126.974722805901777, 37.294797525927876 ], [ 126.9746745542258, 37.294771183180188 ] ] ] ] } },
{ "type": "Feature", "properties": { "": null }, "geometry": { "type": "MultiPolygon", "coordinates": [ [ [ [ 126.974647193183628, 37.294952015820151 ], [ 126.974697604082195, 37.294893601563885 ], [ 126.974662568783458, 37.294874592744691 ], [ 126.974612436009764, 37.294932705321337 ], [ 126.974647193183628, 37.294952015820151 ] ] ] ] } },
{ "type": "Feature", "properties": { "": null }, "geometry": { "type": "MultiPolygon", "coordinates": [ [ [ [ 126.973951730340232, 37.294888716880557 ], [ 126.974105556197784, 37.2948673072882 ], [ 126.974094396489633, 37.294817351209943 ], [ 126.973939095529502, 37.294841414866355 ], [ 126.973951730340232, 37.294888716880557 ] ] ] ] } },
{ "type": "Feature", "properties": { "": null }, "geometry": { "type": "MultiPolygon", "coordinates": [ [ [ [ 126.974393027048535, 37.294873996183767 ], [ 126.97431797720121, 37.294884192869766 ], [ 126.974317977170443, 37.294884192873951 ], [ 126.974325425664659, 37.294915338700861 ], [ 126.974391254258876, 37.294906668428844 ], [ 126.974399799617018, 37.294905542921299 ], [ 126.974393027055768, 37.29487399618278 ], [ 126.974393027048535, 37.294873996183767 ] ] ] ] } },
{ "type": "Feature", "properties": { "": null }, "geometry": { "type": "MultiPolygon", "coordinates": [ [ [ [ 126.974371642365597, 37.294774385831282 ], [ 126.97438759437803, 37.294848690677675 ], [ 126.974387594383586, 37.294848690676837 ], [ 126.974371642366307, 37.294774385831175 ], [ 126.974371642365597, 37.294774385831282 ] ] ] ] } },
{ "type": "Feature", "properties": { "": null }, "geometry": { "type": "MultiPolygon", "coordinates": [ [ [ [ 126.974371642366307, 37.294774385831175 ], [ 126.974387594383586, 37.294848690676837 ], [ 126.974430024061562, 37.294842281447394 ], [ 126.974414030148623, 37.294767781442786 ], [ 126.974371642366307, 37.294774385831175 ] ] ] ] } },
{ "type": "Feature", "properties": { "": null }, "geometry": { "type": "MultiPolygon", "coordinates": [ [ [ [ 126.97431797720121, 37.294884192869766 ], [ 126.974393027048535, 37.294873996183767 ], [ 126.974383738878558, 37.294875242935099 ], [ 126.97431797720121, 37.294884192869766 ] ] ] ] } },
{ "type": "Feature", "properties": { "": null }, "geometry": { "type": "MultiPolygon", "coordinates": [ [ [ [ 126.974393027055768, 37.29487399618278 ], [ 126.974399799617018, 37.294905542921299 ], [ 126.97442495064125, 37.294902230284535 ], [ 126.974442400665367, 37.294899931945075 ], [ 126.97443558550809, 37.294868186789849 ], [ 126.97441740102586, 37.294870661634384 ], [ 126.974393027055768, 37.29487399618278 ] ] ] ] } },
{ "type": "Feature", "properties": { "": null }, "geometry": { "type": "MultiPolygon", "coordinates": [ [ [ [ 126.974526379165653, 37.294855735064836 ], [ 126.97445331622103, 37.294865773701723 ], [ 126.97443558550809, 37.294868186789849 ], [ 126.974442400665367, 37.294899931945075 ], [ 126.974460902362495, 37.294897495089955 ], [ 126.974532166450857, 37.294888108910015 ], [ 126.974533371690129, 37.294887943313682 ], [ 126.974526379165653, 37.294855735064836 ] ] ] ] } },
{ "type": "Feature", "properties": { "": null }, "geometry": { "type": "MultiPolygon", "coordinates": [ [ [ [ 126.974429830710449, 37.294765319576619 ], [ 126.974414030148623, 37.294767781442786 ], [ 126.974430024061562, 37.294842281447394 ], [ 126.974447081860831, 37.294839704775718 ], [ 126.974447742509497, 37.294839604787214 ], [ 126.974508040757868, 37.294830478708512 ], [ 126.97449059355894, 37.294757265983684 ], [ 126.97445390554573, 37.294761645808023 ], [ 126.974429830710449, 37.294765319576619 ] ] ] ] } },
{ "type": "Feature", "properties": { "": null }, "geometry": { "type": "MultiPolygon", "coordinates": [ [ [ [ 126.974294588082458, 37.294786391564656 ], [ 126.974225530612713, 37.294797117817168 ], [ 126.974126178531975, 37.294812549536708 ], [ 126.97414360482891, 37.294885546602039 ], [ 126.974243084583463, 37.294870519653863 ], [ 126.974312210092293, 37.294860077876606 ], [ 126.97438759437803, 37.294848690677675 ], [ 126.974371642365597, 37.294774385831282 ], [ 126.974294588082458, 37.294786391564656 ] ] ] ] } },
{ "type": "Feature", "properties": { "": null }, "geometry": { "type": "MultiPolygon", "coordinates": [ ] } },
{ "type": "Feature", "properties": { "": null }, "geometry": { "type": "MultiPolygon", "coordinates": [ [ [ [ 126.974684769907768, 37.294367456450622 ], [ 126.974672253036005, 37.294294425794604 ], [ 126.974633663369119, 37.294298612507475 ], [ 126.974646603330143, 37.294371950342189 ], [ 126.974684769907768, 37.294367456450622 ] ] ] ] } },
{ "type": "Feature", "properties": { "": null }, "geometry": { "type": "MultiPolygon", "coordinates": [ [ [ [ 126.974589893117766, 37.294303362057562 ], [ 126.974556879235166, 37.29430694305676 ], [ 126.974569941979567, 37.294380976768402 ], [ 126.974602537863632, 37.294377138793465 ], [ 126.974589893117766, 37.294303362057562 ] ] ] ] } },
{ "type": "Feature", "properties": { "": null }, "geometry": { "type": "MultiPolygon", "coordinates": [ [ [ [ 126.974831366629758, 37.29435019554294 ], [ 126.974818724554027, 37.294278451495899 ], [ 126.974791247604927, 37.294281515704078 ], [ 126.974803935582585, 37.294353425388508 ], [ 126.974831366629758, 37.29435019554294 ] ] ] ] } },
{ "type": "Feature", "properties": { "": null }, "geometry": { "type": "MultiPolygon", "coordinates": [ [ [ [ 126.974652064978216, 37.294448204294355 ], [ 126.974641284149854, 37.294388127101477 ], [ 126.974609184478226, 37.294391772618205 ], [ 126.974619484639135, 37.294447322021085 ], [ 126.974620345186338, 37.294451931995134 ], [ 126.974652064978216, 37.294448204294355 ] ] ] ] } },
{ "type": "Feature", "properties": { "": null }, "geometry": { "type": "MultiPolygon", "coordinates": [ [ [ [ 126.974674409258071, 37.294384148336235 ], [ 126.974685813746348, 37.29444423814887 ], [ 126.974700313294349, 37.294442534166173 ], [ 126.974738159218262, 37.294438086524124 ], [ 126.974757336588141, 37.294435832805156 ], [ 126.974745923065655, 37.294375695381611 ], [ 126.974727532300392, 37.29437785799621 ], [ 126.974689150655735, 37.294382364378727 ], [ 126.974674409258071, 37.294384148336235 ] ] ] ] } },
{ "type": "Feature", "properties": { "": null }, "geometry": { "type": "MultiPolygon", "coordinates": [ [ [ [ 126.974674409258071, 37.294384148336235 ], [ 126.974641284149854, 37.294388127101477 ], [ 126.974652064978216, 37.294448204294355 ], [ 126.974685813746348, 37.29444423814887 ], [ 126.974674409258071, 37.294384148336235 ] ] ] ] } },
{ "type": "Feature", "properties": { "": null }, "geometry": { "type": "MultiPolygon", "coordinates": [ [ [ [ 126.974745923065655, 37.294375695381611 ], [ 126.974757336588141, 37.294435832805156 ], [ 126.974777470475246, 37.294433466676558 ], [ 126.974791764439047, 37.294431786854055 ], [ 126.974780350452207, 37.294371646981894 ], [ 126.974766843063392, 37.294373235348438 ], [ 126.974745923065655, 37.294375695381611 ] ] ] ] } },
{ "type": "Feature", "properties": { "": null }, "geometry": { "type": "MultiPolygon", "coordinates": [ [ [ [ 126.974806605901321, 37.294368559540082 ], [ 126.97485467653145, 37.294362870588166 ], [ 126.974806605901321, 37.294368559540075 ], [ 126.974806605901321, 37.294368559540082 ] ] ] ] } },
{ "type": "Feature", "properties": { "": null }, "geometry": { "type": "MultiPolygon", "coordinates": [ [ [ [ 126.97485467653145, 37.294362870588166 ], [ 126.974865933773188, 37.294423070495327 ], [ 126.974896874319072, 37.294419434371306 ], [ 126.974886245408257, 37.294359194537684 ], [ 126.97485467653145, 37.294362870588166 ] ] ] ] } },
{ "type": "Feature", "properties": { "": null }, "geometry": { "type": "MultiPolygon", "coordinates": [ [ [ [ 126.974806605901321, 37.294368559540082 ], [ 126.974806605901321, 37.294368559540075 ], [ 126.974780350452207, 37.294371646981894 ], [ 126.974791764439047, 37.294431786854055 ], [ 126.974817233811734, 37.294428793700732 ], [ 126.974865933773188, 37.294423070495327 ], [ 126.97485467653145, 37.294362870588166 ], [ 126.974806605901321, 37.294368559540082 ] ] ] ] } },
{ "type": "Feature", "properties": { "": null }, "geometry": { "type": "MultiPolygon", "coordinates": [ [ [ [ 126.975275662588245, 37.294545778296438 ], [ 126.975212142506649, 37.294599089347265 ], [ 126.97522768354294, 37.294608298511591 ], [ 126.975259548225267, 37.294627180591917 ], [ 126.975285484836718, 37.294642549870538 ], [ 126.975340485517776, 37.294581388031865 ], [ 126.975340485517279, 37.294581388031581 ], [ 126.975275662588245, 37.294545778296438 ] ] ] ] } },
{ "type": "Feature", "properties": { "": null }, "geometry": { "type": "MultiPolygon", "coordinates": [ [ [ [ 126.97541215945509, 37.294621976114982 ], [ 126.975344562596405, 37.294677557625903 ], [ 126.97537838797804, 37.294697601559385 ], [ 126.975443783712478, 37.294736353162108 ], [ 126.975437472448277, 37.294614307340133 ], [ 126.975421862051732, 37.294627498022159 ], [ 126.97541215945509, 37.294621976114982 ] ] ] ] } },
{ "type": "Feature", "properties": { "": null }, "geometry": { "type": "MultiPolygon", "coordinates": [ [ [ [ 126.975344562596405, 37.294677557625903 ], [ 126.97541215945509, 37.294621976114982 ], [ 126.975389693518878, 37.294609190381536 ], [ 126.975340485517776, 37.294581388031865 ], [ 126.975285484836718, 37.294642549870538 ], [ 126.97533389681125, 37.294671237393054 ], [ 126.975344562596405, 37.294677557625903 ] ] ] ] } },
{ "type": "Feature", "properties": { "": null }, "geometry": { "type": "MultiPolygon", "coordinates": [ [ [ [ 126.975275662588245, 37.294545778296438 ], [ 126.975340485517279, 37.294581388031581 ], [ 126.975314122437524, 37.294566492983115 ], [ 126.975281733812267, 37.294548193522367 ], [ 126.975275662588245, 37.294545778296438 ] ] ] ] } },
{ "type": "Feature", "properties": { "": null }, "geometry": { "type": "MultiPolygon", "coordinates": [ [ [ [ 126.975198926827943, 37.294479990722202 ], [ 126.975239783094764, 37.294426530824602 ], [ 126.975209886019144, 37.294412211006481 ], [ 126.975170365186074, 37.29446392351997 ], [ 126.975198926827943, 37.294479990722202 ] ] ] ] } },
{ "type": "Feature", "properties": { "": null }, "geometry": { "type": "MultiPolygon", "coordinates": [ [ [ [ 126.975146130005015, 37.294450290145633 ], [ 126.975184278605582, 37.29439993365358 ], [ 126.975183803420464, 37.294399718210393 ], [ 126.97515757836733, 37.294387115025017 ], [ 126.975120599169145, 37.294435927907458 ], [ 126.97514125589143, 37.29444754823853 ], [ 126.975146130005015, 37.294450290145633 ] ] ] ] } },
{ "type": "Feature", "properties": { "": null }, "geometry": { "type": "MultiPolygon", "coordinates": [ [ [ [ 126.975184278605582, 37.29439993365358 ], [ 126.975146130005015, 37.294450290145633 ], [ 126.975170365186074, 37.29446392351997 ], [ 126.975209886019144, 37.294412211006481 ], [ 126.975184278605582, 37.29439993365358 ] ] ] ] } },
{ "type": "Feature", "properties": { "": null }, "geometry": { "type": "MultiPolygon", "coordinates": [ [ [ [ 126.975120599169145, 37.294435927907458 ], [ 126.97515757836733, 37.294387115025017 ], [ 126.975141155073445, 37.294379222350173 ], [ 126.975100680088246, 37.294424722532689 ], [ 126.975120599169145, 37.294435927907458 ] ] ] ] } },
{ "type": "Feature", "properties": { "": null }, "geometry": { "type": "MultiPolygon", "coordinates": [ [ [ [ 126.975111842087472, 37.294539654247565 ], [ 126.975163801924921, 37.294481512697431 ], [ 126.97512865208293, 37.294461716876036 ], [ 126.97507731034311, 37.294519191744158 ], [ 126.975111842087472, 37.294539654247565 ] ] ] ] } },
{ "type": "Feature", "properties": { "": null }, "geometry": { "type": "MultiPolygon", "coordinates": [ [ [ [ 126.975111842087472, 37.294539654247565 ], [ 126.975192155947823, 37.294587245896103 ], [ 126.975212142506649, 37.294599089347265 ], [ 126.975275662588245, 37.294545778296438 ], [ 126.975248648519297, 37.294529500446778 ], [ 126.975163801924921, 37.294481512697431 ], [ 126.975111842087472, 37.294539654247565 ] ] ] ] } },
{ "type": "Feature", "properties": { "": null }, "geometry": { "type": "MultiPolygon", "coordinates": [ [ [ [ 126.975087604790573, 37.294438511299539 ], [ 126.975051732841095, 37.294418243772704 ], [ 126.974962907453914, 37.294368057737529 ], [ 126.974911294413346, 37.29442081555171 ], [ 126.974998602952638, 37.294472552042755 ], [ 126.975033862326356, 37.294493445718068 ], [ 126.975087604790573, 37.294438511299539 ] ] ] ] } },
{ "type": "Feature", "properties": { "": null }, "geometry": { "type": "MultiPolygon", "coordinates": [ [ [ [ 126.975238348836641, 37.294471752664258 ], [ 126.975268919502668, 37.294440623132751 ], [ 126.975239783094764, 37.294426530824602 ], [ 126.975198926827943, 37.294479990722202 ], [ 126.975219109077031, 37.294491344140859 ], [ 126.975238348836641, 37.294471752664258 ] ] ] ] } }
]
}
