{
  "type": "FeatureCollection",
  "features": [
    {
      "type": "Feature",
      "properties": {
        "indoor": "corridor",
        "level": "3"
      },
      "geometry": {
        "type": "Polygon",
        "coordinates": [
          [
            [
              126.97576704174182,
              37.29503885409214
            ],
            [
              126.97574263372893,
              37.29504191968343
            ],
            [
              126.97515545983252,
              37.29511522984024
            ],
            [
              126.97514028948044,
              37.295106609556534
            ],
            [
              126.97518895263435,
              37.29505241166232
            ],
            [
              126.97515957749958,
              37.29503644041036
            ],
            [
              126.97511215984116,
              37.295091634113554
            ],
            [
              126.97460965223576,
              37.294809726382525
            ],
            [
              126.97458039512807,
              37.29481351932246
            ],
            [
              126.97457135641862,
              37.29476939548328
            ],
            [
              126.9746521393684,
              37.29475892264086
            ],
            [
              126.97463062761815,
              37.294742583853065
            ],
            [
              126.97452311779043,
              37.29475468945787
            ],
            [
              126.97454005789773,
              37.29482564997758
            ],
            [
              126.97414360482891,
              37.29488554660204
            ],
            [
              126.97412617853198,
              37.29481254953671
            ],
            [
              126.97409439648963,
              37.29481735120994
            ],
            [
              126.97411471949817,
              37.29491185553344
            ],
            [
              126.97460777250343,
              37.294844752741
            ],
            [
              126.97509201781207,
              37.295108505324
            ],
            [
              126.97503937954902,
              37.29516966690909
            ],
            [
              126.97507021017333,
              37.29518675554553
            ],
            [
              126.9750702084448,
              37.29518678533907
            ],
            [
              126.97512360209313,
              37.295125967479784
            ],
            [
              126.97514639113824,
              37.29513945469883
            ],
            [
              126.97577142722344,
              37.29506095164046
            ],
            [
              126.97576704174182,
              37.29503885409214
            ]
          ]
        ]
      }
    },
    {
      "type": "Feature",
      "properties": {
        "indoor": "corridor",
        "level": "3"
      },
      "geometry": {
        "type": "MultiPolygon",
        "coordinates": [
          [
            [
              [
                126.97496126649385,
                37.2943671306008
              ],
              [
                126.97542186205173,
                37.29462749802216
              ],
              [
                126.97543747244828,
                37.29461430734013
              ],
              [
                126.97543746584239,
                37.29461417959703
              ],
              [
                126.97497016481772,
                37.29435130184995
              ],
              [
                126.97495357009112,
                37.2943523271429
              ],
              [
                126.9749484667944,
                37.294322904434985
              ],
              [
                126.97489830712735,
                37.29432841047917
              ],
              [
                126.97490067985433,
                37.29434209027442
              ],
              [
                126.9749062454335,
                37.29437167361275
              ],
              [
                126.97494239244617,
                37.29436829842859
              ],
              [
                126.97496126649385,
                37.2943671306008
              ]
            ],
            [
              [
                126.97495357042419,
                37.294352329063194
              ],
              [
                126.97494090771008,
                37.29435311212779
              ],
              [
                126.97495355277442,
                37.2943523282128
              ],
              [
                126.97495357042419,
                37.294352329063194
              ]
            ]
          ],
          [
            [
              [
                126.97457295964243,
                37.2943960345692
              ],
              [
                126.97490348135435,
                37.29435716772107
              ],
              [
                126.97490067985433,
                37.29434209027442
              ],
              [
                126.97489760363533,
                37.294342456540825
              ],
              [
                126.97453184533964,
                37.29438546242522
              ],
              [
                126.97453226566272,
                37.294388056946715
              ],
              [
                126.97457924893955,
                37.29468588599756
              ],
              [
                126.97461991592566,
                37.29468120737521
              ],
              [
                126.97458413658319,
                37.2944561879001
              ],
              [
                126.97457295964243,
                37.2943960345692
              ]
            ]
          ]
        ]
      }
    },
    {
      "type": "Feature",
      "properties": {
        "indoor": "corridor",
        "level": "3"
      },
      "geometry": {
        "type": "Polygon",
        "coordinates": [
          [
            [
              126.97421904835406,
              37.295261214543345
            ],
            [
              126.97417758922649,
              37.295268663076754
            ],
            [
              126.97410980472085,
              37.29527606017345
            ],
            [
              126.97368071197822,
              37.29532243961272
            ],
            [
              126.97375024919721,
              37.295678967525895
            ],
            [
              126.97370824492634,
              37.295683238432325
            ],
            [
              126.97372193818467,
              37.295739190099695
            ],
            [
              126.97339454482616,
              37.29578523878588
            ],
            [
              126.97339921298243,
              37.2958010834886
            ],
            [
              126.97374745743888,
              37.29575503481211
            ],
            [
              126.97374652380758,
              37.29575528238571
            ],
            [
              126.97375430406802,
              37.29579514172545
            ],
            [
              126.97380098563052,
              37.29582064178887
            ],
            [
              126.97385648372216,
              37.29576071352329
            ],
            [
              126.97434042952213,
              37.296046388830355
            ],
            [
              126.97438973369334,
              37.2960739294551
            ],
            [
              126.97440651692617,
              37.29615640114058
            ],
            [
              126.97445114311661,
              37.29615065393656
            ],
            [
              126.97443470559716,
              37.29607254416816
            ],
            [
              126.97447533433589,
              37.29606713337649
            ],
            [
              126.97500391458419,
              37.29600196102938
            ],
            [
              126.9750002399267,
              37.29598146160756
            ],
            [
              126.97447331342282,
              37.29604682600306
            ],
            [
              126.97443069697461,
              37.29605208617742
            ],
            [
              126.9744158000881,
              37.29597570789596
            ],
            [
              126.97440956556038,
              37.29597227033107
            ],
            [
              126.97435702228245,
              37.29602901473975
            ],
            [
              126.97435677231064,
              37.29602886825802
            ],
            [
              126.97381628281005,
              37.29571195531965
            ],
            [
              126.97378476922746,
              37.295675457601405
            ],
            [
              126.97378476922748,
              37.295675457601405
            ],
            [
              126.97372123206891,
              37.29534626814796
            ],
            [
              126.97375492749646,
              37.295343215418065
            ],
            [
              126.97375321732979,
              37.295331269315405
            ],
            [
              126.97418065028013,
              37.295292544835306
            ],
            [
              126.97420793256232,
              37.29530411749648
            ],
            [
              126.97466752284062,
              37.295515204937836
            ],
            [
              126.97467450677149,
              37.29550595634363
            ],
            [
              126.9746801064916,
              37.29549824058517
            ],
            [
              126.97422007683161,
              37.29528710993247
            ],
            [
              126.97425555907829,
              37.29523849353315
            ],
            [
              126.9742499738143,
              37.295235616843414
            ],
            [
              126.97424190884198,
              37.29520794362963
            ],
            [
              126.97416287280502,
              37.294936748508036
            ],
            [
              126.97412877355642,
              37.29494286806801
            ],
            [
              126.97421904835406,
              37.295261214543345
            ]
          ]
        ]
      }
    }
  ]
}