{
  "type": "FeatureCollection",
  "features": [
    {
      "type": "Feature",
      "properties": {
        "building": "university",
        "name": "벤젠고리관",
        "loc_ref": "BENZ"
      },
      "geometry": {
        "type": "MultiPolygon",
        "coordinates": [
          [
            [
              [
                126.97470181034527,
                37.295468335209385
              ],
              [
                126.9742499738143,
                37.295235616843414
              ],
              [
                126.97404336480231,
                37.29523177660032
              ],
              [
                126.97349305107875,
                37.295312421664256
              ],
              [
                126.97359345919672,
                37.29538922640667
              ],
              [
                126.97375758785114,
                37.29539306664174
              ],
              [
                126.97413411829355,
                37.2953531281875
              ],
              [
                126.97458692028717,
                37.29562194429743
              ],
              [
                126.97470181034527,
                37.295468335209385
              ]
            ]
          ],
          [
            [
              [
                126.97500662318795,
                37.29591634331692
              ],
              [
                126.97444045445273,
                37.295989301704864
              ],
              [
                126.97386939441094,
                37.295699413292084
              ],
              [
                126.97375758785114,
                37.29539306664174
              ],
              [
                126.97359345919672,
                37.29538922640666
              ],
              [
                126.9736615138818,
                37.29571108667258
              ],
              [
                126.9732090680243,
                37.29573054230269
              ],
              [
                126.97333012786186,
                37.295818092576
              ],
              [
                126.97334113330162,
                37.29587159547062
              ],
              [
                126.9737373291336,
                37.29582295647708
              ],
              [
                126.9743670848542,
                37.29617218375298
              ],
              [
                126.97502741124086,
                37.2960914433291
              ],
              [
                126.97500662318795,
                37.29591634331692
              ]
            ]
          ],
          [
            [
              [
                126.97404336480231,
                37.29523177660032
              ],
              [
                126.9742499738143,
                37.295235616843414
              ],
              [
                126.97416287280502,
                37.294936748508036
              ],
              [
                126.97453216645086,
                37.294888108910015
              ],
              [
                126.97507021017333,
                37.29518675554553
              ],
              [
                126.97506654169342,
                37.295249986765775
              ],
              [
                126.97520716675724,
                37.295330728092814
              ],
              [
                126.97526586243605,
                37.29528500711104
              ],
              [
                126.97526341678272,
                37.29519551064074
              ],
              [
                126.97578311810553,
                37.29512741542895
              ],
              [
                126.97575132461283,
                37.29495134038131
              ],
              [
                126.97545906904541,
                37.29499803435676
              ],
              [
                126.9754725201385,
                37.295074884794886
              ],
              [
                126.97525852547612,
                37.29509044943104
              ],
              [
                126.9746251012756,
                37.29474413551561
              ],
              [
                126.97445390554573,
                37.29476164580802
              ],
              [
                126.9739390955295,
                37.294841414866355
              ],
              [
                126.97404336480231,
                37.29523177660032
              ]
            ]
          ],
          [
            [
              [
                126.97445390554573,
                37.29476164580802
              ],
              [
                126.9746251012756,
                37.29474413551561
              ],
              [
                126.97458413658319,
                37.2944561879001
              ],
              [
                126.97490696281665,
                37.29441824877399
              ],
              [
                126.97544378371248,
                37.29473635316211
              ],
              [
                126.97543400109933,
                37.29455735880953
              ],
              [
                126.97539120216688,
                37.2945223381255
              ],
              [
                126.9753655228074,
                37.29456027719914
              ],
              [
                126.97523834883664,
                37.29447175266426
              ],
              [
                126.97526891950267,
                37.29444062313275
              ],
              [
                126.97491063129658,
                37.29426843767882
              ],
              [
                126.9742931038424,
                37.29433556086874
              ],
              [
                126.97439948976023,
                37.29441046638679
              ],
              [
                126.97445390554573,
                37.29476164580802
              ]
            ]
          ]
        ]
      }
    }
  ]
}