{
  "type": "FeatureCollection",
  "features": [
    {
      "type": "Feature",
      "properties": {
        "indoor": "room",
        "level": [
          2
        ],
        "ref": "",
        "name": "",
        "room_type": "",
        "_idx": 1,
        "_centroid": [
          126.9785121,
          37.2937646
        ],
        "_area_m2": 23.2
      },
      "geometry": {
        "type": "Polygon",
        "coordinates": [
          [
            [
              126.97853522521838,
              37.293796325357484
            ],
            [
              126.97852349274174,
              37.293729084990105
            ],
            [
              126.97848888245694,
              37.293732906971535
            ],
            [
              126.97850061493436,
              37.29380014733432
            ],
            [
              126.97853522521838,
              37.293796325357484
            ]
          ]
        ]
      }
    },
    {
      "type": "Feature",
      "properties": {
        "indoor": "room",
        "level": [
          2
        ],
        "ref": "83217",
        "name": "에너지생산연구실",
        "room_type": "lab",
        "_idx": 2,
        "_centroid": [
          126.9785791,
          37.2937572
        ],
        "_area_m2": 66.6
      },
      "geometry": {
        "type": "Polygon",
        "coordinates": [
          [
            [
              126.97852349274174,
              37.293729084990105
            ],
            [
              126.97853522521838,
              37.293796325357484
            ],
            [
              126.97863473317071,
              37.29378533679677
            ],
            [
              126.97862300069244,
              37.29371809642004
            ],
            [
              126.97852349274174,
              37.293729084990105
            ]
          ]
        ]
      }
    },
    {
      "type": "Feature",
      "properties": {
        "indoor": "room",
        "level": [
          2
        ],
        "ref": "83209",
        "name": "김길호교수연구실",
        "room_type": "lab",
        "_idx": 3,
        "_centroid": [
          126.9787011,
          37.2937437
        ],
        "_area_m2": 96.2
      },
      "geometry": {
        "type": "Polygon",
        "coordinates": [
          [
            [
              126.97863473317071,
              37.29378533679677
            ],
            [
              126.97870765338897,
              37.29377728429216
            ],
            [
              126.97877848864088,
              37.29376946202824
            ],
            [
              126.97876675616145,
              37.29370222163784
            ],
            [
              126.97869592091111,
              37.29371004390838
            ],
            [
              126.97862300069244,
              37.29371809642004
            ],
            [
              126.97863473317071,
              37.29378533679677
            ]
          ]
        ]
      }
    },
    {
      "type": "Feature",
      "properties": {
        "indoor": "room",
        "level": [
          2
        ],
        "ref": "83205",
        "name": "심욱교수연구실",
        "room_type": "lab",
        "_idx": 4,
        "_centroid": [
          126.9788062,
          37.2937253
        ],
        "_area_m2": 48.4
      },
      "geometry": {
        "type": "Polygon",
        "coordinates": [
          [
            [
              126.97883910894645,
              37.29369423178777
            ],
            [
              126.97879603473973,
              37.29369898843204
            ],
            [
              126.97876675616145,
              37.29370222163784
            ],
            [
              126.97877848864088,
              37.29376946202824
            ],
            [
              126.97885084142371,
              37.29376147218493
            ],
            [
              126.97883910894645,
              37.29369423178777
            ]
          ]
        ]
      }
    },
    {
      "type": "Feature",
      "properties": {
        "indoor": "room",
        "level": [
          2
        ],
        "ref": "83201",
        "name": "심욱교수연구실",
        "room_type": "lab",
        "_idx": 5,
        "_centroid": [
          126.9788815,
          37.2937238
        ],
        "_area_m2": 48.9
      },
      "geometry": {
        "type": "Polygon",
        "coordinates": [
          [
            [
              126.97883910894645,
              37.29369423178777
            ],
            [
              126.97885084142371,
              37.29376147218493
            ],
            [
              126.97892387763153,
              37.293753406871716
            ],
            [
              126.97891214515411,
              37.29368616646715
            ],
            [
              126.97883910894645,
              37.29369423178777
            ]
          ]
        ]
      }
    },
    {
      "type": "Feature",
      "properties": {
        "indoor": "room",
        "level": [
          2
        ],
        "ref": "",
        "name": "",
        "room_type": "",
        "_idx": 6,
        "_centroid": [
          126.9785294,
          37.2936647
        ],
        "_area_m2": 15.9
      },
      "geometry": {
        "type": "Polygon",
        "coordinates": [
          [
            [
              126.9785498415951,
              37.293687665646296
            ],
            [
              126.97854118878823,
              37.293638075218105
            ],
            [
              126.9785088917258,
              37.29364164175657
            ],
            [
              126.97851754453008,
              37.29369123218291
            ],
            [
              126.9785498415951,
              37.293687665646296
            ]
          ]
        ]
      }
    },
    {
      "type": "Feature",
      "properties": {
        "indoor": "room",
        "level": [
          2
        ],
        "ref": "",
        "name": "",
        "room_type": "",
        "_idx": 7,
        "_centroid": [
          126.9785598,
          37.2936613
        ],
        "_area_m2": 14.1
      },
      "geometry": {
        "type": "Polygon",
        "coordinates": [
          [
            [
              126.97857844282021,
              37.29368450723804
            ],
            [
              126.97856979001304,
              37.29363491680799
            ],
            [
              126.97854118878823,
              37.293638075218105
            ],
            [
              126.9785498415951,
              37.293687665646296
            ],
            [
              126.97857844282021,
              37.29368450723804
            ]
          ]
        ]
      }
    },
    {
      "type": "Feature",
      "properties": {
        "indoor": "room",
        "level": [
          2
        ],
        "ref": "",
        "name": "",
        "room_type": "",
        "_idx": 8,
        "_centroid": [
          126.9786135,
          37.2936503
        ],
        "_area_m2": 35.7
      },
      "geometry": {
        "type": "Polygon",
        "coordinates": [
          [
            [
              126.97862645160686,
              37.29362865971353
            ],
            [
              126.97856979001304,
              37.29363491680799
            ],
            [
              126.97857844282021,
              37.29368450723804
            ],
            [
              126.97865078605764,
              37.293676518437664
            ],
            [
              126.97864213325057,
              37.29362692800206
            ],
            [
              126.97862645160686,
              37.29362865971353
            ]
          ]
        ]
      }
    },
    {
      "type": "Feature",
      "properties": {
        "indoor": "room",
        "level": [
          2
        ],
        "ref": "",
        "name": "",
        "room_type": "",
        "_idx": 9,
        "_centroid": [
          126.9784399,
          37.29364
        ],
        "_area_m2": 110.7
      },
      "geometry": {
        "type": "Polygon",
        "coordinates": [
          [
            [
              126.97848595050984,
              37.293716093394195
            ],
            [
              126.97846369077138,
              37.29355612648258
            ],
            [
              126.97839117051619,
              37.29356413484255
            ],
            [
              126.97841897554777,
              37.2937234893757
            ],
            [
              126.97848595050984,
              37.293716093394195
            ]
          ]
        ]
      }
    },
    {
      "type": "Feature",
      "properties": {
        "indoor": "room",
        "level": [
          2
        ],
        "ref": "",
        "name": "",
        "room_type": "",
        "_idx": 10,
        "_centroid": [
          126.9786444,
          37.2936361
        ],
        "_area_m2": 33.4
      },
      "geometry": {
        "type": "Polygon",
        "coordinates": [
          [
            [
              126.97860385117424,
              37.29360889354921
            ],
            [
              126.9786076621204,
              37.293630734621544
            ],
            [
              126.97864213325057,
              37.29362692800206
            ],
            [
              126.97865078605764,
              37.293676518437664
            ],
            [
              126.97868715120904,
              37.293672502665316
            ],
            [
              126.97867468746034,
              37.29360107115274
            ],
            [
              126.97860385117424,
              37.29360889354921
            ]
          ]
        ]
      }
    },
    {
      "type": "Feature",
      "properties": {
        "indoor": "room",
        "level": [
          2
        ],
        "ref": "83212",
        "name": "홍영준교수실",
        "room_type": "office",
        "_idx": 11,
        "_centroid": [
          126.9786986,
          37.2936348
        ],
        "_area_m2": 25.1
      },
      "geometry": {
        "type": "Polygon",
        "coordinates": [
          [
            [
              126.9787224421352,
              37.29366860551914
            ],
            [
              126.97870997838345,
              37.293597174003395
            ],
            [
              126.97867468746034,
              37.29360107115274
            ],
            [
              126.97868715120904,
              37.29367250266532
            ],
            [
              126.9787224421352,
              37.29366860551914
            ]
          ]
        ]
      }
    },
    {
      "type": "Feature",
      "properties": {
        "indoor": "room",
        "level": [
          2
        ],
        "ref": "83210",
        "name": "배완기교수실",
        "room_type": "office",
        "_idx": 12,
        "_centroid": [
          126.9787336,
          37.293631
        ],
        "_area_m2": 24.7
      },
      "geometry": {
        "type": "Polygon",
        "coordinates": [
          [
            [
              126.97870997838345,
              37.293597174003395
            ],
            [
              126.9787224421352,
              37.29366860551914
            ],
            [
              126.9787572381408,
              37.2936647630266
            ],
            [
              126.9787447743905,
              37.29359333150706
            ],
            [
              126.97870997838345,
              37.293597174003395
            ]
          ]
        ]
      }
    },
    {
      "type": "Feature",
      "properties": {
        "indoor": "room",
        "level": [
          2
        ],
        "ref": "",
        "name": "",
        "room_type": "",
        "_idx": 13,
        "_centroid": [
          126.9785498,
          37.2936297
        ],
        "_area_m2": 16.3
      },
      "geometry": {
        "type": "Polygon",
        "coordinates": [
          [
            [
              126.97856979001304,
              37.29363491680799
            ],
            [
              126.97858367569549,
              37.29363338342321
            ],
            [
              126.97857986474935,
              37.29361154235163
            ],
            [
              126.97850508077866,
              37.29361980068787
            ],
            [
              126.9785088917258,
              37.29364164175657
            ],
            [
              126.97855178497004,
              37.29363690509033
            ],
            [
              126.97856979001304,
              37.29363491680799
            ]
          ]
        ]
      }
    },
    {
      "type": "Feature",
      "properties": {
        "indoor": "room",
        "level": [
          2
        ],
        "ref": "83206",
        "name": "나노R&BD공용연구공간",
        "room_type": "",
        "_idx": 14,
        "_centroid": [
          126.9787877,
          37.293625
        ],
        "_area_m2": 52.2
      },
      "geometry": {
        "type": "Polygon",
        "coordinates": [
          [
            [
              126.97883062386465,
              37.29365665910514
            ],
            [
              126.97881816011422,
              37.29358522757816
            ],
            [
              126.9787447743905,
              37.29359333150706
            ],
            [
              126.9787572381408,
              37.2936647630266
            ],
            [
              126.97883062386465,
              37.29365665910514
            ]
          ]
        ]
      }
    },
    {
      "type": "Feature",
      "properties": {
        "indoor": "room",
        "level": [
          2
        ],
        "ref": "",
        "name": "",
        "room_type": "",
        "_idx": 15,
        "_centroid": [
          126.9785938,
          37.2936211
        ],
        "_area_m2": 5.2
      },
      "geometry": {
        "type": "Polygon",
        "coordinates": [
          [
            [
              126.97858367569549,
              37.29363338342321
            ],
            [
              126.9786076621204,
              37.293630734621544
            ],
            [
              126.97860385117424,
              37.29360889354921
            ],
            [
              126.97857986474935,
              37.29361154235163
            ],
            [
              126.97858367569549,
              37.29363338342321
            ]
          ]
        ]
      }
    },
    {
      "type": "Feature",
      "properties": {
        "indoor": "room",
        "level": [
          2
        ],
        "ref": "83202",
        "name": "이진욱교수실",
        "room_type": "office",
        "_idx": 16,
        "_centroid": [
          126.9788613,
          37.2936169
        ],
        "_area_m2": 52.5
      },
      "geometry": {
        "type": "Polygon",
        "coordinates": [
          [
            [
              126.9789044575467,
              37.29364850571604
            ],
            [
              126.97889199379449,
              37.293577074181755
            ],
            [
              126.97881816011422,
              37.29358522757816
            ],
            [
              126.97883062386465,
              37.29365665910514
            ],
            [
              126.9789044575467,
              37.29364850571604
            ]
          ]
        ]
      }
    },
    {
      "type": "Feature",
      "properties": {
        "indoor": "room",
        "level": [
          2
        ],
        "ref": "",
        "name": "",
        "room_type": "",
        "_idx": 17,
        "_centroid": [
          126.9789177,
          37.2936106
        ],
        "_area_m2": 27.7
      },
      "geometry": {
        "type": "Polygon",
        "coordinates": [
          [
            [
              126.97893101482778,
              37.29357276511777
            ],
            [
              126.97889199379449,
              37.293577074181755
            ],
            [
              126.9789044575467,
              37.29364850571604
            ],
            [
              126.97894347857917,
              37.293644196657475
            ],
            [
              126.97893101482778,
              37.29357276511777
            ]
          ]
        ]
      }
    },
    {
      "type": "Feature",
      "properties": {
        "indoor": "room",
        "level": [
          2
        ],
        "ref": "",
        "name": "",
        "room_type": "",
        "_idx": 18,
        "_centroid": [
          126.9785175,
          37.2935855
        ],
        "_area_m2": 21.3
      },
      "geometry": {
        "type": "Polygon",
        "coordinates": [
          [
            [
              126.97852837209729,
              37.2935513372728
            ],
            [
              126.97849680030984,
              37.29355482372302
            ],
            [
              126.97850508077866,
              37.29361980068787
            ],
            [
              126.97853965182671,
              37.29361598303467
            ],
            [
              126.97852837209729,
              37.2935513372728
            ]
          ]
        ]
      }
    },
    {
      "type": "Feature",
      "properties": {
        "indoor": "room",
        "level": [
          2
        ],
        "ref": "83271",
        "name": "양자정보공학과 실습실",
        "room_type": "classroom",
        "_idx": 19,
        "_centroid": [
          126.9784128,
          37.2935288
        ],
        "_area_m2": 58.2
      },
      "geometry": {
        "type": "Polygon",
        "coordinates": [
          [
            [
              126.97845240211325,
              37.2934914293457
            ],
            [
              126.978361988284,
              37.293501413688716
            ],
            [
              126.97837327694661,
              37.29356611081651
            ],
            [
              126.9784636907714,
              37.29355612648258
            ],
            [
              126.97845240211325,
              37.2934914293457
            ]
          ]
        ]
      }
    },
    {
      "type": "Feature",
      "properties": {
        "indoor": "room",
        "level": [
          2
        ],
        "ref": "83272",
        "name": "이성주교수실",
        "room_type": "office",
        "_idx": 20,
        "_centroid": [
          126.97855,
          37.2935206
        ],
        "_area_m2": 63.2
      },
      "geometry": {
        "type": "Polygon",
        "coordinates": [
          [
            [
              126.9785922458919,
              37.29353622515954
            ],
            [
              126.97858218843889,
              37.293478584381845
            ],
            [
              126.97848536334098,
              37.29348927671892
            ],
            [
              126.97849680030987,
              37.29355482372302
            ],
            [
              126.97859362541223,
              37.29354413139466
            ],
            [
              126.9785922458919,
              37.29353622515954
            ]
          ]
        ]
      }
    },
    {
      "type": "Feature",
      "properties": {
        "indoor": "room",
        "level": [
          2
        ],
        "ref": "83275",
        "name": "양자정보공학과 학과사무실",
        "room_type": "office",
        "_idx": 21,
        "_centroid": [
          126.9784019,
          37.2934661
        ],
        "_area_m2": 54.7
      },
      "geometry": {
        "type": "Polygon",
        "coordinates": [
          [
            [
              126.97844180811218,
              37.29343071340159
            ],
            [
              126.97835139427872,
              37.29344069775311
            ],
            [
              126.978361988284,
              37.293501413688716
            ],
            [
              126.97845240211325,
              37.2934914293457
            ],
            [
              126.97844180811218,
              37.29343071340159
            ]
          ]
        ]
      }
    },
    {
      "type": "Feature",
      "properties": {
        "indoor": "room",
        "level": [
          2
        ],
        "ref": "83276",
        "name": "강보석 교수실",
        "room_type": "office",
        "_idx": 22,
        "_centroid": [
          126.9785285,
          37.2934539
        ],
        "_area_m2": 58
      },
      "geometry": {
        "type": "Polygon",
        "coordinates": [
          [
            [
              126.97848536334098,
              37.29348927671892
            ],
            [
              126.97858218843889,
              37.293478584381845
            ],
            [
              126.97857169750827,
              37.29341845923191
            ],
            [
              126.97847487240591,
              37.29342915157814
            ],
            [
              126.97848536334098,
              37.29348927671892
            ]
          ]
        ]
      }
    },
    {
      "type": "Feature",
      "properties": {
        "indoor": "room",
        "level": [
          2
        ],
        "ref": "",
        "name": "",
        "room_type": "",
        "_idx": 23,
        "_centroid": [
          126.9785171,
          37.2934099
        ],
        "_area_m2": 9.7
      },
      "geometry": {
        "type": "Polygon",
        "coordinates": [
          [
            [
              126.97849763975657,
              37.29339743615175
            ],
            [
              126.9785026386115,
              37.29342608537043
            ],
            [
              126.9785365389597,
              37.29342234177238
            ],
            [
              126.9785315401045,
              37.29339369255137
            ],
            [
              126.97849763975657,
              37.29339743615175
            ]
          ]
        ]
      }
    },
    {
      "type": "Feature",
      "properties": {
        "indoor": "room",
        "level": [
          2
        ],
        "ref": "83279",
        "name": "양자정보공학과 강의실",
        "room_type": "classroom",
        "_idx": 24,
        "_centroid": [
          126.97839,
          37.293398
        ],
        "_area_m2": 67.9
      },
      "geometry": {
        "type": "Polygon",
        "coordinates": [
          [
            [
              126.97842861911556,
              37.29335512511571
            ],
            [
              126.97833825400248,
              37.29336538874555
            ],
            [
              126.97835139427872,
              37.29344069775311
            ],
            [
              126.97844180811218,
              37.29343071340159
            ],
            [
              126.97842861911556,
              37.29335512511571
            ]
          ]
        ]
      }
    },
    {
      "type": "Feature",
      "properties": {
        "indoor": "room",
        "level": [
          2
        ],
        "ref": "",
        "name": "",
        "room_type": "",
        "_idx": 25,
        "_centroid": [
          126.978488,
          37.2933964
        ],
        "_area_m2": 15.6
      },
      "geometry": {
        "type": "Polygon",
        "coordinates": [
          [
            [
              126.97849530205029,
              37.29338403838746
            ],
            [
              126.9784927576525,
              37.293369456038626
            ],
            [
              126.97846499145055,
              37.29337252224886
            ],
            [
              126.97847487240591,
              37.29342915157826
            ],
            [
              126.9785026386115,
              37.29342608537043
            ],
            [
              126.97849763975657,
              37.29339743615175
            ],
            [
              126.97849530205029,
              37.29338403838746
            ]
          ]
        ]
      }
    },
    {
      "type": "Feature",
      "properties": {
        "indoor": "room",
        "level": [
          2
        ],
        "ref": "",
        "name": "",
        "room_type": "",
        "_idx": 26,
        "_centroid": [
          126.9785429,
          37.2933903
        ],
        "_area_m2": 19.6
      },
      "geometry": {
        "type": "Polygon",
        "coordinates": [
          [
            [
              126.97852677881684,
              37.29336640485597
            ],
            [
              126.97852890807621,
              37.29337860798068
            ],
            [
              126.9785315401045,
              37.29339369255137
            ],
            [
              126.9785365389597,
              37.29342234177238
            ],
            [
              126.97857169750827,
              37.29341845923191
            ],
            [
              126.97856193737034,
              37.29336252231089
            ],
            [
              126.97852677881684,
              37.29336640485597
            ]
          ]
        ]
      }
    },
    {
      "type": "Feature",
      "properties": {
        "indoor": "room",
        "level": [
          2
        ],
        "ref": "83233",
        "name": "박지상 교수실",
        "room_type": "office",
        "_idx": 27,
        "_centroid": [
          126.9786895,
          37.2933744
        ],
        "_area_m2": 20.3
      },
      "geometry": {
        "type": "Polygon",
        "coordinates": [
          [
            [
              126.97870093192292,
              37.29334212841847
            ],
            [
              126.97866747572908,
              37.29334582297326
            ],
            [
              126.97867809947007,
              37.29340670931407
            ],
            [
              126.97871155566136,
              37.29340301476284
            ],
            [
              126.97870093192292,
              37.29334212841847
            ]
          ]
        ]
      }
    },
    {
      "type": "Feature",
      "properties": {
        "indoor": "room",
        "level": [
          2
        ],
        "ref": "",
        "name": "",
        "room_type": "",
        "_idx": 28,
        "_centroid": [
          126.9785963,
          37.2933706
        ],
        "_area_m2": 49.6
      },
      "geometry": {
        "type": "Polygon",
        "coordinates": [
          [
            [
              126.97862634902654,
              37.293337195496576
            ],
            [
              126.97858535978823,
              37.293341721921834
            ],
            [
              126.97855881940772,
              37.29334465276534
            ],
            [
              126.97857169750827,
              37.29341845923191
            ],
            [
              126.97863922712942,
              37.29341100196809
            ],
            [
              126.97862634902654,
              37.293337195496576
            ]
          ]
        ]
      }
    },
    {
      "type": "Feature",
      "properties": {
        "indoor": "room",
        "level": [
          2
        ],
        "ref": "83229",
        "name": "임용택교수실",
        "room_type": "office",
        "_idx": 29,
        "_centroid": [
          126.9787494,
          37.2933612
        ],
        "_area_m2": 53.6
      },
      "geometry": {
        "type": "Polygon",
        "coordinates": [
          [
            [
              126.97869867755762,
              37.29332920828393
            ],
            [
              126.97871155566136,
              37.29340301476284
            ],
            [
              126.97874473581648,
              37.29339935069415
            ],
            [
              126.97878252638142,
              37.29339517750011
            ],
            [
              126.9787845450336,
              37.29339495458131
            ],
            [
              126.97877166693074,
              37.293321148094364
            ],
            [
              126.97876964828029,
              37.293321371013185
            ],
            [
              126.97873185771505,
              37.29332554421127
            ],
            [
              126.97869867755762,
              37.29332920828393
            ]
          ]
        ]
      }
    },
    {
      "type": "Feature",
      "properties": {
        "indoor": "room",
        "level": [
          2
        ],
        "ref": "83235",
        "name": "NCRC HINT행정실",
        "room_type": "office",
        "_idx": 30,
        "_centroid": [
          126.9786729,
          37.293358
        ],
        "_area_m2": 32.9
      },
      "geometry": {
        "type": "Polygon",
        "coordinates": [
          [
            [
              126.97870093192292,
              37.29334212841847
            ],
            [
              126.97869952755319,
              37.29333407974735
            ],
            [
              126.97869867755762,
              37.29332920828393
            ],
            [
              126.97862634902654,
              37.293337195496576
            ],
            [
              126.97863922712942,
              37.29341100196809
            ],
            [
              126.97867809947007,
              37.29340670931407
            ],
            [
              126.97866747572908,
              37.29334582297326
            ],
            [
              126.97870093192292,
              37.29334212841847
            ]
          ]
        ]
      }
    },
    {
      "type": "Feature",
      "properties": {
        "indoor": "room",
        "level": [
          2
        ],
        "ref": "",
        "name": "",
        "room_type": "",
        "_idx": 31,
        "_centroid": [
          126.9785428,
          37.2933555
        ],
        "_area_m2": 6.3
      },
      "geometry": {
        "type": "Polygon",
        "coordinates": [
          [
            [
              126.97852677881684,
              37.29336640485597
            ],
            [
              126.97856193737034,
              37.29336252231089
            ],
            [
              126.97855881940772,
              37.29334465276534
            ],
            [
              126.97852366085412,
              37.29334853531136
            ],
            [
              126.97852677881684,
              37.29336640485597
            ]
          ]
        ]
      }
    },
    {
      "type": "Feature",
      "properties": {
        "indoor": "room",
        "level": [
          2
        ],
        "ref": "83225",
        "name": "교수휴게실",
        "room_type": "lounge",
        "_idx": 32,
        "_centroid": [
          126.9788142,
          37.2933541
        ],
        "_area_m2": 53
      },
      "geometry": {
        "type": "Polygon",
        "coordinates": [
          [
            [
              126.97877166693074,
              37.293321148094364
            ],
            [
              126.9787845450336,
              37.29339495458131
            ],
            [
              126.97885664674891,
              37.293386992423315
            ],
            [
              126.97884376864543,
              37.293313185928774
            ],
            [
              126.97877166693074,
              37.293321148094364
            ]
          ]
        ]
      }
    },
    {
      "type": "Feature",
      "properties": {
        "indoor": "room",
        "level": [
          2
        ],
        "ref": "83221",
        "name": "SAINT회의실",
        "room_type": "lounge",
        "_idx": 33,
        "_centroid": [
          126.978888,
          37.2933459
        ],
        "_area_m2": 55.6
      },
      "geometry": {
        "type": "Polygon",
        "coordinates": [
          [
            [
              126.97884376864543,
              37.293313185928774
            ],
            [
              126.97885664674891,
              37.293386992423315
            ],
            [
              126.97893231032334,
              37.29337863693092
            ],
            [
              126.97891943222155,
              37.293304830428156
            ],
            [
              126.97884376864543,
              37.293313185928774
            ]
          ]
        ]
      }
    },
    {
      "type": "Feature",
      "properties": {
        "indoor": "room",
        "level": [
          2
        ],
        "ref": "83283",
        "name": "세미나실-01",
        "room_type": "classroom",
        "_idx": 34,
        "_centroid": [
          126.9783687,
          37.2933135
        ],
        "_area_m2": 87.1
      },
      "geometry": {
        "type": "Polygon",
        "coordinates": [
          [
            [
              126.97833825400248,
              37.29336538874555
            ],
            [
              126.97842861911556,
              37.29335512511571
            ],
            [
              126.97842402085405,
              37.2933287717307
            ],
            [
              126.97841176914058,
              37.29325855516709
            ],
            [
              126.97832135529521,
              37.29326853954279
            ],
            [
              126.97832324711426,
              37.29327938186408
            ],
            [
              126.97833360701354,
              37.29333875609659
            ],
            [
              126.97833825400248,
              37.29336538874555
            ]
          ]
        ]
      }
    },
    {
      "type": "Feature",
      "properties": {
        "indoor": "room",
        "level": [
          2
        ],
        "ref": "83240",
        "name": "신성식교수실",
        "room_type": "office",
        "_idx": 35,
        "_centroid": [
          126.9785632,
          37.293269
        ],
        "_area_m2": 18.7
      },
      "geometry": {
        "type": "Polygon",
        "coordinates": [
          [
            [
              126.9785700613123,
              37.29323242132211
            ],
            [
              126.9785437169096,
              37.29323533052871
            ],
            [
              126.97855598255047,
              37.293305626969186
            ],
            [
              126.97858295547354,
              37.293302648358576
            ],
            [
              126.9785700613123,
              37.29323242132211
            ]
          ]
        ]
      }
    },
    {
      "type": "Feature",
      "properties": {
        "indoor": "room",
        "level": [
          2
        ],
        "ref": "83234",
        "name": "SAINT행정실",
        "room_type": "office",
        "_idx": 36,
        "_centroid": [
          126.9786509,
          37.2932661
        ],
        "_area_m2": 47.2
      },
      "geometry": {
        "type": "Polygon",
        "coordinates": [
          [
            [
              126.97862315264109,
              37.293297977323036
            ],
            [
              126.97865280367411,
              37.29329453178087
            ],
            [
              126.97869057549308,
              37.29329014257789
            ],
            [
              126.97867768133183,
              37.293219915529754
            ],
            [
              126.97861025848098,
              37.293227750281844
            ],
            [
              126.97862315264109,
              37.293297977323036
            ]
          ]
        ]
      }
    },
    {
      "type": "Feature",
      "properties": {
        "indoor": "room",
        "level": [
          2
        ],
        "ref": "83238",
        "name": "SAINT행정실",
        "room_type": "office",
        "_idx": 37,
        "_centroid": [
          126.9785966,
          37.2932652
        ],
        "_area_m2": 28.2
      },
      "geometry": {
        "type": "Polygon",
        "coordinates": [
          [
            [
              126.97862315264109,
              37.293297977323036
            ],
            [
              126.97861025848098,
              37.293227750281844
            ],
            [
              126.9785700613123,
              37.29323242132211
            ],
            [
              126.97858295547354,
              37.29330264835857
            ],
            [
              126.97862315264109,
              37.293297977323036
            ]
          ]
        ]
      }
    },
    {
      "type": "Feature",
      "properties": {
        "indoor": "room",
        "level": [
          2
        ],
        "ref": "83232",
        "name": "김준기교수실",
        "room_type": "office",
        "_idx": 38,
        "_centroid": [
          126.9787023,
          37.2932536
        ],
        "_area_m2": 25.7
      },
      "geometry": {
        "type": "Polygon",
        "coordinates": [
          [
            [
              126.97872676661247,
              37.2932867673397
            ],
            [
              126.97871450097436,
              37.29321647088109
            ],
            [
              126.97867779314635,
              37.29322052451906
            ],
            [
              126.9786900587848,
              37.29329082097396
            ],
            [
              126.97872676661247,
              37.2932867673397
            ]
          ]
        ]
      }
    },
    {
      "type": "Feature",
      "properties": {
        "indoor": "room",
        "level": [
          2
        ],
        "ref": "83230",
        "name": "전일 교수실",
        "room_type": "office",
        "_idx": 39,
        "_centroid": [
          126.9787372,
          37.2932498
        ],
        "_area_m2": 23.2
      },
      "geometry": {
        "type": "Polygon",
        "coordinates": [
          [
            [
              126.97875997334522,
              37.293283100330285
            ],
            [
              126.97874770770726,
              37.29321280386835
            ],
            [
              126.97871450097436,
              37.29321647088109
            ],
            [
              126.97872676661247,
              37.2932867673397
            ],
            [
              126.97875997334522,
              37.293283100330285
            ]
          ]
        ]
      }
    },
    {
      "type": "Feature",
      "properties": {
        "indoor": "room",
        "level": [
          2
        ],
        "ref": "83226",
        "name": "SAINT부원장실",
        "room_type": "office",
        "_idx": 40,
        "_centroid": [
          126.9787916,
          37.2932438
        ],
        "_area_m2": 52.7
      },
      "geometry": {
        "type": "Polygon",
        "coordinates": [
          [
            [
              126.97882302667158,
              37.29320448641048
            ],
            [
              126.97878567064501,
              37.29320861162888
            ],
            [
              126.97874770770726,
              37.29321280386835
            ],
            [
              126.97875997334522,
              37.293283100330285
            ],
            [
              126.97879793628297,
              37.29327890809461
            ],
            [
              126.97883529230926,
              37.29327478287997
            ],
            [
              126.97882302667158,
              37.29320448641048
            ]
          ]
        ]
      }
    },
    {
      "type": "Feature",
      "properties": {
        "indoor": "room",
        "level": [
          2
        ],
        "ref": "83242",
        "name": "양자정보센터",
        "room_type": "lab",
        "_idx": 41,
        "_centroid": [
          126.9784936,
          37.293242
        ],
        "_area_m2": 125.3
      },
      "geometry": {
        "type": "Polygon",
        "coordinates": [
          [
            [
              126.97853989148447,
              37.29321340635884
            ],
            [
              126.97853415820468,
              37.29318054793357
            ],
            [
              126.97843352278365,
              37.29319166108639
            ],
            [
              126.97844308148468,
              37.29324644367393
            ],
            [
              126.9784430814847,
              37.29324644367393
            ],
            [
              126.978455347123,
              37.293316740104814
            ],
            [
              126.97855598255047,
              37.293305626969186
            ],
            [
              126.9785437169096,
              37.29323533052871
            ],
            [
              126.97853989148447,
              37.29321340635884
            ]
          ]
        ]
      }
    },
    {
      "type": "Feature",
      "properties": {
        "indoor": "room",
        "level": [
          2
        ],
        "ref": "83224",
        "name": "황의헌교수실",
        "room_type": "office",
        "_idx": 42,
        "_centroid": [
          126.9788484,
          37.2932375
        ],
        "_area_m2": 26.9
      },
      "geometry": {
        "type": "Polygon",
        "coordinates": [
          [
            [
              126.97887376100606,
              37.293270534793464
            ],
            [
              126.97886149536889,
              37.293200238320075
            ],
            [
              126.97882302667158,
              37.29320448641048
            ],
            [
              126.97883529230926,
              37.29327478287997
            ],
            [
              126.97887376100606,
              37.293270534793464
            ]
          ]
        ]
      }
    },
    {
      "type": "Feature",
      "properties": {
        "indoor": "room",
        "level": [
          2
        ],
        "ref": "83287",
        "name": "반도체디스플레이 대학원오픈랩",
        "room_type": "lab",
        "_idx": 43,
        "_centroid": [
          126.9783614,
          37.2932341
        ],
        "_area_m2": 52.9
      },
      "geometry": {
        "type": "Polygon",
        "coordinates": [
          [
            [
              126.97840150621576,
              37.29319973667491
            ],
            [
              126.97831109236634,
              37.29320972105892
            ],
            [
              126.97832135529521,
              37.29326853954279
            ],
            [
              126.97841176914058,
              37.29325855516709
            ],
            [
              126.97840150621576,
              37.29319973667491
            ]
          ]
        ]
      }
    },
    {
      "type": "Feature",
      "properties": {
        "indoor": "room",
        "level": [
          2
        ],
        "ref": "83222",
        "name": "정연욱교수실",
        "room_type": "office",
        "_idx": 44,
        "_centroid": [
          126.9788856,
          37.2932334
        ],
        "_area_m2": 25.2
      },
      "geometry": {
        "type": "Polygon",
        "coordinates": [
          [
            [
              126.97890975819006,
              37.29326655963537
            ],
            [
              126.97889749255111,
              37.293196263158585
            ],
            [
              126.97886149536889,
              37.293200238320075
            ],
            [
              126.97887376100606,
              37.293270534793464
            ],
            [
              126.97890975819006,
              37.29326655963537
            ]
          ]
        ]
      }
    },
    {
      "type": "Feature",
      "properties": {
        "indoor": "room",
        "level": [
          2
        ],
        "ref": "",
        "name": "",
        "room_type": "",
        "_idx": 45,
        "_centroid": [
          126.9789244,
          37.2932291
        ],
        "_area_m2": 29
      },
      "geometry": {
        "type": "Polygon",
        "coordinates": [
          [
            [
              126.97893896497048,
              37.293191683366665
            ],
            [
              126.97889749255111,
              37.293196263158585
            ],
            [
              126.97890975819006,
              37.29326655963537
            ],
            [
              126.9789512306088,
              37.293261979848765
            ],
            [
              126.97893896497048,
              37.293191683366665
            ]
          ]
        ]
      }
    },
    {
      "type": "Feature",
      "properties": {
        "indoor": "room",
        "level": [
          2
        ],
        "ref": "83291",
        "name": "반도체디스플레이 대학원오픈랩",
        "room_type": "lab",
        "_idx": 46,
        "_centroid": [
          126.9783415,
          37.2931728
        ],
        "_area_m2": 54.7
      },
      "geometry": {
        "type": "Polygon",
        "coordinates": [
          [
            [
              126.97830353835185,
              37.29316642768082
            ],
            [
              126.97831109236634,
              37.29320972105892
            ],
            [
              126.97840150621576,
              37.29319973667491
            ],
            [
              126.97839090150039,
              37.293138959325404
            ],
            [
              126.9783004876756,
              37.293148943714705
            ],
            [
              126.97830353835185,
              37.29316642768082
            ]
          ]
        ]
      }
    },
    {
      "type": "Feature",
      "properties": {
        "indoor": "room",
        "level": [
          2
        ],
        "ref": "83292",
        "name": "차세대태양전지연구실",
        "room_type": "lab",
        "_idx": 47,
        "_centroid": [
          126.9784784,
          37.2931548
        ],
        "_area_m2": 62.8
      },
      "geometry": {
        "type": "Polygon",
        "coordinates": [
          [
            [
              126.97843352278365,
              37.29319166108639
            ],
            [
              126.97853415820468,
              37.29318054793357
            ],
            [
              126.97852322691034,
              37.29311789874178
            ],
            [
              126.97842259148543,
              37.29312901190435
            ],
            [
              126.97843352278365,
              37.29319166108639
            ]
          ]
        ]
      }
    },
    {
      "type": "Feature",
      "properties": {
        "indoor": "room",
        "level": [
          2
        ],
        "ref": "",
        "name": "",
        "room_type": "",
        "_idx": 48,
        "_centroid": [
          126.9783515,
          37.2931122
        ],
        "_area_m2": 41.6
      },
      "geometry": {
        "type": "Polygon",
        "coordinates": [
          [
            [
              126.97831221418664,
              37.29308666111186
            ],
            [
              126.97832266471383,
              37.29314655496752
            ],
            [
              126.97839091181613,
              37.29313901844695
            ],
            [
              126.97838001942982,
              37.29307659220966
            ],
            [
              126.97831221418664,
              37.29308666111186
            ]
          ]
        ]
      }
    },
    {
      "type": "Feature",
      "properties": {
        "indoor": "room",
        "level": [
          2
        ],
        "ref": "",
        "name": "",
        "room_type": "",
        "_idx": 49,
        "_centroid": [
          126.9784269,
          37.2930967
        ],
        "_area_m2": 13.4
      },
      "geometry": {
        "type": "Polygon",
        "coordinates": [
          [
            [
              126.97842259148543,
              37.29312901190435
            ],
            [
              126.97840962628982,
              37.29306673128206
            ],
            [
              126.97843223271342,
              37.29306423485439
            ],
            [
              126.97844313935553,
              37.2931267428047
            ],
            [
              126.97842259148543,
              37.29312901190435
            ]
          ]
        ]
      }
    },
    {
      "type": "Feature",
      "properties": {
        "indoor": "room",
        "level": [
          2
        ],
        "ref": "",
        "name": "",
        "room_type": "",
        "_idx": 50,
        "_centroid": [
          126.9784427,
          37.2930417
        ],
        "_area_m2": 30.7
      },
      "geometry": {
        "type": "Polygon",
        "coordinates": [
          [
            [
              126.97848303420581,
              37.29305862484243
            ],
            [
              126.97847570248116,
              37.29301660537027
            ],
            [
              126.97840229456848,
              37.293024711812876
            ],
            [
              126.97840962628982,
              37.29306673128206
            ],
            [
              126.97848303420581,
              37.29305862484243
            ]
          ]
        ]
      }
    },
    {
      "type": "Feature",
      "properties": {
        "indoor": "room",
        "level": [
          2
        ],
        "ref": "",
        "name": "",
        "room_type": "",
        "_idx": 51,
        "_centroid": [
          126.9785245,
          37.2930104
        ],
        "_area_m2": 54.3
      },
      "geometry": {
        "type": "Polygon",
        "coordinates": [
          [
            [
              126.97851965712228,
              37.29301175145477
            ],
            [
              126.97847570248116,
              37.29301660537027
            ],
            [
              126.97848303420581,
              37.29305862484243
            ],
            [
              126.97857530179554,
              37.29304843572814
            ],
            [
              126.97856015823328,
              37.29296164512117
            ],
            [
              126.978525013098,
              37.29296552620472
            ],
            [
              126.97853282493692,
              37.2930102973316
            ],
            [
              126.97851965712228,
              37.29301175145477
            ]
          ]
        ]
      }
    },
    {
      "type": "Feature",
      "properties": {
        "indoor": "room",
        "level": [
          2
        ],
        "ref": "",
        "name": "",
        "room_type": "",
        "_idx": 52,
        "_centroid": [
          126.9783423,
          37.2930043
        ],
        "_area_m2": 94
      },
      "geometry": {
        "type": "Polygon",
        "coordinates": [
          [
            [
              126.9783640881738,
              37.29294672551599
            ],
            [
              126.97828923987598,
              37.292954991026996
            ],
            [
              126.97831221418664,
              37.29308666111186
            ],
            [
              126.97838046128895,
              37.2930791245853
            ],
            [
              126.97836538975264,
              37.2929541851157
            ],
            [
              126.9783640881738,
              37.29294672551599
            ]
          ]
        ]
      }
    },
    {
      "type": "Feature",
      "properties": {
        "indoor": "room",
        "level": [
          2
        ],
        "ref": "83257",
        "name": "나노 광기능 소재 및 소자 연구실",
        "room_type": "lab",
        "_idx": 53,
        "_centroid": [
          126.978603,
          37.2930011
        ],
        "_area_m2": 60.9
      },
      "geometry": {
        "type": "Polygon",
        "coordinates": [
          [
            [
              126.97864576133837,
              37.2930406548775
            ],
            [
              126.97863061777657,
              37.29295386426195
            ],
            [
              126.97856015823328,
              37.29296164512117
            ],
            [
              126.97857530179554,
              37.29304843572814
            ],
            [
              126.97864576133837,
              37.2930406548775
            ]
          ]
        ]
      }
    },
    {
      "type": "Feature",
      "properties": {
        "indoor": "room",
        "level": [
          2
        ],
        "ref": "",
        "name": "",
        "room_type": "",
        "_idx": 54,
        "_centroid": [
          126.9784139,
          37.2930006
        ],
        "_area_m2": 13.9
      },
      "geometry": {
        "type": "Polygon",
        "coordinates": [
          [
            [
              126.9784333771108,
              37.293021279364886
            ],
            [
              126.97842556527172,
              37.29297650824463
            ],
            [
              126.97839448272872,
              37.29297994069499
            ],
            [
              126.97840229456848,
              37.293024711812876
            ],
            [
              126.9784333771108,
              37.293021279364886
            ]
          ]
        ]
      }
    },
    {
      "type": "Feature",
      "properties": {
        "indoor": "room",
        "level": [
          2
        ],
        "ref": "",
        "name": "",
        "room_type": "",
        "_idx": 55,
        "_centroid": [
          126.9784431,
          37.2929974
        ],
        "_area_m2": 12.2
      },
      "geometry": {
        "type": "Polygon",
        "coordinates": [
          [
            [
              126.9784606932898,
              37.29301826283674
            ],
            [
              126.97845288145146,
              37.29297349171438
            ],
            [
              126.97842556527172,
              37.29297650824463
            ],
            [
              126.9784333771108,
              37.293021279364886
            ],
            [
              126.9784606932898,
              37.29301826283674
            ]
          ]
        ]
      }
    },
    {
      "type": "Feature",
      "properties": {
        "indoor": "room",
        "level": [
          2
        ],
        "ref": "",
        "name": "",
        "room_type": "",
        "_idx": 56,
        "_centroid": [
          126.978493,
          37.2929964
        ],
        "_area_m2": 32.2
      },
      "geometry": {
        "type": "Polygon",
        "coordinates": [
          [
            [
              126.9784606932898,
              37.29301826283674
            ],
            [
              126.97849364146586,
              37.29301462436639
            ],
            [
              126.97853282493692,
              37.2930102973316
            ],
            [
              126.978525013098,
              37.29296552620472
            ],
            [
              126.97845288145146,
              37.29297349171438
            ],
            [
              126.9784606932898,
              37.29301826283674
            ]
          ]
        ]
      }
    },
    {
      "type": "Feature",
      "properties": {
        "indoor": "room",
        "level": [
          2
        ],
        "ref": "83253",
        "name": "IRMS연구실",
        "room_type": "lab",
        "_idx": 57,
        "_centroid": [
          126.9786692,
          37.2929895
        ],
        "_area_m2": 64.1
      },
      "geometry": {
        "type": "Polygon",
        "coordinates": [
          [
            [
              126.97863842001541,
              37.29299858038039
            ],
            [
              126.97864576133837,
              37.2930406548775
            ],
            [
              126.97871996866296,
              37.29303246015914
            ],
            [
              126.9787126273421,
              37.292990385656125
            ],
            [
              126.97870482510152,
              37.29294566953458
            ],
            [
              126.97863061777657,
              37.29295386426195
            ],
            [
              126.97863248092119,
              37.29296454230132
            ],
            [
              126.97863842001541,
              37.29299858038039
            ]
          ]
        ]
      }
    },
    {
      "type": "Feature",
      "properties": {
        "indoor": "room",
        "level": [
          2
        ],
        "ref": "83249",
        "name": "박승희교수Lab",
        "room_type": "lab",
        "_idx": 58,
        "_centroid": [
          126.9787476,
          37.2929852
        ],
        "_area_m2": 60.9
      },
      "geometry": {
        "type": "Polygon",
        "coordinates": [
          [
            [
              126.97879043955939,
              37.29302467805472
            ],
            [
              126.97877529599657,
              37.29293788742179
            ],
            [
              126.97870482510152,
              37.29294566953458
            ],
            [
              126.97871996866296,
              37.29303246015914
            ],
            [
              126.97879043955939,
              37.29302467805472
            ]
          ]
        ]
      }
    },
    {
      "type": "Feature",
      "properties": {
        "indoor": "room",
        "level": [
          2
        ],
        "ref": "83245",
        "name": "예비",
        "room_type": "reserved",
        "_idx": 59,
        "_centroid": [
          126.9788229,
          37.2929769
        ],
        "_area_m2": 69.2
      },
      "geometry": {
        "type": "Polygon",
        "coordinates": [
          [
            [
              126.97885535361858,
              37.29292904664214
            ],
            [
              126.97877529599657,
              37.29293788742179
            ],
            [
              126.97879043955939,
              37.29302467805472
            ],
            [
              126.97887049717973,
              37.293015837287925
            ],
            [
              126.97885535361858,
              37.29292904664214
            ]
          ]
        ]
      }
    },
    {
      "type": "Feature",
      "properties": {
        "indoor": "room",
        "level": [
          2
        ],
        "ref": "",
        "name": "",
        "room_type": "",
        "_idx": 60,
        "_centroid": [
          126.9783719,
          37.2929175
        ],
        "_area_m2": 17.8
      },
      "geometry": {
        "type": "Polygon",
        "coordinates": [
          [
            [
              126.97839078146733,
              37.29295138110313
            ],
            [
              126.97837847696536,
              37.29288086159878
            ],
            [
              126.97835308525104,
              37.29288366561292
            ],
            [
              126.97836538975264,
              37.292954185115704
            ],
            [
              126.97839078146733,
              37.29295138110313
            ]
          ]
        ]
      }
    },
    {
      "type": "Feature",
      "properties": {
        "indoor": "room",
        "level": [
          2
        ],
        "ref": "83262",
        "name": "83262호",
        "room_type": "",
        "_idx": 61,
        "_centroid": [
          126.9784663,
          37.2929071
        ],
        "_area_m2": 114.7
      },
      "geometry": {
        "type": "Polygon",
        "coordinates": [
          [
            [
              126.9785540782876,
              37.292933348199774
            ],
            [
              126.97854177378368,
              37.292862828678864
            ],
            [
              126.97837847696536,
              37.29288086159878
            ],
            [
              126.97839078146733,
              37.29295138110313
            ],
            [
              126.9785540782876,
              37.292933348199774
            ]
          ]
        ]
      }
    },
    {
      "type": "Feature",
      "properties": {
        "indoor": "room",
        "level": [
          2
        ],
        "ref": "83260",
        "name": "권오석 교수실",
        "room_type": "office",
        "_idx": 62,
        "_centroid": [
          126.9785674,
          37.2928959
        ],
        "_area_m2": 27.3
      },
      "geometry": {
        "type": "Polygon",
        "coordinates": [
          [
            [
              126.97859302023402,
              37.29292904783217
            ],
            [
              126.97858071572938,
              37.292858528307335
            ],
            [
              126.97854177378368,
              37.292862828678864
            ],
            [
              126.9785540782876,
              37.292933348199774
            ],
            [
              126.97859302023402,
              37.29292904783217
            ]
          ]
        ]
      }
    },
    {
      "type": "Feature",
      "properties": {
        "indoor": "room",
        "level": [
          2
        ],
        "ref": "83258",
        "name": "신소재공학부산학교수실",
        "room_type": "office",
        "_idx": 63,
        "_centroid": [
          126.9786042,
          37.2928919
        ],
        "_area_m2": 24.4
      },
      "geometry": {
        "type": "Polygon",
        "coordinates": [
          [
            [
              126.97861544858073,
              37.29285469274677
            ],
            [
              126.97858071572938,
              37.292858528307335
            ],
            [
              126.97859302023402,
              37.29292904783217
            ],
            [
              126.97862775308094,
              37.29292521227633
            ],
            [
              126.97861544858073,
              37.29285469274677
            ]
          ]
        ]
      }
    },
    {
      "type": "Feature",
      "properties": {
        "indoor": "room",
        "level": [
          2
        ],
        "ref": "83254",
        "name": "최혁렬교수연구실",
        "room_type": "lab",
        "_idx": 64,
        "_centroid": [
          126.9786568,
          37.2928789
        ],
        "_area_m2": 52.1
      },
      "geometry": {
        "type": "Polygon",
        "coordinates": [
          [
            [
              126.97868969660993,
              37.29284649351405
            ],
            [
              126.97864896025132,
              37.29285099204277
            ],
            [
              126.97861544858073,
              37.29285469274677
            ],
            [
              126.97862775308094,
              37.29292521227633
            ],
            [
              126.97870200110994,
              37.29291701305035
            ],
            [
              126.97868969660993,
              37.29284649351405
            ]
          ]
        ]
      }
    },
    {
      "type": "Feature",
      "properties": {
        "indoor": "room",
        "level": [
          2
        ],
        "ref": "83246",
        "name": "물질설계연구실",
        "room_type": "lab",
        "_idx": 65,
        "_centroid": [
          126.9787687,
          37.2928665
        ],
        "_area_m2": 100
      },
      "geometry": {
        "type": "Polygon",
        "coordinates": [
          [
            [
              126.97868969660993,
              37.29284649351405
            ],
            [
              126.97870200110994,
              37.29291701305035
            ],
            [
              126.97884439160812,
              37.29290128883669
            ],
            [
              126.97883208710786,
              37.29283076928509
            ],
            [
              126.97877526862482,
              37.29283704376902
            ],
            [
              126.97868969660993,
              37.29284649351405
            ]
          ]
        ]
      }
    },
    {
      "type": "Feature",
      "properties": {
        "indoor": "room",
        "level": [
          2
        ],
        "ref": "",
        "name": "",
        "room_type": "",
        "_idx": 66,
        "_centroid": [
          126.9788617,
          37.2928634
        ],
        "_area_m2": 32.9
      },
      "geometry": {
        "type": "Polygon",
        "coordinates": [
          [
            [
              126.97883208710786,
              37.29283076928509
            ],
            [
              126.97884439160812,
              37.29290128883669
            ],
            [
              126.9788912352737,
              37.29289611588052
            ],
            [
              126.97887893077213,
              37.29282559632329
            ],
            [
              126.97883208710786,
              37.29283076928509
            ]
          ]
        ]
      }
    }
  ]
}