{
  "type": "FeatureCollection",
  "features": [
    {
      "type": "Feature",
      "properties": {
        "building": "university",
        "name": "제2종합연구동",
        "loc_ref": "RES2"
      },
      "geometry": {
        "type": "Polygon",
        "coordinates": [
          [
            [
              126.9783004876756,
              37.293148943714705
            ],
            [
              126.97837327694661,
              37.29356611081651
            ],
            [
              126.97839117051619,
              37.29356413484255
            ],
            [
              126.97841897554777,
              37.2937234893757
            ],
            [
              126.97848595050984,
              37.293716093394195
            ],
            [
              126.9785006166797,
              37.29380014714157
            ],
            [
              126.97892387763153,
              37.293753406871716
            ],
            [
              126.97891214515411,
              37.29368616646715
            ],
            [
              126.978950070934,
              37.29368197835726
            ],
            [
              126.97893101482778,
              37.29357276511777
            ],
            [
              126.97853965182671,
              37.29361598303467
            ],
            [
              126.97852837209729,
              37.2935513372728
            ],
            [
              126.97859362541223,
              37.29354413139466
            ],
            [
              126.97857169750827,
              37.293418459231916
            ],
            [
              126.97893231032334,
              37.29337863693092
            ],
            [
              126.97891943222155,
              37.293304830428156
            ],
            [
              126.978957964913,
              37.29330057527601
            ],
            [
              126.97893896497048,
              37.293191683366665
            ],
            [
              126.9785437169096,
              37.29323533052871
            ],
            [
              126.97852322691034,
              37.29311789874178
            ],
            [
              126.97844313935553,
              37.2931267428047
            ],
            [
              126.97843223271342,
              37.29306423485439
            ],
            [
              126.97887049717973,
              37.293015837287925
            ],
            [
              126.97885535361858,
              37.29292904664214
            ],
            [
              126.97889619422546,
              37.29292453660513
            ],
            [
              126.97887893077213,
              37.29282559632329
            ],
            [
              126.97835308525107,
              37.292883665613054
            ],
            [
              126.9783640881738,
              37.29294672551599
            ],
            [
              126.97828923987598,
              37.292954991026996
            ],
            [
              126.97832266471383,
              37.29314655496752
            ],
            [
              126.9783004876756,
              37.293148943714705
            ]
          ]
        ]
      }
    }
  ]
}