{
  "type": "FeatureCollection",
  "features": [
    {
      "type": "Feature",
      "properties": {
        "indoor": "room",
        "level": "3",
        "ref": "",
        "name": "",
        "room_type": "",
        "_idx": 1,
        "_centroid": [
          126.9785121,
          37.2937646
        ],
        "_area_m2": 23.2
      },
      "geometry": {
        "type": "Polygon",
        "coordinates": [
          [
            [
              126.97853522521838,
              37.293796325357484
            ],
            [
              126.97852349274174,
              37.293729084990105
            ],
            [
              126.97848888245694,
              37.293732906971535
            ],
            [
              126.97850061493436,
              37.29380014733432
            ],
            [
              126.97853522521838,
              37.293796325357484
            ]
          ]
        ]
      }
    },
    {
      "type": "Feature",
      "properties": {
        "indoor": "room",
        "level": "3",
        "ref": "",
        "name": "",
        "room_type": "",
        "_idx": 2,
        "_centroid": [
          126.9787375,
          37.2937371
        ],
        "_area_m2": 260.2
      },
      "geometry": {
        "type": "Polygon",
        "coordinates": [
          [
            [
              126.97892387763153,
              37.293753406871716
            ],
            [
              126.97891214515411,
              37.29368616646715
            ],
            [
              126.97883910894645,
              37.29369423178777
            ],
            [
              126.97879603473973,
              37.29369898843204
            ],
            [
              126.97876675616145,
              37.29370222163784
            ],
            [
              126.97869592091111,
              37.29371004390838
            ],
            [
              126.97862300069244,
              37.29371809642004
            ],
            [
              126.97852349274174,
              37.293729084990105
            ],
            [
              126.97853522521838,
              37.293796325357484
            ],
            [
              126.97863473317071,
              37.29378533679677
            ],
            [
              126.97870765338897,
              37.29377728429216
            ],
            [
              126.97877848864088,
              37.29376946202824
            ],
            [
              126.97885084142371,
              37.29376147218493
            ],
            [
              126.97892387763153,
              37.293753406871716
            ]
          ]
        ]
      }
    },
    {
      "type": "Feature",
      "properties": {
        "indoor": "room",
        "level": "3",
        "ref": "",
        "name": "",
        "room_type": "",
        "_idx": 3,
        "_centroid": [
          126.9784578,
          37.29372
        ],
        "_area_m2": 117.6
      },
      "geometry": {
        "type": "Polygon",
        "coordinates": [
          [
            [
              126.9785006166797,
              37.29380014714157
            ],
            [
              126.97848888245694,
              37.293732906971535
            ],
            [
              126.97848594832807,
              37.29371609363516
            ],
            [
              126.97847337843538,
              37.293625745705505
            ],
            [
              126.97840327154088,
              37.293633487552675
            ],
            [
              126.97841897554787,
              37.29372348937569
            ],
            [
              126.97843369617121,
              37.29380785519403
            ],
            [
              126.9785006166797,
              37.29380014714157
            ]
          ]
        ]
      }
    },
    {
      "type": "Feature",
      "properties": {
        "indoor": "room",
        "level": "3",
        "ref": "",
        "name": "",
        "room_type": "",
        "_idx": 4,
        "_centroid": [
          126.9785294,
          37.2936647
        ],
        "_area_m2": 15.9
      },
      "geometry": {
        "type": "Polygon",
        "coordinates": [
          [
            [
              126.9785498415951,
              37.293687665646296
            ],
            [
              126.97854118878823,
              37.293638075218105
            ],
            [
              126.9785088917258,
              37.29364164175657
            ],
            [
              126.97851754453008,
              37.29369123218291
            ],
            [
              126.9785498415951,
              37.293687665646296
            ]
          ]
        ]
      }
    },
    {
      "type": "Feature",
      "properties": {
        "indoor": "room",
        "level": "3",
        "ref": "",
        "name": "",
        "room_type": "",
        "_idx": 5,
        "_centroid": [
          126.9785598,
          37.2936613
        ],
        "_area_m2": 14.1
      },
      "geometry": {
        "type": "Polygon",
        "coordinates": [
          [
            [
              126.97857844282021,
              37.29368450723804
            ],
            [
              126.97856979001304,
              37.29363491680799
            ],
            [
              126.97854118878823,
              37.293638075218105
            ],
            [
              126.9785498415951,
              37.293687665646296
            ],
            [
              126.97857844282021,
              37.29368450723804
            ]
          ]
        ]
      }
    },
    {
      "type": "Feature",
      "properties": {
        "indoor": "room",
        "level": "3",
        "ref": "",
        "name": "",
        "room_type": "",
        "_idx": 6,
        "_centroid": [
          126.9786135,
          37.2936503
        ],
        "_area_m2": 35.7
      },
      "geometry": {
        "type": "Polygon",
        "coordinates": [
          [
            [
              126.97862645160686,
              37.29362865971353
            ],
            [
              126.97856979001304,
              37.29363491680799
            ],
            [
              126.97857844282021,
              37.29368450723804
            ],
            [
              126.97865078605764,
              37.293676518437664
            ],
            [
              126.97864213325057,
              37.29362692800206
            ],
            [
              126.97862645160686,
              37.29362865971353
            ]
          ]
        ]
      }
    },
    {
      "type": "Feature",
      "properties": {
        "indoor": "room",
        "level": "3",
        "ref": "",
        "name": "",
        "room_type": "",
        "_idx": 7,
        "_centroid": [
          126.9787256,
          37.2936371
        ],
        "_area_m2": 59.1
      },
      "geometry": {
        "type": "Polygon",
        "coordinates": [
          [
            [
              126.97875772757668,
              37.29359190109677
            ],
            [
              126.97870997838345,
              37.293597174003395
            ],
            [
              126.97867468746034,
              37.29360107115274
            ],
            [
              126.97868715120904,
              37.29367250266532
            ],
            [
              126.9787224421352,
              37.29366860551914
            ],
            [
              126.9787572381408,
              37.2936647630266
            ],
            [
              126.97877019132798,
              37.29366333261744
            ],
            [
              126.97875772757668,
              37.29359190109677
            ]
          ]
        ]
      }
    },
    {
      "type": "Feature",
      "properties": {
        "indoor": "room",
        "level": "3",
        "ref": "",
        "name": "",
        "room_type": "",
        "_idx": 8,
        "_centroid": [
          126.9786444,
          37.2936361
        ],
        "_area_m2": 33.4
      },
      "geometry": {
        "type": "Polygon",
        "coordinates": [
          [
            [
              126.97860385117424,
              37.29360889354921
            ],
            [
              126.9786076621204,
              37.293630734621544
            ],
            [
              126.97864213325057,
              37.29362692800206
            ],
            [
              126.97865078605764,
              37.293676518437664
            ],
            [
              126.97868715120904,
              37.293672502665316
            ],
            [
              126.97867468746034,
              37.29360107115274
            ],
            [
              126.97860385117424,
              37.29360889354921
            ]
          ]
        ]
      }
    },
    {
      "type": "Feature",
      "properties": {
        "indoor": "room",
        "level": "3",
        "ref": "",
        "name": "",
        "room_type": "",
        "_idx": 9,
        "_centroid": [
          126.9785498,
          37.2936297
        ],
        "_area_m2": 16.3
      },
      "geometry": {
        "type": "Polygon",
        "coordinates": [
          [
            [
              126.97856979001304,
              37.29363491680799
            ],
            [
              126.97858367569549,
              37.29363338342321
            ],
            [
              126.97857986474935,
              37.29361154235163
            ],
            [
              126.97850508077866,
              37.29361980068787
            ],
            [
              126.9785088917258,
              37.29364164175657
            ],
            [
              126.97855178497004,
              37.29363690509033
            ],
            [
              126.97856979001304,
              37.29363491680799
            ]
          ]
        ]
      }
    },
    {
      "type": "Feature",
      "properties": {
        "indoor": "room",
        "level": "3",
        "ref": "",
        "name": "",
        "room_type": "",
        "_idx": 10,
        "_centroid": [
          126.9788077,
          37.2936228
        ],
        "_area_m2": 50.3
      },
      "geometry": {
        "type": "Polygon",
        "coordinates": [
          [
            [
              126.97875772757668,
              37.29359190109677
            ],
            [
              126.97877019132798,
              37.29366333261744
            ],
            [
              126.97883062386465,
              37.29365665910514
            ],
            [
              126.97884087278662,
              37.293655527325626
            ],
            [
              126.97882840903668,
              37.293584095797556
            ],
            [
              126.97881816011422,
              37.29358522757816
            ],
            [
              126.97875772757668,
              37.29359190109677
            ]
          ]
        ]
      }
    },
    {
      "type": "Feature",
      "properties": {
        "indoor": "room",
        "level": "3",
        "ref": "",
        "name": "",
        "room_type": "",
        "_idx": 11,
        "_centroid": [
          126.9785938,
          37.2936211
        ],
        "_area_m2": 5.2
      },
      "geometry": {
        "type": "Polygon",
        "coordinates": [
          [
            [
              126.97858367569549,
              37.29363338342321
            ],
            [
              126.9786076621204,
              37.293630734621544
            ],
            [
              126.97860385117424,
              37.29360889354921
            ],
            [
              126.97857986474935,
              37.29361154235163
            ],
            [
              126.97858367569549,
              37.29363338342321
            ]
          ]
        ]
      }
    },
    {
      "type": "Feature",
      "properties": {
        "indoor": "room",
        "level": "3",
        "ref": "",
        "name": "",
        "room_type": "",
        "_idx": 12,
        "_centroid": [
          126.9788664,
          37.2936163
        ],
        "_area_m2": 45.2
      },
      "geometry": {
        "type": "Polygon",
        "coordinates": [
          [
            [
              126.97882840903668,
              37.293584095797556
            ],
            [
              126.97884087278662,
              37.293655527325626
            ],
            [
              126.9789044575467,
              37.29364850571604
            ],
            [
              126.97889199379449,
              37.293577074181755
            ],
            [
              126.97882840903668,
              37.293584095797556
            ]
          ]
        ]
      }
    },
    {
      "type": "Feature",
      "properties": {
        "indoor": "room",
        "level": "3",
        "ref": "",
        "name": "",
        "room_type": "",
        "_idx": 13,
        "_centroid": [
          126.9789177,
          37.2936106
        ],
        "_area_m2": 27.7
      },
      "geometry": {
        "type": "Polygon",
        "coordinates": [
          [
            [
              126.97893101482778,
              37.29357276511777
            ],
            [
              126.97889199379449,
              37.293577074181755
            ],
            [
              126.9789044575467,
              37.29364850571604
            ],
            [
              126.97894347857917,
              37.293644196657475
            ],
            [
              126.97893101482778,
              37.29357276511777
            ]
          ]
        ]
      }
    },
    {
      "type": "Feature",
      "properties": {
        "indoor": "room",
        "level": "3",
        "ref": "",
        "name": "",
        "room_type": "",
        "_idx": 14,
        "_centroid": [
          126.9784261,
          37.2935979
        ],
        "_area_m2": 49.2
      },
      "geometry": {
        "type": "Polygon",
        "coordinates": [
          [
            [
              126.97839915597554,
              37.29360990066398
            ],
            [
              126.97840327154088,
              37.293633487552675
            ],
            [
              126.9784733784354,
              37.293625745705505
            ],
            [
              126.97846369077138,
              37.29355612648258
            ],
            [
              126.97839117051619,
              37.29356413484255
            ],
            [
              126.97839915597554,
              37.29360990066398
            ]
          ]
        ]
      }
    },
    {
      "type": "Feature",
      "properties": {
        "indoor": "room",
        "level": "3",
        "ref": "",
        "name": "",
        "room_type": "",
        "_idx": 15,
        "_centroid": [
          126.9784084,
          37.2935035
        ],
        "_area_m2": 103.8
      },
      "geometry": {
        "type": "Polygon",
        "coordinates": [
          [
            [
              126.97844356809426,
              37.29344080000082
            ],
            [
              126.97835315424076,
              37.29345078435316
            ],
            [
              126.97837327696644,
              37.293566110814325
            ],
            [
              126.97846369081181,
              37.29355612647813
            ],
            [
              126.97844356809426,
              37.29344080000082
            ]
          ]
        ]
      }
    },
    {
      "type": "Feature",
      "properties": {
        "indoor": "room",
        "level": "3",
        "ref": "",
        "name": "",
        "room_type": "",
        "_idx": 16,
        "_centroid": [
          126.9783928,
          37.2934139
        ],
        "_area_m2": 57.4
      },
      "geometry": {
        "type": "Polygon",
        "coordinates": [
          [
            [
              126.97843244568071,
              37.29337705568937
            ],
            [
              126.97834203182272,
              37.29338704005061
            ],
            [
              126.97835315424076,
              37.29345078435316
            ],
            [
              126.97844356809426,
              37.29344080000082
            ],
            [
              126.97843244568071,
              37.29337705568937
            ]
          ]
        ]
      }
    },
    {
      "type": "Feature",
      "properties": {
        "indoor": "room",
        "level": "3",
        "ref": "",
        "name": "",
        "room_type": "",
        "_idx": 17,
        "_centroid": [
          126.9785171,
          37.2934099
        ],
        "_area_m2": 9.7
      },
      "geometry": {
        "type": "Polygon",
        "coordinates": [
          [
            [
              126.97849763975657,
              37.29339743615175
            ],
            [
              126.9785026386115,
              37.29342608537043
            ],
            [
              126.9785365389597,
              37.29342234177238
            ],
            [
              126.9785315401045,
              37.29339369255137
            ],
            [
              126.97849763975657,
              37.29339743615175
            ]
          ]
        ]
      }
    },
    {
      "type": "Feature",
      "properties": {
        "indoor": "room",
        "level": "3",
        "ref": "",
        "name": "",
        "room_type": "",
        "_idx": 18,
        "_centroid": [
          126.978488,
          37.2933964
        ],
        "_area_m2": 15.6
      },
      "geometry": {
        "type": "Polygon",
        "coordinates": [
          [
            [
              126.97849530205029,
              37.29338403838746
            ],
            [
              126.9784927576525,
              37.293369456038626
            ],
            [
              126.97846499145055,
              37.29337252224886
            ],
            [
              126.97847487240591,
              37.29342915157826
            ],
            [
              126.9785026386115,
              37.29342608537043
            ],
            [
              126.97849763975657,
              37.29339743615175
            ],
            [
              126.97849530205029,
              37.29338403838746
            ]
          ]
        ]
      }
    },
    {
      "type": "Feature",
      "properties": {
        "indoor": "room",
        "level": "3",
        "ref": "",
        "name": "",
        "room_type": "",
        "_idx": 19,
        "_centroid": [
          126.9785429,
          37.2933903
        ],
        "_area_m2": 19.6
      },
      "geometry": {
        "type": "Polygon",
        "coordinates": [
          [
            [
              126.97852677881684,
              37.29336640485597
            ],
            [
              126.97852890807621,
              37.29337860798068
            ],
            [
              126.9785315401045,
              37.29339369255137
            ],
            [
              126.9785365389597,
              37.29342234177238
            ],
            [
              126.97857169750827,
              37.29341845923191
            ],
            [
              126.97856193737034,
              37.29336252231089
            ],
            [
              126.97852677881684,
              37.29336640485597
            ]
          ]
        ]
      }
    },
    {
      "type": "Feature",
      "properties": {
        "indoor": "room",
        "level": "3",
        "ref": "",
        "name": "",
        "room_type": "",
        "_idx": 20,
        "_centroid": [
          126.9786543,
          37.2933717
        ],
        "_area_m2": 31.6
      },
      "geometry": {
        "type": "Polygon",
        "coordinates": [
          [
            [
              126.97866930382492,
              37.29333245201429
            ],
            [
              126.97862634902654,
              37.293337195496576
            ],
            [
              126.97863922712942,
              37.29341100196808
            ],
            [
              126.97868218192905,
              37.29340625848946
            ],
            [
              126.97866930382492,
              37.29333245201429
            ]
          ]
        ]
      }
    },
    {
      "type": "Feature",
      "properties": {
        "indoor": "room",
        "level": "3",
        "ref": "",
        "name": "",
        "room_type": "",
        "_idx": 21,
        "_centroid": [
          126.9785963,
          37.2933706
        ],
        "_area_m2": 49.6
      },
      "geometry": {
        "type": "Polygon",
        "coordinates": [
          [
            [
              126.97862634902654,
              37.293337195496576
            ],
            [
              126.97858535978823,
              37.293341721921834
            ],
            [
              126.97855881940772,
              37.29334465276534
            ],
            [
              126.97857169750827,
              37.29341845923191
            ],
            [
              126.97863922712942,
              37.29341100196809
            ],
            [
              126.97862634902654,
              37.293337195496576
            ]
          ]
        ]
      }
    },
    {
      "type": "Feature",
      "properties": {
        "indoor": "room",
        "level": "3",
        "ref": "",
        "name": "",
        "room_type": "",
        "_idx": 22,
        "_centroid": [
          126.97873,
          37.2933634
        ],
        "_area_m2": 79.8
      },
      "geometry": {
        "type": "Polygon",
        "coordinates": [
          [
            [
              126.97866930382492,
              37.29333245201429
            ],
            [
              126.97868218192905,
              37.29340625848946
            ],
            [
              126.97879072620356,
              37.29339427199553
            ],
            [
              126.97877784810052,
              37.29332046550811
            ],
            [
              126.97866930382492,
              37.29333245201429
            ]
          ]
        ]
      }
    },
    {
      "type": "Feature",
      "properties": {
        "indoor": "room",
        "level": "3",
        "ref": "",
        "name": "",
        "room_type": "",
        "_idx": 23,
        "_centroid": [
          126.9785428,
          37.2933555
        ],
        "_area_m2": 6.3
      },
      "geometry": {
        "type": "Polygon",
        "coordinates": [
          [
            [
              126.97852677881684,
              37.29336640485597
            ],
            [
              126.97856193737034,
              37.29336252231089
            ],
            [
              126.97855881940772,
              37.29334465276534
            ],
            [
              126.97852366085412,
              37.29334853531136
            ],
            [
              126.97852677881684,
              37.29336640485597
            ]
          ]
        ]
      }
    },
    {
      "type": "Feature",
      "properties": {
        "indoor": "room",
        "level": "3",
        "ref": "",
        "name": "",
        "room_type": "",
        "_idx": 24,
        "_centroid": [
          126.9783823,
          37.2933537
        ],
        "_area_m2": 51.1
      },
      "geometry": {
        "type": "Polygon",
        "coordinates": [
          [
            [
              126.97842253822867,
              37.29332027451455
            ],
            [
              126.97833212436672,
              37.293330258883934
            ],
            [
              126.97834203182272,
              37.29338704005061
            ],
            [
              126.97843244568071,
              37.29337705568937
            ],
            [
              126.97842253822867,
              37.29332027451455
            ]
          ]
        ]
      }
    },
    {
      "type": "Feature",
      "properties": {
        "indoor": "room",
        "level": "3",
        "ref": "",
        "name": "",
        "room_type": "",
        "_idx": 25,
        "_centroid": [
          126.9788551,
          37.2933496
        ],
        "_area_m2": 104.0
      },
      "geometry": {
        "type": "Polygon",
        "coordinates": [
          [
            [
              126.97877784810052,
              37.29332046550811
            ],
            [
              126.97879072620356,
              37.29339427199553
            ],
            [
              126.9789323103236,
              37.29337863692677
            ],
            [
              126.97891943222074,
              37.29330483042351
            ],
            [
              126.97877784810052,
              37.29332046550811
            ]
          ]
        ]
      }
    },
    {
      "type": "Feature",
      "properties": {
        "indoor": "room",
        "level": "3",
        "ref": "",
        "name": "",
        "room_type": "",
        "_idx": 26,
        "_centroid": [
          126.9783719,
          37.2932944
        ],
        "_area_m2": 55.6
      },
      "geometry": {
        "type": "Polygon",
        "coordinates": [
          [
            [
              126.9783213552952,
              37.29326853954278
            ],
            [
              126.97833212436672,
              37.293330258883934
            ],
            [
              126.97842253822867,
              37.29332027451455
            ],
            [
              126.97841176914055,
              37.29325855516709
            ],
            [
              126.9783213552952,
              37.29326853954278
            ]
          ]
        ]
      }
    },
    {
      "type": "Feature",
      "properties": {
        "indoor": "room",
        "level": "3",
        "ref": "",
        "name": "",
        "room_type": "",
        "_idx": 27,
        "_centroid": [
          126.9784995,
          37.293276
        ],
        "_area_m2": 70.4
      },
      "geometry": {
        "type": "Polygon",
        "coordinates": [
          [
            [
              126.9785437169096,
              37.29323533052871
            ],
            [
              126.97844308148494,
              37.293246443675336
            ],
            [
              126.978455347123,
              37.293316740104814
            ],
            [
              126.97855598255047,
              37.293305626969186
            ],
            [
              126.9785437169096,
              37.29323533052871
            ]
          ]
        ]
      }
    },
    {
      "type": "Feature",
      "properties": {
        "indoor": "room",
        "level": "3",
        "ref": "",
        "name": "",
        "room_type": "",
        "_idx": 28,
        "_centroid": [
          126.9785989,
          37.2932579
        ],
        "_area_m2": 73.8
      },
      "geometry": {
        "type": "Polygon",
        "coordinates": [
          [
            [
              126.97864923043346,
              37.29322367869188
            ],
            [
              126.978584265092,
              37.29323085280144
            ],
            [
              126.9785437169096,
              37.29323533052871
            ],
            [
              126.97855598255049,
              37.29330562696918
            ],
            [
              126.97866149607503,
              37.29329397514105
            ],
            [
              126.97864923043346,
              37.29322367869188
            ]
          ]
        ]
      }
    },
    {
      "type": "Feature",
      "properties": {
        "indoor": "room",
        "level": "3",
        "ref": "",
        "name": "",
        "room_type": "",
        "_idx": 29,
        "_centroid": [
          126.9786742,
          37.2932567
        ],
        "_area_m2": 26.4
      },
      "geometry": {
        "type": "Polygon",
        "coordinates": [
          [
            [
              126.97864923043346,
              37.29322367869188
            ],
            [
              126.97866149607503,
              37.29329397514105
            ],
            [
              126.97869926496305,
              37.29328980433362
            ],
            [
              126.97868699932249,
              37.293219507880124
            ],
            [
              126.97864923043346,
              37.29322367869188
            ]
          ]
        ]
      }
    },
    {
      "type": "Feature",
      "properties": {
        "indoor": "room",
        "level": "3",
        "ref": "",
        "name": "",
        "room_type": "",
        "_idx": 30,
        "_centroid": [
          126.9787287,
          37.2932507
        ],
        "_area_m2": 49.8
      },
      "geometry": {
        "type": "Polygon",
        "coordinates": [
          [
            [
              126.97868699932249,
              37.293219507880124
            ],
            [
              126.97869926496305,
              37.29328980433362
            ],
            [
              126.97877042534739,
              37.29328194611287
            ],
            [
              126.97875815970679,
              37.293211649651425
            ],
            [
              126.97868699932249,
              37.293219507880124
            ]
          ]
        ]
      }
    },
    {
      "type": "Feature",
      "properties": {
        "indoor": "room",
        "level": "3",
        "ref": "",
        "name": "",
        "room_type": "",
        "_idx": 31,
        "_centroid": [
          126.9787995,
          37.2932429
        ],
        "_area_m2": 49.3
      },
      "geometry": {
        "type": "Polygon",
        "coordinates": [
          [
            [
              126.97875815970679,
              37.293211649651425
            ],
            [
              126.97877042534739,
              37.29328194611287
            ],
            [
              126.97884091585145,
              37.293274161866805
            ],
            [
              126.97882865021134,
              37.29320386539743
            ],
            [
              126.97875815970679,
              37.293211649651425
            ]
          ]
        ]
      }
    },
    {
      "type": "Feature",
      "properties": {
        "indoor": "room",
        "level": "3",
        "ref": "",
        "name": "",
        "room_type": "",
        "_idx": 32,
        "_centroid": [
          126.9788692,
          37.2932352
        ],
        "_area_m2": 48.2
      },
      "geometry": {
        "type": "Polygon",
        "coordinates": [
          [
            [
              126.97882865021134,
              37.29320386539743
            ],
            [
              126.97884091585145,
              37.293274161866805
            ],
            [
              126.97890975819053,
              37.29326655962713
            ],
            [
              126.97889749254963,
              37.29319626315014
            ],
            [
              126.97882865021134,
              37.29320386539743
            ]
          ]
        ]
      }
    },
    {
      "type": "Feature",
      "properties": {
        "indoor": "room",
        "level": "3",
        "ref": "",
        "name": "",
        "room_type": "",
        "_idx": 33,
        "_centroid": [
          126.9789244,
          37.2932291
        ],
        "_area_m2": 29.0
      },
      "geometry": {
        "type": "Polygon",
        "coordinates": [
          [
            [
              126.97893896497048,
              37.293191683366665
            ],
            [
              126.97889749255111,
              37.293196263158585
            ],
            [
              126.97890975819006,
              37.29326655963537
            ],
            [
              126.9789512306088,
              37.293261979848765
            ],
            [
              126.97893896497048,
              37.293191683366665
            ]
          ]
        ]
      }
    },
    {
      "type": "Feature",
      "properties": {
        "indoor": "room",
        "level": "3",
        "ref": "",
        "name": "",
        "room_type": "",
        "_idx": 34,
        "_centroid": [
          126.9783487,
          37.2931987
        ],
        "_area_m2": 107.7
      },
      "geometry": {
        "type": "Polygon",
        "coordinates": [
          [
            [
              126.97832135529521,
              37.29326853954279
            ],
            [
              126.97841176914058,
              37.29325855516709
            ],
            [
              126.97840150621576,
              37.29319973667491
            ],
            [
              126.97839090150039,
              37.293138959325404
            ],
            [
              126.9783004876756,
              37.293148943714705
            ],
            [
              126.97830353835185,
              37.29316642768082
            ],
            [
              126.97831109236634,
              37.29320972105892
            ],
            [
              126.97832135529521,
              37.29326853954279
            ]
          ]
        ]
      }
    },
    {
      "type": "Feature",
      "properties": {
        "indoor": "room",
        "level": "3",
        "ref": "",
        "name": "",
        "room_type": "",
        "_idx": 35,
        "_centroid": [
          126.9783515,
          37.2931122
        ],
        "_area_m2": 41.6
      },
      "geometry": {
        "type": "Polygon",
        "coordinates": [
          [
            [
              126.97831221418664,
              37.29308666111186
            ],
            [
              126.97832266471383,
              37.29314655496752
            ],
            [
              126.97839091181613,
              37.29313901844695
            ],
            [
              126.97838001942982,
              37.29307659220966
            ],
            [
              126.97831221418664,
              37.29308666111186
            ]
          ]
        ]
      }
    },
    {
      "type": "Feature",
      "properties": {
        "indoor": "room",
        "level": "3",
        "ref": "",
        "name": "",
        "room_type": "",
        "_idx": 36,
        "_centroid": [
          126.9784427,
          37.2930417
        ],
        "_area_m2": 30.7
      },
      "geometry": {
        "type": "Polygon",
        "coordinates": [
          [
            [
              126.97848303420581,
              37.29305862484243
            ],
            [
              126.97847570248116,
              37.29301660537027
            ],
            [
              126.97840229456848,
              37.293024711812876
            ],
            [
              126.97840962628982,
              37.29306673128206
            ],
            [
              126.97848303420581,
              37.29305862484243
            ]
          ]
        ]
      }
    },
    {
      "type": "Feature",
      "properties": {
        "indoor": "room",
        "level": "3",
        "ref": "",
        "name": "",
        "room_type": "",
        "_idx": 37,
        "_centroid": [
          126.9785245,
          37.2930104
        ],
        "_area_m2": 54.3
      },
      "geometry": {
        "type": "Polygon",
        "coordinates": [
          [
            [
              126.97851965712228,
              37.29301175145477
            ],
            [
              126.97847570248116,
              37.29301660537027
            ],
            [
              126.97848303420581,
              37.29305862484243
            ],
            [
              126.97857530179554,
              37.29304843572814
            ],
            [
              126.97856015823328,
              37.29296164512117
            ],
            [
              126.978525013098,
              37.29296552620472
            ],
            [
              126.97853282493692,
              37.2930102973316
            ],
            [
              126.97851965712228,
              37.29301175145477
            ]
          ]
        ]
      }
    },
    {
      "type": "Feature",
      "properties": {
        "indoor": "room",
        "level": "3",
        "ref": "",
        "name": "",
        "room_type": "",
        "_idx": 38,
        "_centroid": [
          126.978603,
          37.2930011
        ],
        "_area_m2": 60.9
      },
      "geometry": {
        "type": "Polygon",
        "coordinates": [
          [
            [
              126.97864576133837,
              37.2930406548775
            ],
            [
              126.97863061777657,
              37.29295386426195
            ],
            [
              126.97856015823328,
              37.29296164512117
            ],
            [
              126.97857530179554,
              37.29304843572814
            ],
            [
              126.97864576133837,
              37.2930406548775
            ]
          ]
        ]
      }
    },
    {
      "type": "Feature",
      "properties": {
        "indoor": "room",
        "level": "3",
        "ref": "",
        "name": "",
        "room_type": "",
        "_idx": 39,
        "_centroid": [
          126.9784139,
          37.2930006
        ],
        "_area_m2": 13.9
      },
      "geometry": {
        "type": "Polygon",
        "coordinates": [
          [
            [
              126.9784333771108,
              37.293021279364886
            ],
            [
              126.97842556527172,
              37.29297650824463
            ],
            [
              126.97839448272872,
              37.29297994069499
            ],
            [
              126.97840229456848,
              37.293024711812876
            ],
            [
              126.9784333771108,
              37.293021279364886
            ]
          ]
        ]
      }
    },
    {
      "type": "Feature",
      "properties": {
        "indoor": "room",
        "level": "3",
        "ref": "",
        "name": "",
        "room_type": "",
        "_idx": 40,
        "_centroid": [
          126.9784431,
          37.2929974
        ],
        "_area_m2": 12.2
      },
      "geometry": {
        "type": "Polygon",
        "coordinates": [
          [
            [
              126.9784606932898,
              37.29301826283674
            ],
            [
              126.97845288145146,
              37.29297349171438
            ],
            [
              126.97842556527172,
              37.29297650824463
            ],
            [
              126.9784333771108,
              37.293021279364886
            ],
            [
              126.9784606932898,
              37.29301826283674
            ]
          ]
        ]
      }
    },
    {
      "type": "Feature",
      "properties": {
        "indoor": "room",
        "level": "3",
        "ref": "",
        "name": "",
        "room_type": "",
        "_idx": 41,
        "_centroid": [
          126.978493,
          37.2929964
        ],
        "_area_m2": 32.2
      },
      "geometry": {
        "type": "Polygon",
        "coordinates": [
          [
            [
              126.9784606932898,
              37.29301826283674
            ],
            [
              126.97849364146586,
              37.29301462436639
            ],
            [
              126.97853282493692,
              37.2930102973316
            ],
            [
              126.978525013098,
              37.29296552620472
            ],
            [
              126.97845288145146,
              37.29297349171438
            ],
            [
              126.9784606932898,
              37.29301826283674
            ]
          ]
        ]
      }
    },
    {
      "type": "Feature",
      "properties": {
        "indoor": "room",
        "level": "3",
        "ref": "",
        "name": "",
        "room_type": "",
        "_idx": 42,
        "_centroid": [
          126.9786692,
          37.2929895
        ],
        "_area_m2": 64.1
      },
      "geometry": {
        "type": "Polygon",
        "coordinates": [
          [
            [
              126.97863842001541,
              37.29299858038039
            ],
            [
              126.97864576133837,
              37.2930406548775
            ],
            [
              126.97871996866296,
              37.29303246015914
            ],
            [
              126.9787126273421,
              37.292990385656125
            ],
            [
              126.97870482510152,
              37.29294566953458
            ],
            [
              126.97863061777657,
              37.29295386426195
            ],
            [
              126.97863248092119,
              37.29296454230132
            ],
            [
              126.97863842001541,
              37.29299858038039
            ]
          ]
        ]
      }
    },
    {
      "type": "Feature",
      "properties": {
        "indoor": "room",
        "level": "3",
        "ref": "",
        "name": "",
        "room_type": "",
        "_idx": 43,
        "_centroid": [
          126.9787476,
          37.2929852
        ],
        "_area_m2": 60.9
      },
      "geometry": {
        "type": "Polygon",
        "coordinates": [
          [
            [
              126.97879043955939,
              37.29302467805472
            ],
            [
              126.97877529599657,
              37.29293788742179
            ],
            [
              126.97870482510152,
              37.29294566953458
            ],
            [
              126.97871996866296,
              37.29303246015914
            ],
            [
              126.97879043955939,
              37.29302467805472
            ]
          ]
        ]
      }
    },
    {
      "type": "Feature",
      "properties": {
        "indoor": "room",
        "level": "3",
        "ref": "",
        "name": "",
        "room_type": "",
        "_idx": 44,
        "_centroid": [
          126.9783368,
          37.2929791
        ],
        "_area_m2": 144.3
      },
      "geometry": {
        "type": "Polygon",
        "coordinates": [
          [
            [
              126.97835308525102,
              37.29288366561291
            ],
            [
              126.97836538975264,
              37.2929541851157
            ],
            [
              126.97838001942982,
              37.29307659220966
            ],
            [
              126.97831221418664,
              37.29308666111186
            ],
            [
              126.97827347022947,
              37.29289450979312
            ],
            [
              126.97835308525102,
              37.29288366561291
            ]
          ]
        ]
      }
    },
    {
      "type": "Feature",
      "properties": {
        "indoor": "room",
        "level": "3",
        "ref": "",
        "name": "",
        "room_type": "",
        "_idx": 45,
        "_centroid": [
          126.9788229,
          37.2929769
        ],
        "_area_m2": 69.2
      },
      "geometry": {
        "type": "Polygon",
        "coordinates": [
          [
            [
              126.97885535361858,
              37.29292904664214
            ],
            [
              126.97877529599657,
              37.29293788742179
            ],
            [
              126.97879043955939,
              37.29302467805472
            ],
            [
              126.97887049717973,
              37.293015837287925
            ],
            [
              126.97885535361858,
              37.29292904664214
            ]
          ]
        ]
      }
    },
    {
      "type": "Feature",
      "properties": {
        "indoor": "room",
        "level": "3",
        "ref": "",
        "name": "",
        "room_type": "",
        "_idx": 46,
        "_centroid": [
          126.9783719,
          37.2929175
        ],
        "_area_m2": 17.8
      },
      "geometry": {
        "type": "Polygon",
        "coordinates": [
          [
            [
              126.97839078146733,
              37.29295138110313
            ],
            [
              126.97837847696536,
              37.29288086159878
            ],
            [
              126.97835308525104,
              37.29288366561292
            ],
            [
              126.97836538975264,
              37.292954185115704
            ],
            [
              126.97839078146733,
              37.29295138110313
            ]
          ]
        ]
      }
    },
    {
      "type": "Feature",
      "properties": {
        "indoor": "room",
        "level": "3",
        "ref": "",
        "name": "",
        "room_type": "",
        "_idx": 47,
        "_centroid": [
          126.9784347,
          37.2929106
        ],
        "_area_m2": 70.3
      },
      "geometry": {
        "type": "Polygon",
        "coordinates": [
          [
            [
              126.97847865240247,
              37.2928697991937
            ],
            [
              126.97837847696536,
              37.29288086159878
            ],
            [
              126.97839078146733,
              37.29295138110313
            ],
            [
              126.97849095690759,
              37.29294031870749
            ],
            [
              126.97847865240247,
              37.2928697991937
            ]
          ]
        ]
      }
    },
    {
      "type": "Feature",
      "properties": {
        "indoor": "room",
        "level": "3",
        "ref": "",
        "name": "",
        "room_type": "",
        "_idx": 48,
        "_centroid": [
          126.97853,
          37.2929001
        ],
        "_area_m2": 50.8
      },
      "geometry": {
        "type": "Polygon",
        "coordinates": [
          [
            [
              126.97847865240247,
              37.2928697991937
            ],
            [
              126.97849095690759,
              37.29294031870749
            ],
            [
              126.9785540782876,
              37.292933348199774
            ],
            [
              126.97856331872283,
              37.292932327776505
            ],
            [
              126.97855101421914,
              37.29286180825462
            ],
            [
              126.97854177378368,
              37.292862828678864
            ],
            [
              126.97847865240247,
              37.2928697991937
            ]
          ]
        ]
      }
    },
    {
      "type": "Feature",
      "properties": {
        "indoor": "room",
        "level": "3",
        "ref": "",
        "name": "",
        "room_type": "",
        "_idx": 49,
        "_centroid": [
          126.9785985,
          37.2928925
        ],
        "_area_m2": 49.8
      },
      "geometry": {
        "type": "Polygon",
        "coordinates": [
          [
            [
              126.97855101421914,
              37.29286180825462
            ],
            [
              126.97856331872283,
              37.292932327776505
            ],
            [
              126.97859302023402,
              37.29292904783217
            ],
            [
              126.97862775308094,
              37.29292521227633
            ],
            [
              126.97863432634787,
              37.29292448638903
            ],
            [
              126.97862202184403,
              37.292853966859305
            ],
            [
              126.97861544858073,
              37.29285469274677
            ],
            [
              126.97858071572938,
              37.292858528307335
            ],
            [
              126.97855101421914,
              37.29286180825462
            ]
          ]
        ]
      }
    },
    {
      "type": "Feature",
      "properties": {
        "indoor": "room",
        "level": "3",
        "ref": "",
        "name": "",
        "room_type": "",
        "_idx": 50,
        "_centroid": [
          126.9786713,
          37.2928793
        ],
        "_area_m2": 51.1
      },
      "geometry": {
        "type": "Polygon",
        "coordinates": [
          [
            [
              126.97862202184403,
              37.292853966859305
            ],
            [
              126.97863432634787,
              37.29292448638903
            ],
            [
              126.97870200110994,
              37.29291701305035
            ],
            [
              126.97870715573202,
              37.29291644382431
            ],
            [
              126.97869485122847,
              37.29284592428787
            ],
            [
              126.97868969660993,
              37.29284649351405
            ],
            [
              126.97864896025132,
              37.29285099204277
            ],
            [
              126.97862202184403,
              37.292853966859305
            ]
          ]
        ]
      }
    },
    {
      "type": "Feature",
      "properties": {
        "indoor": "room",
        "level": "3",
        "ref": "",
        "name": "",
        "room_type": "",
        "_idx": 51,
        "_centroid": [
          126.9787362,
          37.2928773
        ],
        "_area_m2": 49.4
      },
      "geometry": {
        "type": "Polygon",
        "coordinates": [
          [
            [
              126.97869485122847,
              37.29284592428787
            ],
            [
              126.97870715573202,
              37.29291644382431
            ],
            [
              126.97877754612384,
              37.292908670598045
            ],
            [
              126.97876524162047,
              37.292838151054326
            ],
            [
              126.97869485122847,
              37.29284592428787
            ]
          ]
        ]
      }
    },
    {
      "type": "Feature",
      "properties": {
        "indoor": "room",
        "level": "3",
        "ref": "",
        "name": "",
        "room_type": "",
        "_idx": 52,
        "_centroid": [
          126.9788617,
          37.2928634
        ],
        "_area_m2": 32.9
      },
      "geometry": {
        "type": "Polygon",
        "coordinates": [
          [
            [
              126.97883208710786,
              37.29283076928509
            ],
            [
              126.97884439160812,
              37.29290128883669
            ],
            [
              126.9788912352737,
              37.29289611588052
            ],
            [
              126.97887893077213,
              37.29282559632329
            ],
            [
              126.97883208710786,
              37.29283076928509
            ]
          ]
        ]
      }
    },
    {
      "type": "Feature",
      "properties": {
        "indoor": "room",
        "level": "3",
        "ref": "",
        "name": "",
        "room_type": "",
        "_idx": 53,
        "_centroid": [
          126.9787989,
          37.2928632
        ],
        "_area_m2": 46.9
      },
      "geometry": {
        "type": "Polygon",
        "coordinates": [
          [
            [
              126.97876524162047,
              37.292838151054326
            ],
            [
              126.97877754612384,
              37.292908670598045
            ],
            [
              126.97884439160812,
              37.29290128883669
            ],
            [
              126.97883208710786,
              37.29283076928509
            ],
            [
              126.97877526862482,
              37.29283704376902
            ],
            [
              126.97876524162047,
              37.292838151054326
            ]
          ]
        ]
      }
    }
  ]
}