{
  "type": "FeatureCollection",
  "features": [
    {
      "type": "Feature",
      "properties": {
        "indoor": "room",
        "level": "4",
        "ref": "",
        "name": "",
        "room_type": "",
        "_idx": 1,
        "_centroid": [
          126.9784618,
          37.2937733
        ],
        "_area_m2": 40.9
      },
      "geometry": {
        "type": "Polygon",
        "coordinates": [
          [
            [
              126.97848994296817,
              37.29373898398114
            ],
            [
              126.97842296908247,
              37.29374637684503
            ],
            [
              126.97843369617121,
              37.29380785519403
            ],
            [
              126.9785006166797,
              37.29380014714157
            ],
            [
              126.97848994296817,
              37.29373898398114
            ]
          ]
        ]
      }
    },
    {
      "type": "Feature",
      "properties": {
        "indoor": "room",
        "level": "4",
        "ref": "",
        "name": "",
        "room_type": "",
        "_idx": 2,
        "_centroid": [
          126.9785902,
          37.2937628
        ],
        "_area_m2": 66.6
      },
      "geometry": {
        "type": "Polygon",
        "coordinates": [
          [
            [
              126.9786347331711,
              37.29378533679673
            ],
            [
              126.97862300069244,
              37.29371809642004
            ],
            [
              126.97852349274174,
              37.293729084990105
            ],
            [
              126.97853522521838,
              37.293796325357484
            ],
            [
              126.97863473317071,
              37.29378533679677
            ],
            [
              126.9786347331711,
              37.29378533679673
            ]
          ]
        ]
      }
    },
    {
      "type": "Feature",
      "properties": {
        "indoor": "room",
        "level": "4",
        "ref": "",
        "name": "",
        "room_type": "",
        "_idx": 3,
        "_centroid": [
          126.978714,
          37.2937472
        ],
        "_area_m2": 97.9
      },
      "geometry": {
        "type": "Polygon",
        "coordinates": [
          [
            [
              126.97870361084277,
              37.29370919471645
            ],
            [
              126.97862300069244,
              37.29371809642004
            ],
            [
              126.9786347331711,
              37.29378533679673
            ],
            [
              126.97870765338897,
              37.29377728429216
            ],
            [
              126.97877848864088,
              37.29376946202824
            ],
            [
              126.978781022403,
              37.29376918222749
            ],
            [
              126.97876928992487,
              37.29370194183673
            ],
            [
              126.97870361084277,
              37.29370919471645
            ]
          ]
        ]
      }
    },
    {
      "type": "Feature",
      "properties": {
        "indoor": "room",
        "level": "4",
        "ref": "",
        "name": "",
        "room_type": "",
        "_idx": 4,
        "_centroid": [
          126.9788389,
          37.2937236
        ],
        "_area_m2": 95.6
      },
      "geometry": {
        "type": "Polygon",
        "coordinates": [
          [
            [
              126.97876928992487,
              37.29370194183673
            ],
            [
              126.978781022403,
              37.29376918222749
            ],
            [
              126.97885084142371,
              37.29376147218493
            ],
            [
              126.97892387763153,
              37.293753406871716
            ],
            [
              126.97891214515411,
              37.29368616646715
            ],
            [
              126.97883910894645,
              37.29369423178777
            ],
            [
              126.97879603473973,
              37.29369898843204
            ],
            [
              126.97876928992487,
              37.29370194183673
            ]
          ]
        ]
      }
    },
    {
      "type": "Feature",
      "properties": {
        "indoor": "room",
        "level": "4",
        "ref": "",
        "name": "",
        "room_type": "",
        "_idx": 5,
        "_centroid": [
          126.9784548,
          37.2937024
        ],
        "_area_m2": 76.7
      },
      "geometry": {
        "type": "Polygon",
        "coordinates": [
          [
            [
              126.97842296908247,
              37.29374637684503
            ],
            [
              126.97848994296817,
              37.29373898398114
            ],
            [
              126.97848888245694,
              37.293732906971535
            ],
            [
              126.97848594832807,
              37.29371609363516
            ],
            [
              126.97847337843538,
              37.293625745705505
            ],
            [
              126.97840327154088,
              37.293633487552675
            ],
            [
              126.97841897554787,
              37.29372348937569
            ],
            [
              126.97842296908247,
              37.29374637684503
            ]
          ]
        ]
      }
    },
    {
      "type": "Feature",
      "properties": {
        "indoor": "room",
        "level": "4",
        "ref": "",
        "name": "",
        "room_type": "",
        "_idx": 6,
        "_centroid": [
          126.9785294,
          37.2936647
        ],
        "_area_m2": 15.9
      },
      "geometry": {
        "type": "Polygon",
        "coordinates": [
          [
            [
              126.9785498415951,
              37.293687665646296
            ],
            [
              126.97854118878823,
              37.293638075218105
            ],
            [
              126.9785088917258,
              37.29364164175657
            ],
            [
              126.97851754453008,
              37.29369123218291
            ],
            [
              126.9785498415951,
              37.293687665646296
            ]
          ]
        ]
      }
    },
    {
      "type": "Feature",
      "properties": {
        "indoor": "room",
        "level": "4",
        "ref": "",
        "name": "",
        "room_type": "",
        "_idx": 7,
        "_centroid": [
          126.9785598,
          37.2936613
        ],
        "_area_m2": 14.1
      },
      "geometry": {
        "type": "Polygon",
        "coordinates": [
          [
            [
              126.97857844282021,
              37.29368450723804
            ],
            [
              126.97856979001304,
              37.29363491680799
            ],
            [
              126.97854118878823,
              37.293638075218105
            ],
            [
              126.9785498415951,
              37.293687665646296
            ],
            [
              126.97857844282021,
              37.29368450723804
            ]
          ]
        ]
      }
    },
    {
      "type": "Feature",
      "properties": {
        "indoor": "room",
        "level": "4",
        "ref": "",
        "name": "",
        "room_type": "",
        "_idx": 8,
        "_centroid": [
          126.9786135,
          37.2936503
        ],
        "_area_m2": 35.7
      },
      "geometry": {
        "type": "Polygon",
        "coordinates": [
          [
            [
              126.97862645160686,
              37.29362865971353
            ],
            [
              126.97856979001304,
              37.29363491680799
            ],
            [
              126.97857844282021,
              37.29368450723804
            ],
            [
              126.97865078605764,
              37.293676518437664
            ],
            [
              126.97864213325057,
              37.29362692800206
            ],
            [
              126.97862645160686,
              37.29362865971353
            ]
          ]
        ]
      }
    },
    {
      "type": "Feature",
      "properties": {
        "indoor": "room",
        "level": "4",
        "ref": "",
        "name": "",
        "room_type": "",
        "_idx": 9,
        "_centroid": [
          126.9787256,
          37.2936371
        ],
        "_area_m2": 59.1
      },
      "geometry": {
        "type": "Polygon",
        "coordinates": [
          [
            [
              126.97875772757668,
              37.29359190109677
            ],
            [
              126.97870997838345,
              37.293597174003395
            ],
            [
              126.97867468746034,
              37.29360107115274
            ],
            [
              126.97868715120904,
              37.29367250266532
            ],
            [
              126.9787224421352,
              37.29366860551914
            ],
            [
              126.9787572381408,
              37.2936647630266
            ],
            [
              126.97877019132798,
              37.29366333261744
            ],
            [
              126.97875772757668,
              37.29359190109677
            ]
          ]
        ]
      }
    },
    {
      "type": "Feature",
      "properties": {
        "indoor": "room",
        "level": "4",
        "ref": "",
        "name": "",
        "room_type": "",
        "_idx": 10,
        "_centroid": [
          126.9786444,
          37.2936361
        ],
        "_area_m2": 33.4
      },
      "geometry": {
        "type": "Polygon",
        "coordinates": [
          [
            [
              126.97860385117424,
              37.29360889354921
            ],
            [
              126.9786076621204,
              37.293630734621544
            ],
            [
              126.97864213325057,
              37.29362692800206
            ],
            [
              126.97865078605764,
              37.293676518437664
            ],
            [
              126.97868715120904,
              37.293672502665316
            ],
            [
              126.97867468746034,
              37.29360107115274
            ],
            [
              126.97860385117424,
              37.29360889354921
            ]
          ]
        ]
      }
    },
    {
      "type": "Feature",
      "properties": {
        "indoor": "room",
        "level": "4",
        "ref": "",
        "name": "",
        "room_type": "",
        "_idx": 11,
        "_centroid": [
          126.9785498,
          37.2936297
        ],
        "_area_m2": 16.3
      },
      "geometry": {
        "type": "Polygon",
        "coordinates": [
          [
            [
              126.97856979001304,
              37.29363491680799
            ],
            [
              126.97858367569549,
              37.29363338342321
            ],
            [
              126.97857986474935,
              37.29361154235163
            ],
            [
              126.97850508077866,
              37.29361980068787
            ],
            [
              126.9785088917258,
              37.29364164175657
            ],
            [
              126.97855178497004,
              37.29363690509033
            ],
            [
              126.97856979001304,
              37.29363491680799
            ]
          ]
        ]
      }
    },
    {
      "type": "Feature",
      "properties": {
        "indoor": "room",
        "level": "4",
        "ref": "",
        "name": "",
        "room_type": "",
        "_idx": 12,
        "_centroid": [
          126.9788077,
          37.2936228
        ],
        "_area_m2": 50.3
      },
      "geometry": {
        "type": "Polygon",
        "coordinates": [
          [
            [
              126.97875772757668,
              37.29359190109677
            ],
            [
              126.97877019132798,
              37.29366333261744
            ],
            [
              126.97883062386465,
              37.29365665910514
            ],
            [
              126.97884087278662,
              37.293655527325626
            ],
            [
              126.97882840903668,
              37.293584095797556
            ],
            [
              126.97881816011422,
              37.29358522757816
            ],
            [
              126.97875772757668,
              37.29359190109677
            ]
          ]
        ]
      }
    },
    {
      "type": "Feature",
      "properties": {
        "indoor": "room",
        "level": "4",
        "ref": "",
        "name": "",
        "room_type": "",
        "_idx": 13,
        "_centroid": [
          126.9785938,
          37.2936211
        ],
        "_area_m2": 5.2
      },
      "geometry": {
        "type": "Polygon",
        "coordinates": [
          [
            [
              126.97858367569549,
              37.29363338342321
            ],
            [
              126.9786076621204,
              37.293630734621544
            ],
            [
              126.97860385117424,
              37.29360889354921
            ],
            [
              126.97857986474935,
              37.29361154235163
            ],
            [
              126.97858367569549,
              37.29363338342321
            ]
          ]
        ]
      }
    },
    {
      "type": "Feature",
      "properties": {
        "indoor": "room",
        "level": "4",
        "ref": "",
        "name": "",
        "room_type": "",
        "_idx": 14,
        "_centroid": [
          126.9788664,
          37.2936163
        ],
        "_area_m2": 45.2
      },
      "geometry": {
        "type": "Polygon",
        "coordinates": [
          [
            [
              126.97882840903668,
              37.293584095797556
            ],
            [
              126.97884087278662,
              37.293655527325626
            ],
            [
              126.9789044575467,
              37.29364850571604
            ],
            [
              126.97889199379449,
              37.293577074181755
            ],
            [
              126.97882840903668,
              37.293584095797556
            ]
          ]
        ]
      }
    },
    {
      "type": "Feature",
      "properties": {
        "indoor": "room",
        "level": "4",
        "ref": "",
        "name": "",
        "room_type": "",
        "_idx": 15,
        "_centroid": [
          126.9789177,
          37.2936106
        ],
        "_area_m2": 27.7
      },
      "geometry": {
        "type": "Polygon",
        "coordinates": [
          [
            [
              126.97893101482778,
              37.29357276511777
            ],
            [
              126.97889199379449,
              37.293577074181755
            ],
            [
              126.9789044575467,
              37.29364850571604
            ],
            [
              126.97894347857917,
              37.293644196657475
            ],
            [
              126.97893101482778,
              37.29357276511777
            ]
          ]
        ]
      }
    },
    {
      "type": "Feature",
      "properties": {
        "indoor": "room",
        "level": "4",
        "ref": "",
        "name": "",
        "room_type": "",
        "_idx": 16,
        "_centroid": [
          126.9785171,
          37.2934099
        ],
        "_area_m2": 9.7
      },
      "geometry": {
        "type": "Polygon",
        "coordinates": [
          [
            [
              126.97849763975657,
              37.29339743615175
            ],
            [
              126.9785026386115,
              37.29342608537043
            ],
            [
              126.9785365389597,
              37.29342234177238
            ],
            [
              126.9785315401045,
              37.29339369255137
            ],
            [
              126.97849763975657,
              37.29339743615175
            ]
          ]
        ]
      }
    },
    {
      "type": "Feature",
      "properties": {
        "indoor": "room",
        "level": "4",
        "ref": "",
        "name": "",
        "room_type": "",
        "_idx": 17,
        "_centroid": [
          126.978488,
          37.2933964
        ],
        "_area_m2": 15.6
      },
      "geometry": {
        "type": "Polygon",
        "coordinates": [
          [
            [
              126.97849530205029,
              37.29338403838746
            ],
            [
              126.9784927576525,
              37.293369456038626
            ],
            [
              126.97846499145055,
              37.29337252224886
            ],
            [
              126.97847487240591,
              37.29342915157826
            ],
            [
              126.9785026386115,
              37.29342608537043
            ],
            [
              126.97849763975657,
              37.29339743615175
            ],
            [
              126.97849530205029,
              37.29338403838746
            ]
          ]
        ]
      }
    },
    {
      "type": "Feature",
      "properties": {
        "indoor": "room",
        "level": "4",
        "ref": "",
        "name": "",
        "room_type": "",
        "_idx": 18,
        "_centroid": [
          126.9785429,
          37.2933903
        ],
        "_area_m2": 19.6
      },
      "geometry": {
        "type": "Polygon",
        "coordinates": [
          [
            [
              126.97852677881684,
              37.29336640485597
            ],
            [
              126.97852890807621,
              37.29337860798068
            ],
            [
              126.9785315401045,
              37.29339369255137
            ],
            [
              126.9785365389597,
              37.29342234177238
            ],
            [
              126.97857169750827,
              37.29341845923191
            ],
            [
              126.97856193737034,
              37.29336252231089
            ],
            [
              126.97852677881684,
              37.29336640485597
            ]
          ]
        ]
      }
    },
    {
      "type": "Feature",
      "properties": {
        "indoor": "room",
        "level": "4",
        "ref": "",
        "name": "",
        "room_type": "",
        "_idx": 19,
        "_centroid": [
          126.9783876,
          37.2933844
        ],
        "_area_m2": 108.5
      },
      "geometry": {
        "type": "Polygon",
        "coordinates": [
          [
            [
              126.97833212436672,
              37.293330258883934
            ],
            [
              126.97834203182272,
              37.29338704005061
            ],
            [
              126.97835315424076,
              37.29345078435316
            ],
            [
              126.97844356809426,
              37.29344080000082
            ],
            [
              126.97843244568071,
              37.29337705568937
            ],
            [
              126.97842253822867,
              37.29332027451455
            ],
            [
              126.97833212436672,
              37.293330258883934
            ]
          ]
        ]
      }
    },
    {
      "type": "Feature",
      "properties": {
        "indoor": "room",
        "level": "4",
        "ref": "",
        "name": "",
        "room_type": "",
        "_idx": 20,
        "_centroid": [
          126.9785963,
          37.2933706
        ],
        "_area_m2": 49.6
      },
      "geometry": {
        "type": "Polygon",
        "coordinates": [
          [
            [
              126.97862634902654,
              37.293337195496576
            ],
            [
              126.97858535978823,
              37.293341721921834
            ],
            [
              126.97855881940772,
              37.29334465276534
            ],
            [
              126.97857169750827,
              37.29341845923191
            ],
            [
              126.97863922712942,
              37.29341100196809
            ],
            [
              126.97862634902654,
              37.293337195496576
            ]
          ]
        ]
      }
    },
    {
      "type": "Feature",
      "properties": {
        "indoor": "room",
        "level": "4",
        "ref": "",
        "name": "",
        "room_type": "",
        "_idx": 21,
        "_centroid": [
          126.9786735,
          37.2933642
        ],
        "_area_m2": 57.3
      },
      "geometry": {
        "type": "Polygon",
        "coordinates": [
          [
            [
              126.97870428897367,
              37.29332858861682
            ],
            [
              126.97867617338261,
              37.293331693411496
            ],
            [
              126.97866930382492,
              37.29333245201429
            ],
            [
              126.97862634902654,
              37.293337195496576
            ],
            [
              126.97863922712942,
              37.29341100196808
            ],
            [
              126.97868218192905,
              37.29340625848946
            ],
            [
              126.97871716707904,
              37.29340239509556
            ],
            [
              126.97870428897367,
              37.29332858861682
            ]
          ]
        ]
      }
    },
    {
      "type": "Feature",
      "properties": {
        "indoor": "room",
        "level": "4",
        "ref": "",
        "name": "",
        "room_type": "",
        "_idx": 22,
        "_centroid": [
          126.9787475,
          37.2933614
        ],
        "_area_m2": 54.0
      },
      "geometry": {
        "type": "Polygon",
        "coordinates": [
          [
            [
              126.97870428897367,
              37.29332858861682
            ],
            [
              126.97871716707904,
              37.29340239509556
            ],
            [
              126.97879072620356,
              37.29339427199553
            ],
            [
              126.97877784810052,
              37.29332046550811
            ],
            [
              126.97870428897367,
              37.29332858861682
            ]
          ]
        ]
      }
    },
    {
      "type": "Feature",
      "properties": {
        "indoor": "room",
        "level": "4",
        "ref": "",
        "name": "",
        "room_type": "",
        "_idx": 23,
        "_centroid": [
          126.9785428,
          37.2933555
        ],
        "_area_m2": 6.3
      },
      "geometry": {
        "type": "Polygon",
        "coordinates": [
          [
            [
              126.97852677881684,
              37.29336640485597
            ],
            [
              126.97856193737034,
              37.29336252231089
            ],
            [
              126.97855881940772,
              37.29334465276534
            ],
            [
              126.97852366085412,
              37.29334853531136
            ],
            [
              126.97852677881684,
              37.29336640485597
            ]
          ]
        ]
      }
    },
    {
      "type": "Feature",
      "properties": {
        "indoor": "room",
        "level": "4",
        "ref": "",
        "name": "",
        "room_type": "",
        "_idx": 24,
        "_centroid": [
          126.9788195,
          37.2933535
        ],
        "_area_m2": 51.7
      },
      "geometry": {
        "type": "Polygon",
        "coordinates": [
          [
            [
              126.97886107324044,
              37.29338650360485
            ],
            [
              126.97884819513634,
              37.293312697109684
            ],
            [
              126.97877784810052,
              37.29332046550811
            ],
            [
              126.97879072620356,
              37.29339427199553
            ],
            [
              126.97886107324044,
              37.29338650360485
            ]
          ]
        ]
      }
    },
    {
      "type": "Feature",
      "properties": {
        "indoor": "room",
        "level": "4",
        "ref": "",
        "name": "",
        "room_type": "",
        "_idx": 25,
        "_centroid": [
          126.9788903,
          37.2933457
        ],
        "_area_m2": 52.3
      },
      "geometry": {
        "type": "Polygon",
        "coordinates": [
          [
            [
              126.97884819513634,
              37.293312697109684
            ],
            [
              126.97886107324044,
              37.29338650360485
            ],
            [
              126.9789323103236,
              37.29337863692677
            ],
            [
              126.97891943222074,
              37.29330483042351
            ],
            [
              126.97884819513634,
              37.293312697109684
            ]
          ]
        ]
      }
    },
    {
      "type": "Feature",
      "properties": {
        "indoor": "room",
        "level": "4",
        "ref": "",
        "name": "",
        "room_type": "",
        "_idx": 26,
        "_centroid": [
          126.9783719,
          37.2932944
        ],
        "_area_m2": 55.6
      },
      "geometry": {
        "type": "Polygon",
        "coordinates": [
          [
            [
              126.9783213552952,
              37.29326853954278
            ],
            [
              126.97833212436672,
              37.293330258883934
            ],
            [
              126.97842253822867,
              37.29332027451455
            ],
            [
              126.97841176914055,
              37.29325855516709
            ],
            [
              126.9783213552952,
              37.29326853954278
            ]
          ]
        ]
      }
    },
    {
      "type": "Feature",
      "properties": {
        "indoor": "room",
        "level": "4",
        "ref": "",
        "name": "",
        "room_type": "",
        "_idx": 27,
        "_centroid": [
          126.9784995,
          37.293276
        ],
        "_area_m2": 70.4
      },
      "geometry": {
        "type": "Polygon",
        "coordinates": [
          [
            [
              126.9785437169096,
              37.29323533052871
            ],
            [
              126.97844308148494,
              37.293246443675336
            ],
            [
              126.978455347123,
              37.293316740104814
            ],
            [
              126.97855598255047,
              37.293305626969186
            ],
            [
              126.9785437169096,
              37.29323533052871
            ]
          ]
        ]
      }
    },
    {
      "type": "Feature",
      "properties": {
        "indoor": "room",
        "level": "4",
        "ref": "",
        "name": "",
        "room_type": "",
        "_idx": 28,
        "_centroid": [
          126.9786564,
          37.2932587
        ],
        "_area_m2": 50.7
      },
      "geometry": {
        "type": "Polygon",
        "coordinates": [
          [
            [
              126.97861458435008,
              37.29322750465196
            ],
            [
              126.97862684999127,
              37.2932978010981
            ],
            [
              126.97866149607503,
              37.29329397514105
            ],
            [
              126.97869926496305,
              37.29328980433362
            ],
            [
              126.97868699932249,
              37.293219507880124
            ],
            [
              126.97864923043346,
              37.29322367869188
            ],
            [
              126.97861458435008,
              37.29322750465196
            ]
          ]
        ]
      }
    },
    {
      "type": "Feature",
      "properties": {
        "indoor": "room",
        "level": "4",
        "ref": "",
        "name": "",
        "room_type": "",
        "_idx": 29,
        "_centroid": [
          126.9785816,
          37.293255
        ],
        "_area_m2": 49.6
      },
      "geometry": {
        "type": "Polygon",
        "coordinates": [
          [
            [
              126.97862684999127,
              37.2932978010981
            ],
            [
              126.97861458435008,
              37.29322750465196
            ],
            [
              126.978584265092,
              37.29323085280144
            ],
            [
              126.97856429429535,
              37.29323305817235
            ],
            [
              126.9785437169096,
              37.29323533052871
            ],
            [
              126.97855598255049,
              37.29330562696918
            ],
            [
              126.97862684999127,
              37.2932978010981
            ]
          ]
        ]
      }
    },
    {
      "type": "Feature",
      "properties": {
        "indoor": "room",
        "level": "4",
        "ref": "",
        "name": "",
        "room_type": "",
        "_idx": 30,
        "_centroid": [
          126.9787287,
          37.2932507
        ],
        "_area_m2": 49.8
      },
      "geometry": {
        "type": "Polygon",
        "coordinates": [
          [
            [
              126.97868699932249,
              37.293219507880124
            ],
            [
              126.97869926496305,
              37.29328980433362
            ],
            [
              126.97877042534739,
              37.29328194611287
            ],
            [
              126.97875815970679,
              37.293211649651425
            ],
            [
              126.97868699932249,
              37.293219507880124
            ]
          ]
        ]
      }
    },
    {
      "type": "Feature",
      "properties": {
        "indoor": "room",
        "level": "4",
        "ref": "",
        "name": "",
        "room_type": "",
        "_idx": 31,
        "_centroid": [
          126.9787995,
          37.2932429
        ],
        "_area_m2": 49.3
      },
      "geometry": {
        "type": "Polygon",
        "coordinates": [
          [
            [
              126.97875815970679,
              37.293211649651425
            ],
            [
              126.97877042534739,
              37.29328194611287
            ],
            [
              126.97884091585145,
              37.293274161866805
            ],
            [
              126.97882865021134,
              37.29320386539743
            ],
            [
              126.97875815970679,
              37.293211649651425
            ]
          ]
        ]
      }
    },
    {
      "type": "Feature",
      "properties": {
        "indoor": "room",
        "level": "4",
        "ref": "",
        "name": "",
        "room_type": "",
        "_idx": 32,
        "_centroid": [
          126.9788692,
          37.2932352
        ],
        "_area_m2": 48.2
      },
      "geometry": {
        "type": "Polygon",
        "coordinates": [
          [
            [
              126.97882865021134,
              37.29320386539743
            ],
            [
              126.97884091585145,
              37.293274161866805
            ],
            [
              126.97890975819053,
              37.29326655962713
            ],
            [
              126.97889749254963,
              37.29319626315014
            ],
            [
              126.97882865021134,
              37.29320386539743
            ]
          ]
        ]
      }
    },
    {
      "type": "Feature",
      "properties": {
        "indoor": "room",
        "level": "4",
        "ref": "",
        "name": "",
        "room_type": "",
        "_idx": 33,
        "_centroid": [
          126.9789244,
          37.2932291
        ],
        "_area_m2": 29.0
      },
      "geometry": {
        "type": "Polygon",
        "coordinates": [
          [
            [
              126.97893896497048,
              37.293191683366665
            ],
            [
              126.97889749255111,
              37.293196263158585
            ],
            [
              126.97890975819006,
              37.29326655963537
            ],
            [
              126.9789512306088,
              37.293261979848765
            ],
            [
              126.97893896497048,
              37.293191683366665
            ]
          ]
        ]
      }
    },
    {
      "type": "Feature",
      "properties": {
        "indoor": "room",
        "level": "4",
        "ref": "",
        "name": "",
        "room_type": "",
        "_idx": 34,
        "_centroid": [
          126.9783403,
          37.2930454
        ],
        "_area_m2": 40.3
      },
      "geometry": {
        "type": "Polygon",
        "coordinates": [
          [
            [
              126.97831040497486,
              37.293077688295035
            ],
            [
              126.97837924190527,
              37.293070086630614
            ],
            [
              126.97837240718495,
              37.293012900252386
            ],
            [
              126.97829897662439,
              37.29302100919529
            ],
            [
              126.97831040497486,
              37.293077688295035
            ]
          ]
        ]
      }
    },
    {
      "type": "Feature",
      "properties": {
        "indoor": "room",
        "level": "4",
        "ref": "",
        "name": "",
        "room_type": "",
        "_idx": 35,
        "_centroid": [
          126.9784427,
          37.2930417
        ],
        "_area_m2": 30.7
      },
      "geometry": {
        "type": "Polygon",
        "coordinates": [
          [
            [
              126.97848303420581,
              37.29305862484243
            ],
            [
              126.97847570248116,
              37.29301660537027
            ],
            [
              126.97840229456848,
              37.293024711812876
            ],
            [
              126.97840962628982,
              37.29306673128206
            ],
            [
              126.97848303420581,
              37.29305862484243
            ]
          ]
        ]
      }
    },
    {
      "type": "Feature",
      "properties": {
        "indoor": "room",
        "level": "4",
        "ref": "",
        "name": "",
        "room_type": "",
        "_idx": 36,
        "_centroid": [
          126.9785245,
          37.2930104
        ],
        "_area_m2": 54.3
      },
      "geometry": {
        "type": "Polygon",
        "coordinates": [
          [
            [
              126.97851965712228,
              37.29301175145477
            ],
            [
              126.97847570248116,
              37.29301660537027
            ],
            [
              126.97848303420581,
              37.29305862484243
            ],
            [
              126.97857530179554,
              37.29304843572814
            ],
            [
              126.97856015823328,
              37.29296164512117
            ],
            [
              126.978525013098,
              37.29296552620472
            ],
            [
              126.97853282493692,
              37.2930102973316
            ],
            [
              126.97851965712228,
              37.29301175145477
            ]
          ]
        ]
      }
    },
    {
      "type": "Feature",
      "properties": {
        "indoor": "room",
        "level": "4",
        "ref": "",
        "name": "",
        "room_type": "",
        "_idx": 37,
        "_centroid": [
          126.978603,
          37.2930011
        ],
        "_area_m2": 60.9
      },
      "geometry": {
        "type": "Polygon",
        "coordinates": [
          [
            [
              126.97864576133837,
              37.2930406548775
            ],
            [
              126.97863061777657,
              37.29295386426195
            ],
            [
              126.97856015823328,
              37.29296164512117
            ],
            [
              126.97857530179554,
              37.29304843572814
            ],
            [
              126.97864576133837,
              37.2930406548775
            ]
          ]
        ]
      }
    },
    {
      "type": "Feature",
      "properties": {
        "indoor": "room",
        "level": "4",
        "ref": "",
        "name": "",
        "room_type": "",
        "_idx": 38,
        "_centroid": [
          126.9784139,
          37.2930006
        ],
        "_area_m2": 13.9
      },
      "geometry": {
        "type": "Polygon",
        "coordinates": [
          [
            [
              126.9784333771108,
              37.293021279364886
            ],
            [
              126.97842556527172,
              37.29297650824463
            ],
            [
              126.97839448272872,
              37.29297994069499
            ],
            [
              126.97840229456848,
              37.293024711812876
            ],
            [
              126.9784333771108,
              37.293021279364886
            ]
          ]
        ]
      }
    },
    {
      "type": "Feature",
      "properties": {
        "indoor": "room",
        "level": "4",
        "ref": "",
        "name": "",
        "room_type": "",
        "_idx": 39,
        "_centroid": [
          126.9784431,
          37.2929974
        ],
        "_area_m2": 12.2
      },
      "geometry": {
        "type": "Polygon",
        "coordinates": [
          [
            [
              126.9784606932898,
              37.29301826283674
            ],
            [
              126.97845288145146,
              37.29297349171438
            ],
            [
              126.97842556527172,
              37.29297650824463
            ],
            [
              126.9784333771108,
              37.293021279364886
            ],
            [
              126.9784606932898,
              37.29301826283674
            ]
          ]
        ]
      }
    },
    {
      "type": "Feature",
      "properties": {
        "indoor": "room",
        "level": "4",
        "ref": "",
        "name": "",
        "room_type": "",
        "_idx": 40,
        "_centroid": [
          126.978493,
          37.2929964
        ],
        "_area_m2": 32.2
      },
      "geometry": {
        "type": "Polygon",
        "coordinates": [
          [
            [
              126.9784606932898,
              37.29301826283674
            ],
            [
              126.97849364146586,
              37.29301462436639
            ],
            [
              126.97853282493692,
              37.2930102973316
            ],
            [
              126.978525013098,
              37.29296552620472
            ],
            [
              126.97845288145146,
              37.29297349171438
            ],
            [
              126.9784606932898,
              37.29301826283674
            ]
          ]
        ]
      }
    },
    {
      "type": "Feature",
      "properties": {
        "indoor": "room",
        "level": "4",
        "ref": "",
        "name": "",
        "room_type": "",
        "_idx": 41,
        "_centroid": [
          126.978699,
          37.2929908
        ],
        "_area_m2": 29.1
      },
      "geometry": {
        "type": "Polygon",
        "coordinates": [
          [
            [
              126.97867121008217,
              37.292949381646935
            ],
            [
              126.97868635364227,
              37.29303617226746
            ],
            [
              126.97871996866296,
              37.29303246015914
            ],
            [
              126.9787126273421,
              37.292990385656125
            ],
            [
              126.97870482510152,
              37.29294566953458
            ],
            [
              126.97867121008217,
              37.292949381646935
            ]
          ]
        ]
      }
    },
    {
      "type": "Feature",
      "properties": {
        "indoor": "room",
        "level": "4",
        "ref": "",
        "name": "",
        "room_type": "",
        "_idx": 42,
        "_centroid": [
          126.9786508,
          37.2929905
        ],
        "_area_m2": 35.1
      },
      "geometry": {
        "type": "Polygon",
        "coordinates": [
          [
            [
              126.97868635364227,
              37.29303617226746
            ],
            [
              126.97867121008217,
              37.292949381646935
            ],
            [
              126.97863061777657,
              37.29295386426195
            ],
            [
              126.97863248092119,
              37.29296454230132
            ],
            [
              126.97863842001541,
              37.29299858038039
            ],
            [
              126.97864576133837,
              37.2930406548775
            ],
            [
              126.97868635364227,
              37.29303617226746
            ]
          ]
        ]
      }
    },
    {
      "type": "Feature",
      "properties": {
        "indoor": "room",
        "level": "4",
        "ref": "",
        "name": "",
        "room_type": "",
        "_idx": 43,
        "_centroid": [
          126.978331,
          37.2929877
        ],
        "_area_m2": 44.0
      },
      "geometry": {
        "type": "Polygon",
        "coordinates": [
          [
            [
              126.97836538975264,
              37.2929541851157
            ],
            [
              126.97828724276143,
              37.29296281490106
            ],
            [
              126.97829897662439,
              37.29302100919529
            ],
            [
              126.97837240718495,
              37.293012900252386
            ],
            [
              126.97836538975264,
              37.2929541851157
            ]
          ]
        ]
      }
    },
    {
      "type": "Feature",
      "properties": {
        "indoor": "room",
        "level": "4",
        "ref": "",
        "name": "",
        "room_type": "",
        "_idx": 44,
        "_centroid": [
          126.9787316,
          37.2929869
        ],
        "_area_m2": 33.2
      },
      "geometry": {
        "type": "Polygon",
        "coordinates": [
          [
            [
              126.97875843368267,
              37.293028212465195
            ],
            [
              126.97874329012379,
              37.29294142183571
            ],
            [
              126.97870482510152,
              37.29294566953458
            ],
            [
              126.97871996866296,
              37.29303246015914
            ],
            [
              126.97875843368267,
              37.293028212465195
            ]
          ]
        ]
      }
    },
    {
      "type": "Feature",
      "properties": {
        "indoor": "room",
        "level": "4",
        "ref": "",
        "name": "",
        "room_type": "",
        "_idx": 45,
        "_centroid": [
          126.9787669,
          37.292983
        ],
        "_area_m2": 27.7
      },
      "geometry": {
        "type": "Polygon",
        "coordinates": [
          [
            [
              126.97874329012379,
              37.29294142183571
            ],
            [
              126.97875843368267,
              37.293028212465195
            ],
            [
              126.97879043955939,
              37.29302467805472
            ],
            [
              126.97877529599657,
              37.29293788742179
            ],
            [
              126.97874329012379,
              37.29294142183571
            ]
          ]
        ]
      }
    },
    {
      "type": "Feature",
      "properties": {
        "indoor": "room",
        "level": "4",
        "ref": "",
        "name": "",
        "room_type": "",
        "_idx": 46,
        "_centroid": [
          126.9788045,
          37.2929789
        ],
        "_area_m2": 37.3
      },
      "geometry": {
        "type": "Polygon",
        "coordinates": [
          [
            [
              126.97883364117195,
              37.29301990729861
            ],
            [
              126.97881849761215,
              37.29293311665851
            ],
            [
              126.97877529599657,
              37.29293788742179
            ],
            [
              126.97879043955939,
              37.29302467805472
            ],
            [
              126.97883364117195,
              37.29301990729861
            ]
          ]
        ]
      }
    },
    {
      "type": "Feature",
      "properties": {
        "indoor": "room",
        "level": "4",
        "ref": "",
        "name": "",
        "room_type": "",
        "_idx": 47,
        "_centroid": [
          126.9788445,
          37.2929745
        ],
        "_area_m2": 31.8
      },
      "geometry": {
        "type": "Polygon",
        "coordinates": [
          [
            [
              126.97881849761215,
              37.29293311665851
            ],
            [
              126.97883364117195,
              37.29301990729861
            ],
            [
              126.97887049717973,
              37.293015837287925
            ],
            [
              126.97885535361858,
              37.29292904664214
            ],
            [
              126.97881849761215,
              37.29293311665851
            ]
          ]
        ]
      }
    },
    {
      "type": "Feature",
      "properties": {
        "indoor": "room",
        "level": "4",
        "ref": "",
        "name": "",
        "room_type": "",
        "_idx": 48,
        "_centroid": [
          126.9783277,
          37.2929228
        ],
        "_area_m2": 54.7
      },
      "geometry": {
        "type": "Polygon",
        "coordinates": [
          [
            [
              126.97836538975264,
              37.2929541851157
            ],
            [
              126.97835919742968,
              37.29291869571129
            ],
            [
              126.97835308525102,
              37.29288366561291
            ],
            [
              126.97827347022947,
              37.29289450979312
            ],
            [
              126.97828724276143,
              37.29296281490106
            ],
            [
              126.97836538975264,
              37.2929541851157
            ]
          ]
        ]
      }
    },
    {
      "type": "Feature",
      "properties": {
        "indoor": "room",
        "level": "4",
        "ref": "",
        "name": "",
        "room_type": "",
        "_idx": 49,
        "_centroid": [
          126.9784154,
          37.2929127
        ],
        "_area_m2": 43.2
      },
      "geometry": {
        "type": "Polygon",
        "coordinates": [
          [
            [
              126.97845227145488,
              37.29294459075044
            ],
            [
              126.97843996695241,
              37.29287407124014
            ],
            [
              126.97837847696536,
              37.29288086159878
            ],
            [
              126.97839078146733,
              37.29295138110313
            ],
            [
              126.97845227145488,
              37.29294459075044
            ]
          ]
        ]
      }
    },
    {
      "type": "Feature",
      "properties": {
        "indoor": "room",
        "level": "4",
        "ref": "",
        "name": "",
        "room_type": "",
        "_idx": 50,
        "_centroid": [
          126.9784655,
          37.2929072
        ],
        "_area_m2": 27.2
      },
      "geometry": {
        "type": "Polygon",
        "coordinates": [
          [
            [
              126.97843996695241,
              37.29287407124014
            ],
            [
              126.97845227145488,
              37.29294459075044
            ],
            [
              126.97849095690759,
              37.29294031870749
            ],
            [
              126.97847865240247,
              37.2928697991937
            ],
            [
              126.97843996695241,
              37.29287407124014
            ]
          ]
        ]
      }
    },
    {
      "type": "Feature",
      "properties": {
        "indoor": "room",
        "level": "4",
        "ref": "",
        "name": "",
        "room_type": "",
        "_idx": 51,
        "_centroid": [
          126.9785049,
          37.2929028
        ],
        "_area_m2": 28.2
      },
      "geometry": {
        "type": "Polygon",
        "coordinates": [
          [
            [
              126.9785311823426,
              37.292935876603956
            ],
            [
              126.97851887783982,
              37.29286535708546
            ],
            [
              126.97847865240247,
              37.2928697991937
            ],
            [
              126.97849095690759,
              37.29294031870749
            ],
            [
              126.9785311823426,
              37.292935876603956
            ]
          ]
        ]
      }
    },
    {
      "type": "Feature",
      "properties": {
        "indoor": "room",
        "level": "4",
        "ref": "",
        "name": "",
        "room_type": "",
        "_idx": 52,
        "_centroid": [
          126.9785434,
          37.2928986
        ],
        "_area_m2": 22.6
      },
      "geometry": {
        "type": "Polygon",
        "coordinates": [
          [
            [
              126.97851887783982,
              37.29286535708546
            ],
            [
              126.9785311823426,
              37.292935876603956
            ],
            [
              126.9785540782876,
              37.292933348199774
            ],
            [
              126.97856331872283,
              37.292932327776505
            ],
            [
              126.97855101421914,
              37.29286180825462
            ],
            [
              126.97854177378368,
              37.292862828678864
            ],
            [
              126.97851887783982,
              37.29286535708546
            ]
          ]
        ]
      }
    },
    {
      "type": "Feature",
      "properties": {
        "indoor": "room",
        "level": "4",
        "ref": "",
        "name": "",
        "room_type": "",
        "_idx": 53,
        "_centroid": [
          126.9786151,
          37.2928979
        ],
        "_area_m2": 22.8
      },
      "geometry": {
        "type": "Polygon",
        "coordinates": [
          [
            [
              126.97862202184403,
              37.292853966859305
            ],
            [
              126.97858953349377,
              37.29285755455864
            ],
            [
              126.97860183799767,
              37.29292807408461
            ],
            [
              126.97862775308094,
              37.29292521227633
            ],
            [
              126.97863432634787,
              37.29292448638903
            ],
            [
              126.97862202184403,
              37.292853966859305
            ]
          ]
        ]
      }
    },
    {
      "type": "Feature",
      "properties": {
        "indoor": "room",
        "level": "4",
        "ref": "",
        "name": "",
        "room_type": "",
        "_idx": 54,
        "_centroid": [
          126.9785799,
          37.2928946
        ],
        "_area_m2": 27.0
      },
      "geometry": {
        "type": "Polygon",
        "coordinates": [
          [
            [
              126.97860183799767,
              37.29292807408461
            ],
            [
              126.97858953349377,
              37.29285755455864
            ],
            [
              126.97858071572938,
              37.292858528307335
            ],
            [
              126.97855101421914,
              37.29286180825462
            ],
            [
              126.97856331872283,
              37.292932327776505
            ],
            [
              126.97859302023402,
              37.29292904783217
            ],
            [
              126.97860183799767,
              37.29292807408461
            ]
          ]
        ]
      }
    },
    {
      "type": "Feature",
      "properties": {
        "indoor": "room",
        "level": "4",
        "ref": "",
        "name": "",
        "room_type": "",
        "_idx": 55,
        "_centroid": [
          126.9786713,
          37.2928793
        ],
        "_area_m2": 51.1
      },
      "geometry": {
        "type": "Polygon",
        "coordinates": [
          [
            [
              126.97862202184403,
              37.292853966859305
            ],
            [
              126.97863432634787,
              37.29292448638903
            ],
            [
              126.97870200110994,
              37.29291701305035
            ],
            [
              126.97870715573202,
              37.29291644382431
            ],
            [
              126.97869485122847,
              37.29284592428787
            ],
            [
              126.97868969660993,
              37.29284649351405
            ],
            [
              126.97864896025132,
              37.29285099204277
            ],
            [
              126.97862202184403,
              37.292853966859305
            ]
          ]
        ]
      }
    },
    {
      "type": "Feature",
      "properties": {
        "indoor": "room",
        "level": "4",
        "ref": "",
        "name": "",
        "room_type": "",
        "_idx": 56,
        "_centroid": [
          126.9787362,
          37.2928773
        ],
        "_area_m2": 49.4
      },
      "geometry": {
        "type": "Polygon",
        "coordinates": [
          [
            [
              126.97869485122847,
              37.29284592428787
            ],
            [
              126.97870715573202,
              37.29291644382431
            ],
            [
              126.97877754612384,
              37.292908670598045
            ],
            [
              126.97876524162047,
              37.292838151054326
            ],
            [
              126.97869485122847,
              37.29284592428787
            ]
          ]
        ]
      }
    },
    {
      "type": "Feature",
      "properties": {
        "indoor": "room",
        "level": "4",
        "ref": "",
        "name": "",
        "room_type": "",
        "_idx": 57,
        "_centroid": [
          126.9788617,
          37.2928634
        ],
        "_area_m2": 32.9
      },
      "geometry": {
        "type": "Polygon",
        "coordinates": [
          [
            [
              126.97883208710786,
              37.29283076928509
            ],
            [
              126.97884439160812,
              37.29290128883669
            ],
            [
              126.9788912352737,
              37.29289611588052
            ],
            [
              126.97887893077213,
              37.29282559632329
            ],
            [
              126.97883208710786,
              37.29283076928509
            ]
          ]
        ]
      }
    },
    {
      "type": "Feature",
      "properties": {
        "indoor": "room",
        "level": "4",
        "ref": "",
        "name": "",
        "room_type": "",
        "_idx": 58,
        "_centroid": [
          126.9787989,
          37.2928632
        ],
        "_area_m2": 46.9
      },
      "geometry": {
        "type": "Polygon",
        "coordinates": [
          [
            [
              126.97876524162047,
              37.292838151054326
            ],
            [
              126.97877754612384,
              37.292908670598045
            ],
            [
              126.97884439160812,
              37.29290128883669
            ],
            [
              126.97883208710786,
              37.29283076928509
            ],
            [
              126.97877526862482,
              37.29283704376902
            ],
            [
              126.97876524162047,
              37.292838151054326
            ]
          ]
        ]
      }
    }
  ]
}