{
  "type": "FeatureCollection",
  "features": [
    {
      "type": "Feature",
      "properties": {
        "indoor": "room",
        "level": [
          1
        ],
        "ref": "",
        "name": "",
        "room_type": "",
        "_idx": 1,
        "_centroid": [
          126.9785121,
          37.2937646
        ],
        "_area_m2": 23.2
      },
      "geometry": {
        "type": "Polygon",
        "coordinates": [
          [
            [
              126.97853522521838,
              37.293796325357484
            ],
            [
              126.97852349274174,
              37.293729084990105
            ],
            [
              126.97848888245694,
              37.293732906971535
            ],
            [
              126.97850061493436,
              37.29380014733432
            ],
            [
              126.97853522521838,
              37.293796325357484
            ]
          ]
        ]
      }
    },
    {
      "type": "Feature",
      "properties": {
        "indoor": "room",
        "level": [
          1
        ],
        "ref": "83117",
        "name": "전자빔리소그라피",
        "room_type": "lab",
        "_idx": 2,
        "_centroid": [
          126.9785791,
          37.2937572
        ],
        "_area_m2": 66.6
      },
      "geometry": {
        "type": "Polygon",
        "coordinates": [
          [
            [
              126.97852349274174,
              37.293729084990105
            ],
            [
              126.97853522521838,
              37.293796325357484
            ],
            [
              126.97863473317071,
              37.29378533679677
            ],
            [
              126.97862300069244,
              37.29371809642004
            ],
            [
              126.97852349274174,
              37.293729084990105
            ]
          ]
        ]
      }
    },
    {
      "type": "Feature",
      "properties": {
        "indoor": "room",
        "level": [
          1
        ],
        "ref": "83117",
        "name": "전자빔리소그라피",
        "room_type": "lab",
        "_idx": 3,
        "_centroid": [
          126.9786653,
          37.2937477
        ],
        "_area_m2": 48.8
      },
      "geometry": {
        "type": "Polygon",
        "coordinates": [
          [
            [
              126.97862300069244,
              37.29371809642004
            ],
            [
              126.97863473317071,
              37.29378533679677
            ],
            [
              126.97870765338897,
              37.29377728429216
            ],
            [
              126.97869592091111,
              37.29371004390838
            ],
            [
              126.97862300069244,
              37.29371809642004
            ]
          ]
        ]
      }
    },
    {
      "type": "Feature",
      "properties": {
        "indoor": "room",
        "level": [
          1
        ],
        "ref": "83113",
        "name": "주사전자현미경실",
        "room_type": "lab",
        "_idx": 4,
        "_centroid": [
          126.9787372,
          37.2937398
        ],
        "_area_m2": 47.4
      },
      "geometry": {
        "type": "Polygon",
        "coordinates": [
          [
            [
              126.97869592091111,
              37.29371004390838
            ],
            [
              126.97870765338897,
              37.29377728429216
            ],
            [
              126.97877848864088,
              37.29376946202824
            ],
            [
              126.97876675616145,
              37.29370222163784
            ],
            [
              126.97869592091111,
              37.29371004390838
            ]
          ]
        ]
      }
    },
    {
      "type": "Feature",
      "properties": {
        "indoor": "room",
        "level": [
          1
        ],
        "ref": "83101",
        "name": "Clean Room",
        "room_type": "lab",
        "_idx": 5,
        "_centroid": [
          126.9788453,
          37.2937278
        ],
        "_area_m2": 97.3
      },
      "geometry": {
        "type": "Polygon",
        "coordinates": [
          [
            [
              126.97876675616145,
              37.29370222163784
            ],
            [
              126.97877848864088,
              37.29376946202824
            ],
            [
              126.97892387763153,
              37.293753406871716
            ],
            [
              126.97891214515411,
              37.29368616646715
            ],
            [
              126.97876675616145,
              37.29370222163784
            ]
          ]
        ]
      }
    },
    {
      "type": "Feature",
      "properties": {
        "indoor": "room",
        "level": [
          1
        ],
        "ref": "",
        "name": "",
        "room_type": "",
        "_idx": 6,
        "_centroid": [
          126.9785294,
          37.2936647
        ],
        "_area_m2": 15.9
      },
      "geometry": {
        "type": "Polygon",
        "coordinates": [
          [
            [
              126.9785498415951,
              37.293687665646296
            ],
            [
              126.97854118878823,
              37.293638075218105
            ],
            [
              126.9785088917258,
              37.29364164175657
            ],
            [
              126.97851754453008,
              37.29369123218291
            ],
            [
              126.9785498415951,
              37.293687665646296
            ]
          ]
        ]
      }
    },
    {
      "type": "Feature",
      "properties": {
        "indoor": "room",
        "level": [
          1
        ],
        "ref": "",
        "name": "",
        "room_type": "",
        "_idx": 7,
        "_centroid": [
          126.9785598,
          37.2936613
        ],
        "_area_m2": 14.1
      },
      "geometry": {
        "type": "Polygon",
        "coordinates": [
          [
            [
              126.97857844282021,
              37.29368450723804
            ],
            [
              126.97856979001304,
              37.29363491680799
            ],
            [
              126.97854118878823,
              37.293638075218105
            ],
            [
              126.9785498415951,
              37.293687665646296
            ],
            [
              126.97857844282021,
              37.29368450723804
            ]
          ]
        ]
      }
    },
    {
      "type": "Feature",
      "properties": {
        "indoor": "room",
        "level": [
          1
        ],
        "ref": "",
        "name": "",
        "room_type": "",
        "_idx": 8,
        "_centroid": [
          126.9786135,
          37.2936503
        ],
        "_area_m2": 35.7
      },
      "geometry": {
        "type": "Polygon",
        "coordinates": [
          [
            [
              126.97862645160686,
              37.29362865971353
            ],
            [
              126.97856979001304,
              37.29363491680799
            ],
            [
              126.97857844282021,
              37.29368450723804
            ],
            [
              126.97865078605764,
              37.293676518437664
            ],
            [
              126.97864213325057,
              37.29362692800206
            ],
            [
              126.97862645160686,
              37.29362865971353
            ]
          ]
        ]
      }
    },
    {
      "type": "Feature",
      "properties": {
        "indoor": "room",
        "level": [
          1
        ],
        "ref": "",
        "name": "",
        "room_type": "",
        "_idx": 9,
        "_centroid": [
          126.9786444,
          37.2936361
        ],
        "_area_m2": 33.4
      },
      "geometry": {
        "type": "Polygon",
        "coordinates": [
          [
            [
              126.97860385117424,
              37.29360889354921
            ],
            [
              126.9786076621204,
              37.293630734621544
            ],
            [
              126.97864213325057,
              37.29362692800206
            ],
            [
              126.97865078605764,
              37.293676518437664
            ],
            [
              126.97868715120904,
              37.293672502665316
            ],
            [
              126.97867468746034,
              37.29360107115274
            ],
            [
              126.97860385117424,
              37.29360889354921
            ]
          ]
        ]
      }
    },
    {
      "type": "Feature",
      "properties": {
        "indoor": "room",
        "level": [
          1
        ],
        "ref": "83110",
        "name": "학생연구실Ⅰ",
        "room_type": "lab",
        "_idx": 10,
        "_centroid": [
          126.978716,
          37.2936329
        ],
        "_area_m2": 49.8
      },
      "geometry": {
        "type": "Polygon",
        "coordinates": [
          [
            [
              126.9787572381408,
              37.2936647630266
            ],
            [
              126.9787447743905,
              37.29359333150706
            ],
            [
              126.97867468746034,
              37.29360107115274
            ],
            [
              126.97868715120904,
              37.29367250266532
            ],
            [
              126.9787572381408,
              37.2936647630266
            ]
          ]
        ]
      }
    },
    {
      "type": "Feature",
      "properties": {
        "indoor": "room",
        "level": [
          1
        ],
        "ref": "",
        "name": "",
        "room_type": "",
        "_idx": 11,
        "_centroid": [
          126.9785498,
          37.2936297
        ],
        "_area_m2": 16.3
      },
      "geometry": {
        "type": "Polygon",
        "coordinates": [
          [
            [
              126.97856979001304,
              37.29363491680799
            ],
            [
              126.97858367569549,
              37.29363338342321
            ],
            [
              126.97857986474935,
              37.29361154235163
            ],
            [
              126.97850508077866,
              37.29361980068787
            ],
            [
              126.9785088917258,
              37.29364164175657
            ],
            [
              126.97855178497004,
              37.29363690509033
            ],
            [
              126.97856979001304,
              37.29363491680799
            ]
          ]
        ]
      }
    },
    {
      "type": "Feature",
      "properties": {
        "indoor": "room",
        "level": [
          1
        ],
        "ref": "83106",
        "name": "SAINT학생연구실Ⅰ",
        "room_type": "lab",
        "_idx": 12,
        "_centroid": [
          126.9787877,
          37.293625
        ],
        "_area_m2": 52.2
      },
      "geometry": {
        "type": "Polygon",
        "coordinates": [
          [
            [
              126.97883062386465,
              37.29365665910514
            ],
            [
              126.97881816011422,
              37.29358522757816
            ],
            [
              126.9787447743905,
              37.29359333150706
            ],
            [
              126.9787572381408,
              37.2936647630266
            ],
            [
              126.97883062386465,
              37.29365665910514
            ]
          ]
        ]
      }
    },
    {
      "type": "Feature",
      "properties": {
        "indoor": "room",
        "level": [
          1
        ],
        "ref": "",
        "name": "",
        "room_type": "",
        "_idx": 13,
        "_centroid": [
          126.9785938,
          37.2936211
        ],
        "_area_m2": 5.2
      },
      "geometry": {
        "type": "Polygon",
        "coordinates": [
          [
            [
              126.97858367569549,
              37.29363338342321
            ],
            [
              126.9786076621204,
              37.293630734621544
            ],
            [
              126.97860385117424,
              37.29360889354921
            ],
            [
              126.97857986474935,
              37.29361154235163
            ],
            [
              126.97858367569549,
              37.29363338342321
            ]
          ]
        ]
      }
    },
    {
      "type": "Feature",
      "properties": {
        "indoor": "room",
        "level": [
          1
        ],
        "ref": "83102",
        "name": "예비",
        "room_type": "reserved",
        "_idx": 14,
        "_centroid": [
          126.9788613,
          37.2936169
        ],
        "_area_m2": 52.5
      },
      "geometry": {
        "type": "Polygon",
        "coordinates": [
          [
            [
              126.9789044575467,
              37.29364850571604
            ],
            [
              126.97889199379449,
              37.293577074181755
            ],
            [
              126.97881816011422,
              37.29358522757816
            ],
            [
              126.97883062386465,
              37.29365665910514
            ],
            [
              126.9789044575467,
              37.29364850571604
            ]
          ]
        ]
      }
    },
    {
      "type": "Feature",
      "properties": {
        "indoor": "room",
        "level": [
          1
        ],
        "ref": "",
        "name": "",
        "room_type": "",
        "_idx": 15,
        "_centroid": [
          126.9789177,
          37.2936106
        ],
        "_area_m2": 27.7
      },
      "geometry": {
        "type": "Polygon",
        "coordinates": [
          [
            [
              126.97893101482778,
              37.29357276511777
            ],
            [
              126.97889199379449,
              37.293577074181755
            ],
            [
              126.9789044575467,
              37.29364850571604
            ],
            [
              126.97894347857917,
              37.293644196657475
            ],
            [
              126.97893101482778,
              37.29357276511777
            ]
          ]
        ]
      }
    },
    {
      "type": "Feature",
      "properties": {
        "indoor": "room",
        "level": [
          1
        ],
        "ref": "",
        "name": "",
        "room_type": "",
        "_idx": 16,
        "_centroid": [
          126.9784361,
          37.2936096
        ],
        "_area_m2": 71.4
      },
      "geometry": {
        "type": "Polygon",
        "coordinates": [
          [
            [
              126.97839117051619,
              37.29356413484255
            ],
            [
              126.97840843368296,
              37.29366307251076
            ],
            [
              126.97848095393817,
              37.29365506416132
            ],
            [
              126.97846369077138,
              37.29355612648258
            ],
            [
              126.97839117051619,
              37.29356413484255
            ]
          ]
        ]
      }
    },
    {
      "type": "Feature",
      "properties": {
        "indoor": "room",
        "level": [
          1
        ],
        "ref": "",
        "name": "",
        "room_type": "",
        "_idx": 17,
        "_centroid": [
          126.9785204,
          37.2936068
        ],
        "_area_m2": 7.7
      },
      "geometry": {
        "type": "Polygon",
        "coordinates": [
          [
            [
              126.97853965182671,
              37.29361598303467
            ],
            [
              126.97853576951256,
              37.29359373293658
            ],
            [
              126.97850119846451,
              37.29359755059092
            ],
            [
              126.97850508077866,
              37.29361980068787
            ],
            [
              126.97853965182671,
              37.29361598303467
            ]
          ]
        ]
      }
    },
    {
      "type": "Feature",
      "properties": {
        "indoor": "room",
        "level": [
          1
        ],
        "ref": "83171",
        "name": "공동기기실Ⅱ",
        "room_type": "lab",
        "_idx": 18,
        "_centroid": [
          126.9784128,
          37.2935288
        ],
        "_area_m2": 58.2
      },
      "geometry": {
        "type": "Polygon",
        "coordinates": [
          [
            [
              126.97845240211325,
              37.2934914293457
            ],
            [
              126.978361988284,
              37.293501413688716
            ],
            [
              126.97837327694661,
              37.29356611081651
            ],
            [
              126.9784636907714,
              37.29355612648258
            ],
            [
              126.97845240211325,
              37.2934914293457
            ]
          ]
        ]
      }
    },
    {
      "type": "Feature",
      "properties": {
        "indoor": "room",
        "level": [
          1
        ],
        "ref": "83172",
        "name": "지속가능한에너지&환경연구실",
        "room_type": "lab",
        "_idx": 19,
        "_centroid": [
          126.97855,
          37.2935206
        ],
        "_area_m2": 63.2
      },
      "geometry": {
        "type": "Polygon",
        "coordinates": [
          [
            [
              126.9785922458919,
              37.29353622515954
            ],
            [
              126.97858218843889,
              37.293478584381845
            ],
            [
              126.97848536334098,
              37.29348927671892
            ],
            [
              126.97849680030987,
              37.29355482372302
            ],
            [
              126.97859362541223,
              37.29354413139466
            ],
            [
              126.9785922458919,
              37.29353622515954
            ]
          ]
        ]
      }
    },
    {
      "type": "Feature",
      "properties": {
        "indoor": "room",
        "level": [
          1
        ],
        "ref": "83175",
        "name": "공동기기실Ⅰ",
        "room_type": "lab",
        "_idx": 20,
        "_centroid": [
          126.9784019,
          37.2934661
        ],
        "_area_m2": 54.7
      },
      "geometry": {
        "type": "Polygon",
        "coordinates": [
          [
            [
              126.97844180811218,
              37.29343071340159
            ],
            [
              126.97835139427872,
              37.29344069775311
            ],
            [
              126.978361988284,
              37.293501413688716
            ],
            [
              126.97845240211325,
              37.2934914293457
            ],
            [
              126.97844180811218,
              37.29343071340159
            ]
          ]
        ]
      }
    },
    {
      "type": "Feature",
      "properties": {
        "indoor": "room",
        "level": [
          1
        ],
        "ref": "83176",
        "name": "",
        "room_type": "",
        "_idx": 21,
        "_centroid": [
          126.9785285,
          37.2934539
        ],
        "_area_m2": 58
      },
      "geometry": {
        "type": "Polygon",
        "coordinates": [
          [
            [
              126.97848536334098,
              37.29348927671892
            ],
            [
              126.97858218843889,
              37.293478584381845
            ],
            [
              126.97857169750827,
              37.29341845923191
            ],
            [
              126.97847487240591,
              37.29342915157814
            ],
            [
              126.97848536334098,
              37.29348927671892
            ]
          ]
        ]
      }
    },
    {
      "type": "Feature",
      "properties": {
        "indoor": "room",
        "level": [
          1
        ],
        "ref": "",
        "name": "",
        "room_type": "",
        "_idx": 22,
        "_centroid": [
          126.9785171,
          37.2934099
        ],
        "_area_m2": 9.7
      },
      "geometry": {
        "type": "Polygon",
        "coordinates": [
          [
            [
              126.97849763975657,
              37.29339743615175
            ],
            [
              126.9785026386115,
              37.29342608537043
            ],
            [
              126.9785365389597,
              37.29342234177238
            ],
            [
              126.9785315401045,
              37.29339369255137
            ],
            [
              126.97849763975657,
              37.29339743615175
            ]
          ]
        ]
      }
    },
    {
      "type": "Feature",
      "properties": {
        "indoor": "room",
        "level": [
          1
        ],
        "ref": "",
        "name": "",
        "room_type": "",
        "_idx": 23,
        "_centroid": [
          126.978488,
          37.2933964
        ],
        "_area_m2": 15.6
      },
      "geometry": {
        "type": "Polygon",
        "coordinates": [
          [
            [
              126.97849530205029,
              37.29338403838746
            ],
            [
              126.9784927576525,
              37.293369456038626
            ],
            [
              126.97846499145055,
              37.29337252224886
            ],
            [
              126.97847487240591,
              37.29342915157826
            ],
            [
              126.9785026386115,
              37.29342608537043
            ],
            [
              126.97849763975657,
              37.29339743615175
            ],
            [
              126.97849530205029,
              37.29338403838746
            ]
          ]
        ]
      }
    },
    {
      "type": "Feature",
      "properties": {
        "indoor": "room",
        "level": [
          1
        ],
        "ref": "",
        "name": "",
        "room_type": "",
        "_idx": 24,
        "_centroid": [
          126.9785429,
          37.2933903
        ],
        "_area_m2": 19.6
      },
      "geometry": {
        "type": "Polygon",
        "coordinates": [
          [
            [
              126.97852677881684,
              37.29336640485597
            ],
            [
              126.97852890807621,
              37.29337860798068
            ],
            [
              126.9785315401045,
              37.29339369255137
            ],
            [
              126.9785365389597,
              37.29342234177238
            ],
            [
              126.97857169750827,
              37.29341845923191
            ],
            [
              126.97856193737034,
              37.29336252231089
            ],
            [
              126.97852677881684,
              37.29336640485597
            ]
          ]
        ]
      }
    },
    {
      "type": "Feature",
      "properties": {
        "indoor": "room",
        "level": [
          1
        ],
        "ref": "83179",
        "name": "나노물성연구실",
        "room_type": "lab",
        "_idx": 25,
        "_centroid": [
          126.9783877,
          37.2933847
        ],
        "_area_m2": 91.8
      },
      "geometry": {
        "type": "Polygon",
        "coordinates": [
          [
            [
              126.97842402085405,
              37.2933287717307
            ],
            [
              126.97833360701354,
              37.29333875609659
            ],
            [
              126.97835139427872,
              37.29344069775311
            ],
            [
              126.97844180811218,
              37.29343071340159
            ],
            [
              126.97842402085405,
              37.2933287717307
            ]
          ]
        ]
      }
    },
    {
      "type": "Feature",
      "properties": {
        "indoor": "room",
        "level": [
          1
        ],
        "ref": "",
        "name": "",
        "room_type": "",
        "_idx": 26,
        "_centroid": [
          126.9785963,
          37.2933706
        ],
        "_area_m2": 49.6
      },
      "geometry": {
        "type": "Polygon",
        "coordinates": [
          [
            [
              126.97862634902654,
              37.293337195496576
            ],
            [
              126.97858535978823,
              37.293341721921834
            ],
            [
              126.97855881940772,
              37.29334465276534
            ],
            [
              126.97857169750827,
              37.29341845923191
            ],
            [
              126.97863922712942,
              37.29341100196809
            ],
            [
              126.97862634902654,
              37.293337195496576
            ]
          ]
        ]
      }
    },
    {
      "type": "Feature",
      "properties": {
        "indoor": "room",
        "level": [
          1
        ],
        "ref": "83131",
        "name": "바이오헬스소재연구실II",
        "room_type": "lab",
        "_idx": 27,
        "_centroid": [
          126.9786855,
          37.2933683
        ],
        "_area_m2": 77.5
      },
      "geometry": {
        "type": "Polygon",
        "coordinates": [
          [
            [
              126.97862634902654,
              37.293337195496576
            ],
            [
              126.97863922712942,
              37.29341100196809
            ],
            [
              126.97874473581648,
              37.29339935069415
            ],
            [
              126.97873185771505,
              37.29332554421127
            ],
            [
              126.97862634902654,
              37.293337195496576
            ]
          ]
        ]
      }
    },
    {
      "type": "Feature",
      "properties": {
        "indoor": "room",
        "level": [
          1
        ],
        "ref": "83129",
        "name": "스마트 센서·에너지 전환 연구실",
        "room_type": "lab",
        "_idx": 28,
        "_centroid": [
          126.9787572,
          37.2933604
        ],
        "_area_m2": 27.8
      },
      "geometry": {
        "type": "Polygon",
        "coordinates": [
          [
            [
              126.97873185771505,
              37.29332554421127
            ],
            [
              126.97874473581648,
              37.29339935069415
            ],
            [
              126.97878252638142,
              37.29339517750011
            ],
            [
              126.97876964828029,
              37.293321371013185
            ],
            [
              126.97873185771505,
              37.29332554421127
            ]
          ]
        ]
      }
    },
    {
      "type": "Feature",
      "properties": {
        "indoor": "room",
        "level": [
          1
        ],
        "ref": "",
        "name": "",
        "room_type": "",
        "_idx": 29,
        "_centroid": [
          126.9785428,
          37.2933555
        ],
        "_area_m2": 6.3
      },
      "geometry": {
        "type": "Polygon",
        "coordinates": [
          [
            [
              126.97852677881684,
              37.29336640485597
            ],
            [
              126.97856193737034,
              37.29336252231089
            ],
            [
              126.97855881940772,
              37.29334465276534
            ],
            [
              126.97852366085412,
              37.29334853531136
            ],
            [
              126.97852677881684,
              37.29336640485597
            ]
          ]
        ]
      }
    },
    {
      "type": "Feature",
      "properties": {
        "indoor": "room",
        "level": [
          1
        ],
        "ref": "83121",
        "name": "에너지변환연구실",
        "room_type": "lab",
        "_idx": 30,
        "_centroid": [
          126.978851,
          37.29335
        ],
        "_area_m2": 110.1
      },
      "geometry": {
        "type": "Polygon",
        "coordinates": [
          [
            [
              126.97876964828029,
              37.293321371013185
            ],
            [
              126.97878252638142,
              37.29339517750011
            ],
            [
              126.97893231032334,
              37.29337863693092
            ],
            [
              126.97891943222155,
              37.293304830428156
            ],
            [
              126.97876964828029,
              37.293321371013185
            ]
          ]
        ]
      }
    },
    {
      "type": "Feature",
      "properties": {
        "indoor": "room",
        "level": [
          1
        ],
        "ref": "83183",
        "name": "나노물성연구실Ⅱ",
        "room_type": "lab",
        "_idx": 31,
        "_centroid": [
          126.9783727,
          37.2932987
        ],
        "_area_m2": 63.2
      },
      "geometry": {
        "type": "Polygon",
        "coordinates": [
          [
            [
              126.97841176914058,
              37.29325855516709
            ],
            [
              126.97832135529521,
              37.29326853954279
            ],
            [
              126.97833360701354,
              37.29333875609659
            ],
            [
              126.97842402085405,
              37.2933287717307
            ],
            [
              126.97841176914058,
              37.29325855516709
            ]
          ]
        ]
      }
    },
    {
      "type": "Feature",
      "properties": {
        "indoor": "room",
        "level": [
          1
        ],
        "ref": "83140",
        "name": "e+강의실",
        "room_type": "classroom",
        "_idx": 32,
        "_centroid": [
          126.9785129,
          37.2932746
        ],
        "_area_m2": 89.1
      },
      "geometry": {
        "type": "Polygon",
        "coordinates": [
          [
            [
              126.97858295547354,
              37.293302648358576
            ],
            [
              126.9785700613123,
              37.29323242132211
            ],
            [
              126.97844308148468,
              37.29324644367388
            ],
            [
              126.978455347123,
              37.293316740104814
            ],
            [
              126.97858295547354,
              37.293302648358576
            ]
          ]
        ]
      }
    },
    {
      "type": "Feature",
      "properties": {
        "indoor": "room",
        "level": [
          1
        ],
        "ref": "83136",
        "name": "예비",
        "room_type": "reserved",
        "_idx": 33,
        "_centroid": [
          126.9786322,
          37.2932614
        ],
        "_area_m2": 25
      },
      "geometry": {
        "type": "Polygon",
        "coordinates": [
          [
            [
              126.97865651490433,
              37.29329452521449
            ],
            [
              126.97864362074311,
              37.29322429817058
            ],
            [
              126.97860814062398,
              37.2932282162329
            ],
            [
              126.9786204062623,
              37.29329851268086
            ],
            [
              126.97865651490433,
              37.29329452521449
            ]
          ]
        ]
      }
    },
    {
      "type": "Feature",
      "properties": {
        "indoor": "room",
        "level": [
          1
        ],
        "ref": "83134",
        "name": "슈퍼컴퓨터실",
        "room_type": "classroom",
        "_idx": 34,
        "_centroid": [
          126.978667,
          37.2932575
        ],
        "_area_m2": 23.7
      },
      "geometry": {
        "type": "Polygon",
        "coordinates": [
          [
            [
              126.9786900587848,
              37.29329082097396
            ],
            [
              126.97867779314635,
              37.29322052451906
            ],
            [
              126.97864362074311,
              37.29322429817058
            ],
            [
              126.97865651490433,
              37.29329452521449
            ],
            [
              126.9786900587848,
              37.29329082097396
            ]
          ]
        ]
      }
    },
    {
      "type": "Feature",
      "properties": {
        "indoor": "room",
        "level": [
          1
        ],
        "ref": "",
        "name": "",
        "room_type": "",
        "_idx": 35,
        "_centroid": [
          126.9787023,
          37.2932536
        ],
        "_area_m2": 25.7
      },
      "geometry": {
        "type": "Polygon",
        "coordinates": [
          [
            [
              126.97872676661247,
              37.2932867673397
            ],
            [
              126.97871450097436,
              37.29321647088109
            ],
            [
              126.97867779314635,
              37.29322052451906
            ],
            [
              126.9786900587848,
              37.29329082097396
            ],
            [
              126.97872676661247,
              37.2932867673397
            ]
          ]
        ]
      }
    },
    {
      "type": "Feature",
      "properties": {
        "indoor": "room",
        "level": [
          1
        ],
        "ref": "8313083132",
        "name": "",
        "room_type": "",
        "_idx": 36,
        "_centroid": [
          126.9787372,
          37.2932498
        ],
        "_area_m2": 23.2
      },
      "geometry": {
        "type": "Polygon",
        "coordinates": [
          [
            [
              126.97875997334522,
              37.293283100330285
            ],
            [
              126.97874770770726,
              37.29321280386835
            ],
            [
              126.97871450097436,
              37.29321647088109
            ],
            [
              126.97872676661247,
              37.2932867673397
            ],
            [
              126.97875997334522,
              37.293283100330285
            ]
          ]
        ]
      }
    },
    {
      "type": "Feature",
      "properties": {
        "indoor": "room",
        "level": [
          1
        ],
        "ref": "83128",
        "name": "심욱교수실",
        "room_type": "office",
        "_idx": 37,
        "_centroid": [
          126.9787728,
          37.2932459
        ],
        "_area_m2": 26.6
      },
      "geometry": {
        "type": "Polygon",
        "coordinates": [
          [
            [
              126.97879793628297,
              37.29327890809461
            ],
            [
              126.97878567064501,
              37.29320861162888
            ],
            [
              126.97874770770726,
              37.29321280386835
            ],
            [
              126.97875997334522,
              37.293283100330285
            ],
            [
              126.97879793628297,
              37.29327890809461
            ]
          ]
        ]
      }
    },
    {
      "type": "Feature",
      "properties": {
        "indoor": "room",
        "level": [
          1
        ],
        "ref": "83126",
        "name": "윤원섭 교수 실험실",
        "room_type": "lab",
        "_idx": 38,
        "_centroid": [
          126.9788105,
          37.2932417
        ],
        "_area_m2": 26.1
      },
      "geometry": {
        "type": "Polygon",
        "coordinates": [
          [
            [
              126.97883529230926,
              37.29327478287997
            ],
            [
              126.97882302667158,
              37.29320448641048
            ],
            [
              126.97878567064501,
              37.29320861162888
            ],
            [
              126.97879793628297,
              37.29327890809461
            ],
            [
              126.97883529230926,
              37.29327478287997
            ]
          ]
        ]
      }
    },
    {
      "type": "Feature",
      "properties": {
        "indoor": "room",
        "level": [
          1
        ],
        "ref": "83124",
        "name": "윤원섭 교수 실험실",
        "room_type": "lab",
        "_idx": 39,
        "_centroid": [
          126.9788484,
          37.2932375
        ],
        "_area_m2": 26.9
      },
      "geometry": {
        "type": "Polygon",
        "coordinates": [
          [
            [
              126.97887376100606,
              37.293270534793464
            ],
            [
              126.97886149536889,
              37.293200238320075
            ],
            [
              126.97882302667158,
              37.29320448641048
            ],
            [
              126.97883529230926,
              37.29327478287997
            ],
            [
              126.97887376100606,
              37.293270534793464
            ]
          ]
        ]
      }
    },
    {
      "type": "Feature",
      "properties": {
        "indoor": "room",
        "level": [
          1
        ],
        "ref": "83187",
        "name": "2차원레독스에너지저장리더연구단",
        "room_type": "storage",
        "_idx": 40,
        "_centroid": [
          126.9783614,
          37.2932341
        ],
        "_area_m2": 52.9
      },
      "geometry": {
        "type": "Polygon",
        "coordinates": [
          [
            [
              126.97840150621576,
              37.29319973667491
            ],
            [
              126.97831109236634,
              37.29320972105892
            ],
            [
              126.97832135529521,
              37.29326853954279
            ],
            [
              126.97841176914058,
              37.29325855516709
            ],
            [
              126.97840150621576,
              37.29319973667491
            ]
          ]
        ]
      }
    },
    {
      "type": "Feature",
      "properties": {
        "indoor": "room",
        "level": [
          1
        ],
        "ref": "83122",
        "name": "강승구교수실",
        "room_type": "office",
        "_idx": 41,
        "_centroid": [
          126.9788856,
          37.2932334
        ],
        "_area_m2": 25.2
      },
      "geometry": {
        "type": "Polygon",
        "coordinates": [
          [
            [
              126.97890975819006,
              37.29326655963537
            ],
            [
              126.97889749255111,
              37.293196263158585
            ],
            [
              126.97886149536889,
              37.293200238320075
            ],
            [
              126.97887376100606,
              37.293270534793464
            ],
            [
              126.97890975819006,
              37.29326655963537
            ]
          ]
        ]
      }
    },
    {
      "type": "Feature",
      "properties": {
        "indoor": "room",
        "level": [
          1
        ],
        "ref": "",
        "name": "",
        "room_type": "",
        "_idx": 42,
        "_centroid": [
          126.9789244,
          37.2932291
        ],
        "_area_m2": 29
      },
      "geometry": {
        "type": "Polygon",
        "coordinates": [
          [
            [
              126.97893896497048,
              37.293191683366665
            ],
            [
              126.97889749255111,
              37.293196263158585
            ],
            [
              126.97890975819006,
              37.29326655963537
            ],
            [
              126.9789512306088,
              37.293261979848765
            ],
            [
              126.97893896497048,
              37.293191683366665
            ]
          ]
        ]
      }
    },
    {
      "type": "Feature",
      "properties": {
        "indoor": "room",
        "level": [
          1
        ],
        "ref": "83188",
        "name": "김영진첨단강의실",
        "room_type": "classroom",
        "_idx": 43,
        "_centroid": [
          126.9784832,
          37.2931822
        ],
        "_area_m2": 117.7
      },
      "geometry": {
        "type": "Polygon",
        "coordinates": [
          [
            [
              126.97852322691034,
              37.29311789874178
            ],
            [
              126.97842259148543,
              37.29312901190435
            ],
            [
              126.97844308148468,
              37.29324644367393
            ],
            [
              126.9785437169096,
              37.29323533052871
            ],
            [
              126.97852322691034,
              37.29311789874178
            ]
          ]
        ]
      }
    },
    {
      "type": "Feature",
      "properties": {
        "indoor": "room",
        "level": [
          1
        ],
        "ref": "83191",
        "name": "일반강의실",
        "room_type": "classroom",
        "_idx": 44,
        "_centroid": [
          126.9783415,
          37.2931728
        ],
        "_area_m2": 54.7
      },
      "geometry": {
        "type": "Polygon",
        "coordinates": [
          [
            [
              126.97830353835185,
              37.29316642768082
            ],
            [
              126.97831109236634,
              37.29320972105892
            ],
            [
              126.97840150621576,
              37.29319973667491
            ],
            [
              126.97839090150039,
              37.293138959325404
            ],
            [
              126.9783004876756,
              37.293148943714705
            ],
            [
              126.97830353835185,
              37.29316642768082
            ]
          ]
        ]
      }
    },
    {
      "type": "Feature",
      "properties": {
        "indoor": "room",
        "level": [
          1
        ],
        "ref": "",
        "name": "",
        "room_type": "",
        "_idx": 45,
        "_centroid": [
          126.9783515,
          37.2931122
        ],
        "_area_m2": 41.6
      },
      "geometry": {
        "type": "Polygon",
        "coordinates": [
          [
            [
              126.97831221418664,
              37.29308666111186
            ],
            [
              126.97832266471383,
              37.29314655496752
            ],
            [
              126.97839091181613,
              37.29313901844695
            ],
            [
              126.97838001942982,
              37.29307659220966
            ],
            [
              126.97831221418664,
              37.29308666111186
            ]
          ]
        ]
      }
    },
    {
      "type": "Feature",
      "properties": {
        "indoor": "room",
        "level": [
          1
        ],
        "ref": "",
        "name": "",
        "room_type": "",
        "_idx": 46,
        "_centroid": [
          126.9784427,
          37.2930417
        ],
        "_area_m2": 30.7
      },
      "geometry": {
        "type": "Polygon",
        "coordinates": [
          [
            [
              126.97848303420581,
              37.29305862484243
            ],
            [
              126.97847570248116,
              37.29301660537027
            ],
            [
              126.97840229456848,
              37.293024711812876
            ],
            [
              126.97840962628982,
              37.29306673128206
            ],
            [
              126.97848303420581,
              37.29305862484243
            ]
          ]
        ]
      }
    },
    {
      "type": "Feature",
      "properties": {
        "indoor": "room",
        "level": [
          1
        ],
        "ref": "83155",
        "name": "김성웅교수연구실",
        "room_type": "lab",
        "_idx": 47,
        "_centroid": [
          126.9786792,
          37.2930155
        ],
        "_area_m2": 31.1
      },
      "geometry": {
        "type": "Polygon",
        "coordinates": [
          [
            [
              126.9787126273421,
              37.292990385656125
            ],
            [
              126.97863842001541,
              37.29299858038039
            ],
            [
              126.97864576133837,
              37.2930406548775
            ],
            [
              126.97871996866296,
              37.29303246015914
            ],
            [
              126.9787126273421,
              37.292990385656125
            ]
          ]
        ]
      }
    },
    {
      "type": "Feature",
      "properties": {
        "indoor": "room",
        "level": [
          1
        ],
        "ref": "",
        "name": "",
        "room_type": "",
        "_idx": 48,
        "_centroid": [
          126.9785245,
          37.2930104
        ],
        "_area_m2": 54.3
      },
      "geometry": {
        "type": "Polygon",
        "coordinates": [
          [
            [
              126.97851965712228,
              37.29301175145477
            ],
            [
              126.97847570248116,
              37.29301660537027
            ],
            [
              126.97848303420581,
              37.29305862484243
            ],
            [
              126.97857530179554,
              37.29304843572814
            ],
            [
              126.97856015823328,
              37.29296164512117
            ],
            [
              126.978525013098,
              37.29296552620472
            ],
            [
              126.97853282493692,
              37.2930102973316
            ],
            [
              126.97851965712228,
              37.29301175145477
            ]
          ]
        ]
      }
    },
    {
      "type": "Feature",
      "properties": {
        "indoor": "room",
        "level": [
          1
        ],
        "ref": "83157",
        "name": "김성웅교수LAB",
        "room_type": "lab",
        "_idx": 49,
        "_centroid": [
          126.978603,
          37.2930011
        ],
        "_area_m2": 60.9
      },
      "geometry": {
        "type": "Polygon",
        "coordinates": [
          [
            [
              126.97864576133837,
              37.2930406548775
            ],
            [
              126.97863061777657,
              37.29295386426195
            ],
            [
              126.97856015823328,
              37.29296164512117
            ],
            [
              126.97857530179554,
              37.29304843572814
            ],
            [
              126.97864576133837,
              37.2930406548775
            ]
          ]
        ]
      }
    },
    {
      "type": "Feature",
      "properties": {
        "indoor": "room",
        "level": [
          1
        ],
        "ref": "",
        "name": "",
        "room_type": "",
        "_idx": 50,
        "_centroid": [
          126.9784139,
          37.2930006
        ],
        "_area_m2": 13.9
      },
      "geometry": {
        "type": "Polygon",
        "coordinates": [
          [
            [
              126.9784333771108,
              37.293021279364886
            ],
            [
              126.97842556527172,
              37.29297650824463
            ],
            [
              126.97839448272872,
              37.29297994069499
            ],
            [
              126.97840229456848,
              37.293024711812876
            ],
            [
              126.9784333771108,
              37.293021279364886
            ]
          ]
        ]
      }
    },
    {
      "type": "Feature",
      "properties": {
        "indoor": "room",
        "level": [
          1
        ],
        "ref": "",
        "name": "",
        "room_type": "",
        "_idx": 51,
        "_centroid": [
          126.9784431,
          37.2929974
        ],
        "_area_m2": 12.2
      },
      "geometry": {
        "type": "Polygon",
        "coordinates": [
          [
            [
              126.9784606932898,
              37.29301826283674
            ],
            [
              126.97845288145146,
              37.29297349171438
            ],
            [
              126.97842556527172,
              37.29297650824463
            ],
            [
              126.9784333771108,
              37.293021279364886
            ],
            [
              126.9784606932898,
              37.29301826283674
            ]
          ]
        ]
      }
    },
    {
      "type": "Feature",
      "properties": {
        "indoor": "room",
        "level": [
          1
        ],
        "ref": "",
        "name": "",
        "room_type": "",
        "_idx": 52,
        "_centroid": [
          126.978493,
          37.2929964
        ],
        "_area_m2": 32.2
      },
      "geometry": {
        "type": "Polygon",
        "coordinates": [
          [
            [
              126.9784606932898,
              37.29301826283674
            ],
            [
              126.97849364146586,
              37.29301462436639
            ],
            [
              126.97853282493692,
              37.2930102973316
            ],
            [
              126.978525013098,
              37.29296552620472
            ],
            [
              126.97845288145146,
              37.29297349171438
            ],
            [
              126.9784606932898,
              37.29301826283674
            ]
          ]
        ]
      }
    },
    {
      "type": "Feature",
      "properties": {
        "indoor": "room",
        "level": [
          1
        ],
        "ref": "83149",
        "name": "김성웅교수연구실",
        "room_type": "lab",
        "_idx": 53,
        "_centroid": [
          126.9787476,
          37.2929852
        ],
        "_area_m2": 60.9
      },
      "geometry": {
        "type": "Polygon",
        "coordinates": [
          [
            [
              126.97879043955939,
              37.29302467805472
            ],
            [
              126.97877529599657,
              37.29293788742179
            ],
            [
              126.97870482510152,
              37.29294566953458
            ],
            [
              126.97871996866296,
              37.29303246015914
            ],
            [
              126.97879043955939,
              37.29302467805472
            ]
          ]
        ]
      }
    },
    {
      "type": "Feature",
      "properties": {
        "indoor": "room",
        "level": [
          1
        ],
        "ref": "",
        "name": "",
        "room_type": "",
        "_idx": 54,
        "_centroid": [
          126.978332,
          37.2929812
        ],
        "_area_m2": 45.2
      },
      "geometry": {
        "type": "Polygon",
        "coordinates": [
          [
            [
              126.9783640881738,
              37.29294672551599
            ],
            [
              126.97828923987598,
              37.292954991026996
            ],
            [
              126.97829982006674,
              37.29301562811396
            ],
            [
              126.97837466836458,
              37.293007362609615
            ],
            [
              126.9783640881738,
              37.29294672551599
            ]
          ]
        ]
      }
    },
    {
      "type": "Feature",
      "properties": {
        "indoor": "room",
        "level": [
          1
        ],
        "ref": "83145",
        "name": "로봇시스템연구실",
        "room_type": "lab",
        "_idx": 55,
        "_centroid": [
          126.9788229,
          37.2929769
        ],
        "_area_m2": 69.2
      },
      "geometry": {
        "type": "Polygon",
        "coordinates": [
          [
            [
              126.97885535361858,
              37.29292904664214
            ],
            [
              126.97877529599657,
              37.29293788742179
            ],
            [
              126.97879043955939,
              37.29302467805472
            ],
            [
              126.97887049717973,
              37.293015837287925
            ],
            [
              126.97885535361858,
              37.29292904664214
            ]
          ]
        ]
      }
    },
    {
      "type": "Feature",
      "properties": {
        "indoor": "room",
        "level": [
          1
        ],
        "ref": "83153",
        "name": "김성웅교수연구실",
        "room_type": "lab",
        "_idx": 56,
        "_centroid": [
          126.9786638,
          37.2929706
        ],
        "_area_m2": 33
      },
      "geometry": {
        "type": "Polygon",
        "coordinates": [
          [
            [
              126.97863248092119,
              37.29296454230132
            ],
            [
              126.97863842001541,
              37.29299858038039
            ],
            [
              126.9787126273421,
              37.292990385656125
            ],
            [
              126.97870482510152,
              37.29294566953458
            ],
            [
              126.97863061777657,
              37.29295386426195
            ],
            [
              126.97863248092119,
              37.29296454230132
            ]
          ]
        ]
      }
    },
    {
      "type": "Feature",
      "properties": {
        "indoor": "room",
        "level": [
          1
        ],
        "ref": "83170",
        "name": "경비실",
        "room_type": "office",
        "_idx": 57,
        "_centroid": [
          126.9783719,
          37.2929175
        ],
        "_area_m2": 17.8
      },
      "geometry": {
        "type": "Polygon",
        "coordinates": [
          [
            [
              126.97839078146733,
              37.29295138110313
            ],
            [
              126.97837847696536,
              37.29288086159878
            ],
            [
              126.97835308525104,
              37.29288366561292
            ],
            [
              126.97836538975264,
              37.292954185115704
            ],
            [
              126.97839078146733,
              37.29295138110313
            ]
          ]
        ]
      }
    },
    {
      "type": "Feature",
      "properties": {
        "indoor": "room",
        "level": [
          1
        ],
        "ref": "83158",
        "name": "이차전지산학협력연구센터",
        "room_type": "lab",
        "_idx": 58,
        "_centroid": [
          126.9785031,
          37.292903
        ],
        "_area_m2": 166.4
      },
      "geometry": {
        "type": "Polygon",
        "coordinates": [
          [
            [
              126.97837847696536,
              37.29288086159878
            ],
            [
              126.97839078146733,
              37.29295138110313
            ],
            [
              126.97862775308094,
              37.29292521227633
            ],
            [
              126.97861544858073,
              37.29285469274677
            ],
            [
              126.97837847696536,
              37.29288086159878
            ]
          ]
        ]
      }
    },
    {
      "type": "Feature",
      "properties": {
        "indoor": "room",
        "level": [
          1
        ],
        "ref": "83146",
        "name": "에너지메카트로닉스연구실",
        "room_type": "lab",
        "_idx": 59,
        "_centroid": [
          126.978739,
          37.2928698
        ],
        "_area_m2": 152.1
      },
      "geometry": {
        "type": "Polygon",
        "coordinates": [
          [
            [
              126.97883208710786,
              37.29283076928509
            ],
            [
              126.97877526862482,
              37.29283704376902
            ],
            [
              126.97861544858073,
              37.29285469274677
            ],
            [
              126.97862775308094,
              37.29292521227633
            ],
            [
              126.97884439160812,
              37.29290128883669
            ],
            [
              126.97883208710786,
              37.29283076928509
            ]
          ]
        ]
      }
    },
    {
      "type": "Feature",
      "properties": {
        "indoor": "room",
        "level": [
          1
        ],
        "ref": "",
        "name": "",
        "room_type": "",
        "_idx": 60,
        "_centroid": [
          126.9788617,
          37.2928634
        ],
        "_area_m2": 32.9
      },
      "geometry": {
        "type": "Polygon",
        "coordinates": [
          [
            [
              126.97883208710786,
              37.29283076928509
            ],
            [
              126.97884439160812,
              37.29290128883669
            ],
            [
              126.9788912352737,
              37.29289611588052
            ],
            [
              126.97887893077213,
              37.29282559632329
            ],
            [
              126.97883208710786,
              37.29283076928509
            ]
          ]
        ]
      }
    }
  ]
}