{
  "type": "FeatureCollection",
  "features": [
    {
      "type": "Feature",
      "properties": {
        "indoor": "corridor",
        "level": "2"
      },
      "geometry": {
        "type": "MultiPolygon",
        "coordinates": []
      }
    },
    {
      "type": "Feature",
      "properties": {
        "indoor": "corridor",
        "level": "2"
      },
      "geometry": {
        "type": "MultiPolygon",
        "coordinates": []
      }
    },
    {
      "type": "Feature",
      "properties": {
        "indoor": "corridor",
        "level": "2"
      },
      "geometry": {
        "type": "MultiPolygon",
        "coordinates": []
      }
    },
    {
      "type": "Feature",
      "properties": {
        "indoor": "corridor",
        "level": "2"
      },
      "geometry": {
        "type": "Polygon",
        "coordinates": [
          [
            [
              126.97842402085402,
              37.29332877173069
            ],
            [
              126.9784619943041,
              37.293355345125065
            ],
            [
              126.97848976050645,
              37.29335227891388
            ],
            [
              126.97849763975657,
              37.29339743615175
            ],
            [
              126.9785315401045,
              37.29339369255137
            ],
            [
              126.97852366085412,
              37.29334853531136
            ],
            [
              126.978957964913,
              37.29330057527601
            ],
            [
              126.9789512306088,
              37.293261979848765
            ],
            [
              126.9786204062623,
              37.29329851268086
            ],
            [
              126.97860814062398,
              37.2932282162329
            ],
            [
              126.9785700613123,
              37.29323242132211
            ],
            [
              126.97858295547354,
              37.29330264835857
            ],
            [
              126.978455347123,
              37.293316740104814
            ],
            [
              126.97842402085402,
              37.29332877173069
            ]
          ]
        ]
      }
    },
    {
      "type": "Feature",
      "properties": {
        "indoor": "corridor",
        "level": "2"
      },
      "geometry": {
        "type": "MultiPolygon",
        "coordinates": []
      }
    },
    {
      "type": "Feature",
      "properties": {
        "indoor": "corridor",
        "level": "2"
      },
      "geometry": {
        "type": "Polygon",
        "coordinates": [
          [
            [
              126.97848888245694,
              37.293732906971535
            ],
            [
              126.978950070934,
              37.29368197835726
            ],
            [
              126.97894347857914,
              37.293644196657475
            ],
            [
              126.97851754453008,
              37.29369123218291
            ],
            [
              126.97848595050984,
              37.293716093394195
            ],
            [
              126.97848888245694,
              37.293732906971535
            ]
          ]
        ]
      }
    },
    {
      "type": "Feature",
      "properties": {
        "indoor": "corridor",
        "level": "2"
      },
      "geometry": {
        "type": "Polygon",
        "coordinates": [
          [
            [
              126.97848595050984,
              37.293716093394195
            ],
            [
              126.97846369077138,
              37.29355612648258
            ],
            [
              126.97842402085402,
              37.29332877173069
            ],
            [
              126.9784619943041,
              37.293355345125065
            ],
            [
              126.97849680030984,
              37.29355482372302
            ],
            [
              126.97850508077866,
              37.29361980068787
            ],
            [
              126.97851754453008,
              37.29369123218291
            ],
            [
              126.97848595050984,
              37.293716093394195
            ]
          ]
        ]
      }
    },
    {
      "type": "Feature",
      "properties": {
        "indoor": "corridor",
        "level": "2"
      },
      "geometry": {
        "type": "MultiPolygon",
        "coordinates": []
      }
    },
    {
      "type": "Feature",
      "properties": {
        "indoor": "corridor",
        "level": "2"
      },
      "geometry": {
        "type": "Polygon",
        "coordinates": [
          [
            [
              126.97836538975264,
              37.2929541851157
            ],
            [
              126.97889123527368,
              37.29289611588052
            ],
            [
              126.97889619422546,
              37.29292453660513
            ],
            [
              126.97839448272872,
              37.29297994069499
            ],
            [
              126.97836538975264,
              37.2929541851157
            ]
          ]
        ]
      }
    },
    {
      "type": "Feature",
      "properties": {
        "indoor": "corridor",
        "level": "2"
      },
      "geometry": {
        "type": "Polygon",
        "coordinates": [
          [
            [
              126.97842402085402,
              37.29332877173069
            ],
            [
              126.97838046128895,
              37.2930791245853
            ],
            [
              126.97836538975264,
              37.2929541851157
            ],
            [
              126.97839448272872,
              37.29297994069499
            ],
            [
              126.97840962628982,
              37.29306673128206
            ],
            [
              126.97842259148543,
              37.29312901190435
            ],
            [
              126.978455347123,
              37.293316740104814
            ],
            [
              126.97842402085402,
              37.29332877173069
            ]
          ]
        ]
      }
    }
  ]
}