{
  "type": "FeatureCollection",
  "features": [
    {
      "type": "Feature",
      "properties": {
        "indoor": "corridor",
        "level": "5"
      },
      "geometry": {
        "type": "Polygon",
        "coordinates": [
          [
            [
              126.97519664030347,
              37.29603257319783
            ],
            [
              126.9756603817731,
              37.295972792388824
            ],
            [
              126.9756724682276,
              37.29603212576266
            ],
            [
              126.97570574941417,
              37.29602783537936
            ],
            [
              126.97568717050629,
              37.295936630008015
            ],
            [
              126.97583542265713,
              37.29591751832671
            ],
            [
              126.97574451324168,
              37.29547123489733
            ],
            [
              126.97546713730304,
              37.29550699256678
            ],
            [
              126.97547031344574,
              37.29552258460672
            ],
            [
              126.97570869809098,
              37.29549185347256
            ],
            [
              126.97578713119454,
              37.295876889493485
            ],
            [
              126.97571661270322,
              37.29588598027376
            ],
            [
              126.97571949989023,
              37.29590015372692
            ],
            [
              126.97564522225744,
              37.29590972910805
            ],
            [
              126.97565294231606,
              37.29594762753165
            ],
            [
              126.9751905586042,
              37.296007234924
            ],
            [
              126.97519664030347,
              37.29603257319783
            ]
          ]
        ]
      }
    }
  ]
}