{
  "type": "FeatureCollection",
  "features": [
    {
      "type": "Feature",
      "properties": {
        "building": "university",
        "name": "산학협력센터",
        "loc_ref": "IAC"
      },
      "geometry": {
        "type": "Polygon",
        "coordinates": [
          [
            [
              126.97521062355197,
              37.296091663599235
            ],
            [
              126.97526141008329,
              37.296085116551495
            ],
            [
              126.9756724682276,
              37.296032125762665
            ],
            [
              126.97571041739623,
              37.29602723361497
            ],
            [
              126.97581186498685,
              37.29601415568272
            ],
            [
              126.97594023418179,
              37.29599760719739
            ],
            [
              126.97592707765965,
              37.29593302074393
            ],
            [
              126.97586018241203,
              37.29560462559174
            ],
            [
              126.97586009325858,
              37.29560418792793
            ],
            [
              126.97584847816101,
              37.29554716815939
            ],
            [
              126.97584848167193,
              37.29554718539494
            ],
            [
              126.97583910134496,
              37.29550113632526
            ],
            [
              126.97583709555943,
              37.29549128969696
            ],
            [
              126.9758216861649,
              37.295415643191866
            ],
            [
              126.97572068761433,
              37.29542866334051
            ],
            [
              126.97558573556735,
              37.29544606057392
            ],
            [
              126.97545807760817,
              37.29546251749224
            ],
            [
              126.97548038836364,
              37.29557204348557
            ],
            [
              126.97560804639373,
              37.29555558693927
            ],
            [
              126.97564830274578,
              37.29555039697515
            ],
            [
              126.97565278398645,
              37.295572395873755
            ],
            [
              126.97566439908398,
              37.29562941562312
            ],
            [
              126.9756644882375,
              37.29562985328683
            ],
            [
              126.9756944573891,
              37.295776974838944
            ],
            [
              126.97552008870024,
              37.29585451424345
            ],
            [
              126.97555545088987,
              37.29589590069495
            ],
            [
              126.97519978028376,
              37.29594270018899
            ],
            [
              126.97517532674463,
              37.295944903775435
            ],
            [
              126.97519002912554,
              37.296004635670826
            ],
            [
              126.97521062355197,
              37.296091663599235
            ]
          ]
        ]
      }
    }
  ]
}