{
  "type": "FeatureCollection",
  "features": [
    {
      "type": "Feature",
      "properties": {
        "indoor": "corridor",
        "level": "4"
      },
      "geometry": {
        "type": "Polygon",
        "coordinates": [
          [
            [
              126.97519703883493,
              37.296034257312634
            ],
            [
              126.97519703196507,
              37.29603422358797
            ],
            [
              126.97566071906705,
              37.295974448192595
            ],
            [
              126.9756724682276,
              37.29603212576266
            ],
            [
              126.97570328846223,
              37.29602815262847
            ],
            [
              126.97568406615164,
              37.29593378873739
            ],
            [
              126.97578843351914,
              37.295920334390765
            ],
            [
              126.97579104779416,
              37.295933168089384
            ],
            [
              126.97583866455145,
              37.29592702965407
            ],
            [
              126.97574462324523,
              37.29546537146321
            ],
            [
              126.97546597628286,
              37.29550129298775
            ],
            [
              126.97546978963989,
              37.29552001318544
            ],
            [
              126.97570722702737,
              37.295489404165195
            ],
            [
              126.9757864164546,
              37.29587815305927
            ],
            [
              126.97571729910776,
              37.29588706321306
            ],
            [
              126.97572046607137,
              37.295902610113345
            ],
            [
              126.97564248317342,
              37.295912663152386
            ],
            [
              126.97565034085848,
              37.29595123719433
            ],
            [
              126.97519139322107,
              37.29601040006887
            ],
            [
              126.97519703883493,
              37.296034257312634
            ]
          ]
        ]
      }
    }
  ]
}