{
  "type": "FeatureCollection",
  "features": [
    {
      "type": "Feature",
      "properties": {
        "indoor": "room",
        "level": [
          5
        ],
        "ref": "",
        "name": "",
        "room_type": "",
        "_idx": 1,
        "_centroid": [
          126.9752332,
          37.2960583
        ],
        "_area_m2": 35.2
      },
      "geometry": {
        "type": "Polygon",
        "coordinates": [
          [
            [
              126.97521062355197,
              37.296091663599235
            ],
            [
              126.97526879934927,
              37.29608416397848
            ],
            [
              126.97525671261928,
              37.296024829289045
            ],
            [
              126.97519664030347,
              37.29603257319783
            ],
            [
              126.97521062355197,
              37.296091663599235
            ]
          ]
        ]
      }
    },
    {
      "type": "Feature",
      "properties": {
        "indoor": "room",
        "level": [
          5
        ],
        "ref": "",
        "name": "",
        "room_type": "",
        "_idx": 2,
        "_centroid": [
          126.9752956,
          37.2960503
        ],
        "_area_m2": 39.1
      },
      "geometry": {
        "type": "Polygon",
        "coordinates": [
          [
            [
              126.97525671261928,
              37.296024829289045
            ],
            [
              126.97526879934927,
              37.29608416397848
            ],
            [
              126.97533444538661,
              37.29607570134278
            ],
            [
              126.97532235870038,
              37.296016366867434
            ],
            [
              126.97525671261928,
              37.296024829289045
            ]
          ]
        ]
      }
    },
    {
      "type": "Feature",
      "properties": {
        "indoor": "room",
        "level": [
          5
        ],
        "ref": "",
        "name": "",
        "room_type": "",
        "_idx": 3,
        "_centroid": [
          126.9753607,
          37.2960419
        ],
        "_area_m2": 38.4
      },
      "geometry": {
        "type": "Polygon",
        "coordinates": [
          [
            [
              126.97532235870038,
              37.296016366867434
            ],
            [
              126.97533444538661,
              37.29607570134278
            ],
            [
              126.97539897404978,
              37.29606738275128
            ],
            [
              126.97538688740786,
              37.2960080484862
            ],
            [
              126.97532235870038,
              37.296016366867434
            ]
          ]
        ]
      }
    },
    {
      "type": "Feature",
      "properties": {
        "indoor": "room",
        "level": [
          5
        ],
        "ref": "",
        "name": "",
        "room_type": "",
        "_idx": 4,
        "_centroid": [
          126.9754246,
          37.2960336
        ],
        "_area_m2": 37.6
      },
      "geometry": {
        "type": "Polygon",
        "coordinates": [
          [
            [
              126.97538688740786,
              37.2960080484862
            ],
            [
              126.97539897404978,
              37.29606738275128
            ],
            [
              126.97546222740222,
              37.29605922856407
            ],
            [
              126.97545014080362,
              37.29599989450512
            ],
            [
              126.97538688740786,
              37.2960080484862
            ]
          ]
        ]
      }
    },
    {
      "type": "Feature",
      "properties": {
        "indoor": "room",
        "level": [
          5
        ],
        "ref": "",
        "name": "",
        "room_type": "",
        "_idx": 5,
        "_centroid": [
          126.9755922,
          37.2960257
        ],
        "_area_m2": 12.2
      },
      "geometry": {
        "type": "Polygon",
        "coordinates": [
          [
            [
              126.975607443198,
              37.29600696721324
            ],
            [
              126.97557023260987,
              37.2960117641498
            ],
            [
              126.97557689024853,
              37.29604444701844
            ],
            [
              126.97561410083726,
              37.296039650085234
            ],
            [
              126.975607443198,
              37.29600696721324
            ]
          ]
        ]
      }
    },
    {
      "type": "Feature",
      "properties": {
        "indoor": "room",
        "level": [
          5
        ],
        "ref": "",
        "name": "",
        "room_type": "",
        "_idx": 6,
        "_centroid": [
          126.9754884,
          37.2960254
        ],
        "_area_m2": 38.3
      },
      "geometry": {
        "type": "Polygon",
        "coordinates": [
          [
            [
              126.97545014080362,
              37.29599989450512
            ],
            [
              126.97546222740222,
              37.29605922856407
            ],
            [
              126.97552659812779,
              37.2960509303328
            ],
            [
              126.97551451157305,
              37.295991596483645
            ],
            [
              126.97545014080362,
              37.29599989450512
            ]
          ]
        ]
      }
    },
    {
      "type": "Feature",
      "properties": {
        "indoor": "room",
        "level": [
          5
        ],
        "ref": "",
        "name": "",
        "room_type": "",
        "_idx": 7,
        "_centroid": [
          126.9755506,
          37.2960168
        ],
        "_area_m2": 29.9
      },
      "geometry": {
        "type": "Polygon",
        "coordinates": [
          [
            [
              126.97551451157305,
              37.295991596483645
            ],
            [
              126.97552659812779,
              37.2960509303328
            ],
            [
              126.97557689024853,
              37.29604444701844
            ],
            [
              126.97557023260987,
              37.2960117641498
            ],
            [
              126.9755648037279,
              37.295985113333224
            ],
            [
              126.97551451157305,
              37.295991596483645
            ]
          ]
        ]
      }
    },
    {
      "type": "Feature",
      "properties": {
        "indoor": "room",
        "level": [
          5
        ],
        "ref": "",
        "name": "",
        "room_type": "",
        "_idx": 8,
        "_centroid": [
          126.9756403,
          37.2960162
        ],
        "_area_m2": 19.1
      },
      "geometry": {
        "type": "Polygon",
        "coordinates": [
          [
            [
              126.975607443198,
              37.29600696721324
            ],
            [
              126.97561410083726,
              37.296039650085234
            ],
            [
              126.9756724682276,
              37.29603212576266
            ],
            [
              126.97566581058967,
              37.2959994428845
            ],
            [
              126.97564148063978,
              37.29600257933691
            ],
            [
              126.975607443198,
              37.29600696721324
            ]
          ]
        ]
      }
    },
    {
      "type": "Feature",
      "properties": {
        "indoor": "room",
        "level": [
          5
        ],
        "ref": "",
        "name": "",
        "room_type": "",
        "_idx": 9,
        "_centroid": [
          126.9757398,
          37.2960043
        ],
        "_area_m2": 28.3
      },
      "geometry": {
        "type": "Polygon",
        "coordinates": [
          [
            [
              126.97577386689724,
              37.29598081537179
            ],
            [
              126.97569815933848,
              37.295990575080275
            ],
            [
              126.97570574941402,
              37.296027835379384
            ],
            [
              126.97578145697645,
              37.29601807567517
            ],
            [
              126.97577386689724,
              37.29598081537179
            ]
          ]
        ]
      }
    },
    {
      "type": "Feature",
      "properties": {
        "indoor": "room",
        "level": [
          5
        ],
        "ref": "",
        "name": "",
        "room_type": "",
        "_idx": 10,
        "_centroid": [
          126.975604,
          37.2959965
        ],
        "_area_m2": 19
      },
      "geometry": {
        "type": "Polygon",
        "coordinates": [
          [
            [
              126.975607443198,
              37.29600696721324
            ],
            [
              126.97564148063978,
              37.29600257933691
            ],
            [
              126.97563605180737,
              37.295975928759255
            ],
            [
              126.9755648037279,
              37.295985113333224
            ],
            [
              126.97557023260987,
              37.2960117641498
            ],
            [
              126.975607443198,
              37.29600696721324
            ]
          ]
        ]
      }
    },
    {
      "type": "Feature",
      "properties": {
        "indoor": "room",
        "level": [
          5
        ],
        "ref": "",
        "name": "",
        "room_type": "",
        "_idx": 11,
        "_centroid": [
          126.9756509,
          37.2959877
        ],
        "_area_m2": 6.5
      },
      "geometry": {
        "type": "Polygon",
        "coordinates": [
          [
            [
              126.97563605180737,
              37.295975928759255
            ],
            [
              126.97564148063978,
              37.29600257933691
            ],
            [
              126.97566581058967,
              37.2959994428845
            ],
            [
              126.9756603817731,
              37.295972792388824
            ],
            [
              126.97563605180737,
              37.295975928759255
            ]
          ]
        ]
      }
    },
    {
      "type": "Feature",
      "properties": {
        "indoor": "room",
        "level": [
          5
        ],
        "ref": "",
        "name": "",
        "room_type": "",
        "_idx": 12,
        "_centroid": [
          126.9752107,
          37.2959725
        ],
        "_area_m2": 34.8
      },
      "geometry": {
        "type": "Polygon",
        "coordinates": [
          [
            [
              126.975232034374,
              37.295937593406464
            ],
            [
              126.97517532674463,
              37.295944903775435
            ],
            [
              126.9751905586042,
              37.296007234924
            ],
            [
              126.97524479634318,
              37.29600024296017
            ],
            [
              126.975232034374,
              37.295937593406464
            ]
          ]
        ]
      }
    },
    {
      "type": "Feature",
      "properties": {
        "indoor": "room",
        "level": [
          5
        ],
        "ref": "123",
        "name": "",
        "room_type": "store",
        "_idx": 13,
        "_centroid": [
          126.9758015,
          37.2959704
        ],
        "_area_m2": 66.3
      },
      "geometry": {
        "type": "Polygon",
        "coordinates": [
          [
            [
              126.9758539674033,
              37.296008728123944
            ],
            [
              126.97583538849321,
              37.29591752273092
            ],
            [
              126.97576287806655,
              37.295926870293385
            ],
            [
              126.97577386689724,
              37.29598081537179
            ],
            [
              126.97578145697645,
              37.29601807567517
            ],
            [
              126.9758539674033,
              37.296008728123944
            ]
          ]
        ]
      }
    },
    {
      "type": "Feature",
      "properties": {
        "indoor": "room",
        "level": [
          5
        ],
        "ref": "",
        "name": "",
        "room_type": "",
        "_idx": 14,
        "_centroid": [
          126.9752716,
          37.2959646
        ],
        "_area_m2": 41.7
      },
      "geometry": {
        "type": "Polygon",
        "coordinates": [
          [
            [
              126.975232034374,
              37.295937593406464
            ],
            [
              126.97524479634318,
              37.29600024296017
            ],
            [
              126.97531123944869,
              37.29599167756274
            ],
            [
              126.97529847748079,
              37.29592902800196
            ],
            [
              126.975232034374,
              37.295937593406464
            ]
          ]
        ]
      }
    },
    {
      "type": "Feature",
      "properties": {
        "indoor": "room",
        "level": [
          5
        ],
        "ref": "",
        "name": "",
        "room_type": "",
        "_idx": 15,
        "_centroid": [
          126.9757305,
          37.2959587
        ],
        "_area_m2": 40.9
      },
      "geometry": {
        "type": "Polygon",
        "coordinates": [
          [
            [
              126.97569815933848,
              37.295990575080275
            ],
            [
              126.97577386689724,
              37.29598081537179
            ],
            [
              126.97576287806655,
              37.295926870293385
            ],
            [
              126.97568717050629,
              37.29593663000785
            ],
            [
              126.97569815933848,
              37.295990575080275
            ]
          ]
        ]
      }
    },
    {
      "type": "Feature",
      "properties": {
        "indoor": "room",
        "level": [
          5
        ],
        "ref": "",
        "name": "",
        "room_type": "",
        "_idx": 16,
        "_centroid": [
          126.9758878,
          37.2959576
        ],
        "_area_m2": 78.9
      },
      "geometry": {
        "type": "Polygon",
        "coordinates": [
          [
            [
              126.97583538849321,
              37.29591752273092
            ],
            [
              126.9758539674033,
              37.296008728123944
            ],
            [
              126.97594023418179,
              37.29599760719739
            ],
            [
              126.97592165527402,
              37.29590640178913
            ],
            [
              126.97583538849321,
              37.29591752273092
            ]
          ]
        ]
      }
    },
    {
      "type": "Feature",
      "properties": {
        "indoor": "room",
        "level": [
          5
        ],
        "ref": "123",
        "name": "",
        "room_type": "store",
        "_idx": 17,
        "_centroid": [
          126.9753374,
          37.2959562
        ],
        "_area_m2": 40.8
      },
      "geometry": {
        "type": "Polygon",
        "coordinates": [
          [
            [
              126.97529847748079,
              37.29592902800196
            ],
            [
              126.97531123944869,
              37.29599167756274
            ],
            [
              126.97537623454562,
              37.295983298832816
            ],
            [
              126.97536347257729,
              37.29592064926533
            ],
            [
              126.97529847748079,
              37.29592902800196
            ]
          ]
        ]
      }
    },
    {
      "type": "Feature",
      "properties": {
        "indoor": "room",
        "level": [
          5
        ],
        "ref": "",
        "name": "",
        "room_type": "",
        "_idx": 18,
        "_centroid": [
          126.975401,
          37.295948
        ],
        "_area_m2": 39.1
      },
      "geometry": {
        "type": "Polygon",
        "coordinates": [
          [
            [
              126.97536347257729,
              37.29592064926533
            ],
            [
              126.97537623454562,
              37.295983298832816
            ],
            [
              126.97543850336983,
              37.2959752715556
            ],
            [
              126.97542574140121,
              37.29591262198167
            ],
            [
              126.97536347257729,
              37.29592064926533
            ]
          ]
        ]
      }
    },
    {
      "type": "Feature",
      "properties": {
        "indoor": "room",
        "level": [
          5
        ],
        "ref": "123",
        "name": "",
        "room_type": "store",
        "_idx": 19,
        "_centroid": [
          126.9754625,
          37.29594
        ],
        "_area_m2": 38.2
      },
      "geometry": {
        "type": "Polygon",
        "coordinates": [
          [
            [
              126.97542574140121,
              37.29591262198167
            ],
            [
              126.97543850336983,
              37.2959752715556
            ],
            [
              126.97549925038233,
              37.295967440460096
            ],
            [
              126.9754864884138,
              37.29590479087984
            ],
            [
              126.97542574140121,
              37.29591262198167
            ]
          ]
        ]
      }
    },
    {
      "type": "Feature",
      "properties": {
        "indoor": "room",
        "level": [
          5
        ],
        "ref": "",
        "name": "",
        "room_type": "",
        "_idx": 20,
        "_centroid": [
          126.9755215,
          37.2959324
        ],
        "_area_m2": 36
      },
      "geometry": {
        "type": "Polygon",
        "coordinates": [
          [
            [
              126.9754864884138,
              37.29590479087984
            ],
            [
              126.97549925038233,
              37.295967440460096
            ],
            [
              126.97555653604778,
              37.29596005557812
            ],
            [
              126.97554377407904,
              37.29589740599193
            ],
            [
              126.9754864884138,
              37.29590479087984
            ]
          ]
        ]
      }
    },
    {
      "type": "Feature",
      "properties": {
        "indoor": "room",
        "level": [
          5
        ],
        "ref": "",
        "name": "",
        "room_type": "",
        "_idx": 21,
        "_centroid": [
          126.9755728,
          37.2959194
        ],
        "_area_m2": 33.9
      },
      "geometry": {
        "type": "Polygon",
        "coordinates": [
          [
            [
              126.97554377407904,
              37.29589740599193
            ],
            [
              126.97555653604778,
              37.29596005557812
            ],
            [
              126.97561060133187,
              37.29595308584602
            ],
            [
              126.97559783936293,
              37.29589043625232
            ],
            [
              126.97555545088987,
              37.29589590069495
            ],
            [
              126.97554377407904,
              37.29589740599193
            ]
          ]
        ]
      }
    },
    {
      "type": "Feature",
      "properties": {
        "indoor": "room",
        "level": [
          5
        ],
        "ref": "",
        "name": "",
        "room_type": "",
        "_idx": 22,
        "_centroid": [
          126.9756254,
          37.295919
        ],
        "_area_m2": 26.6
      },
      "geometry": {
        "type": "Polygon",
        "coordinates": [
          [
            [
              126.97559783936293,
              37.29589043625232
            ],
            [
              126.97561060133187,
              37.29595308584602
            ],
            [
              126.97565294231606,
              37.29594762753165
            ],
            [
              126.97564018034717,
              37.29588497793164
            ],
            [
              126.97559783936293,
              37.29589043625232
            ]
          ]
        ]
      }
    },
    {
      "type": "Feature",
      "properties": {
        "indoor": "room",
        "level": [
          5
        ],
        "ref": "",
        "name": "",
        "room_type": "",
        "_idx": 23,
        "_centroid": [
          126.9758741,
          37.2958903
        ],
        "_area_m2": 37.5
      },
      "geometry": {
        "type": "Polygon",
        "coordinates": [
          [
            [
              126.97582655804995,
              37.295874156591445
            ],
            [
              126.97583538849321,
              37.29591752273092
            ],
            [
              126.97592165527402,
              37.29590640178913
            ],
            [
              126.97591282238788,
              37.29586304024638
            ],
            [
              126.97582655804995,
              37.295874156591445
            ]
          ]
        ]
      }
    },
    {
      "type": "Feature",
      "properties": {
        "indoor": "room",
        "level": [
          5
        ],
        "ref": "",
        "name": "",
        "room_type": "",
        "_idx": 24,
        "_centroid": [
          126.9757495,
          37.2958697
        ],
        "_area_m2": 16.5
      },
      "geometry": {
        "type": "Polygon",
        "coordinates": [
          [
            [
              126.97578236177884,
              37.29585347595823
            ],
            [
              126.97571188770335,
              37.29586256101565
            ],
            [
              126.97571665680708,
              37.29588597458819
            ],
            [
              126.97578713119454,
              37.29587688949348
            ],
            [
              126.97578236177884,
              37.29585347595823
            ]
          ]
        ]
      }
    },
    {
      "type": "Feature",
      "properties": {
        "indoor": "room",
        "level": [
          5
        ],
        "ref": "",
        "name": "",
        "room_type": "",
        "_idx": 25,
        "_centroid": [
          126.9758653,
          37.2958468
        ],
        "_area_m2": 37.6
      },
      "geometry": {
        "type": "Polygon",
        "coordinates": [
          [
            [
              126.97582655804995,
              37.295874156591445
            ],
            [
              126.97591282238788,
              37.29586304024638
            ],
            [
              126.9759039572706,
              37.295819520477664
            ],
            [
              126.97581769626406,
              37.29583063639972
            ],
            [
              126.97582655804995,
              37.295874156591445
            ]
          ]
        ]
      }
    },
    {
      "type": "Feature",
      "properties": {
        "indoor": "room",
        "level": [
          5
        ],
        "ref": "",
        "name": "",
        "room_type": "",
        "_idx": 26,
        "_centroid": [
          126.9757448,
          37.2958466
        ],
        "_area_m2": 16.1
      },
      "geometry": {
        "type": "Polygon",
        "coordinates": [
          [
            [
              126.97577772273138,
              37.295830702413504
            ],
            [
              126.9757072489593,
              37.2958397874345
            ],
            [
              126.97571188770335,
              37.29586256101565
            ],
            [
              126.97578236177884,
              37.29585347595823
            ],
            [
              126.97577772273138,
              37.295830702413504
            ]
          ]
        ]
      }
    },
    {
      "type": "Feature",
      "properties": {
        "indoor": "room",
        "level": [
          5
        ],
        "ref": "",
        "name": "",
        "room_type": "",
        "_idx": 27,
        "_centroid": [
          126.975738,
          37.2958132
        ],
        "_area_m2": 31.1
      },
      "geometry": {
        "type": "Polygon",
        "coordinates": [
          [
            [
              126.97576874541885,
              37.29578663189485
            ],
            [
              126.97569827223396,
              37.29579571684561
            ],
            [
              126.9757072489593,
              37.2958397874345
            ],
            [
              126.97577772273138,
              37.295830702413504
            ],
            [
              126.97576874541885,
              37.29578663189485
            ]
          ]
        ]
      }
    },
    {
      "type": "Feature",
      "properties": {
        "indoor": "room",
        "level": [
          5
        ],
        "ref": "",
        "name": "",
        "room_type": "",
        "_idx": 28,
        "_centroid": [
          126.9758557,
          37.2958001
        ],
        "_area_m2": 43.3
      },
      "geometry": {
        "type": "Polygon",
        "coordinates": [
          [
            [
              126.97581769626406,
              37.29583063639972
            ],
            [
              126.9759039572706,
              37.295819520477664
            ],
            [
              126.9758937608897,
              37.29576946539943
            ],
            [
              126.97580750371479,
              37.295780580834915
            ],
            [
              126.97581769626406,
              37.29583063639972
            ]
          ]
        ]
      }
    },
    {
      "type": "Feature",
      "properties": {
        "indoor": "room",
        "level": [
          5
        ],
        "ref": "",
        "name": "",
        "room_type": "",
        "_idx": 29,
        "_centroid": [
          126.9757321,
          37.2957843
        ],
        "_area_m2": 9.7
      },
      "geometry": {
        "type": "Polygon",
        "coordinates": [
          [
            [
              126.97576595025564,
              37.29577291016107
            ],
            [
              126.97569547725358,
              37.29578199508995
            ],
            [
              126.97569827223396,
              37.29579571684561
            ],
            [
              126.97576874541885,
              37.29578663189485
            ],
            [
              126.97576595025564,
              37.29577291016107
            ]
          ]
        ]
      }
    },
    {
      "type": "Feature",
      "properties": {
        "indoor": "room",
        "level": [
          5
        ],
        "ref": "",
        "name": "",
        "room_type": "",
        "_idx": 30,
        "_centroid": [
          126.9757276,
          37.295762
        ],
        "_area_m2": 21.8
      },
      "geometry": {
        "type": "Polygon",
        "coordinates": [
          [
            [
              126.97575966393211,
              37.29574204997456
            ],
            [
              126.97568919134117,
              37.2957511348541
            ],
            [
              126.97569547725358,
              37.29578199508995
            ],
            [
              126.97576595025564,
              37.29577291016107
            ],
            [
              126.97575966393211,
              37.29574204997456
            ]
          ]
        ]
      }
    },
    {
      "type": "Feature",
      "properties": {
        "indoor": "room",
        "level": [
          5
        ],
        "ref": "",
        "name": "",
        "room_type": "",
        "_idx": 31,
        "_centroid": [
          126.9758463,
          37.2957537
        ],
        "_area_m2": 36.9
      },
      "geometry": {
        "type": "Polygon",
        "coordinates": [
          [
            [
              126.97580750371479,
              37.295780580834915
            ],
            [
              126.9758937608897,
              37.29576946539943
            ],
            [
              126.97588505932268,
              37.295726748515705
            ],
            [
              126.97579880541774,
              37.29573786353615
            ],
            [
              126.97580750371479,
              37.295780580834915
            ]
          ]
        ]
      }
    },
    {
      "type": "Feature",
      "properties": {
        "indoor": "room",
        "level": [
          5
        ],
        "ref": "",
        "name": "",
        "room_type": "",
        "_idx": 32,
        "_centroid": [
          126.9757223,
          37.2957362
        ],
        "_area_m2": 14.8
      },
      "geometry": {
        "type": "Polygon",
        "coordinates": [
          [
            [
              126.97575541105718,
              37.29572117218925
            ],
            [
              126.97568493874442,
              37.29573025703547
            ],
            [
              126.97568919134117,
              37.2957511348541
            ],
            [
              126.97575966393211,
              37.29574204997456
            ],
            [
              126.97575541105718,
              37.29572117218925
            ]
          ]
        ]
      }
    },
    {
      "type": "Feature",
      "properties": {
        "indoor": "room",
        "level": [
          5
        ],
        "ref": "",
        "name": "",
        "room_type": "",
        "_idx": 33,
        "_centroid": [
          126.975718,
          37.2957148
        ],
        "_area_m2": 15.4
      },
      "geometry": {
        "type": "Polygon",
        "coordinates": [
          [
            [
              126.9757509650316,
              37.29569934620808
            ],
            [
              126.97568049300962,
              37.29570843101942
            ],
            [
              126.97568493874442,
              37.29573025703547
            ],
            [
              126.97575541105718,
              37.29572117218925
            ],
            [
              126.9757509650316,
              37.29569934620808
            ]
          ]
        ]
      }
    },
    {
      "type": "Feature",
      "properties": {
        "indoor": "room",
        "level": [
          5
        ],
        "ref": "",
        "name": "",
        "room_type": "",
        "_idx": 34,
        "_centroid": [
          126.9758371,
          37.2957088
        ],
        "_area_m2": 40.6
      },
      "geometry": {
        "type": "Polygon",
        "coordinates": [
          [
            [
              126.97579880541774,
              37.29573786353615
            ],
            [
              126.97588505932268,
              37.295726748515705
            ],
            [
              126.97587549237191,
              37.29567978337447
            ],
            [
              126.97578924206215,
              37.29569089793868
            ],
            [
              126.97579880541774,
              37.29573786353615
            ]
          ]
        ]
      }
    },
    {
      "type": "Feature",
      "properties": {
        "indoor": "room",
        "level": [
          5
        ],
        "ref": "",
        "name": "",
        "room_type": "",
        "_idx": 35,
        "_centroid": [
          126.9757134,
          37.2956925
        ],
        "_area_m2": 16
      },
      "geometry": {
        "type": "Polygon",
        "coordinates": [
          [
            [
              126.9757463413431,
              37.29567664806212
            ],
            [
              126.97567586962353,
              37.295685732837136
            ],
            [
              126.97568049300962,
              37.29570843101942
            ],
            [
              126.9757509650316,
              37.29569934620808
            ],
            [
              126.9757463413431,
              37.29567664806212
            ]
          ]
        ]
      }
    },
    {
      "type": "Feature",
      "properties": {
        "indoor": "room",
        "level": [
          5
        ],
        "ref": "",
        "name": "",
        "room_type": "",
        "_idx": 36,
        "_centroid": [
          126.9757089,
          37.2956703
        ],
        "_area_m2": 15.4
      },
      "geometry": {
        "type": "Polygon",
        "coordinates": [
          [
            [
              126.9757418973481,
              37.29565483204935
            ],
            [
              126.97567142591917,
              37.295663916789515
            ],
            [
              126.97567586962353,
              37.295685732837136
            ],
            [
              126.9757463413431,
              37.29567664806212
            ],
            [
              126.9757418973481,
              37.29565483204935
            ]
          ]
        ]
      }
    },
    {
      "type": "Feature",
      "properties": {
        "indoor": "room",
        "level": [
          5
        ],
        "ref": "",
        "name": "",
        "room_type": "",
        "_idx": 37,
        "_centroid": [
          126.9758286,
          37.2956668
        ],
        "_area_m2": 32.1
      },
      "geometry": {
        "type": "Polygon",
        "coordinates": [
          [
            [
              126.97578924206215,
              37.29569089793868
            ],
            [
              126.97587549237191,
              37.29567978337447
            ],
            [
              126.97586793889631,
              37.29564270258907
            ],
            [
              126.97578169142504,
              37.295653816792935
            ],
            [
              126.97578924206215,
              37.29569089793868
            ]
          ]
        ]
      }
    },
    {
      "type": "Feature",
      "properties": {
        "indoor": "room",
        "level": [
          5
        ],
        "ref": "",
        "name": "",
        "room_type": "",
        "_idx": 38,
        "_centroid": [
          126.9757045,
          37.2956487
        ],
        "_area_m2": 15.1
      },
      "geometry": {
        "type": "Polygon",
        "coordinates": [
          [
            [
              126.97573754789356,
              37.295633480145085
            ],
            [
              126.9756670767491,
              37.29564256485112
            ],
            [
              126.97567142591917,
              37.295663916789515
            ],
            [
              126.9757418973481,
              37.29565483204935
            ],
            [
              126.97573754789356,
              37.295633480145085
            ]
          ]
        ]
      }
    },
    {
      "type": "Feature",
      "properties": {
        "indoor": "room",
        "level": [
          5
        ],
        "ref": "",
        "name": "",
        "room_type": "",
        "_idx": 39,
        "_centroid": [
          126.9756999,
          37.2956263
        ],
        "_area_m2": 16.6
      },
      "geometry": {
        "type": "Polygon",
        "coordinates": [
          [
            [
              126.97573276908331,
              37.295610020491004
            ],
            [
              126.97566229825141,
              37.29561910515953
            ],
            [
              126.9756670767491,
              37.29564256485112
            ],
            [
              126.97573754789356,
              37.295633480145085
            ],
            [
              126.97573276908331,
              37.295610020491004
            ]
          ]
        ]
      }
    },
    {
      "type": "Feature",
      "properties": {
        "indoor": "room",
        "level": [
          5
        ],
        "ref": "",
        "name": "",
        "room_type": "",
        "_idx": 40,
        "_centroid": [
          126.9758198,
          37.2956239
        ],
        "_area_m2": 42.2
      },
      "geometry": {
        "type": "Polygon",
        "coordinates": [
          [
            [
              126.97578169142504,
              37.295653816792935
            ],
            [
              126.97586793889631,
              37.29564270258907
            ],
            [
              126.97585800583249,
              37.29559394016144
            ],
            [
              126.97577176209401,
              37.295605053891656
            ],
            [
              126.97578169142504,
              37.295653816792935
            ]
          ]
        ]
      }
    },
    {
      "type": "Feature",
      "properties": {
        "indoor": "room",
        "level": [
          5
        ],
        "ref": "",
        "name": "",
        "room_type": "",
        "_idx": 41,
        "_centroid": [
          126.9756956,
          37.2956049
        ],
        "_area_m2": 13.6
      },
      "geometry": {
        "type": "Polygon",
        "coordinates": [
          [
            [
              126.97572884198436,
              37.295590741972326
            ],
            [
              126.97565837140932,
              37.29559982661006
            ],
            [
              126.97566229825141,
              37.29561910515953
            ],
            [
              126.97573276908331,
              37.295610020491004
            ],
            [
              126.97572884198436,
              37.295590741972326
            ]
          ]
        ]
      }
    },
    {
      "type": "Feature",
      "properties": {
        "indoor": "room",
        "level": [
          5
        ],
        "ref": "",
        "name": "",
        "room_type": "",
        "_idx": 42,
        "_centroid": [
          126.9756913,
          37.295584
        ],
        "_area_m2": 16
      },
      "geometry": {
        "type": "Polygon",
        "coordinates": [
          [
            [
              126.97572423891988,
              37.29556814507165
            ],
            [
              126.97565376864593,
              37.29557722967345
            ],
            [
              126.97565837140932,
              37.29559982661006
            ],
            [
              126.97572884198436,
              37.295590741972326
            ],
            [
              126.97572423891988,
              37.29556814507165
            ]
          ]
        ]
      }
    },
    {
      "type": "Feature",
      "properties": {
        "indoor": "room",
        "level": [
          5
        ],
        "ref": "",
        "name": "",
        "room_type": "",
        "_idx": 43,
        "_centroid": [
          126.9758109,
          37.2955799
        ],
        "_area_m2": 33.8
      },
      "geometry": {
        "type": "Polygon",
        "coordinates": [
          [
            [
              126.97577176209401,
              37.295605053891656
            ],
            [
              126.97585800583249,
              37.29559394016144
            ],
            [
              126.97585003402696,
              37.29555480575152
            ],
            [
              126.97576379328419,
              37.295565919101506
            ],
            [
              126.97577176209401,
              37.295605053891656
            ]
          ]
        ]
      }
    },
    {
      "type": "Feature",
      "properties": {
        "indoor": "room",
        "level": [
          5
        ],
        "ref": "",
        "name": "",
        "room_type": "",
        "_idx": 44,
        "_centroid": [
          126.9756863,
          37.2955593
        ],
        "_area_m2": 19
      },
      "geometry": {
        "type": "Polygon",
        "coordinates": [
          [
            [
              126.9756483027458,
              37.29555039697519
            ],
            [
              126.97565376864593,
              37.29557722967345
            ],
            [
              126.97572423891988,
              37.29556814507165
            ],
            [
              126.97571877300885,
              37.29554131237163
            ],
            [
              126.9756483027458,
              37.29555039697519
            ]
          ]
        ]
      }
    },
    {
      "type": "Feature",
      "properties": {
        "indoor": "room",
        "level": [
          5
        ],
        "ref": "",
        "name": "",
        "room_type": "",
        "_idx": 45,
        "_centroid": [
          126.9758043,
          37.2955477
        ],
        "_area_m2": 21.8
      },
      "geometry": {
        "type": "Polygon",
        "coordinates": [
          [
            [
              126.97576379328419,
              37.295565919101506
            ],
            [
              126.97585003402696,
              37.29555480575152
            ],
            [
              126.97584489273349,
              37.29552956661531
            ],
            [
              126.97575865392275,
              37.295540679719984
            ],
            [
              126.97576379328419,
              37.295565919101506
            ]
          ]
        ]
      }
    },
    {
      "type": "Feature",
      "properties": {
        "indoor": "room",
        "level": [
          5
        ],
        "ref": "",
        "name": "",
        "room_type": "",
        "_idx": 46,
        "_centroid": [
          126.9755102,
          37.2955428
        ],
        "_area_m2": 34.6
      },
      "geometry": {
        "type": "Polygon",
        "coordinates": [
          [
            [
              126.97554008841465,
              37.29551358963298
            ],
            [
              126.97547031344574,
              37.29552258460672
            ],
            [
              126.97548038836364,
              37.29557204348557
            ],
            [
              126.97555016333354,
              37.295563048516875
            ],
            [
              126.97554008841465,
              37.29551358963298
            ]
          ]
        ]
      }
    },
    {
      "type": "Feature",
      "properties": {
        "indoor": "room",
        "level": [
          5
        ],
        "ref": "",
        "name": "",
        "room_type": "",
        "_idx": 47,
        "_centroid": [
          126.9756817,
          37.2955354
        ],
        "_area_m2": 12.3
      },
      "geometry": {
        "type": "Polygon",
        "coordinates": [
          [
            [
              126.97571523658982,
              37.295523951694825
            ],
            [
              126.97568133309919,
              37.295528322330625
            ],
            [
              126.97564476220157,
              37.29553303683236
            ],
            [
              126.9756482986214,
              37.29555039750688
            ],
            [
              126.97571877300888,
              37.29554131237163
            ],
            [
              126.97571523658982,
              37.295523951694825
            ]
          ]
        ]
      }
    },
    {
      "type": "Feature",
      "properties": {
        "indoor": "room",
        "level": [
          5
        ],
        "ref": "",
        "name": "",
        "room_type": "",
        "_idx": 48,
        "_centroid": [
          126.9755789,
          37.295534
        ],
        "_area_m2": 33.5
      },
      "geometry": {
        "type": "Polygon",
        "coordinates": [
          [
            [
              126.97554008841465,
              37.29551358963298
            ],
            [
              126.97555016333354,
              37.295563048516875
            ],
            [
              126.97561767842387,
              37.29555434487824
            ],
            [
              126.97560760350525,
              37.29550488598755
            ],
            [
              126.97554008841465,
              37.29551358963298
            ]
          ]
        ]
      }
    },
    {
      "type": "Feature",
      "properties": {
        "indoor": "room",
        "level": [
          5
        ],
        "ref": "",
        "name": "",
        "room_type": "",
        "_idx": 49,
        "_centroid": [
          126.975629,
          37.29553
        ],
        "_area_m2": 10.8
      },
      "geometry": {
        "type": "Polygon",
        "coordinates": [
          [
            [
              126.97564476220157,
              37.29553303683236
            ],
            [
              126.9756310657029,
              37.2955348025031
            ],
            [
              126.97562452720469,
              37.295502704284495
            ],
            [
              126.97560760350525,
              37.29550488598755
            ],
            [
              126.97561767842387,
              37.29555434487824
            ],
            [
              126.9756482986214,
              37.29555039750688
            ],
            [
              126.97564476220157,
              37.29553303683236
            ]
          ]
        ]
      }
    },
    {
      "type": "Feature",
      "properties": {
        "indoor": "room",
        "level": [
          5
        ],
        "ref": "",
        "name": "",
        "room_type": "",
        "_idx": 50,
        "_centroid": [
          126.9756513,
          37.295519
        ],
        "_area_m2": 16.2
      },
      "geometry": {
        "type": "Polygon",
        "coordinates": [
          [
            [
              126.97564476220157,
              37.29553303683236
            ],
            [
              126.97568133309919,
              37.295528322330625
            ],
            [
              126.97567479460109,
              37.29549622410959
            ],
            [
              126.97562452720469,
              37.295502704284495
            ],
            [
              126.9756310657029,
              37.2955348025031
            ],
            [
              126.97564476220157,
              37.29553303683236
            ]
          ]
        ]
      }
    },
    {
      "type": "Feature",
      "properties": {
        "indoor": "room",
        "level": [
          5
        ],
        "ref": "",
        "name": "",
        "room_type": "",
        "_idx": 51,
        "_centroid": [
          126.9757968,
          37.2955107
        ],
        "_area_m2": 42.3
      },
      "geometry": {
        "type": "Polygon",
        "coordinates": [
          [
            [
              126.97575865392275,
              37.295540679719984
            ],
            [
              126.97584489273349,
              37.29552956661531
            ],
            [
              126.97583492572726,
              37.29548063756083
            ],
            [
              126.975748690662,
              37.29549175019004
            ],
            [
              126.97575865392275,
              37.295540679719984
            ]
          ]
        ]
      }
    },
    {
      "type": "Feature",
      "properties": {
        "indoor": "room",
        "level": [
          5
        ],
        "ref": "",
        "name": "",
        "room_type": "",
        "_idx": 52,
        "_centroid": [
          126.975695,
          37.2955101
        ],
        "_area_m2": 10.9
      },
      "geometry": {
        "type": "Polygon",
        "coordinates": [
          [
            [
              126.97568133309919,
              37.295528322330625
            ],
            [
              126.97571523658982,
              37.29552395169481
            ],
            [
              126.97570869809098,
              37.29549185347256
            ],
            [
              126.97567479460109,
              37.29549622410959
            ],
            [
              126.97568133309919,
              37.295528322330625
            ]
          ]
        ]
      }
    },
    {
      "type": "Feature",
      "properties": {
        "indoor": "room",
        "level": [
          5
        ],
        "ref": "",
        "name": "",
        "room_type": "",
        "_idx": 53,
        "_centroid": [
          126.9755146,
          37.2954781
        ],
        "_area_m2": 46.4
      },
      "geometry": {
        "type": "Polygon",
        "coordinates": [
          [
            [
              126.97557113348276,
              37.29549358599305
            ],
            [
              126.97556207378854,
              37.29544911091092
            ],
            [
              126.97545807760817,
              37.29546251749223
            ],
            [
              126.97546713730307,
              37.29550699256678
            ],
            [
              126.97557113348276,
              37.29549358599305
            ]
          ]
        ]
      }
    },
    {
      "type": "Feature",
      "properties": {
        "indoor": "room",
        "level": [
          5
        ],
        "ref": "",
        "name": "",
        "room_type": "",
        "_idx": 54,
        "_centroid": [
          126.9755831,
          37.2954692
        ],
        "_area_m2": 14.7
      },
      "geometry": {
        "type": "Polygon",
        "coordinates": [
          [
            [
              126.97560411406968,
              37.295489334330426
            ],
            [
              126.97559505437552,
              37.29544485924592
            ],
            [
              126.97556207378854,
              37.29544911091092
            ],
            [
              126.97557113348276,
              37.29549358599305
            ],
            [
              126.97560411406968,
              37.295489334330426
            ]
          ]
        ]
      }
    },
    {
      "type": "Feature",
      "properties": {
        "indoor": "room",
        "level": [
          5
        ],
        "ref": "",
        "name": "",
        "room_type": "",
        "_idx": 55,
        "_centroid": [
          126.9756168,
          37.2954649
        ],
        "_area_m2": 15.3
      },
      "geometry": {
        "type": "Polygon",
        "coordinates": [
          [
            [
              126.97563848067168,
              37.29548490399092
            ],
            [
              126.97562942097754,
              37.29544042890393
            ],
            [
              126.97559505437552,
              37.29544485924592
            ],
            [
              126.97560411406968,
              37.295489334330426
            ],
            [
              126.97563848067168,
              37.29548490399092
            ]
          ]
        ]
      }
    },
    {
      "type": "Feature",
      "properties": {
        "indoor": "room",
        "level": [
          5
        ],
        "ref": "",
        "name": "",
        "room_type": "",
        "_idx": 56,
        "_centroid": [
          126.9756508,
          37.2954605
        ],
        "_area_m2": 15
      },
      "geometry": {
        "type": "Polygon",
        "coordinates": [
          [
            [
              126.97567209522423,
              37.29548057060119
            ],
            [
              126.97566303553002,
              37.29543609551179
            ],
            [
              126.97562942097754,
              37.29544042890393
            ],
            [
              126.97563848067168,
              37.29548490399092
            ],
            [
              126.97567209522423,
              37.29548057060119
            ]
          ]
        ]
      }
    },
    {
      "type": "Feature",
      "properties": {
        "indoor": "room",
        "level": [
          5
        ],
        "ref": "",
        "name": "",
        "room_type": "",
        "_idx": 57,
        "_centroid": [
          126.9757716,
          37.2954593
        ],
        "_area_m2": 56.2
      },
      "geometry": {
        "type": "Polygon",
        "coordinates": [
          [
            [
              126.975748690662,
              37.29549175019004
            ],
            [
              126.97583492572726,
              37.29548063756083
            ],
            [
              126.97582168693849,
              37.2954156469908
            ],
            [
              126.97573545354692,
              37.295426759802076
            ],
            [
              126.97574417164306,
              37.295469572965025
            ],
            [
              126.9757445132418,
              37.295471234897754
            ],
            [
              126.975748690662,
              37.29549175019004
            ]
          ]
        ]
      }
    },
    {
      "type": "Feature",
      "properties": {
        "indoor": "room",
        "level": [
          5
        ],
        "ref": "",
        "name": "",
        "room_type": "",
        "_idx": 58,
        "_centroid": [
          126.975685,
          37.2954561
        ],
        "_area_m2": 15.5
      },
      "geometry": {
        "type": "Polygon",
        "coordinates": [
          [
            [
              126.97570694634092,
              37.295476077800906
            ],
            [
              126.97569788664579,
              37.295431602709115
            ],
            [
              126.97566303553002,
              37.29543609551179
            ],
            [
              126.97567209522423,
              37.29548057060119
            ],
            [
              126.97570694634092,
              37.295476077800906
            ]
          ]
        ]
      }
    },
    {
      "type": "Feature",
      "properties": {
        "indoor": "room",
        "level": [
          5
        ],
        "ref": "",
        "name": "",
        "room_type": "",
        "_idx": 59,
        "_centroid": [
          126.9757212,
          37.2954514
        ],
        "_area_m2": 16.7
      },
      "geometry": {
        "type": "Polygon",
        "coordinates": [
          [
            [
              126.97573545354692,
              37.295426759802076
            ],
            [
              126.97569788664579,
              37.295431602709115
            ],
            [
              126.97570694634092,
              37.295476077800906
            ],
            [
              126.9757445132418,
              37.295471234897754
            ],
            [
              126.97573545354692,
              37.295426759802076
            ]
          ]
        ]
      }
    }
  ]
}