{
  "type": "FeatureCollection",
  "features": [
    {
      "type": "Feature",
      "properties": {
        "indoor": "corridor",
        "level": "6"
      },
      "geometry": {
        "type": "Polygon",
        "coordinates": [
          [
            [
              126.97519496078253,
              37.2960254758764
            ],
            [
              126.9756660144843,
              37.295964776094834
            ],
            [
              126.97567954797512,
              37.296031213089975
            ],
            [
              126.97572090849113,
              37.296025881174586
            ],
            [
              126.97570181217831,
              37.29593213581517
            ],
            [
              126.97584474971335,
              37.295913709258
            ],
            [
              126.97575367420632,
              37.295466610437416
            ],
            [
              126.97546645380513,
              37.295503637198394
            ],
            [
              126.97547043985996,
              37.29552320518833
            ],
            [
              126.97571739364591,
              37.29549136937138
            ],
            [
              126.97579535779683,
              37.29587410326438
            ],
            [
              126.97571639941177,
              37.2958842820606
            ],
            [
              126.97571905928656,
              37.295897339618556
            ],
            [
              126.97565503202026,
              37.295905593590625
            ],
            [
              126.97566325169613,
              37.295945944679396
            ],
            [
              126.97519048837076,
              37.29600689014244
            ],
            [
              126.97519496078253,
              37.2960254758764
            ]
          ]
        ]
      }
    }
  ]
}