{
  "type": "FeatureCollection",
  "features": [
    {
      "type": "Feature",
      "properties": {
        "indoor": "corridor",
        "level": "7"
      },
      "geometry": {
        "type": "Polygon",
        "coordinates": [
          [
            [
              126.97519610371137,
              37.296030305666456
            ],
            [
              126.97565991662975,
              37.295970508961815
            ],
            [
              126.9756724682276,
              37.29603212576266
            ],
            [
              126.97571041739623,
              37.29602723361497
            ],
            [
              126.97569216469623,
              37.29593762962389
            ],
            [
              126.97583162780667,
              37.29591965096778
            ],
            [
              126.97573924822461,
              37.29546615032946
            ],
            [
              126.9754659933431,
              37.29550137673868
            ],
            [
              126.97546857865852,
              37.29551406834267
            ],
            [
              126.97570194721031,
              37.295483983850204
            ],
            [
              126.9757828240945,
              37.295881016645744
            ],
            [
              126.97571750362022,
              37.29588943733146
            ],
            [
              126.97571987879057,
              37.29590109724971
            ],
            [
              126.97564318328874,
              37.295910984326405
            ],
            [
              126.975650710168,
              37.29594793441569
            ],
            [
              126.97519064672025,
              37.296007254707945
            ],
            [
              126.97519610371137,
              37.296030305666456
            ]
          ]
        ]
      }
    }
  ]
}