{
  "type": "FeatureCollection",
  "features": [
    {
      "type": "Feature",
      "properties": {
        "indoor": "room",
        "level": [
          7
        ],
        "ref": "",
        "name": "",
        "room_type": "",
        "_idx": 1,
        "_centroid": [
          126.9752406,
          37.2960562
        ],
        "_area_m2": 46
      },
      "geometry": {
        "type": "Polygon",
        "coordinates": [
          [
            [
              126.9752715017144,
              37.296020585043244
            ],
            [
              126.97519610371137,
              37.296030305666456
            ],
            [
              126.97521062355197,
              37.296091663599235
            ],
            [
              126.97528405350782,
              37.296082197514764
            ],
            [
              126.9752715017144,
              37.296020585043244
            ]
          ]
        ]
      }
    },
    {
      "type": "Feature",
      "properties": {
        "indoor": "room",
        "level": [
          7
        ],
        "ref": "",
        "name": "",
        "room_type": "",
        "_idx": 2,
        "_centroid": [
          126.9753191,
          37.2960461
        ],
        "_area_m2": 51
      },
      "geometry": {
        "type": "Polygon",
        "coordinates": [
          [
            [
              126.9752715017144,
              37.296020585043244
            ],
            [
              126.97528405350782,
              37.296082197514764
            ],
            [
              126.97536668314496,
              37.29607154547071
            ],
            [
              126.97535413117227,
              37.296009932106664
            ],
            [
              126.9752715017144,
              37.296020585043244
            ]
          ]
        ]
      }
    },
    {
      "type": "Feature",
      "properties": {
        "indoor": "room",
        "level": [
          7
        ],
        "ref": "",
        "name": "",
        "room_type": "",
        "_idx": 3,
        "_centroid": [
          126.975582,
          37.2960289
        ],
        "_area_m2": 10.6
      },
      "geometry": {
        "type": "Polygon",
        "coordinates": [
          [
            [
              126.97559724007138,
              37.29601203514911
            ],
            [
              126.97556083584136,
              37.29601672853461
            ],
            [
              126.97556674902704,
              37.2960457543543
            ],
            [
              126.97560315333743,
              37.29604106136119
            ],
            [
              126.97559724007138,
              37.29601203514911
            ]
          ]
        ]
      }
    },
    {
      "type": "Feature",
      "properties": {
        "indoor": "room",
        "level": [
          7
        ],
        "ref": "123",
        "name": "",
        "room_type": "store",
        "_idx": 4,
        "_centroid": [
          126.9754805,
          37.2960256
        ],
        "_area_m2": 123.6
      },
      "geometry": {
        "type": "Polygon",
        "coordinates": [
          [
            [
              126.97535413117227,
              37.296009932106664
            ],
            [
              126.97536668314496,
              37.29607154547071
            ],
            [
              126.97556674902704,
              37.2960457543543
            ],
            [
              126.97556083584136,
              37.29601672853461
            ],
            [
              126.97555419661813,
              37.29598413882952
            ],
            [
              126.97535413117227,
              37.296009932106664
            ]
          ]
        ]
      }
    },
    {
      "type": "Feature",
      "properties": {
        "indoor": "room",
        "level": [
          7
        ],
        "ref": "",
        "name": "",
        "room_type": "",
        "_idx": 5,
        "_centroid": [
          126.9756346,
          37.2960191
        ],
        "_area_m2": 20.2
      },
      "geometry": {
        "type": "Polygon",
        "coordinates": [
          [
            [
              126.97559724007138,
              37.29601203514911
            ],
            [
              126.97560315333743,
              37.29604106136119
            ],
            [
              126.9756724682276,
              37.29603212576266
            ],
            [
              126.97566655530258,
              37.29600309873938
            ],
            [
              126.9756338009157,
              37.29600732157196
            ],
            [
              126.97559724007138,
              37.29601203514911
            ]
          ]
        ]
      }
    },
    {
      "type": "Feature",
      "properties": {
        "indoor": "room",
        "level": [
          7
        ],
        "ref": "",
        "name": "",
        "room_type": "",
        "_idx": 6,
        "_centroid": [
          126.9757429,
          37.2959998
        ],
        "_area_m2": 33.7
      },
      "geometry": {
        "type": "Polygon",
        "coordinates": [
          [
            [
              126.97577532489659,
              37.2959723750649
            ],
            [
              126.97570119000952,
              37.29598193562199
            ],
            [
              126.97571041739623,
              37.29602723361497
            ],
            [
              126.97578455637273,
              37.296017676122155
            ],
            [
              126.97577532489659,
              37.2959723750649
            ]
          ]
        ]
      }
    },
    {
      "type": "Feature",
      "properties": {
        "indoor": "room",
        "level": [
          7
        ],
        "ref": "",
        "name": "",
        "room_type": "",
        "_idx": 7,
        "_centroid": [
          126.9755946,
          37.295999
        ],
        "_area_m2": 23.8
      },
      "geometry": {
        "type": "Polygon",
        "coordinates": [
          [
            [
              126.9756338009157,
              37.29600732157196
            ],
            [
              126.97562716169466,
              37.2959747318658
            ],
            [
              126.97555419661813,
              37.29598413882952
            ],
            [
              126.97556083584136,
              37.29601672853461
            ],
            [
              126.97559724007138,
              37.29601203514911
            ],
            [
              126.9756338009157,
              37.29600732157196
            ]
          ]
        ]
      }
    },
    {
      "type": "Feature",
      "properties": {
        "indoor": "room",
        "level": [
          7
        ],
        "ref": "",
        "name": "",
        "room_type": "",
        "_idx": 8,
        "_centroid": [
          126.9756469,
          37.2959889
        ],
        "_area_m2": 10.7
      },
      "geometry": {
        "type": "Polygon",
        "coordinates": [
          [
            [
              126.97562716169466,
              37.2959747318658
            ],
            [
              126.9756338009157,
              37.29600732157196
            ],
            [
              126.97566655530258,
              37.29600309873938
            ],
            [
              126.97565991662975,
              37.295970508961815
            ],
            [
              126.97562716169466,
              37.2959747318658
            ]
          ]
        ]
      }
    },
    {
      "type": "Feature",
      "properties": {
        "indoor": "room",
        "level": [
          7
        ],
        "ref": "123",
        "name": "",
        "room_type": "store",
        "_idx": 9,
        "_centroid": [
          126.9758015,
          37.2959694
        ],
        "_area_m2": 58.7
      },
      "geometry": {
        "type": "Polygon",
        "coordinates": [
          [
            [
              126.97583163571115,
              37.295919649948786
            ],
            [
              126.9757662976249,
              37.29592807606113
            ],
            [
              126.97577532489659,
              37.2959723750649
            ],
            [
              126.97578455637273,
              37.296017676122155
            ],
            [
              126.97584989508836,
              37.29600925309914
            ],
            [
              126.97583163571115,
              37.295919649948786
            ]
          ]
        ]
      }
    },
    {
      "type": "Feature",
      "properties": {
        "indoor": "room",
        "level": [
          7
        ],
        "ref": "123",
        "name": "",
        "room_type": "store",
        "_idx": 10,
        "_centroid": [
          126.9752647,
          37.2959657
        ],
        "_area_m2": 102.2
      },
      "geometry": {
        "type": "Polygon",
        "coordinates": [
          [
            [
              126.97534027877293,
              37.295924213260754
            ],
            [
              126.97517532674463,
              37.295944903775435
            ],
            [
              126.97519064672025,
              37.296007254707945
            ],
            [
              126.97535259910144,
              37.29598637266954
            ],
            [
              126.97534027877293,
              37.295924213260754
            ]
          ]
        ]
      }
    },
    {
      "type": "Feature",
      "properties": {
        "indoor": "room",
        "level": [
          7
        ],
        "ref": "",
        "name": "",
        "room_type": "",
        "_idx": 11,
        "_centroid": [
          126.9758859,
          37.2959586
        ],
        "_area_m2": 81.2
      },
      "geometry": {
        "type": "Polygon",
        "coordinates": [
          [
            [
              126.97583163571115,
              37.295919649948786
            ],
            [
              126.97584989508836,
              37.29600925309914
            ],
            [
              126.97594023418179,
              37.29599760719739
            ],
            [
              126.97592198061432,
              37.29590799891263
            ],
            [
              126.97583163571115,
              37.295919649948786
            ]
          ]
        ]
      }
    },
    {
      "type": "Feature",
      "properties": {
        "indoor": "room",
        "level": [
          7
        ],
        "ref": "",
        "name": "",
        "room_type": "",
        "_idx": 12,
        "_centroid": [
          126.9757337,
          37.295955
        ],
        "_area_m2": 32.9
      },
      "geometry": {
        "type": "Polygon",
        "coordinates": [
          [
            [
              126.97577532489659,
              37.2959723750649
            ],
            [
              126.9757662976249,
              37.29592807606113
            ],
            [
              126.97569216603533,
              37.295937636197685
            ],
            [
              126.97570119000952,
              37.29598193562199
            ],
            [
              126.97577532489659,
              37.2959723750649
            ]
          ]
        ]
      }
    },
    {
      "type": "Feature",
      "properties": {
        "indoor": "room",
        "level": [
          7
        ],
        "ref": "",
        "name": "",
        "room_type": "",
        "_idx": 13,
        "_centroid": [
          126.9754194,
          37.2959458
        ],
        "_area_m2": 91.2
      },
      "geometry": {
        "type": "Polygon",
        "coordinates": [
          [
            [
              126.97534027877293,
              37.295924213260754
            ],
            [
              126.97535259910144,
              37.29598637266954
            ],
            [
              126.975498558818,
              37.29596755271528
            ],
            [
              126.97548616401396,
              37.29590501753249
            ],
            [
              126.97534027877293,
              37.295924213260754
            ]
          ]
        ]
      }
    },
    {
      "type": "Feature",
      "properties": {
        "indoor": "room",
        "level": [
          7
        ],
        "ref": "",
        "name": "",
        "room_type": "",
        "_idx": 14,
        "_centroid": [
          126.9755658,
          37.2959203
        ],
        "_area_m2": 95.4
      },
      "geometry": {
        "type": "Polygon",
        "coordinates": [
          [
            [
              126.97548616401396,
              37.29590501753249
            ],
            [
              126.975498558818,
              37.29596755271528
            ],
            [
              126.975650710168,
              37.29594793441569
            ],
            [
              126.97563794440185,
              37.295885266175
            ],
            [
              126.97555545088987,
              37.29589590069495
            ],
            [
              126.97548616401396,
              37.29590501753249
            ]
          ]
        ]
      }
    },
    {
      "type": "Feature",
      "properties": {
        "indoor": "room",
        "level": [
          7
        ],
        "ref": "",
        "name": "",
        "room_type": "",
        "_idx": 15,
        "_centroid": [
          126.9758724,
          37.2958923
        ],
        "_area_m2": 38.9
      },
      "geometry": {
        "type": "Polygon",
        "coordinates": [
          [
            [
              126.97582288249943,
              37.29587668344441
            ],
            [
              126.97583163571115,
              37.295919649948786
            ],
            [
              126.97592198061432,
              37.29590799891263
            ],
            [
              126.97591322884135,
              37.29586503556309
            ],
            [
              126.97582288249943,
              37.29587668344441
            ]
          ]
        ]
      }
    },
    {
      "type": "Feature",
      "properties": {
        "indoor": "room",
        "level": [
          7
        ],
        "ref": "",
        "name": "",
        "room_type": "",
        "_idx": 16,
        "_centroid": [
          126.9757475,
          37.2958726
        ],
        "_area_m2": 16.6
      },
      "geometry": {
        "type": "Polygon",
        "coordinates": [
          [
            [
              126.97577768617961,
              37.29585579411219
            ],
            [
              126.97571223200924,
              37.29586423203583
            ],
            [
              126.9757173699249,
              37.29588945456658
            ],
            [
              126.9757828240945,
              37.29588101664575
            ],
            [
              126.97577768617961,
              37.29585579411219
            ]
          ]
        ]
      }
    },
    {
      "type": "Feature",
      "properties": {
        "indoor": "room",
        "level": [
          7
        ],
        "ref": "",
        "name": "",
        "room_type": "",
        "_idx": 17,
        "_centroid": [
          126.9757426,
          37.2958484
        ],
        "_area_m2": 15.2
      },
      "geometry": {
        "type": "Polygon",
        "coordinates": [
          [
            [
              126.97577296317496,
              37.29583260841414
            ],
            [
              126.97570750900393,
              37.29584104634044
            ],
            [
              126.97571223200924,
              37.29586423203583
            ],
            [
              126.97577768617961,
              37.29585579411219
            ],
            [
              126.97577296317496,
              37.29583260841414
            ]
          ]
        ]
      }
    },
    {
      "type": "Feature",
      "properties": {
        "indoor": "room",
        "level": [
          7
        ],
        "ref": "",
        "name": "",
        "room_type": "",
        "_idx": 18,
        "_centroid": [
          126.9758631,
          37.2958465
        ],
        "_area_m2": 44.1
      },
      "geometry": {
        "type": "Polygon",
        "coordinates": [
          [
            [
              126.97582288249943,
              37.29587668344441
            ],
            [
              126.97591322884135,
              37.29586503556309
            ],
            [
              126.97590330846126,
              37.29581633540151
            ],
            [
              126.97581296127072,
              37.29582798339964
            ],
            [
              126.97582288249943,
              37.29587668344441
            ]
          ]
        ]
      }
    },
    {
      "type": "Feature",
      "properties": {
        "indoor": "room",
        "level": [
          7
        ],
        "ref": "21",
        "name": "",
        "room_type": "storage",
        "_idx": 19,
        "_centroid": [
          126.9757354,
          37.2958132
        ],
        "_area_m2": 31
      },
      "geometry": {
        "type": "Polygon",
        "coordinates": [
          [
            [
              126.97576333860303,
              37.295785360436355
            ],
            [
              126.9756978844306,
              37.29579379836809
            ],
            [
              126.97570750900393,
              37.29584104634044
            ],
            [
              126.97577296317496,
              37.29583260841414
            ],
            [
              126.97576333860303,
              37.295785360436355
            ]
          ]
        ]
      }
    },
    {
      "type": "Feature",
      "properties": {
        "indoor": "room",
        "level": [
          7
        ],
        "ref": "",
        "name": "",
        "room_type": "",
        "_idx": 20,
        "_centroid": [
          126.9758533,
          37.2957985
        ],
        "_area_m2": 42.9
      },
      "geometry": {
        "type": "Polygon",
        "coordinates": [
          [
            [
              126.97581296127072,
              37.29582798339964
            ],
            [
              126.97590330846126,
              37.29581633540151
            ],
            [
              126.97589366311755,
              37.29576898542171
            ],
            [
              126.97580331510196,
              37.29578063353353
            ],
            [
              126.97581296127072,
              37.29582798339964
            ]
          ]
        ]
      }
    },
    {
      "type": "Feature",
      "properties": {
        "indoor": "room",
        "level": [
          7
        ],
        "ref": "",
        "name": "",
        "room_type": "",
        "_idx": 21,
        "_centroid": [
          126.9757291,
          37.2957822
        ],
        "_area_m2": 9.7
      },
      "geometry": {
        "type": "Polygon",
        "coordinates": [
          [
            [
              126.97576031662372,
              37.295770525240336
            ],
            [
              126.97569486245088,
              37.29577896317386
            ],
            [
              126.9756978844306,
              37.29579379836809
            ],
            [
              126.97576333860303,
              37.295785360436355
            ],
            [
              126.97576031662372,
              37.295770525240336
            ]
          ]
        ]
      }
    },
    {
      "type": "Feature",
      "properties": {
        "indoor": "room",
        "level": [
          7
        ],
        "ref": "",
        "name": "",
        "room_type": "",
        "_idx": 22,
        "_centroid": [
          126.9757245,
          37.2957595
        ],
        "_area_m2": 20
      },
      "geometry": {
        "type": "Polygon",
        "coordinates": [
          [
            [
              126.9757541202369,
              37.29574010656309
            ],
            [
              126.97568866606318,
              37.295748544500206
            ],
            [
              126.97569486245088,
              37.29577896317386
            ],
            [
              126.97576031662372,
              37.295770525240336
            ],
            [
              126.9757541202369,
              37.29574010656309
            ]
          ]
        ]
      }
    },
    {
      "type": "Feature",
      "properties": {
        "indoor": "room",
        "level": [
          7
        ],
        "ref": "21",
        "name": "",
        "room_type": "storage",
        "_idx": 23,
        "_centroid": [
          126.9758441,
          37.2957535
        ],
        "_area_m2": 38.6
      },
      "geometry": {
        "type": "Polygon",
        "coordinates": [
          [
            [
              126.97580331510196,
              37.29578063353353
            ],
            [
              126.97589366311755,
              37.29576898542171
            ],
            [
              126.97588498166921,
              37.29572636730299
            ],
            [
              126.975794632911,
              37.29573801551711
            ],
            [
              126.97580331510196,
              37.29578063353353
            ]
          ]
        ]
      }
    },
    {
      "type": "Feature",
      "properties": {
        "indoor": "room",
        "level": [
          7
        ],
        "ref": "",
        "name": "",
        "room_type": "",
        "_idx": 24,
        "_centroid": [
          126.9757192,
          37.2957336
        ],
        "_area_m2": 14.1
      },
      "geometry": {
        "type": "Polygon",
        "coordinates": [
          [
            [
              126.97574973562541,
              37.29571858207061
            ],
            [
              126.97568428145107,
              37.295727020010226
            ],
            [
              126.97568866606318,
              37.295748544500206
            ],
            [
              126.9757541202369,
              37.29574010656309
            ],
            [
              126.97574973562541,
              37.29571858207061
            ]
          ]
        ]
      }
    },
    {
      "type": "Feature",
      "properties": {
        "indoor": "room",
        "level": [
          7
        ],
        "ref": "",
        "name": "",
        "room_type": "",
        "_idx": 25,
        "_centroid": [
          126.9757147,
          37.2957115
        ],
        "_area_m2": 14.8
      },
      "geometry": {
        "type": "Polygon",
        "coordinates": [
          [
            [
              126.97574514829545,
              37.29569606241301
            ],
            [
              126.97567969412044,
              37.29570450035523
            ],
            [
              126.97568428145107,
              37.295727020010226
            ],
            [
              126.97574973562541,
              37.29571858207061
            ],
            [
              126.97574514829545,
              37.29569606241301
            ]
          ]
        ]
      }
    },
    {
      "type": "Feature",
      "properties": {
        "indoor": "room",
        "level": [
          7
        ],
        "ref": "21",
        "name": "",
        "room_type": "storage",
        "_idx": 26,
        "_centroid": [
          126.9758348,
          37.2957076
        ],
        "_area_m2": 44.5
      },
      "geometry": {
        "type": "Polygon",
        "coordinates": [
          [
            [
              126.975794632911,
              37.29573801551711
            ],
            [
              126.97588498166921,
              37.29572636730299
            ],
            [
              126.97587498169348,
              37.2956772763983
            ],
            [
              126.97578463207988,
              37.295688924730285
            ],
            [
              126.975794632911,
              37.29573801551711
            ]
          ]
        ]
      }
    },
    {
      "type": "Feature",
      "properties": {
        "indoor": "room",
        "level": [
          7
        ],
        "ref": "",
        "name": "",
        "room_type": "",
        "_idx": 27,
        "_centroid": [
          126.9757102,
          37.2956893
        ],
        "_area_m2": 14.4
      },
      "geometry": {
        "type": "Polygon",
        "coordinates": [
          [
            [
              126.97574066794385,
              37.2956740679229
            ],
            [
              126.97567521376823,
              37.29568250586766
            ],
            [
              126.97567969412044,
              37.29570450035523
            ],
            [
              126.97574514829545,
              37.29569606241301
            ],
            [
              126.97574066794385,
              37.2956740679229
            ]
          ]
        ]
      }
    },
    {
      "type": "Feature",
      "properties": {
        "indoor": "room",
        "level": [
          7
        ],
        "ref": "",
        "name": "",
        "room_type": "",
        "_idx": 28,
        "_centroid": [
          126.9757054,
          37.2956657
        ],
        "_area_m2": 16.5
      },
      "geometry": {
        "type": "Polygon",
        "coordinates": [
          [
            [
              126.97573555211082,
              37.29564895379132
            ],
            [
              126.97567009793444,
              37.29565739173894
            ],
            [
              126.97567521376823,
              37.29568250586766
            ],
            [
              126.97574066794385,
              37.2956740679229
            ],
            [
              126.97573555211082,
              37.29564895379132
            ]
          ]
        ]
      }
    },
    {
      "type": "Feature",
      "properties": {
        "indoor": "room",
        "level": [
          7
        ],
        "ref": "",
        "name": "",
        "room_type": "",
        "_idx": 29,
        "_centroid": [
          126.9758257,
          37.2956631
        ],
        "_area_m2": 36.3
      },
      "geometry": {
        "type": "Polygon",
        "coordinates": [
          [
            [
              126.97578463207988,
              37.295688924730285
            ],
            [
              126.97587498169348,
              37.2956772763983
            ],
            [
              126.97586682309802,
              37.2956372250179
            ],
            [
              126.97577647278655,
              37.295648873446076
            ],
            [
              126.97578463207988,
              37.295688924730285
            ]
          ]
        ]
      }
    },
    {
      "type": "Feature",
      "properties": {
        "indoor": "room",
        "level": [
          7
        ],
        "ref": "",
        "name": "",
        "room_type": "",
        "_idx": 30,
        "_centroid": [
          126.9757007,
          37.2956427
        ],
        "_area_m2": 13.8
      },
      "geometry": {
        "type": "Polygon",
        "coordinates": [
          [
            [
              126.9757312690323,
              37.29562792773426
            ],
            [
              126.9756658148553,
              37.29563636568427
            ],
            [
              126.97567009793444,
              37.29565739173894
            ],
            [
              126.97573555211082,
              37.29564895379132
            ],
            [
              126.9757312690323,
              37.29562792773426
            ]
          ]
        ]
      }
    },
    {
      "type": "Feature",
      "properties": {
        "indoor": "room",
        "level": [
          7
        ],
        "ref": "",
        "name": "",
        "room_type": "",
        "_idx": 31,
        "_centroid": [
          126.9756962,
          37.2956207
        ],
        "_area_m2": 15
      },
      "geometry": {
        "type": "Polygon",
        "coordinates": [
          [
            [
              126.97572659857678,
              37.295605000005075
            ],
            [
              126.97566114439914,
              37.29561343795784
            ],
            [
              126.9756658148553,
              37.29563636568427
            ],
            [
              126.9757312690323,
              37.29562792773426
            ],
            [
              126.97572659857678,
              37.295605000005075
            ]
          ]
        ]
      }
    },
    {
      "type": "Feature",
      "properties": {
        "indoor": "room",
        "level": [
          7
        ],
        "ref": "",
        "name": "",
        "room_type": "",
        "_idx": 32,
        "_centroid": [
          126.9758167,
          37.2956187
        ],
        "_area_m2": 44.1
      },
      "geometry": {
        "type": "Polygon",
        "coordinates": [
          [
            [
              126.97577647278655,
              37.295648873446076
            ],
            [
              126.97586682309802,
              37.2956372250179
            ],
            [
              126.97585689308116,
              37.29558847754843
            ],
            [
              126.97576654192027,
              37.29560012609366
            ],
            [
              126.97577647278655,
              37.295648873446076
            ]
          ]
        ]
      }
    },
    {
      "type": "Feature",
      "properties": {
        "indoor": "room",
        "level": [
          7
        ],
        "ref": "",
        "name": "",
        "room_type": "",
        "_idx": 33,
        "_centroid": [
          126.9756919,
          37.2955994
        ],
        "_area_m2": 12.9
      },
      "geometry": {
        "type": "Polygon",
        "coordinates": [
          [
            [
              126.97572258871605,
              37.2955853152012
            ],
            [
              126.97565713453784,
              37.29559375315628
            ],
            [
              126.97566114439914,
              37.29561343795784
            ],
            [
              126.97572659857678,
              37.295605000005075
            ],
            [
              126.97572258871605,
              37.2955853152012
            ]
          ]
        ]
      }
    },
    {
      "type": "Feature",
      "properties": {
        "indoor": "room",
        "level": [
          7
        ],
        "ref": "",
        "name": "",
        "room_type": "",
        "_idx": 34,
        "_centroid": [
          126.9756877,
          37.2955789
        ],
        "_area_m2": 14
      },
      "geometry": {
        "type": "Polygon",
        "coordinates": [
          [
            [
              126.97571823816526,
              37.29556395791606
            ],
            [
              126.97565278398645,
              37.295572395873734
            ],
            [
              126.97565713453784,
              37.29559375315628
            ],
            [
              126.97572258871605,
              37.2955853152012
            ],
            [
              126.97571823816526,
              37.29556395791606
            ]
          ]
        ]
      }
    },
    {
      "type": "Feature",
      "properties": {
        "indoor": "room",
        "level": [
          7
        ],
        "ref": "",
        "name": "",
        "room_type": "",
        "_idx": 35,
        "_centroid": [
          126.9758076,
          37.2955741
        ],
        "_area_m2": 36.5
      },
      "geometry": {
        "type": "Polygon",
        "coordinates": [
          [
            [
              126.97576654192027,
              37.29560012609366
            ],
            [
              126.97585689308116,
              37.29558847754843
            ],
            [
              126.97584867611538,
              37.29554813962214
            ],
            [
              126.9757583242516,
              37.295559788264185
            ],
            [
              126.97576654192027,
              37.29560012609366
            ]
          ]
        ]
      }
    },
    {
      "type": "Feature",
      "properties": {
        "indoor": "room",
        "level": [
          7
        ],
        "ref": "",
        "name": "",
        "room_type": "",
        "_idx": 36,
        "_centroid": [
          126.9756833,
          37.2955572
        ],
        "_area_m2": 14.4
      },
      "geometry": {
        "type": "Polygon",
        "coordinates": [
          [
            [
              126.97564830274578,
              37.29555039697515
            ],
            [
              126.97565278398645,
              37.295572395873734
            ],
            [
              126.97571823816526,
              37.29556395791606
            ],
            [
              126.97571375691541,
              37.29554195901629
            ],
            [
              126.97564830274578,
              37.29555039697515
            ]
          ]
        ]
      }
    },
    {
      "type": "Feature",
      "properties": {
        "indoor": "room",
        "level": [
          7
        ],
        "ref": "",
        "name": "",
        "room_type": "",
        "_idx": 37,
        "_centroid": [
          126.9758008,
          37.2955406
        ],
        "_area_m2": 24.1
      },
      "geometry": {
        "type": "Polygon",
        "coordinates": [
          [
            [
              126.9757583242516,
              37.295559788264185
            ],
            [
              126.97584867611538,
              37.29554813962214
            ],
            [
              126.97584324785234,
              37.2955214917231
            ],
            [
              126.97575289552421,
              37.295533140429015
            ],
            [
              126.9757583242516,
              37.295559788264185
            ]
          ]
        ]
      }
    },
    {
      "type": "Feature",
      "properties": {
        "indoor": "room",
        "level": [
          7
        ],
        "ref": "",
        "name": "",
        "room_type": "",
        "_idx": 38,
        "_centroid": [
          126.9755062,
          37.295539
        ],
        "_area_m2": 36.8
      },
      "geometry": {
        "type": "Polygon",
        "coordinates": [
          [
            [
              126.97554378244307,
              37.295563871102814
            ],
            [
              126.97553197273733,
              37.295505895954435
            ],
            [
              126.97546857865855,
              37.29551406834267
            ],
            [
              126.97548038836364,
              37.29557204348557
            ],
            [
              126.97554378244307,
              37.295563871102814
            ]
          ]
        ]
      }
    },
    {
      "type": "Feature",
      "properties": {
        "indoor": "room",
        "level": [
          7
        ],
        "ref": "",
        "name": "",
        "room_type": "",
        "_idx": 39,
        "_centroid": [
          126.9756707,
          37.2955349
        ],
        "_area_m2": 17.4
      },
      "geometry": {
        "type": "Polygon",
        "coordinates": [
          [
            [
              126.97570877097766,
              37.29551748249444
            ],
            [
              126.97567293404113,
              37.295522102378904
            ],
            [
              126.97563773715865,
              37.29552663975114
            ],
            [
              126.9756427230966,
              37.295551116269905
            ],
            [
              126.97564830274578,
              37.29555039697515
            ],
            [
              126.97571375691541,
              37.2955419590163
            ],
            [
              126.97570877097766,
              37.29551748249444
            ]
          ]
        ]
      }
    },
    {
      "type": "Feature",
      "properties": {
        "indoor": "room",
        "level": [
          7
        ],
        "ref": "",
        "name": "",
        "room_type": "",
        "_idx": 40,
        "_centroid": [
          126.9756304,
          37.2955295
        ],
        "_area_m2": 11.2
      },
      "geometry": {
        "type": "Polygon",
        "coordinates": [
          [
            [
              126.97567293404113,
              37.295522102378904
            ],
            [
              126.97563773715865,
              37.29552663975113
            ],
            [
              126.97562261608998,
              37.29552858906907
            ],
            [
              126.97561914854874,
              37.2955115665222
            ],
            [
              126.97560104246521,
              37.29551392821011
            ],
            [
              126.97560949047399,
              37.29555540041938
            ],
            [
              126.9756427230966,
              37.295551116269905
            ],
            [
              126.97563773715865,
              37.29552663975114
            ],
            [
              126.97567293404113,
              37.295522102378904
            ]
          ]
        ]
      }
    },
    {
      "type": "Feature",
      "properties": {
        "indoor": "room",
        "level": [
          7
        ],
        "ref": "",
        "name": "",
        "room_type": "",
        "_idx": 41,
        "_centroid": [
          126.9755768,
          37.2955273
        ],
        "_area_m2": 38.2
      },
      "geometry": {
        "type": "Polygon",
        "coordinates": [
          [
            [
              126.97553197273733,
              37.295505895954435
            ],
            [
              126.97554378244307,
              37.295563871102814
            ],
            [
              126.97560949047399,
              37.29555540041938
            ],
            [
              126.97560104246521,
              37.29551392821011
            ],
            [
              126.97559768076864,
              37.29549742526348
            ],
            [
              126.97553197273733,
              37.295505895954435
            ]
          ]
        ]
      }
    },
    {
      "type": "Feature",
      "properties": {
        "indoor": "room",
        "level": [
          7
        ],
        "ref": "",
        "name": "",
        "room_type": "",
        "_idx": 42,
        "_centroid": [
          126.975631,
          37.2955127
        ],
        "_area_m2": 19.9
      },
      "geometry": {
        "type": "Polygon",
        "coordinates": [
          [
            [
              126.97560104246521,
              37.29551392821011
            ],
            [
              126.97561914854874,
              37.2955115665222
            ],
            [
              126.97562261608998,
              37.29552858906907
            ],
            [
              126.97563773715865,
              37.29552663975113
            ],
            [
              126.97567293404113,
              37.295522102378904
            ],
            [
              126.97566611027389,
              37.29548860373619
            ],
            [
              126.97559768076864,
              37.29549742526348
            ],
            [
              126.97560104246521,
              37.29551392821011
            ]
          ]
        ]
      }
    },
    {
      "type": "Feature",
      "properties": {
        "indoor": "room",
        "level": [
          7
        ],
        "ref": "",
        "name": "",
        "room_type": "",
        "_idx": 43,
        "_centroid": [
          126.9756874,
          37.295503
        ],
        "_area_m2": 12
      },
      "geometry": {
        "type": "Polygon",
        "coordinates": [
          [
            [
              126.97567293404113,
              37.295522102378904
            ],
            [
              126.97570877097766,
              37.29551748249443
            ],
            [
              126.97570194721031,
              37.295483983850204
            ],
            [
              126.97566611027389,
              37.29548860373619
            ],
            [
              126.97567293404113,
              37.295522102378904
            ]
          ]
        ]
      }
    },
    {
      "type": "Feature",
      "properties": {
        "indoor": "room",
        "level": [
          7
        ],
        "ref": "",
        "name": "",
        "room_type": "",
        "_idx": 44,
        "_centroid": [
          126.9757927,
          37.2955008
        ],
        "_area_m2": 48
      },
      "geometry": {
        "type": "Polygon",
        "coordinates": [
          [
            [
              126.97575289552421,
              37.295533140429015
            ],
            [
              126.97584324785234,
              37.2955214917231
            ],
            [
              126.9758324475575,
              37.29546847196995
            ],
            [
              126.97574209430553,
              37.29548012080327
            ],
            [
              126.97575289552421,
              37.295533140429015
            ]
          ]
        ]
      }
    },
    {
      "type": "Feature",
      "properties": {
        "indoor": "room",
        "level": [
          7
        ],
        "ref": "",
        "name": "",
        "room_type": "",
        "_idx": 45,
        "_centroid": [
          126.9754785,
          37.2954798
        ],
        "_area_m2": 12.8
      },
      "geometry": {
        "type": "Polygon",
        "coordinates": [
          [
            [
              126.97549893210535,
              37.29549713009467
            ],
            [
              126.97549101644422,
              37.29545827121026
            ],
            [
              126.97545807754281,
              37.29546252059403
            ],
            [
              126.97546599334106,
              37.29550137673895
            ],
            [
              126.97549893210535,
              37.29549713009467
            ]
          ]
        ]
      }
    },
    {
      "type": "Feature",
      "properties": {
        "indoor": "room",
        "level": [
          7
        ],
        "ref": "",
        "name": "",
        "room_type": "",
        "_idx": 46,
        "_centroid": [
          126.9755127,
          37.2954754
        ],
        "_area_m2": 13.8
      },
      "geometry": {
        "type": "Polygon",
        "coordinates": [
          [
            [
              126.97549101644422,
              37.29545827121026
            ],
            [
              126.97549893210535,
              37.29549713009467
            ],
            [
              126.97553432190237,
              37.29549256744994
            ],
            [
              126.97552640632131,
              37.29545370895336
            ],
            [
              126.97549101644422,
              37.29545827121026
            ]
          ]
        ]
      }
    },
    {
      "type": "Feature",
      "properties": {
        "indoor": "room",
        "level": [
          7
        ],
        "ref": "",
        "name": "",
        "room_type": "",
        "_idx": 47,
        "_centroid": [
          126.9755471,
          37.295471
        ],
        "_area_m2": 13
      },
      "geometry": {
        "type": "Polygon",
        "coordinates": [
          [
            [
              126.97552640632131,
              37.29545370895336
            ],
            [
              126.97553432190237,
              37.29549256744994
            ],
            [
              126.97556773231524,
              37.295488259998166
            ],
            [
              126.97555981680907,
              37.295449401867806
            ],
            [
              126.97552640632131,
              37.29545370895336
            ]
          ]
        ]
      }
    },
    {
      "type": "Feature",
      "properties": {
        "indoor": "room",
        "level": [
          7
        ],
        "ref": "",
        "name": "",
        "room_type": "",
        "_idx": 48,
        "_centroid": [
          126.9755797,
          37.2954668
        ],
        "_area_m2": 12.4
      },
      "geometry": {
        "type": "Polygon",
        "coordinates": [
          [
            [
              126.97555981680907,
              37.295449401867806
            ],
            [
              126.97556773231524,
              37.295488259998166
            ],
            [
              126.97559961021805,
              37.2954841501259
            ],
            [
              126.97559169478336,
              37.295445292344965
            ],
            [
              126.97555981680907,
              37.295449401867806
            ]
          ]
        ]
      }
    },
    {
      "type": "Feature",
      "properties": {
        "indoor": "room",
        "level": [
          7
        ],
        "ref": "",
        "name": "",
        "room_type": "",
        "_idx": 49,
        "_centroid": [
          126.9756125,
          37.2954626
        ],
        "_area_m2": 13.1
      },
      "geometry": {
        "type": "Polygon",
        "coordinates": [
          [
            [
              126.97559169478336,
              37.295445292344965
            ],
            [
              126.97559961021805,
              37.2954841501259
            ],
            [
              126.97563320808905,
              37.29547981850601
            ],
            [
              126.97562529273002,
              37.2954409610933
            ],
            [
              126.97559169478336,
              37.295445292344965
            ]
          ]
        ]
      }
    },
    {
      "type": "Feature",
      "properties": {
        "indoor": "room",
        "level": [
          7
        ],
        "ref": "",
        "name": "",
        "room_type": "",
        "_idx": 50,
        "_centroid": [
          126.9756461,
          37.2954582
        ],
        "_area_m2": 13.1
      },
      "geometry": {
        "type": "Polygon",
        "coordinates": [
          [
            [
              126.97562529273002,
              37.2954409610933
            ],
            [
              126.97563320808905,
              37.29547981850601
            ],
            [
              126.97566682773214,
              37.29547548407914
            ],
            [
              126.97565891244871,
              37.29543662703491
            ],
            [
              126.97562529273002,
              37.2954409610933
            ]
          ]
        ]
      }
    },
    {
      "type": "Feature",
      "properties": {
        "indoor": "room",
        "level": [
          7
        ],
        "ref": "",
        "name": "",
        "room_type": "",
        "_idx": 51,
        "_centroid": [
          126.9756794,
          37.2954539
        ],
        "_area_m2": 12.9
      },
      "geometry": {
        "type": "Polygon",
        "coordinates": [
          [
            [
              126.97565891244871,
              37.29543662703491
            ],
            [
              126.97566682773214,
              37.29547548407914
            ],
            [
              126.97569992854338,
              37.295471216542886
            ],
            [
              126.97569201333425,
              37.29543235986147
            ],
            [
              126.97565891244871,
              37.29543662703491
            ]
          ]
        ]
      }
    },
    {
      "type": "Feature",
      "properties": {
        "indoor": "room",
        "level": [
          7
        ],
        "ref": "",
        "name": "",
        "room_type": "",
        "_idx": 52,
        "_centroid": [
          126.9757734,
          37.2954515
        ],
        "_area_m2": 47.8
      },
      "geometry": {
        "type": "Polygon",
        "coordinates": [
          [
            [
              126.97574209430553,
              37.29548012080327
            ],
            [
              126.9758324475575,
              37.29546847196995
            ],
            [
              126.97582168596186,
              37.29541564219518
            ],
            [
              126.97573133181236,
              37.2954272911522
            ],
            [
              126.97573924761062,
              37.29546614731532
            ],
            [
              126.97574209430553,
              37.29548012080327
            ]
          ]
        ]
      }
    },
    {
      "type": "Feature",
      "properties": {
        "indoor": "room",
        "level": [
          7
        ],
        "ref": "",
        "name": "",
        "room_type": "",
        "_idx": 53,
        "_centroid": [
          126.9757156,
          37.2954493
        ],
        "_area_m2": 15.3
      },
      "geometry": {
        "type": "Polygon",
        "coordinates": [
          [
            [
              126.97569201333425,
              37.29543235986147
            ],
            [
              126.97569992854338,
              37.295471216542886
            ],
            [
              126.97573924761062,
              37.29546614731532
            ],
            [
              126.97573133181236,
              37.2954272911522
            ],
            [
              126.97569201333425,
              37.29543235986147
            ]
          ]
        ]
      }
    }
  ]
}