{
  "type": "FeatureCollection",
  "features": [
    {
      "type": "Feature",
      "properties": {
        "indoor": "corridor",
        "level": "2"
      },
      "geometry": {
        "type": "Polygon",
        "coordinates": [
          [
            [
              126.97519362037583,
              37.2960313704462
            ],
            [
              126.97519362037644,
              37.29603137044924
            ],
            [
              126.97567767074065,
              37.29596876862427
            ],
            [
              126.97568763490793,
              37.29601752621175
            ],
            [
              126.97590096187638,
              37.29593635940847
            ],
            [
              126.9758335078282,
              37.295867840345934
            ],
            [
              126.97580476798437,
              37.295871080534546
            ],
            [
              126.97572355058632,
              37.295472376056395
            ],
            [
              126.97546682741512,
              37.29550547129192
            ],
            [
              126.97547023476909,
              37.29552219837472
            ],
            [
              126.97569713941378,
              37.29549294717423
            ],
            [
              126.97577465450405,
              37.29587347657978
            ],
            [
              126.9756935857307,
              37.295883927433486
            ],
            [
              126.97570599267017,
              37.29594483416513
            ],
            [
              126.97566692973201,
              37.29594986989791
            ],
            [
              126.9751892563368,
              37.29601144833058
            ],
            [
              126.97519362037583,
              37.2960313704462
            ]
          ]
        ]
      }
    }
  ]
}