{
  "type": "FeatureCollection",
  "features": [
    {
      "type": "Feature",
      "properties": {
        "indoor": "room",
        "level": "3",
        "ref": "",
        "name": "",
        "room_type": "",
        "_idx": 1,
        "_centroid": [
          126.9752293,
          37.2960554
        ],
        "_area_m2": 35.0
      },
      "geometry": {
        "type": "Polygon",
        "coordinates": [
          [
            [
              126.97524899501178,
              37.296018908947595
            ],
            [
              126.97519505169731,
              37.29602586006426
            ],
            [
              126.97521062355197,
              37.296091663599235
            ],
            [
              126.97526244891553,
              37.296084982630006
            ],
            [
              126.97524899501178,
              37.296018908947595
            ]
          ]
        ]
      }
    },
    {
      "type": "Feature",
      "properties": {
        "indoor": "room",
        "level": "3",
        "ref": "",
        "name": "",
        "room_type": "",
        "_idx": 2,
        "_centroid": [
          126.97529,
          37.2960475
        ],
        "_area_m2": 45.4
      },
      "geometry": {
        "type": "Polygon",
        "coordinates": [
          [
            [
              126.97524899501178,
              37.296018908947595
            ],
            [
              126.97526244891553,
              37.296084982630006
            ],
            [
              126.97533102955073,
              37.296076141686456
            ],
            [
              126.97531757637614,
              37.29601007157329
            ],
            [
              126.97524899501178,
              37.296018908947595
            ]
          ]
        ]
      }
    },
    {
      "type": "Feature",
      "properties": {
        "indoor": "room",
        "level": "3",
        "ref": "",
        "name": "",
        "room_type": "",
        "_idx": 3,
        "_centroid": [
          126.9753573,
          37.2960389
        ],
        "_area_m2": 43.6
      },
      "geometry": {
        "type": "Polygon",
        "coordinates": [
          [
            [
              126.97531757637614,
              37.29601007157329
            ],
            [
              126.97533102955073,
              37.296076141686456
            ],
            [
              126.97539692544748,
              37.29606764684091
            ],
            [
              126.97538347297233,
              37.29600158015742
            ],
            [
              126.97531757637614,
              37.29601007157329
            ]
          ]
        ]
      }
    },
    {
      "type": "Feature",
      "properties": {
        "indoor": "room",
        "level": "3",
        "ref": "",
        "name": "",
        "room_type": "",
        "_idx": 4,
        "_centroid": [
          126.9754228,
          37.2960304
        ],
        "_area_m2": 43.2
      },
      "geometry": {
        "type": "Polygon",
        "coordinates": [
          [
            [
              126.97538347297233,
              37.29600158015742
            ],
            [
              126.97539692544748,
              37.29606764684091
            ],
            [
              126.97546221116625,
              37.29605923065531
            ],
            [
              126.97544875938432,
              37.29599316736971
            ],
            [
              126.97538347297233,
              37.29600158015742
            ]
          ]
        ]
      }
    },
    {
      "type": "Feature",
      "properties": {
        "indoor": "room",
        "level": "3",
        "ref": "",
        "name": "",
        "room_type": "",
        "_idx": 5,
        "_centroid": [
          126.9755992,
          37.2960239
        ],
        "_area_m2": 12.6
      },
      "geometry": {
        "type": "Polygon",
        "coordinates": [
          [
            [
              126.97562097467765,
              37.29603876395596
            ],
            [
              126.97561397007124,
              37.29600436350867
            ],
            [
              126.97557732914606,
              37.2960090850468
            ],
            [
              126.97558433414092,
              37.29604348740181
            ],
            [
              126.97562097467765,
              37.29603876395596
            ]
          ]
        ]
      }
    },
    {
      "type": "Feature",
      "properties": {
        "indoor": "room",
        "level": "3",
        "ref": "",
        "name": "",
        "room_type": "",
        "_idx": 6,
        "_centroid": [
          126.9754898,
          37.2960218
        ],
        "_area_m2": 45.5
      },
      "geometry": {
        "type": "Polygon",
        "coordinates": [
          [
            [
              126.97544875938432,
              37.29599316736971
            ],
            [
              126.97546221116625,
              37.29605923065531
            ],
            [
              126.97553092902179,
              37.296050372022265
            ],
            [
              126.97551747796965,
              37.29598431231315
            ],
            [
              126.97544875938432,
              37.29599316736971
            ]
          ]
        ]
      }
    },
    {
      "type": "Feature",
      "properties": {
        "indoor": "room",
        "level": "3",
        "ref": "",
        "name": "",
        "room_type": "",
        "_idx": 7,
        "_centroid": [
          126.9756512,
          37.2960137
        ],
        "_area_m2": 23.2
      },
      "geometry": {
        "type": "Polygon",
        "coordinates": [
          [
            [
              126.97568117856444,
              37.29599570304254
            ],
            [
              126.9756515860631,
              37.29599951632345
            ],
            [
              126.97561397007124,
              37.29600436350867
            ],
            [
              126.97562097467765,
              37.29603876395596
            ],
            [
              126.97568818529078,
              37.29603009962623
            ],
            [
              126.97568117856444,
              37.29599570304254
            ]
          ]
        ]
      }
    },
    {
      "type": "Feature",
      "properties": {
        "indoor": "room",
        "level": "3",
        "ref": "",
        "name": "",
        "room_type": "",
        "_idx": 8,
        "_centroid": [
          126.9755562,
          37.2960129
        ],
        "_area_m2": 35.4
      },
      "geometry": {
        "type": "Polygon",
        "coordinates": [
          [
            [
              126.97557732914606,
              37.2960090850468
            ],
            [
              126.97557088365605,
              37.29597743047222
            ],
            [
              126.97551747796965,
              37.29598431231315
            ],
            [
              126.97553092902179,
              37.296050372022265
            ],
            [
              126.97558433414092,
              37.29604348740181
            ],
            [
              126.97557732914606,
              37.2960090850468
            ]
          ]
        ]
      }
    },
    {
      "type": "Feature",
      "properties": {
        "indoor": "room",
        "level": "3",
        "ref": "",
        "name": "",
        "room_type": "",
        "_idx": 9,
        "_centroid": [
          126.9756118,
          37.2959917
        ],
        "_area_m2": 23.6
      },
      "geometry": {
        "type": "Polygon",
        "coordinates": [
          [
            [
              126.97561397007124,
              37.29600436350867
            ],
            [
              126.9756515860631,
              37.29599951632345
            ],
            [
              126.9756451405738,
              37.29596786174778
            ],
            [
              126.97557088365609,
              37.29597743047221
            ],
            [
              126.97557732914606,
              37.2960090850468
            ],
            [
              126.97561397007124,
              37.29600436350867
            ]
          ]
        ]
      }
    },
    {
      "type": "Feature",
      "properties": {
        "indoor": "room",
        "level": "3",
        "ref": "",
        "name": "",
        "room_type": "",
        "_idx": 10,
        "_centroid": [
          126.9756632,
          37.2959818
        ],
        "_area_m2": 9.4
      },
      "geometry": {
        "type": "Polygon",
        "coordinates": [
          [
            [
              126.9756451405738,
              37.29596786174778
            ],
            [
              126.9756515860631,
              37.29599951632345
            ],
            [
              126.97568117856444,
              37.29599570304254
            ],
            [
              126.97567473046497,
              37.29596404880317
            ],
            [
              126.9756451405738,
              37.29596786174778
            ]
          ]
        ]
      }
    },
    {
      "type": "Feature",
      "properties": {
        "indoor": "room",
        "level": "3",
        "ref": "",
        "name": "",
        "room_type": "",
        "_idx": 11,
        "_centroid": [
          126.9752111,
          37.2959728
        ],
        "_area_m2": 35.7
      },
      "geometry": {
        "type": "Polygon",
        "coordinates": [
          [
            [
              126.9752327473079,
              37.295937501499786
            ],
            [
              126.97517532674463,
              37.295944903775435
            ],
            [
              126.97519069536358,
              37.29600790628659
            ],
            [
              126.97524564603624,
              37.296000822416154
            ],
            [
              126.9752327473079,
              37.295937501499786
            ]
          ]
        ]
      }
    },
    {
      "type": "Feature",
      "properties": {
        "indoor": "room",
        "level": "3",
        "ref": "",
        "name": "",
        "room_type": "",
        "_idx": 12,
        "_centroid": [
          126.9752731,
          37.2959648
        ],
        "_area_m2": 43.0
      },
      "geometry": {
        "type": "Polygon",
        "coordinates": [
          [
            [
              126.9752327473079,
              37.295937501499786
            ],
            [
              126.97524564603624,
              37.296000822416154
            ],
            [
              126.9753134423144,
              37.29599208257682
            ],
            [
              126.97530054358732,
              37.29592876165323
            ],
            [
              126.9752327473079,
              37.295937501499786
            ]
          ]
        ]
      }
    },
    {
      "type": "Feature",
      "properties": {
        "indoor": "room",
        "level": "3",
        "ref": "",
        "name": "",
        "room_type": "",
        "_idx": 13,
        "_centroid": [
          126.9753408,
          37.2959561
        ],
        "_area_m2": 42.9
      },
      "geometry": {
        "type": "Polygon",
        "coordinates": [
          [
            [
              126.97530054358732,
              37.29592876165323
            ],
            [
              126.9753134423144,
              37.29599208257682
            ],
            [
              126.97538100906641,
              37.29598337232644
            ],
            [
              126.9753681103393,
              37.29592005139583
            ],
            [
              126.97530054358732,
              37.29592876165323
            ]
          ]
        ]
      }
    },
    {
      "type": "Feature",
      "properties": {
        "indoor": "room",
        "level": "3",
        "ref": "",
        "name": "",
        "room_type": "",
        "_idx": 14,
        "_centroid": [
          126.9754053,
          37.2959477
        ],
        "_area_m2": 39.0
      },
      "geometry": {
        "type": "Polygon",
        "coordinates": [
          [
            [
              126.9753681103393,
              37.29592005139583
            ],
            [
              126.97538100906641,
              37.29598337232644
            ],
            [
              126.97544252805513,
              37.295975441712955
            ],
            [
              126.97542962932775,
              37.29591212077599
            ],
            [
              126.9753681103393,
              37.29592005139583
            ]
          ]
        ]
      }
    },
    {
      "type": "Feature",
      "properties": {
        "indoor": "room",
        "level": "3",
        "ref": "",
        "name": "",
        "room_type": "",
        "_idx": 15,
        "_centroid": [
          126.9754705,
          37.2959393
        ],
        "_area_m2": 43.7
      },
      "geometry": {
        "type": "Polygon",
        "coordinates": [
          [
            [
              126.97542962932775,
              37.29591212077599
            ],
            [
              126.97544252805513,
              37.295975441712955
            ],
            [
              126.97551138377165,
              37.29596656529797
            ],
            [
              126.9754984850444,
              37.295903244353816
            ],
            [
              126.97542962932775,
              37.29591212077599
            ]
          ]
        ]
      }
    },
    {
      "type": "Feature",
      "properties": {
        "indoor": "room",
        "level": "3",
        "ref": "",
        "name": "",
        "room_type": "",
        "_idx": 16,
        "_centroid": [
          126.975531,
          37.2959315
        ],
        "_area_m2": 33.1
      },
      "geometry": {
        "type": "Polygon",
        "coordinates": [
          [
            [
              126.9754984850444,
              37.295903244353816
            ],
            [
              126.97551138377165,
              37.29596656529797
            ],
            [
              126.97556348538704,
              37.29595984870879
            ],
            [
              126.97555059772658,
              37.29589652633256
            ],
            [
              126.9754984850444,
              37.295903244353816
            ]
          ]
        ]
      }
    },
    {
      "type": "Feature",
      "properties": {
        "indoor": "room",
        "level": "3",
        "ref": "",
        "name": "",
        "room_type": "",
        "_idx": 17,
        "_centroid": [
          126.9755775,
          37.2959191
        ],
        "_area_m2": 32.9
      },
      "geometry": {
        "type": "Polygon",
        "coordinates": [
          [
            [
              126.97555059772658,
              37.29589652633256
            ],
            [
              126.97556348538704,
              37.29595984870879
            ],
            [
              126.97561537678901,
              37.29595315921892
            ],
            [
              126.97560248912824,
              37.29588983683516
            ],
            [
              126.97555545088987,
              37.29589590069495
            ],
            [
              126.97555059772658,
              37.29589652633256
            ]
          ]
        ]
      }
    },
    {
      "type": "Feature",
      "properties": {
        "indoor": "room",
        "level": "3",
        "ref": "",
        "name": "",
        "room_type": "",
        "_idx": 18,
        "_centroid": [
          126.9756334,
          37.2959183
        ],
        "_area_m2": 31.1
      },
      "geometry": {
        "type": "Polygon",
        "coordinates": [
          [
            [
              126.97560248912824,
              37.29588983683516
            ],
            [
              126.97561537678901,
              37.29595315921892
            ],
            [
              126.97566436221838,
              37.29594684434745
            ],
            [
              126.9756514634901,
              37.29588352338308
            ],
            [
              126.97560248912824,
              37.29588983683516
            ]
          ]
        ]
      }
    },
    {
      "type": "Feature",
      "properties": {
        "indoor": "room",
        "level": "3",
        "ref": "",
        "name": "",
        "room_type": "",
        "_idx": 19,
        "_centroid": [
          126.9757445,
          37.2958636
        ],
        "_area_m2": 13.9
      },
      "geometry": {
        "type": "Polygon",
        "coordinates": [
          [
            [
              126.97577377651899,
              37.29584847944905
            ],
            [
              126.97571068006576,
              37.29585661342039
            ],
            [
              126.97571516988982,
              37.29587865440127
            ],
            [
              126.9757782663392,
              37.29587052042107
            ],
            [
              126.97577377651899,
              37.29584847944905
            ]
          ]
        ]
      }
    },
    {
      "type": "Feature",
      "properties": {
        "indoor": "room",
        "level": "3",
        "ref": "",
        "name": "",
        "room_type": "",
        "_idx": 20,
        "_centroid": [
          126.9757399,
          37.2958412
        ],
        "_area_m2": 14.4
      },
      "geometry": {
        "type": "Polygon",
        "coordinates": [
          [
            [
              126.9757691349023,
              37.295825693293125
            ],
            [
              126.97570603844751,
              37.2958338272672
            ],
            [
              126.97571068006576,
              37.29585661342039
            ],
            [
              126.97577377651899,
              37.29584847944905
            ],
            [
              126.9757691349023,
              37.295825693293125
            ]
          ]
        ]
      }
    },
    {
      "type": "Feature",
      "properties": {
        "indoor": "room",
        "level": "3",
        "ref": "",
        "name": "",
        "room_type": "",
        "_idx": 21,
        "_centroid": [
          126.975856,
          37.2958294
        ],
        "_area_m2": 56.8
      },
      "geometry": {
        "type": "Polygon",
        "coordinates": [
          [
            [
              126.97589876469928,
              37.295794029749054
            ],
            [
              126.97580136562644,
              37.29580658581088
            ],
            [
              126.97581322127128,
              37.2958647863763
            ],
            [
              126.97591062034002,
              37.29585223032485
            ],
            [
              126.97589876469928,
              37.295794029749054
            ]
          ]
        ]
      }
    },
    {
      "type": "Feature",
      "properties": {
        "indoor": "room",
        "level": "3",
        "ref": "",
        "name": "",
        "room_type": "",
        "_idx": 22,
        "_centroid": [
          126.975733,
          37.295807
        ],
        "_area_m2": 28.7
      },
      "geometry": {
        "type": "Polygon",
        "coordinates": [
          [
            [
              126.97570603844751,
              37.2958338272672
            ],
            [
              126.9757691349023,
              37.295825693293125
            ],
            [
              126.97575988176561,
              37.29578026872893
            ],
            [
              126.97569678531305,
              37.2957884027071
            ],
            [
              126.97570603844751,
              37.2958338272672
            ]
          ]
        ]
      }
    },
    {
      "type": "Feature",
      "properties": {
        "indoor": "room",
        "level": "3",
        "ref": "",
        "name": "",
        "room_type": "",
        "_idx": 23,
        "_centroid": [
          126.9757269,
          37.2957774
        ],
        "_area_m2": 8.8
      },
      "geometry": {
        "type": "Polygon",
        "coordinates": [
          [
            [
              126.97575988176561,
              37.29578026872893
            ],
            [
              126.97575706210142,
              37.29576642670863
            ],
            [
              126.97569396564923,
              37.29577456070033
            ],
            [
              126.97569678531305,
              37.2957884027071
            ],
            [
              126.97575988176561,
              37.29578026872893
            ]
          ]
        ]
      }
    },
    {
      "type": "Feature",
      "properties": {
        "indoor": "room",
        "level": "3",
        "ref": "",
        "name": "",
        "room_type": "",
        "_idx": 24,
        "_centroid": [
          126.9758432,
          37.2957668
        ],
        "_area_m2": 65.5
      },
      "geometry": {
        "type": "Polygon",
        "coordinates": [
          [
            [
              126.97588511019059,
              37.295726998343014
            ],
            [
              126.97578771111296,
              37.29573955441657
            ],
            [
              126.97580136562644,
              37.29580658581088
            ],
            [
              126.97589876469928,
              37.295794029749054
            ],
            [
              126.97588511019059,
              37.295726998343014
            ]
          ]
        ]
      }
    },
    {
      "type": "Feature",
      "properties": {
        "indoor": "room",
        "level": "3",
        "ref": "",
        "name": "",
        "room_type": "",
        "_idx": 25,
        "_centroid": [
          126.9757149,
          37.2957183
        ],
        "_area_m2": 66.0
      },
      "geometry": {
        "type": "Polygon",
        "coordinates": [
          [
            [
              126.97573580998139,
              37.29566209793723
            ],
            [
              126.97567271352636,
              37.29567023194067
            ],
            [
              126.97569396564923,
              37.29577456070033
            ],
            [
              126.97575706210144,
              37.29576642670863
            ],
            [
              126.97573580998139,
              37.29566209793723
            ]
          ]
        ]
      }
    },
    {
      "type": "Feature",
      "properties": {
        "indoor": "room",
        "level": "3",
        "ref": "",
        "name": "",
        "room_type": "",
        "_idx": 26,
        "_centroid": [
          126.9758305,
          37.2957042
        ],
        "_area_m2": 56.8
      },
      "geometry": {
        "type": "Polygon",
        "coordinates": [
          [
            [
              126.97587325249752,
              37.295668787692115
            ],
            [
              126.97577585341575,
              37.295681343775925
            ],
            [
              126.97578771111296,
              37.29573955441657
            ],
            [
              126.97588511019059,
              37.295726998343014
            ],
            [
              126.97587325249752,
              37.295668787692115
            ]
          ]
        ]
      }
    },
    {
      "type": "Feature",
      "properties": {
        "indoor": "room",
        "level": "3",
        "ref": "",
        "name": "",
        "room_type": "",
        "_idx": 27,
        "_centroid": [
          126.9758178,
          37.2956419
        ],
        "_area_m2": 64.8
      },
      "geometry": {
        "type": "Polygon",
        "coordinates": [
          [
            [
              126.97585972629449,
              37.29560238615198
            ],
            [
              126.975762327208,
              37.295614942247475
            ],
            [
              126.97577585341575,
              37.295681343775925
            ],
            [
              126.97587325249752,
              37.295668787692115
            ],
            [
              126.97585972629449,
              37.29560238615198
            ]
          ]
        ]
      }
    },
    {
      "type": "Feature",
      "properties": {
        "indoor": "room",
        "level": "3",
        "ref": "",
        "name": "",
        "room_type": "",
        "_idx": 28,
        "_centroid": [
          126.9756941,
          37.2956165
        ],
        "_area_m2": 62.8
      },
      "geometry": {
        "type": "Polygon",
        "coordinates": [
          [
            [
              126.9757155745602,
              37.295562760241744
            ],
            [
              126.97565247810253,
              37.29557089425643
            ],
            [
              126.97567271352636,
              37.29567023194067
            ],
            [
              126.97573580998139,
              37.29566209793723
            ],
            [
              126.9757155745602,
              37.295562760241744
            ]
          ]
        ]
      }
    },
    {
      "type": "Feature",
      "properties": {
        "indoor": "room",
        "level": "3",
        "ref": "",
        "name": "",
        "room_type": "",
        "_idx": 29,
        "_centroid": [
          126.9758053,
          37.2955804
        ],
        "_area_m2": 55.2
      },
      "geometry": {
        "type": "Polygon",
        "coordinates": [
          [
            [
              126.97584819998649,
              37.29554580230487
            ],
            [
              126.97575080089598,
              37.29555835841035
            ],
            [
              126.975762327208,
              37.295614942247475
            ],
            [
              126.97585972629449,
              37.29560238615198
            ],
            [
              126.97584819998649,
              37.29554580230487
            ]
          ]
        ]
      }
    },
    {
      "type": "Feature",
      "properties": {
        "indoor": "room",
        "level": "3",
        "ref": "",
        "name": "",
        "room_type": "",
        "_idx": 30,
        "_centroid": [
          126.9756753,
          37.2955559
        ],
        "_area_m2": 13.0
      },
      "geometry": {
        "type": "Polygon",
        "coordinates": [
          [
            [
              126.97564889760177,
              37.29555331718832
            ],
            [
              126.97565247810253,
              37.29557089425643
            ],
            [
              126.9757155745602,
              37.295562760241744
            ],
            [
              126.97571139919516,
              37.29554226295946
            ],
            [
              126.97564830274578,
              37.29555039697515
            ],
            [
              126.97564889760177,
              37.29555331718832
            ]
          ]
        ]
      }
    },
    {
      "type": "Feature",
      "properties": {
        "indoor": "room",
        "level": "3",
        "ref": "",
        "name": "",
        "room_type": "",
        "_idx": 31,
        "_centroid": [
          126.9755091,
          37.2955398
        ],
        "_area_m2": 38.4
      },
      "geometry": {
        "type": "Polygon",
        "coordinates": [
          [
            [
              126.975549190322,
              37.29556317395165
            ],
            [
              126.97553784935835,
              37.295507500306066
            ],
            [
              126.9754690474917,
              37.29551636989717
            ],
            [
              126.97548038836364,
              37.29557204348557
            ],
            [
              126.975549190322,
              37.29556317395165
            ]
          ]
        ]
      }
    },
    {
      "type": "Feature",
      "properties": {
        "indoor": "room",
        "level": "3",
        "ref": "",
        "name": "",
        "room_type": "",
        "_idx": 32,
        "_centroid": [
          126.9757969,
          37.2955392
        ],
        "_area_m2": 25.1
      },
      "geometry": {
        "type": "Polygon",
        "coordinates": [
          [
            [
              126.97584296329696,
              37.29552009485025
            ],
            [
              126.97574556420462,
              37.295532650960254
            ],
            [
              126.97575080089598,
              37.29555835841035
            ],
            [
              126.97584819998649,
              37.29554580230487
            ],
            [
              126.97584296329696,
              37.29552009485025
            ]
          ]
        ]
      }
    },
    {
      "type": "Feature",
      "properties": {
        "indoor": "room",
        "level": "3",
        "ref": "",
        "name": "",
        "room_type": "",
        "_idx": 33,
        "_centroid": [
          126.9756677,
          37.2955349
        ],
        "_area_m2": 18.5
      },
      "geometry": {
        "type": "Polygon",
        "coordinates": [
          [
            [
              126.97571139919516,
              37.29554226295946
            ],
            [
              126.97570623625352,
              37.29551691750584
            ],
            [
              126.97566786050373,
              37.295521864679046
            ],
            [
              126.97563355663407,
              37.29552628692943
            ],
            [
              126.97563871957597,
              37.29555163237966
            ],
            [
              126.97564830274578,
              37.29555039697515
            ],
            [
              126.97571139919516,
              37.29554226295946
            ]
          ]
        ]
      }
    },
    {
      "type": "Feature",
      "properties": {
        "indoor": "room",
        "level": "3",
        "ref": "",
        "name": "",
        "room_type": "",
        "_idx": 34,
        "_centroid": [
          126.9755737,
          37.2955315
        ],
        "_area_m2": 33.6
      },
      "geometry": {
        "type": "Polygon",
        "coordinates": [
          [
            [
              126.97553784935835,
              37.295507500306066
            ],
            [
              126.975549190322,
              37.29556317395165
            ],
            [
              126.97560945383641,
              37.29555540514247
            ],
            [
              126.97559811286192,
              37.29549973143631
            ],
            [
              126.97553784935835,
              37.295507500306066
            ]
          ]
        ]
      }
    },
    {
      "type": "Feature",
      "properties": {
        "indoor": "room",
        "level": "3",
        "ref": "",
        "name": "",
        "room_type": "",
        "_idx": 35,
        "_centroid": [
          126.9756176,
          37.2955266
        ],
        "_area_m2": 11.0
      },
      "geometry": {
        "type": "Polygon",
        "coordinates": [
          [
            [
              126.97563355663407,
              37.29552628692943
            ],
            [
              126.97561595136612,
              37.29552855649559
            ],
            [
              126.97560977340989,
              37.29549822821673
            ],
            [
              126.97559811286192,
              37.29549973143631
            ],
            [
              126.97560945383641,
              37.29555540514247
            ],
            [
              126.97563871957597,
              37.29555163237966
            ],
            [
              126.97563355663407,
              37.29552628692943
            ]
          ]
        ]
      }
    },
    {
      "type": "Feature",
      "properties": {
        "indoor": "room",
        "level": "3",
        "ref": "",
        "name": "",
        "room_type": "",
        "_idx": 36,
        "_centroid": [
          126.9756378,
          37.2955133
        ],
        "_area_m2": 15.8
      },
      "geometry": {
        "type": "Polygon",
        "coordinates": [
          [
            [
              126.97560977340989,
              37.29549822821673
            ],
            [
              126.97561595136612,
              37.29552855649559
            ],
            [
              126.97563355663407,
              37.29552628692943
            ],
            [
              126.9756678605037,
              37.2955218646789
            ],
            [
              126.97566168253846,
              37.29549153635125
            ],
            [
              126.97560977340989,
              37.29549822821673
            ]
          ]
        ]
      }
    },
    {
      "type": "Feature",
      "properties": {
        "indoor": "room",
        "level": "3",
        "ref": "",
        "name": "",
        "room_type": "",
        "_idx": 37,
        "_centroid": [
          126.975684,
          37.2955042
        ],
        "_area_m2": 11.7
      },
      "geometry": {
        "type": "Polygon",
        "coordinates": [
          [
            [
              126.9756678605037,
              37.2955218646789
            ],
            [
              126.97570623625352,
              37.29551691750584
            ],
            [
              126.9757000582811,
              37.29548658914226
            ],
            [
              126.97566168253846,
              37.29549153635125
            ],
            [
              126.9756678605037,
              37.2955218646789
            ]
          ]
        ]
      }
    },
    {
      "type": "Feature",
      "properties": {
        "indoor": "room",
        "level": "3",
        "ref": "",
        "name": "",
        "room_type": "",
        "_idx": 38,
        "_centroid": [
          126.9757891,
          37.2955011
        ],
        "_area_m2": 49.4
      },
      "geometry": {
        "type": "Polygon",
        "coordinates": [
          [
            [
              126.97583265950183,
              37.29546951244629
            ],
            [
              126.97573526040593,
              37.29548206856533
            ],
            [
              126.97574556420462,
              37.295532650960254
            ],
            [
              126.97584296329696,
              37.29552009485025
            ],
            [
              126.97583265950183,
              37.29546951244629
            ]
          ]
        ]
      }
    },
    {
      "type": "Feature",
      "properties": {
        "indoor": "room",
        "level": "3",
        "ref": "",
        "name": "",
        "room_type": "",
        "_idx": 39,
        "_centroid": [
          126.975478,
          37.2954804
        ],
        "_area_m2": 12.7
      },
      "geometry": {
        "type": "Polygon",
        "coordinates": [
          [
            [
              126.97548987517716,
              37.295458418335734
            ],
            [
              126.97545807760817,
              37.29546251749223
            ],
            [
              126.97546620845144,
              37.29550243272952
            ],
            [
              126.97549800602047,
              37.29549833357437
            ],
            [
              126.97548987517716,
              37.295458418335734
            ]
          ]
        ]
      }
    },
    {
      "type": "Feature",
      "properties": {
        "indoor": "room",
        "level": "3",
        "ref": "",
        "name": "",
        "room_type": "",
        "_idx": 40,
        "_centroid": [
          126.9755102,
          37.2954763
        ],
        "_area_m2": 13.0
      },
      "geometry": {
        "type": "Polygon",
        "coordinates": [
          [
            [
              126.97548987517716,
              37.295458418335734
            ],
            [
              126.97549800602047,
              37.29549833357437
            ],
            [
              126.97553047257159,
              37.295494148178
            ],
            [
              126.97552234172893,
              37.29545423293694
            ],
            [
              126.97548987517716,
              37.295458418335734
            ]
          ]
        ]
      }
    },
    {
      "type": "Feature",
      "properties": {
        "indoor": "room",
        "level": "3",
        "ref": "",
        "name": "",
        "room_type": "",
        "_idx": 41,
        "_centroid": [
          126.9755438,
          37.295472
        ],
        "_area_m2": 13.9
      },
      "geometry": {
        "type": "Polygon",
        "coordinates": [
          [
            [
              126.97552234172893,
              37.29545423293694
            ],
            [
              126.97553047257159,
              37.295494148178
            ],
            [
              126.97556516464368,
              37.29548967588058
            ],
            [
              126.9755570338008,
              37.29544976063706
            ],
            [
              126.97552234172893,
              37.29545423293694
            ]
          ]
        ]
      }
    },
    {
      "type": "Feature",
      "properties": {
        "indoor": "room",
        "level": "3",
        "ref": "",
        "name": "",
        "room_type": "",
        "_idx": 42,
        "_centroid": [
          126.9755768,
          37.2954677
        ],
        "_area_m2": 12.6
      },
      "geometry": {
        "type": "Polygon",
        "coordinates": [
          [
            [
              126.9755570338008,
              37.29544976063706
            ],
            [
              126.97556516464368,
              37.29548967588058
            ],
            [
              126.975596603492,
              37.2954856229696
            ],
            [
              126.97558847264904,
              37.29544570772383
            ],
            [
              126.9755570338008,
              37.29544976063706
            ]
          ]
        ]
      }
    },
    {
      "type": "Feature",
      "properties": {
        "indoor": "room",
        "level": "3",
        "ref": "",
        "name": "",
        "room_type": "",
        "_idx": 43,
        "_centroid": [
          126.975608,
          37.2954637
        ],
        "_area_m2": 12.4
      },
      "geometry": {
        "type": "Polygon",
        "coordinates": [
          [
            [
              126.97558847264904,
              37.29544570772383
            ],
            [
              126.975596603492,
              37.2954856229696
            ],
            [
              126.97562760136906,
              37.295481626906025
            ],
            [
              126.97561947052618,
              37.295441711658015
            ],
            [
              126.97558847264904,
              37.29544570772383
            ]
          ]
        ]
      }
    },
    {
      "type": "Feature",
      "properties": {
        "indoor": "room",
        "level": "3",
        "ref": "",
        "name": "",
        "room_type": "",
        "_idx": 44,
        "_centroid": [
          126.9756408,
          37.2954594
        ],
        "_area_m2": 13.8
      },
      "geometry": {
        "type": "Polygon",
        "coordinates": [
          [
            [
              126.97561947052618,
              37.295441711658015
            ],
            [
              126.97562760136906,
              37.295481626906025
            ],
            [
              126.97566217203558,
              37.2954771702595
            ],
            [
              126.97565404119266,
              37.29543725500901
            ],
            [
              126.97561947052618,
              37.295441711658015
            ]
          ]
        ]
      }
    },
    {
      "type": "Feature",
      "properties": {
        "indoor": "room",
        "level": "3",
        "ref": "",
        "name": "",
        "room_type": "",
        "_idx": 45,
        "_centroid": [
          126.9756736,
          37.2954552
        ],
        "_area_m2": 12.4
      },
      "geometry": {
        "type": "Polygon",
        "coordinates": [
          [
            [
              126.97565404119266,
              37.29543725500901
            ],
            [
              126.97566217203558,
              37.2954771702595
            ],
            [
              126.97569319205364,
              37.29547317134164
            ],
            [
              126.97568506121071,
              37.29543325608893
            ],
            [
              126.97565404119266,
              37.29543725500901
            ]
          ]
        ]
      }
    },
    {
      "type": "Feature",
      "properties": {
        "indoor": "room",
        "level": "3",
        "ref": "",
        "name": "",
        "room_type": "",
        "_idx": 46,
        "_centroid": [
          126.9757119,
          37.2954465
        ],
        "_area_m2": 15.7
      },
      "geometry": {
        "type": "Polygon",
        "coordinates": [
          [
            [
              126.97568506121071,
              37.29543325608893
            ],
            [
              126.97569319205364,
              37.29547317134164
            ],
            [
              126.97573241793944,
              37.29546811457169
            ],
            [
              126.9757245827489,
              37.29542965070975
            ],
            [
              126.97572428709616,
              37.2954281993162
            ],
            [
              126.97568506121071,
              37.29543325608893
            ]
          ]
        ]
      }
    },
    {
      "type": "Feature",
      "properties": {
        "indoor": "room",
        "level": "3",
        "ref": "",
        "name": "",
        "room_type": "",
        "_idx": 47,
        "_centroid": [
          126.9757677,
          37.295445
        ],
        "_area_m2": 52.6
      },
      "geometry": {
        "type": "Polygon",
        "coordinates": [
          [
            [
              126.9757245827489,
              37.29542965070975
            ],
            [
              126.97573526040593,
              37.29548206856533
            ],
            [
              126.97583265950183,
              37.29546951244629
            ],
            [
              126.9758216861649,
              37.295415643191866
            ],
            [
              126.97572428709618,
              37.2954281993162
            ],
            [
              126.9757245827489,
              37.29542965070975
            ]
          ]
        ]
      }
    }
  ]
}