{
  "type": "FeatureCollection",
  "features": [
    {
      "type": "Feature",
      "properties": {
        "indoor": "corridor",
        "level": "1"
      },
      "geometry": {
        "type": "MultiPolygon",
        "coordinates": []
      }
    },
    {
      "type": "Feature",
      "properties": {
        "indoor": "corridor",
        "level": "1"
      },
      "geometry": {
        "type": "Polygon",
        "coordinates": [
          [
            [
              126.97526141008329,
              37.296085116551495
            ],
            [
              126.9752492953928,
              37.29602564460667
            ],
            [
              126.97566035353711,
              37.295972653775934
            ],
            [
              126.9756724682276,
              37.29603212576266
            ],
            [
              126.97571041739623,
              37.29602723361497
            ],
            [
              126.97569116852118,
              37.29593273931644
            ],
            [
              126.97582906234305,
              37.295914962961454
            ],
            [
              126.97576825944837,
              37.29561647573858
            ],
            [
              126.97572845956651,
              37.295621606495615
            ],
            [
              126.97577753652398,
              37.295875790614204
            ],
            [
              126.97571619730309,
              37.2958836980635
            ],
            [
              126.97571504119563,
              37.295877969054125
            ],
            [
              126.97569257952884,
              37.295880979005695
            ],
            [
              126.97567877292285,
              37.29581457340961
            ],
            [
              126.97570164881704,
              37.29581156345538
            ],
            [
              126.9756944573891,
              37.295776974838944
            ],
            [
              126.97552008870024,
              37.29585451424345
            ],
            [
              126.97555545088987,
              37.29589590069495
            ],
            [
              126.9756127982909,
              37.2958889063303
            ],
            [
              126.97562495168543,
              37.29594856838451
            ],
            [
              126.97518785645168,
              37.29600491575718
            ],
            [
              126.97520594979969,
              37.29609246749959
            ],
            [
              126.97526141008329,
              37.296085116551495
            ]
          ]
        ]
      }
    },
    {
      "type": "Feature",
      "properties": {
        "indoor": "corridor",
        "level": "1"
      },
      "geometry": {
        "type": "Polygon",
        "coordinates": [
          [
            [
              126.97559741912653,
              37.29550341650483
            ],
            [
              126.9757009496557,
              37.29549006996133
            ],
            [
              126.97571157692288,
              37.29554224040504
            ],
            [
              126.97564830281665,
              37.295550397322984
            ],
            [
              126.97565278398645,
              37.295572395873734
            ],
            [
              126.97584848167193,
              37.29554718539494
            ],
            [
              126.97583910134496,
              37.29550113632526
            ],
            [
              126.97573810279441,
              37.2955141564591
            ],
            [
              126.9757285262977,
              37.29546714434921
            ],
            [
              126.97559357425072,
              37.2954845415737
            ],
            [
              126.97559741912653,
              37.29550341650483
            ]
          ]
        ]
      }
    }
  ]
}