{
  "type": "FeatureCollection",
  "features": [
    {
      "type": "Feature",
      "properties": {
        "indoor": "room",
        "level": [
          6
        ],
        "ref": "",
        "name": "",
        "room_type": "",
        "_idx": 1,
        "_centroid": [
          126.9752402,
          37.2960538
        ],
        "_area_m2": 49.8
      },
      "geometry": {
        "type": "Polygon",
        "coordinates": [
          [
            [
              126.97527080583397,
              37.29601570251833
            ],
            [
              126.97519496078253,
              37.2960254758764
            ],
            [
              126.97521062355197,
              37.296091663599235
            ],
            [
              126.9752843380444,
              37.29608216083421
            ],
            [
              126.97527080583397,
              37.29601570251833
            ]
          ]
        ]
      }
    },
    {
      "type": "Feature",
      "properties": {
        "indoor": "room",
        "level": [
          6
        ],
        "ref": "",
        "name": "",
        "room_type": "",
        "_idx": 2,
        "_centroid": [
          126.9753196,
          37.2960435
        ],
        "_area_m2": 56
      },
      "geometry": {
        "type": "Polygon",
        "coordinates": [
          [
            [
              126.97527080583397,
              37.29601570251833
            ],
            [
              126.9752843380444,
              37.29608216083421
            ],
            [
              126.97536833028462,
              37.29607133313268
            ],
            [
              126.97535479896914,
              37.29600487919762
            ],
            [
              126.97527080583397,
              37.29601570251833
            ]
          ]
        ]
      }
    },
    {
      "type": "Feature",
      "properties": {
        "indoor": "room",
        "level": [
          6
        ],
        "ref": "",
        "name": "",
        "room_type": "",
        "_idx": 3,
        "_centroid": [
          126.9754015,
          37.296033
        ],
        "_area_m2": 53.3
      },
      "geometry": {
        "type": "Polygon",
        "coordinates": [
          [
            [
              126.97535479896914,
              37.29600487919762
            ],
            [
              126.97536833028462,
              37.29607133313268
            ],
            [
              126.97544827959483,
              37.296061026617856
            ],
            [
              126.97543474913076,
              37.2959945768528
            ],
            [
              126.97535479896914,
              37.29600487919762
            ]
          ]
        ]
      }
    },
    {
      "type": "Feature",
      "properties": {
        "indoor": "room",
        "level": [
          6
        ],
        "ref": "",
        "name": "",
        "room_type": "",
        "_idx": 4,
        "_centroid": [
          126.9755196,
          37.2960178
        ],
        "_area_m2": 86.7
      },
      "geometry": {
        "type": "Polygon",
        "coordinates": [
          [
            [
              126.9755784404162,
              37.296044247180596
            ],
            [
              126.975571713447,
              37.29601121021113
            ],
            [
              126.975564911338,
              37.29597780420596
            ],
            [
              126.97543474913076,
              37.2959945768528
            ],
            [
              126.97544827959483,
              37.296061026617856
            ],
            [
              126.9755784404162,
              37.296044247180596
            ]
          ]
        ]
      }
    },
    {
      "type": "Feature",
      "properties": {
        "indoor": "room",
        "level": [
          6
        ],
        "ref": "",
        "name": "",
        "room_type": "",
        "_idx": 5,
        "_centroid": [
          126.9756293,
          37.2960174
        ],
        "_area_m2": 33.5
      },
      "geometry": {
        "type": "Polygon",
        "coordinates": [
          [
            [
              126.97567281935407,
              37.295998181748
            ],
            [
              126.97564396538927,
              37.29600189985755
            ],
            [
              126.975571713447,
              37.29601121021113
            ],
            [
              126.9755784404162,
              37.296044247180596
            ],
            [
              126.97567954797512,
              37.296031213089975
            ],
            [
              126.97567281935407,
              37.295998181748
            ]
          ]
        ]
      }
    },
    {
      "type": "Feature",
      "properties": {
        "indoor": "room",
        "level": [
          6
        ],
        "ref": "21",
        "name": "",
        "room_type": "storage",
        "_idx": 6,
        "_centroid": [
          126.9757508,
          37.2959969
        ],
        "_area_m2": 34.2
      },
      "geometry": {
        "type": "Polygon",
        "coordinates": [
          [
            [
              126.97578072199558,
              37.29596794580651
            ],
            [
              126.97571093862216,
              37.29597693827347
            ],
            [
              126.97572090849113,
              37.296025881174586
            ],
            [
              126.97579068734741,
              37.296016885758746
            ],
            [
              126.97578072199558,
              37.29596794580651
            ]
          ]
        ]
      }
    },
    {
      "type": "Feature",
      "properties": {
        "indoor": "room",
        "level": [
          6
        ],
        "ref": "",
        "name": "",
        "room_type": "",
        "_idx": 7,
        "_centroid": [
          126.9756044,
          37.2959899
        ],
        "_area_m2": 24.2
      },
      "geometry": {
        "type": "Polygon",
        "coordinates": [
          [
            [
              126.975571713447,
              37.29601121021113
            ],
            [
              126.97564396538927,
              37.29600189985755
            ],
            [
              126.97563716328072,
              37.29596849384943
            ],
            [
              126.975564911338,
              37.29597780420596
            ],
            [
              126.975571713447,
              37.29601121021113
            ]
          ]
        ]
      }
    },
    {
      "type": "Feature",
      "properties": {
        "indoor": "room",
        "level": [
          6
        ],
        "ref": "",
        "name": "",
        "room_type": "",
        "_idx": 8,
        "_centroid": [
          126.975655,
          37.2959833
        ],
        "_area_m2": 9.7
      },
      "geometry": {
        "type": "Polygon",
        "coordinates": [
          [
            [
              126.97563716328072,
              37.29596849384943
            ],
            [
              126.97564396538927,
              37.29600189985755
            ],
            [
              126.97567281935407,
              37.295998181748
            ],
            [
              126.9756660144843,
              37.295964776094834
            ],
            [
              126.97563716328072,
              37.29596849384943
            ]
          ]
        ]
      }
    },
    {
      "type": "Feature",
      "properties": {
        "indoor": "room",
        "level": [
          6
        ],
        "ref": "21",
        "name": "",
        "room_type": "storage",
        "_idx": 9,
        "_centroid": [
          126.9758103,
          37.2959658
        ],
        "_area_m2": 68.7
      },
      "geometry": {
        "type": "Polygon",
        "coordinates": [
          [
            [
              126.97586379919798,
              37.296007460675945
            ],
            [
              126.97584471019856,
              37.29591371435199
            ],
            [
              126.97577159761313,
              37.29592313583609
            ],
            [
              126.97578072199558,
              37.29596794580651
            ],
            [
              126.97579068734741,
              37.296016885758746
            ],
            [
              126.97586379919798,
              37.296007460675945
            ]
          ]
        ]
      }
    },
    {
      "type": "Feature",
      "properties": {
        "indoor": "room",
        "level": [
          6
        ],
        "ref": "",
        "name": "",
        "room_type": "",
        "_idx": 10,
        "_centroid": [
          126.9752691,
          37.2959648
        ],
        "_area_m2": 107.7
      },
      "geometry": {
        "type": "Polygon",
        "coordinates": [
          [
            [
              126.97534898685667,
              37.29592251667099
            ],
            [
              126.97517532674463,
              37.295944903775435
            ],
            [
              126.97519048837076,
              37.29600689014244
            ],
            [
              126.97536167859145,
              37.29598482145244
            ],
            [
              126.97534898685667,
              37.29592251667099
            ]
          ]
        ]
      }
    },
    {
      "type": "Feature",
      "properties": {
        "indoor": "room",
        "level": [
          6
        ],
        "ref": "21",
        "name": "",
        "room_type": "storage",
        "_idx": 11,
        "_centroid": [
          126.9758925,
          37.2959557
        ],
        "_area_m2": 71.8
      },
      "geometry": {
        "type": "Polygon",
        "coordinates": [
          [
            [
              126.97584471019856,
              37.29591371435199
            ],
            [
              126.97586379919798,
              37.296007460675945
            ],
            [
              126.97594023418179,
              37.29599760719739
            ],
            [
              126.97592113863774,
              37.295903865576804
            ],
            [
              126.97584471019856,
              37.29591371435199
            ]
          ]
        ]
      }
    },
    {
      "type": "Feature",
      "properties": {
        "indoor": "room",
        "level": [
          6
        ],
        "ref": "21",
        "name": "",
        "room_type": "storage",
        "_idx": 12,
        "_centroid": [
          126.9757413,
          37.29595
        ],
        "_area_m2": 31.4
      },
      "geometry": {
        "type": "Polygon",
        "coordinates": [
          [
            [
              126.97578072199558,
              37.29596794580651
            ],
            [
              126.97577159761313,
              37.29592313583609
            ],
            [
              126.9757018107409,
              37.295932128758764
            ],
            [
              126.97571093862216,
              37.29597693827347
            ],
            [
              126.97578072199558,
              37.29596794580651
            ]
          ]
        ]
      }
    },
    {
      "type": "Feature",
      "properties": {
        "indoor": "room",
        "level": [
          6
        ],
        "ref": "",
        "name": "",
        "room_type": "",
        "_idx": 13,
        "_centroid": [
          126.9754295,
          37.2959441
        ],
        "_area_m2": 92.6
      },
      "geometry": {
        "type": "Polygon",
        "coordinates": [
          [
            [
              126.97534898685667,
              37.29592251667099
            ],
            [
              126.97536167859145,
              37.29598482145244
            ],
            [
              126.97550996337006,
              37.295965705577736
            ],
            [
              126.97549727163603,
              37.29590340077912
            ],
            [
              126.97534898685667,
              37.29592251667099
            ]
          ]
        ]
      }
    },
    {
      "type": "Feature",
      "properties": {
        "indoor": "room",
        "level": [
          6
        ],
        "ref": "",
        "name": "",
        "room_type": "",
        "_idx": 14,
        "_centroid": [
          126.9755545,
          37.2959216
        ],
        "_area_m2": 63.3
      },
      "geometry": {
        "type": "Polygon",
        "coordinates": [
          [
            [
              126.97549727163603,
              37.29590340077912
            ],
            [
              126.97550996337006,
              37.295965705577736
            ],
            [
              126.97561136534556,
              37.29595263351817
            ],
            [
              126.97559867361075,
              37.29589032870654
            ],
            [
              126.97555545088987,
              37.29589590069495
            ],
            [
              126.97549727163603,
              37.29590340077912
            ]
          ]
        ]
      }
    },
    {
      "type": "Feature",
      "properties": {
        "indoor": "room",
        "level": [
          6
        ],
        "ref": "",
        "name": "",
        "room_type": "",
        "_idx": 15,
        "_centroid": [
          126.975631,
          37.2959181
        ],
        "_area_m2": 32.4
      },
      "geometry": {
        "type": "Polygon",
        "coordinates": [
          [
            [
              126.97559867361075,
              37.29589032870654
            ],
            [
              126.97561136534556,
              37.29595263351817
            ],
            [
              126.97566325169613,
              37.295945944679396
            ],
            [
              126.97565055996068,
              37.29588363986014
            ],
            [
              126.97559867361075,
              37.29589032870654
            ]
          ]
        ]
      }
    },
    {
      "type": "Feature",
      "properties": {
        "indoor": "room",
        "level": [
          6
        ],
        "ref": "21",
        "name": "",
        "room_type": "storage",
        "_idx": 16,
        "_centroid": [
          126.9758785,
          37.2958873
        ],
        "_area_m2": 32.9
      },
      "geometry": {
        "type": "Polygon",
        "coordinates": [
          [
            [
              126.97583595659471,
              37.29587072300442
            ],
            [
              126.97584471019856,
              37.29591371435199
            ],
            [
              126.97592113863774,
              37.295903865576804
            ],
            [
              126.97591238136151,
              37.295860875210124
            ],
            [
              126.97583595659471,
              37.29587072300442
            ]
          ]
        ]
      }
    },
    {
      "type": "Feature",
      "properties": {
        "indoor": "room",
        "level": [
          6
        ],
        "ref": "",
        "name": "",
        "room_type": "",
        "_idx": 17,
        "_centroid": [
          126.9757533,
          37.2958668
        ],
        "_area_m2": 19.7
      },
      "geometry": {
        "type": "Polygon",
        "coordinates": [
          [
            [
              126.97579029349701,
              37.295849242113036
            ],
            [
              126.97571125409242,
              37.295859431357165
            ],
            [
              126.97571631839305,
              37.29588429250501
            ],
            [
              126.97579535779683,
              37.29587410326438
            ],
            [
              126.97579029349701,
              37.295849242113036
            ]
          ]
        ]
      }
    },
    {
      "type": "Feature",
      "properties": {
        "indoor": "room",
        "level": [
          6
        ],
        "ref": "",
        "name": "",
        "room_type": "",
        "_idx": 18,
        "_centroid": [
          126.9757484,
          37.2958428
        ],
        "_area_m2": 18.3
      },
      "geometry": {
        "type": "Polygon",
        "coordinates": [
          [
            [
              126.97578558669765,
              37.29582613596706
            ],
            [
              126.9757065472923,
              37.2958363252144
            ],
            [
              126.97571125409242,
              37.295859431357165
            ],
            [
              126.97579029349701,
              37.295849242113036
            ],
            [
              126.97578558669765,
              37.29582613596706
            ]
          ]
        ]
      }
    },
    {
      "type": "Feature",
      "properties": {
        "indoor": "room",
        "level": [
          6
        ],
        "ref": "",
        "name": "",
        "room_type": "",
        "_idx": 19,
        "_centroid": [
          126.9757416,
          37.2958091
        ],
        "_area_m2": 35
      },
      "geometry": {
        "type": "Polygon",
        "coordinates": [
          [
            [
              126.9757765817579,
              37.29578192982247
            ],
            [
              126.9756975423511,
              37.295792119075976
            ],
            [
              126.9757065472923,
              37.2958363252144
            ],
            [
              126.97578558669765,
              37.29582613596706
            ],
            [
              126.9757765817579,
              37.29578192982247
            ]
          ]
        ]
      }
    },
    {
      "type": "Feature",
      "properties": {
        "indoor": "room",
        "level": [
          6
        ],
        "ref": "21",
        "name": "",
        "room_type": "storage",
        "_idx": 20,
        "_centroid": [
          126.9758601,
          37.2957968
        ],
        "_area_m2": 105.7
      },
      "geometry": {
        "type": "Polygon",
        "coordinates": [
          [
            [
              126.97583595659471,
              37.29587072300442
            ],
            [
              126.97591238136151,
              37.295860875210124
            ],
            [
              126.97588427756016,
              37.29572291076867
            ],
            [
              126.97580786498686,
              37.295732757009674
            ],
            [
              126.97583595659471,
              37.29587072300442
            ]
          ]
        ]
      }
    },
    {
      "type": "Feature",
      "properties": {
        "indoor": "room",
        "level": [
          6
        ],
        "ref": "",
        "name": "",
        "room_type": "",
        "_idx": 21,
        "_centroid": [
          126.9757357,
          37.2957801
        ],
        "_area_m2": 10.9
      },
      "geometry": {
        "type": "Polygon",
        "coordinates": [
          [
            [
              126.97577377583085,
              37.29576815524756
            ],
            [
              126.97569473642358,
              37.29577834450297
            ],
            [
              126.9756975423511,
              37.295792119075976
            ],
            [
              126.9757765817579,
              37.29578192982247
            ],
            [
              126.97577377583085,
              37.29576815524756
            ]
          ]
        ]
      }
    },
    {
      "type": "Feature",
      "properties": {
        "indoor": "room",
        "level": [
          6
        ],
        "ref": "",
        "name": "",
        "room_type": "",
        "_idx": 22,
        "_centroid": [
          126.9757313,
          37.2957586
        ],
        "_area_m2": 23.3
      },
      "geometry": {
        "type": "Polygon",
        "coordinates": [
          [
            [
              126.97576779310445,
              37.295738785448826
            ],
            [
              126.97568875369619,
              37.295748974708246
            ],
            [
              126.97569473642358,
              37.29577834450297
            ],
            [
              126.97577377583085,
              37.29576815524756
            ],
            [
              126.97576779310445,
              37.295738785448826
            ]
          ]
        ]
      }
    },
    {
      "type": "Feature",
      "properties": {
        "indoor": "room",
        "level": [
          6
        ],
        "ref": "",
        "name": "",
        "room_type": "",
        "_idx": 23,
        "_centroid": [
          126.9757259,
          37.2957321
        ],
        "_area_m2": 18.6
      },
      "geometry": {
        "type": "Polygon",
        "coordinates": [
          [
            [
              126.97576300335771,
              37.29571527210588
            ],
            [
              126.97568396394868,
              37.29572546136857
            ],
            [
              126.97568875369619,
              37.295748974708246
            ],
            [
              126.97576779310445,
              37.295738785448826
            ],
            [
              126.97576300335771,
              37.29571527210588
            ]
          ]
        ]
      }
    },
    {
      "type": "Feature",
      "properties": {
        "indoor": "room",
        "level": [
          6
        ],
        "ref": "",
        "name": "",
        "room_type": "",
        "_idx": 24,
        "_centroid": [
          126.9757213,
          37.2957099
        ],
        "_area_m2": 16.6
      },
      "geometry": {
        "type": "Polygon",
        "coordinates": [
          [
            [
              126.97575872763835,
              37.29569428217436
            ],
            [
              126.97567968822862,
              37.29570447144001
            ],
            [
              126.97568396394868,
              37.29572546136857
            ],
            [
              126.97576300335771,
              37.29571527210588
            ],
            [
              126.97575872763835,
              37.29569428217436
            ]
          ]
        ]
      }
    },
    {
      "type": "Feature",
      "properties": {
        "indoor": "room",
        "level": [
          6
        ],
        "ref": "21",
        "name": "",
        "room_type": "storage",
        "_idx": 25,
        "_centroid": [
          126.9758416,
          37.295706
        ],
        "_area_m2": 33.5
      },
      "geometry": {
        "type": "Polygon",
        "coordinates": [
          [
            [
              126.97580786498686,
              37.295732757009674
            ],
            [
              126.97588427756016,
              37.29572291076867
            ],
            [
              126.97587537849579,
              37.295679224349556
            ],
            [
              126.9757989697836,
              37.29568907009889
            ],
            [
              126.97580786498686,
              37.295732757009674
            ]
          ]
        ]
      }
    },
    {
      "type": "Feature",
      "properties": {
        "indoor": "room",
        "level": [
          6
        ],
        "ref": "",
        "name": "",
        "room_type": "",
        "_idx": 26,
        "_centroid": [
          126.975717,
          37.2956886
        ],
        "_area_m2": 17.2
      },
      "geometry": {
        "type": "Polygon",
        "coordinates": [
          [
            [
              126.9757543172513,
              37.29567263114587
            ],
            [
              126.97567527784088,
              37.29568282041456
            ],
            [
              126.97567968822862,
              37.29570447144001
            ],
            [
              126.97575872763835,
              37.29569428217436
            ],
            [
              126.9757543172513,
              37.29567263114587
            ]
          ]
        ]
      }
    },
    {
      "type": "Feature",
      "properties": {
        "indoor": "room",
        "level": [
          6
        ],
        "ref": "",
        "name": "",
        "room_type": "",
        "_idx": 27,
        "_centroid": [
          126.9757126,
          37.2956672
        ],
        "_area_m2": 16.7
      },
      "geometry": {
        "type": "Polygon",
        "coordinates": [
          [
            [
              126.9757500181483,
              37.29565152642178
            ],
            [
              126.97567097873717,
              37.29566171569342
            ],
            [
              126.97567527784088,
              37.29568282041456
            ],
            [
              126.9757543172513,
              37.29567263114587
            ],
            [
              126.9757500181483,
              37.29565152642178
            ]
          ]
        ]
      }
    },
    {
      "type": "Feature",
      "properties": {
        "indoor": "room",
        "level": [
          6
        ],
        "ref": "21",
        "name": "",
        "room_type": "storage",
        "_idx": 28,
        "_centroid": [
          126.9758329,
          37.295663
        ],
        "_area_m2": 32.4
      },
      "geometry": {
        "type": "Polygon",
        "coordinates": [
          [
            [
              126.9757989697836,
              37.29568907009889
            ],
            [
              126.97587537849579,
              37.295679224349556
            ],
            [
              126.97586676246955,
              37.29563692739358
            ],
            [
              126.97579035749564,
              37.29564677266675
            ],
            [
              126.9757989697836,
              37.29568907009889
            ]
          ]
        ]
      }
    },
    {
      "type": "Feature",
      "properties": {
        "indoor": "room",
        "level": [
          6
        ],
        "ref": "",
        "name": "",
        "room_type": "",
        "_idx": 29,
        "_centroid": [
          126.9757083,
          37.2956458
        ],
        "_area_m2": 17.1
      },
      "geometry": {
        "type": "Polygon",
        "coordinates": [
          [
            [
              126.97574562653561,
              37.29562996755843
            ],
            [
              126.97566658712377,
              37.295640156833045
            ],
            [
              126.97567097873717,
              37.29566171569342
            ],
            [
              126.9757500181483,
              37.29565152642178
            ],
            [
              126.97574562653561,
              37.29562996755843
            ]
          ]
        ]
      }
    },
    {
      "type": "Feature",
      "properties": {
        "indoor": "room",
        "level": [
          6
        ],
        "ref": "",
        "name": "",
        "room_type": "",
        "_idx": 30,
        "_centroid": [
          126.975704,
          37.2956247
        ],
        "_area_m2": 16.4
      },
      "geometry": {
        "type": "Polygon",
        "coordinates": [
          [
            [
              126.97574141838402,
              37.295609309323844
            ],
            [
              126.97566237897149,
              37.29561949860136
            ],
            [
              126.97566658712377,
              37.295640156833045
            ],
            [
              126.97574562653561,
              37.29562996755843
            ],
            [
              126.97574141838402,
              37.295609309323844
            ]
          ]
        ]
      }
    },
    {
      "type": "Feature",
      "properties": {
        "indoor": "room",
        "level": [
          6
        ],
        "ref": "21",
        "name": "",
        "room_type": "storage",
        "_idx": 31,
        "_centroid": [
          126.975824,
          37.2956192
        ],
        "_area_m2": 34.7
      },
      "geometry": {
        "type": "Polygon",
        "coordinates": [
          [
            [
              126.97579035749564,
              37.29564677266675
            ],
            [
              126.97586676246955,
              37.29563692739358
            ],
            [
              126.97585754412798,
              37.29559167360995
            ],
            [
              126.97578114315365,
              37.29560151837357
            ],
            [
              126.97579035749564,
              37.29564677266675
            ]
          ]
        ]
      }
    },
    {
      "type": "Feature",
      "properties": {
        "indoor": "room",
        "level": [
          6
        ],
        "ref": "",
        "name": "",
        "room_type": "",
        "_idx": 32,
        "_centroid": [
          126.9756997,
          37.2956037
        ],
        "_area_m2": 17
      },
      "geometry": {
        "type": "Polygon",
        "coordinates": [
          [
            [
              126.97573704195779,
              37.29558782501231
            ],
            [
              126.97565800254455,
              37.29559801429281
            ],
            [
              126.97566237897149,
              37.29561949860136
            ],
            [
              126.97574141838402,
              37.295609309323844
            ],
            [
              126.97573704195779,
              37.29558782501231
            ]
          ]
        ]
      }
    },
    {
      "type": "Feature",
      "properties": {
        "indoor": "room",
        "level": [
          6
        ],
        "ref": "",
        "name": "",
        "room_type": "",
        "_idx": 33,
        "_centroid": [
          126.9756952,
          37.2955816
        ],
        "_area_m2": 18
      },
      "geometry": {
        "type": "Polygon",
        "coordinates": [
          [
            [
              126.97573241688733,
              37.29556512008156
            ],
            [
              126.97565337747336,
              37.29557530936538
            ],
            [
              126.97565800254455,
              37.29559801429281
            ],
            [
              126.97573704195779,
              37.29558782501231
            ],
            [
              126.97573241688733,
              37.29556512008156
            ]
          ]
        ]
      }
    },
    {
      "type": "Feature",
      "properties": {
        "indoor": "room",
        "level": [
          6
        ],
        "ref": "21",
        "name": "",
        "room_type": "storage",
        "_idx": 34,
        "_centroid": [
          126.9758155,
          37.2955776
        ],
        "_area_m2": 29.1
      },
      "geometry": {
        "type": "Polygon",
        "coordinates": [
          [
            [
              126.97578114315365,
              37.29560151837357
            ],
            [
              126.97585754412798,
              37.29559167360995
            ],
            [
              126.97584980131218,
              37.29555366333356
            ],
            [
              126.97577340369727,
              37.295563507669314
            ],
            [
              126.97578114315365,
              37.29560151837357
            ]
          ]
        ]
      }
    },
    {
      "type": "Feature",
      "properties": {
        "indoor": "room",
        "level": [
          6
        ],
        "ref": "",
        "name": "",
        "room_type": "",
        "_idx": 35,
        "_centroid": [
          126.9756833,
          37.2955561
        ],
        "_area_m2": 19.7
      },
      "geometry": {
        "type": "Polygon",
        "coordinates": [
          [
            [
              126.97564830274578,
              37.29555039697515
            ],
            [
              126.97565337747336,
              37.29557530936538
            ],
            [
              126.97573241688733,
              37.29556512008156
            ],
            [
              126.97572734214955,
              37.29554020768931
            ],
            [
              126.97565495091429,
              37.29554953993315
            ],
            [
              126.97564830274578,
              37.29555039697515
            ]
          ]
        ]
      }
    },
    {
      "type": "Feature",
      "properties": {
        "indoor": "room",
        "level": [
          6
        ],
        "ref": "21",
        "name": "",
        "room_type": "storage",
        "_idx": 36,
        "_centroid": [
          126.9758091,
          37.2955465
        ],
        "_area_m2": 18.6
      },
      "geometry": {
        "type": "Polygon",
        "coordinates": [
          [
            [
              126.97577340369727,
              37.295563507669314
            ],
            [
              126.97584980131218,
              37.29555366333356
            ],
            [
              126.97584486035593,
              37.295529407672895
            ],
            [
              126.97576846488481,
              37.29553925173568
            ],
            [
              126.97577340369727,
              37.295563507669314
            ]
          ]
        ]
      }
    },
    {
      "type": "Feature",
      "properties": {
        "indoor": "room",
        "level": [
          6
        ],
        "ref": "",
        "name": "",
        "room_type": "",
        "_idx": 37,
        "_centroid": [
          126.9755111,
          37.295543
        ],
        "_area_m2": 35
      },
      "geometry": {
        "type": "Polygon",
        "coordinates": [
          [
            [
              126.97554184577655,
              37.295513999962594
            ],
            [
              126.97547043985996,
              37.29552320518833
            ],
            [
              126.97548038836364,
              37.29557204348557
            ],
            [
              126.97555179428066,
              37.295562838264985
            ],
            [
              126.97554184577655,
              37.295513999962594
            ]
          ]
        ]
      }
    },
    {
      "type": "Feature",
      "properties": {
        "indoor": "room",
        "level": [
          6
        ],
        "ref": "",
        "name": "",
        "room_type": "",
        "_idx": 38,
        "_centroid": [
          126.975637,
          37.2955368
        ],
        "_area_m2": 8
      },
      "geometry": {
        "type": "Polygon",
        "coordinates": [
          [
            [
              126.97565131771039,
              37.295531704135044
            ],
            [
              126.97563414418829,
              37.29553391804294
            ],
            [
              126.97563094448488,
              37.295518210343445
            ],
            [
              126.97561622355754,
              37.295520056676885
            ],
            [
              126.9756230666671,
              37.29555365025836
            ],
            [
              126.97564830274578,
              37.29555039697515
            ],
            [
              126.97565495091429,
              37.29554953993315
            ],
            [
              126.97565131771039,
              37.295531704135044
            ]
          ]
        ]
      }
    },
    {
      "type": "Feature",
      "properties": {
        "indoor": "room",
        "level": [
          6
        ],
        "ref": "",
        "name": "",
        "room_type": "",
        "_idx": 39,
        "_centroid": [
          126.9756888,
          37.2955342
        ],
        "_area_m2": 12.9
      },
      "geometry": {
        "type": "Polygon",
        "coordinates": [
          [
            [
              126.97572734214955,
              37.29554020768931
            ],
            [
              126.97572370894574,
              37.29552237188892
            ],
            [
              126.9756864596097,
              37.29552717385106
            ],
            [
              126.97565131771039,
              37.295531704135044
            ],
            [
              126.97565495091429,
              37.29554953993315
            ],
            [
              126.97572734214955,
              37.29554020768931
            ]
          ]
        ]
      }
    },
    {
      "type": "Feature",
      "properties": {
        "indoor": "room",
        "level": [
          6
        ],
        "ref": "",
        "name": "",
        "room_type": "",
        "_idx": 40,
        "_centroid": [
          126.9755892,
          37.2955311
        ],
        "_area_m2": 34.9
      },
      "geometry": {
        "type": "Polygon",
        "coordinates": [
          [
            [
              126.97554184577655,
              37.295513999962594
            ],
            [
              126.97555179428066,
              37.295562838264985
            ],
            [
              126.9756230666671,
              37.29555365025836
            ],
            [
              126.97561622355754,
              37.295520056676885
            ],
            [
              126.97561311816338,
              37.29550481194877
            ],
            [
              126.97554184577655,
              37.295513999962594
            ]
          ]
        ]
      }
    },
    {
      "type": "Feature",
      "properties": {
        "indoor": "room",
        "level": [
          6
        ],
        "ref": "",
        "name": "",
        "room_type": "",
        "_idx": 41,
        "_centroid": [
          126.9756446,
          37.2955189
        ],
        "_area_m2": 18.5
      },
      "geometry": {
        "type": "Polygon",
        "coordinates": [
          [
            [
              126.97561622355754,
              37.295520056676885
            ],
            [
              126.97563094448488,
              37.295518210343445
            ],
            [
              126.97563414418829,
              37.29553391804294
            ],
            [
              126.97565131771039,
              37.295531704135044
            ],
            [
              126.9756864596097,
              37.29552717385106
            ],
            [
              126.97568014430992,
              37.29549617133535
            ],
            [
              126.97561311816338,
              37.29550481194877
            ],
            [
              126.97561622355754,
              37.295520056676885
            ]
          ]
        ]
      }
    },
    {
      "type": "Feature",
      "properties": {
        "indoor": "room",
        "level": [
          6
        ],
        "ref": "",
        "name": "",
        "room_type": "",
        "_idx": 42,
        "_centroid": [
          126.9757019,
          37.2955093
        ],
        "_area_m2": 11.6
      },
      "geometry": {
        "type": "Polygon",
        "coordinates": [
          [
            [
              126.97568014430992,
              37.29549617133535
            ],
            [
              126.9756864596097,
              37.29552717385106
            ],
            [
              126.97572370894574,
              37.29552237188892
            ],
            [
              126.97571739364591,
              37.29549136937138
            ],
            [
              126.97568014430992,
              37.29549617133535
            ]
          ]
        ]
      }
    },
    {
      "type": "Feature",
      "properties": {
        "indoor": "room",
        "level": [
          6
        ],
        "ref": "",
        "name": "",
        "room_type": "",
        "_idx": 43,
        "_centroid": [
          126.9758012,
          37.2955076
        ],
        "_area_m2": 40.9
      },
      "geometry": {
        "type": "Polygon",
        "coordinates": [
          [
            [
              126.97576846488481,
              37.29553925173568
            ],
            [
              126.97584486035593,
              37.295529407672895
            ],
            [
              126.97583399007559,
              37.295476044352476
            ],
            [
              126.9757575993208,
              37.29548588781454
            ],
            [
              126.97576846488481,
              37.29553925173568
            ]
          ]
        ]
      }
    },
    {
      "type": "Feature",
      "properties": {
        "indoor": "room",
        "level": [
          6
        ],
        "ref": "",
        "name": "",
        "room_type": "",
        "_idx": 44,
        "_centroid": [
          126.9754815,
          37.2954806
        ],
        "_area_m2": 15.9
      },
      "geometry": {
        "type": "Polygon",
        "coordinates": [
          [
            [
              126.97549663301503,
              37.2954575471548
            ],
            [
              126.97545807760817,
              37.29546251749223
            ],
            [
              126.97546645380513,
              37.295503637198394
            ],
            [
              126.97550500879117,
              37.295498664795026
            ],
            [
              126.97549663301503,
              37.2954575471548
            ]
          ]
        ]
      }
    },
    {
      "type": "Feature",
      "properties": {
        "indoor": "room",
        "level": [
          6
        ],
        "ref": "",
        "name": "",
        "room_type": "",
        "_idx": 45,
        "_centroid": [
          126.9755193,
          37.2954757
        ],
        "_area_m2": 15.2
      },
      "geometry": {
        "type": "Polygon",
        "coordinates": [
          [
            [
              126.97549663301503,
              37.2954575471548
            ],
            [
              126.97550500879117,
              37.295498664795026
            ],
            [
              126.97554187524189,
              37.29549391016061
            ],
            [
              126.97553349986939,
              37.29545279449451
            ],
            [
              126.97549663301503,
              37.2954575471548
            ]
          ]
        ]
      }
    },
    {
      "type": "Feature",
      "properties": {
        "indoor": "room",
        "level": [
          6
        ],
        "ref": "",
        "name": "",
        "room_type": "",
        "_idx": 46,
        "_centroid": [
          126.9755544,
          37.2954712
        ],
        "_area_m2": 13.7
      },
      "geometry": {
        "type": "Polygon",
        "coordinates": [
          [
            [
              126.97553349986939,
              37.29545279449451
            ],
            [
              126.97554187524189,
              37.29549391016061
            ],
            [
              126.9755752189431,
              37.295489609852154
            ],
            [
              126.9755668439347,
              37.29544849597168
            ],
            [
              126.97553349986939,
              37.29545279449451
            ]
          ]
        ]
      }
    },
    {
      "type": "Feature",
      "properties": {
        "indoor": "room",
        "level": [
          6
        ],
        "ref": "",
        "name": "",
        "room_type": "",
        "_idx": 47,
        "_centroid": [
          126.9755884,
          37.2954668
        ],
        "_area_m2": 14.4
      },
      "geometry": {
        "type": "Polygon",
        "coordinates": [
          [
            [
              126.9755668439347,
              37.29544849597168
            ],
            [
              126.9755752189431,
              37.295489609852154
            ],
            [
              126.9756100504906,
              37.295485117657456
            ],
            [
              126.97560167586245,
              37.29544400564228
            ],
            [
              126.9755668439347,
              37.29544849597168
            ]
          ]
        ]
      }
    },
    {
      "type": "Feature",
      "properties": {
        "indoor": "room",
        "level": [
          6
        ],
        "ref": "",
        "name": "",
        "room_type": "",
        "_idx": 48,
        "_centroid": [
          126.9756245,
          37.2954622
        ],
        "_area_m2": 15.3
      },
      "geometry": {
        "type": "Polygon",
        "coordinates": [
          [
            [
              126.97560167586245,
              37.29544400564228
            ],
            [
              126.9756100504906,
              37.295485117657456
            ],
            [
              126.97564729683634,
              37.295480314028296
            ],
            [
              126.97563892261525,
              37.29543920400769
            ],
            [
              126.97560167586245,
              37.29544400564228
            ]
          ]
        ]
      }
    },
    {
      "type": "Feature",
      "properties": {
        "indoor": "room",
        "level": [
          6
        ],
        "ref": "",
        "name": "",
        "room_type": "",
        "_idx": 49,
        "_centroid": [
          126.9756753,
          37.2954556
        ],
        "_area_m2": 26.5
      },
      "geometry": {
        "type": "Polygon",
        "coordinates": [
          [
            [
              126.97563892261525,
              37.29543920400769
            ],
            [
              126.97564729683634,
              37.295480314028296
            ],
            [
              126.97571164988452,
              37.29547201447106
            ],
            [
              126.97570327636629,
              37.295430907896666
            ],
            [
              126.97563892261525,
              37.29543920400769
            ]
          ]
        ]
      }
    },
    {
      "type": "Feature",
      "properties": {
        "indoor": "room",
        "level": [
          6
        ],
        "ref": "",
        "name": "",
        "room_type": "",
        "_idx": 50,
        "_centroid": [
          126.9757824,
          37.2954539
        ],
        "_area_m2": 46.2
      },
      "geometry": {
        "type": "Polygon",
        "coordinates": [
          [
            [
              126.9757575993208,
              37.29548588781454
            ],
            [
              126.97583399007559,
              37.295476044352476
            ],
            [
              126.97582168703478,
              37.29541564746409
            ],
            [
              126.97574530164204,
              37.295425490242714
            ],
            [
              126.9757536710688,
              37.29546659503509
            ],
            [
              126.9757575993208,
              37.29548588781454
            ]
          ]
        ]
      }
    },
    {
      "type": "Feature",
      "properties": {
        "indoor": "room",
        "level": [
          6
        ],
        "ref": "",
        "name": "",
        "room_type": "",
        "_idx": 51,
        "_centroid": [
          126.9757285,
          37.2954488
        ],
        "_area_m2": 17.3
      },
      "geometry": {
        "type": "Polygon",
        "coordinates": [
          [
            [
              126.97570327636629,
              37.295430907896666
            ],
            [
              126.97571164988452,
              37.29547201447106
            ],
            [
              126.9757536710688,
              37.29546659503509
            ],
            [
              126.97574530164204,
              37.295425490242714
            ],
            [
              126.97570327636629,
              37.295430907896666
            ]
          ]
        ]
      }
    }
  ]
}