{
  "type": "FeatureCollection",
  "features": [
    {
      "type": "Feature",
      "properties": {
        "indoor": "room",
        "level": [
          2
        ],
        "ref": "85201",
        "name": "창업보육실",
        "room_type": "lab",
        "_idx": 1,
        "_centroid": [
          126.9752421,
          37.2960564
        ],
        "_area_m2": 51.8
      },
      "geometry": {
        "type": "Polygon",
        "coordinates": [
          [
            [
              126.97529063336773,
              37.29608148951612
            ],
            [
              126.97527815667249,
              37.29602043744518
            ],
            [
              126.97519362037644,
              37.29603137044923
            ],
            [
              126.97520610223518,
              37.29609244778528
            ],
            [
              126.97529063336773,
              37.29608148951612
            ]
          ]
        ]
      }
    },
    {
      "type": "Feature",
      "properties": {
        "indoor": "room",
        "level": [
          2
        ],
        "ref": "85205",
        "name": "창업보육실",
        "room_type": "lab",
        "_idx": 2,
        "_centroid": [
          126.975317,
          37.2960467
        ],
        "_area_m2": 40
      },
      "geometry": {
        "type": "Polygon",
        "coordinates": [
          [
            [
              126.97534343071439,
              37.296011995609796
            ],
            [
              126.97527815667249,
              37.29602043744518
            ],
            [
              126.97529063336773,
              37.29608148951612
            ],
            [
              126.97535590342603,
              37.296073028173595
            ],
            [
              126.97534343071439,
              37.296011995609796
            ]
          ]
        ]
      }
    },
    {
      "type": "Feature",
      "properties": {
        "indoor": "room",
        "level": [
          2
        ],
        "ref": "85207",
        "name": "창업보육실",
        "room_type": "lab",
        "_idx": 3,
        "_centroid": [
          126.9753817,
          37.2960384
        ],
        "_area_m2": 39.2
      },
      "geometry": {
        "type": "Polygon",
        "coordinates": [
          [
            [
              126.97540753298219,
              37.296003705318945
            ],
            [
              126.97534343071439,
              37.296011995609796
            ],
            [
              126.97535590342603,
              37.296073028173595
            ],
            [
              126.97542000177823,
              37.29606471872624
            ],
            [
              126.97540753298219,
              37.296003705318945
            ]
          ]
        ]
      }
    },
    {
      "type": "Feature",
      "properties": {
        "indoor": "room",
        "level": [
          2
        ],
        "ref": "85211",
        "name": "창업보육실",
        "room_type": "lab",
        "_idx": 4,
        "_centroid": [
          126.975446,
          37.29603
        ],
        "_area_m2": 39.5
      },
      "geometry": {
        "type": "Polygon",
        "coordinates": [
          [
            [
              126.97547196970946,
              37.295995371768065
            ],
            [
              126.97540753298219,
              37.296003705318945
            ],
            [
              126.97542000177823,
              37.29606471872624
            ],
            [
              126.97548464896846,
              37.29605633812978
            ],
            [
              126.97547196970946,
              37.295995371768065
            ]
          ]
        ]
      }
    },
    {
      "type": "Feature",
      "properties": {
        "indoor": "room",
        "level": [
          2
        ],
        "ref": "",
        "name": "",
        "room_type": "stairs",
        "_idx": 5,
        "_centroid": [
          126.975654,
          37.2960156
        ],
        "_area_m2": 20.6
      },
      "geometry": {
        "type": "Polygon",
        "coordinates": [
          [
            [
              126.97565535454095,
              37.29600277163166
            ],
            [
              126.97561708182202,
              37.29600772140812
            ],
            [
              126.97562336280595,
              37.296038456095324
            ],
            [
              126.97569015260001,
              37.296029846014164
            ],
            [
              126.97568386608543,
              37.29599908425895
            ],
            [
              126.97565535454095,
              37.29600277163166
            ]
          ]
        ]
      }
    },
    {
      "type": "Feature",
      "properties": {
        "indoor": "room",
        "level": [
          2
        ],
        "ref": "85215",
        "name": "창업보육실",
        "room_type": "lab",
        "_idx": 6,
        "_centroid": [
          126.9755225,
          37.2960139
        ],
        "_area_m2": 46.3
      },
      "geometry": {
        "type": "Polygon",
        "coordinates": [
          [
            [
              126.97554759298195,
              37.295985591470156
            ],
            [
              126.97547196970947,
              37.295995371768065
            ],
            [
              126.97548464896846,
              37.29605633812978
            ],
            [
              126.97556043213235,
              37.2960465686852
            ],
            [
              126.97554774648941,
              37.295985571617166
            ],
            [
              126.97554759298195,
              37.295985591470156
            ]
          ]
        ]
      }
    },
    {
      "type": "Feature",
      "properties": {
        "indoor": "room",
        "level": [
          2
        ],
        "ref": "",
        "name": "",
        "room_type": "restroom",
        "_idx": 7,
        "_centroid": [
          126.9756089,
          37.2960089
        ],
        "_area_m2": 50.2
      },
      "geometry": {
        "type": "Polygon",
        "coordinates": [
          [
            [
              126.97562336280595,
              37.296038456095324
            ],
            [
              126.97561708182202,
              37.29600772140812
            ],
            [
              126.97565535454095,
              37.29600277163166
            ],
            [
              126.97564915919924,
              37.29597245599799
            ],
            [
              126.97554774648941,
              37.295985571617166
            ],
            [
              126.97556043213235,
              37.2960465686852
            ],
            [
              126.97562336280595,
              37.296038456095324
            ]
          ]
        ]
      }
    },
    {
      "type": "Feature",
      "properties": {
        "indoor": "room",
        "level": [
          2
        ],
        "ref": "",
        "name": "",
        "room_type": "",
        "_idx": 8,
        "_centroid": [
          126.9756665,
          37.2959858
        ],
        "_area_m2": 8.7
      },
      "geometry": {
        "type": "Polygon",
        "coordinates": [
          [
            [
              126.97565535454095,
              37.29600277163166
            ],
            [
              126.97568386608543,
              37.29599908425894
            ],
            [
              126.97567767074065,
              37.29596876862427
            ],
            [
              126.97564915919924,
              37.29597245599799
            ],
            [
              126.97565535454095,
              37.29600277163166
            ]
          ]
        ]
      }
    },
    {
      "type": "Feature",
      "properties": {
        "indoor": "room",
        "level": [
          2
        ],
        "ref": "85202",
        "name": "창업보육실",
        "room_type": "lab",
        "_idx": 9,
        "_centroid": [
          126.9752188,
          37.2959738
        ],
        "_area_m2": 47.9
      },
      "geometry": {
        "type": "Polygon",
        "coordinates": [
          [
            [
              126.97524808277905,
              37.29593599473475
            ],
            [
              126.97517586356894,
              37.29594558322931
            ],
            [
              126.97518928244399,
              37.29601144496502
            ],
            [
              126.97526194652059,
              37.296002076382386
            ],
            [
              126.97524808277905,
              37.29593599473475
            ]
          ]
        ]
      }
    },
    {
      "type": "Feature",
      "properties": {
        "indoor": "room",
        "level": [
          2
        ],
        "ref": "85206",
        "name": "창업보육실",
        "room_type": "lab",
        "_idx": 10,
        "_centroid": [
          126.9752934,
          37.295964
        ],
        "_area_m2": 51
      },
      "geometry": {
        "type": "Polygon",
        "coordinates": [
          [
            [
              126.97526194652059,
              37.29600207638238
            ],
            [
              126.9753385538367,
              37.2959921994005
            ],
            [
              126.97532502208603,
              37.29592577955279
            ],
            [
              126.97524808277905,
              37.29593599473475
            ],
            [
              126.97526194652059,
              37.29600207638238
            ]
          ]
        ]
      }
    },
    {
      "type": "Feature",
      "properties": {
        "indoor": "room",
        "level": [
          2
        ],
        "ref": "85208",
        "name": "창업보육실",
        "room_type": "lab",
        "_idx": 11,
        "_centroid": [
          126.975365,
          37.2959546
        ],
        "_area_m2": 44.3
      },
      "geometry": {
        "type": "Polygon",
        "coordinates": [
          [
            [
              126.97532502208603,
              37.29592577955279
            ],
            [
              126.9753385538367,
              37.2959921994005
            ],
            [
              126.97540497526707,
              37.295983635681964
            ],
            [
              126.97539139293188,
              37.29591696753857
            ],
            [
              126.97532502208603,
              37.29592577955279
            ]
          ]
        ]
      }
    },
    {
      "type": "Feature",
      "properties": {
        "indoor": "room",
        "level": [
          2
        ],
        "ref": "85212",
        "name": "창업보육실",
        "room_type": "lab",
        "_idx": 12,
        "_centroid": [
          126.9754302,
          37.2959461
        ],
        "_area_m2": 42.9
      },
      "geometry": {
        "type": "Polygon",
        "coordinates": [
          [
            [
              126.97539139293188,
              37.29591696753857
            ],
            [
              126.97540497526707,
              37.295983635681964
            ],
            [
              126.9754691226818,
              37.29597536515238
            ],
            [
              126.97545549149469,
              37.29590845721389
            ],
            [
              126.97539139293188,
              37.29591696753857
            ]
          ]
        ]
      }
    },
    {
      "type": "Feature",
      "properties": {
        "indoor": "room",
        "level": [
          2
        ],
        "ref": "85216",
        "name": "창업보육실",
        "room_type": "lab",
        "_idx": 13,
        "_centroid": [
          126.9754986,
          37.2959372
        ],
        "_area_m2": 48.8
      },
      "geometry": {
        "type": "Polygon",
        "coordinates": [
          [
            [
              126.97545549149469,
              37.29590845721389
            ],
            [
              126.9754691226818,
              37.29597536515238
            ],
            [
              126.97554175744145,
              37.29596600034897
            ],
            [
              126.9755280709386,
              37.29589882088813
            ],
            [
              126.97545549149469,
              37.29590845721389
            ]
          ]
        ]
      }
    },
    {
      "type": "Feature",
      "properties": {
        "indoor": "room",
        "level": [
          2
        ],
        "ref": "85220",
        "name": "회의실",
        "room_type": "lounge",
        "_idx": 14,
        "_centroid": [
          126.9755655,
          37.2959215
        ],
        "_area_m2": 44.7
      },
      "geometry": {
        "type": "Polygon",
        "coordinates": [
          [
            [
              126.9755280709386,
              37.29589882088813
            ],
            [
              126.97554175744145,
              37.29596600034897
            ],
            [
              126.97560805785334,
              37.295957452233345
            ],
            [
              126.97559432085836,
              37.29589002492732
            ],
            [
              126.97555530494499,
              37.29589520504673
            ],
            [
              126.9755280709386,
              37.29589882088813
            ]
          ]
        ]
      }
    },
    {
      "type": "Feature",
      "properties": {
        "indoor": "room",
        "level": [
          2
        ],
        "ref": "85222",
        "name": "보안실",
        "room_type": "office",
        "_idx": 15,
        "_centroid": [
          126.9756321,
          37.2959179
        ],
        "_area_m2": 33.2
      },
      "geometry": {
        "type": "Polygon",
        "coordinates": [
          [
            [
              126.9756607871956,
              37.29591035831492
            ],
            [
              126.97563307285549,
              37.295914037930004
            ],
            [
              126.97562712135577,
              37.295885670025044
            ],
            [
              126.97559432085836,
              37.29589002492732
            ],
            [
              126.97560805785334,
              37.295957452233345
            ],
            [
              126.97566901842715,
              37.295949592583334
            ],
            [
              126.9756607871956,
              37.29591035831492
            ]
          ]
        ]
      }
    },
    {
      "type": "Feature",
      "properties": {
        "indoor": "room",
        "level": [
          2
        ],
        "ref": "224",
        "name": "",
        "room_type": "",
        "_idx": 16,
        "_centroid": [
          126.975644,
          37.295898
        ],
        "_area_m2": 7.9
      },
      "geometry": {
        "type": "Polygon",
        "coordinates": [
          [
            [
              126.97562712135577,
              37.295885670025044
            ],
            [
              126.97563307285549,
              37.295914037930004
            ],
            [
              126.9756607871956,
              37.29591035831492
            ],
            [
              126.97565483569419,
              37.295881990408866
            ],
            [
              126.97562712135577,
              37.295885670025044
            ]
          ]
        ]
      }
    },
    {
      "type": "Feature",
      "properties": {
        "indoor": "room",
        "level": [
          2
        ],
        "ref": "",
        "name": "",
        "room_type": "elevator",
        "_idx": 17,
        "_centroid": [
          126.9757432,
          37.2958676
        ],
        "_area_m2": 11.5
      },
      "geometry": {
        "type": "Polygon",
        "coordinates": [
          [
            [
              126.97577069663437,
              37.29585404700769
            ],
            [
              126.97571170636351,
              37.29586165163633
            ],
            [
              126.9757156642416,
              37.295881081217054
            ],
            [
              126.97577465450405,
              37.295873476579786
            ],
            [
              126.97577069663437,
              37.29585404700769
            ]
          ]
        ]
      }
    },
    {
      "type": "Feature",
      "properties": {
        "indoor": "room",
        "level": [
          2
        ],
        "ref": "",
        "name": "",
        "room_type": "stairs",
        "_idx": 18,
        "_centroid": [
          126.9757015,
          37.2958493
        ],
        "_area_m2": 15
      },
      "geometry": {
        "type": "Polygon",
        "coordinates": [
          [
            [
              126.9757156642416,
              37.295881081217054
            ],
            [
              126.97571170636351,
              37.29586165163633
            ],
            [
              126.97570669561837,
              37.29583705343626
            ],
            [
              126.97570210111222,
              37.295814498590964
            ],
            [
              126.97567967165753,
              37.29581739005133
            ],
            [
              126.97569323478692,
              37.29588397267486
            ],
            [
              126.9757156642416,
              37.295881081217054
            ]
          ]
        ]
      }
    },
    {
      "type": "Feature",
      "properties": {
        "indoor": "room",
        "level": [
          2
        ],
        "ref": "",
        "name": "",
        "room_type": "stairs",
        "_idx": 19,
        "_centroid": [
          126.9757387,
          37.2958456
        ],
        "_area_m2": 14.5
      },
      "geometry": {
        "type": "Polygon",
        "coordinates": [
          [
            [
              126.97577069663437,
              37.29585404700769
            ],
            [
              126.97576568589443,
              37.29582944878631
            ],
            [
              126.97570669561837,
              37.29583705343626
            ],
            [
              126.97571170636351,
              37.29586165163633
            ],
            [
              126.97577069663437,
              37.29585404700769
            ]
          ]
        ]
      }
    },
    {
      "type": "Feature",
      "properties": {
        "indoor": "room",
        "level": [
          2
        ],
        "ref": "",
        "name": "",
        "room_type": "restroom",
        "_idx": 20,
        "_centroid": [
          126.9757257,
          37.2958117
        ],
        "_area_m2": 26.3
      },
      "geometry": {
        "type": "Polygon",
        "coordinates": [
          [
            [
              126.97576568589443,
              37.29582944878631
            ],
            [
              126.97575661978502,
              37.295784942352405
            ],
            [
              126.9756976295019,
              37.29579254700767
            ],
            [
              126.97570210111222,
              37.295814498590964
            ],
            [
              126.97570669561837,
              37.29583705343626
            ],
            [
              126.97576568589443,
              37.29582944878631
            ]
          ]
        ]
      }
    },
    {
      "type": "Feature",
      "properties": {
        "indoor": "room",
        "level": [
          2
        ],
        "ref": "85245",
        "name": "RISE사업단",
        "room_type": "lab",
        "_idx": 21,
        "_centroid": [
          126.9758418,
          37.2957836
        ],
        "_area_m2": 174.4
      },
      "geometry": {
        "type": "Polygon",
        "coordinates": [
          [
            [
              126.97591199756627,
              37.295858991252146
            ],
            [
              126.97587866429978,
              37.29569535508523
            ],
            [
              126.97577177895093,
              37.29570913407443
            ],
            [
              126.97580476798593,
              37.29587108053435
            ],
            [
              126.97591199756627,
              37.295858991252146
            ]
          ]
        ]
      }
    },
    {
      "type": "Feature",
      "properties": {
        "indoor": "room",
        "level": [
          2
        ],
        "ref": "",
        "name": "",
        "room_type": "",
        "_idx": 22,
        "_centroid": [
          126.9757253,
          37.2957799
        ],
        "_area_m2": 10.4
      },
      "geometry": {
        "type": "Polygon",
        "coordinates": [
          [
            [
              126.97575303261208,
              37.295767332563926
            ],
            [
              126.9756940423299,
              37.29577493722085
            ],
            [
              126.9756976295019,
              37.29579254700767
            ],
            [
              126.97575661978503,
              37.295784942352405
            ],
            [
              126.97575303261208,
              37.295767332563926
            ]
          ]
        ]
      }
    },
    {
      "type": "Feature",
      "properties": {
        "indoor": "room",
        "level": [
          2
        ],
        "ref": "85256",
        "name": "재무팀",
        "room_type": "",
        "_idx": 23,
        "_centroid": [
          126.9757097,
          37.2957031
        ],
        "_area_m2": 80.4
      },
      "geometry": {
        "type": "Polygon",
        "coordinates": [
          [
            [
              126.9757253204107,
              37.295631290614246
            ],
            [
              126.97566633013618,
              37.29563889528408
            ],
            [
              126.9756940423299,
              37.29577493722085
            ],
            [
              126.97575303261208,
              37.295767332563926
            ],
            [
              126.9757253204107,
              37.295631290614246
            ]
          ]
        ]
      }
    },
    {
      "type": "Feature",
      "properties": {
        "indoor": "room",
        "level": [
          2
        ],
        "ref": "85261",
        "name": "산학사업팀",
        "room_type": "office",
        "_idx": 24,
        "_centroid": [
          126.9758107,
          37.2956309
        ],
        "_area_m2": 152.9
      },
      "geometry": {
        "type": "Polygon",
        "coordinates": [
          [
            [
              126.97577177895093,
              37.29570913407443
            ],
            [
              126.97587866429978,
              37.29569535508523
            ],
            [
              126.9758495925979,
              37.295552639024415
            ],
            [
              126.97574270721866,
              37.295566418043954
            ],
            [
              126.97577177895093,
              37.29570913407443
            ]
          ]
        ]
      }
    },
    {
      "type": "Feature",
      "properties": {
        "indoor": "room",
        "level": [
          2
        ],
        "ref": "85268",
        "name": "성균관대학교기술지주주식회사",
        "room_type": "lab",
        "_idx": 25,
        "_centroid": [
          126.9756892,
          37.2956028
        ],
        "_area_m2": 38.2
      },
      "geometry": {
        "type": "Polygon",
        "coordinates": [
          [
            [
              126.97571216139619,
              37.29556669171485
            ],
            [
              126.97565317113454,
              37.29557429639504
            ],
            [
              126.97566633013618,
              37.29563889528408
            ],
            [
              126.9757253204107,
              37.295631290614246
            ],
            [
              126.97571216139619,
              37.29556669171485
            ]
          ]
        ]
      }
    },
    {
      "type": "Feature",
      "properties": {
        "indoor": "room",
        "level": [
          2
        ],
        "ref": "",
        "name": "",
        "room_type": "",
        "_idx": 26,
        "_centroid": [
          126.9756802,
          37.2955585
        ],
        "_area_m2": 14.1
      },
      "geometry": {
        "type": "Polygon",
        "coordinates": [
          [
            [
              126.97565317113454,
              37.29557429639504
            ],
            [
              126.97571216139619,
              37.29556669171485
            ],
            [
              126.97570729300823,
              37.29554279230445
            ],
            [
              126.97564830274578,
              37.29555039697515
            ],
            [
              126.97565317113454,
              37.29557429639504
            ]
          ]
        ]
      }
    },
    {
      "type": "Feature",
      "properties": {
        "indoor": "room",
        "level": [
          2
        ],
        "ref": "",
        "name": "",
        "room_type": "reserved",
        "_idx": 27,
        "_centroid": [
          126.9757931,
          37.2955447
        ],
        "_area_m2": 31.8
      },
      "geometry": {
        "type": "Polygon",
        "coordinates": [
          [
            [
              126.97574270721866,
              37.295566418043954
            ],
            [
              126.9758495925979,
              37.295552639024415
            ],
            [
              126.97584355639518,
              37.29552300666652
            ],
            [
              126.97573667100959,
              37.295536785692136
            ],
            [
              126.97574270721866,
              37.295566418043954
            ]
          ]
        ]
      }
    },
    {
      "type": "Feature",
      "properties": {
        "indoor": "room",
        "level": [
          2
        ],
        "ref": "85296",
        "name": "복합소재물성및응용연구실",
        "room_type": "lab",
        "_idx": 28,
        "_centroid": [
          126.9755056,
          37.2955435
        ],
        "_area_m2": 29.8
      },
      "geometry": {
        "type": "Polygon",
        "coordinates": [
          [
            [
              126.97552978065737,
              37.29551452207321
            ],
            [
              126.97547049569143,
              37.29552347927129
            ],
            [
              126.97548038836364,
              37.29557204348557
            ],
            [
              126.97554162852083,
              37.295564148773494
            ],
            [
              126.97552978065737,
              37.29551452207321
            ]
          ]
        ]
      }
    },
    {
      "type": "Feature",
      "properties": {
        "indoor": "room",
        "level": [
          2
        ],
        "ref": "",
        "name": "",
        "room_type": "stairs",
        "_idx": 29,
        "_centroid": [
          126.9756737,
          37.2955385
        ],
        "_area_m2": 12.8
      },
      "geometry": {
        "type": "Polygon",
        "coordinates": [
          [
            [
              126.97567105958494,
              37.295527466538886
            ],
            [
              126.97563769551267,
              37.295531767635644
            ],
            [
              126.97564166467973,
              37.29555125271463
            ],
            [
              126.97564830274578,
              37.29555039697515
            ],
            [
              126.9757067812261,
              37.295542858280356
            ],
            [
              126.97570729300823,
              37.29554279230445
            ],
            [
              126.97570332384196,
              37.2955233072235
            ],
            [
              126.97567105958494,
              37.295527466538886
            ]
          ]
        ]
      }
    },
    {
      "type": "Feature",
      "properties": {
        "indoor": "room",
        "level": [
          2
        ],
        "ref": "85292",
        "name": "그래핀공학연구실",
        "room_type": "lab",
        "_idx": 30,
        "_centroid": [
          126.9755685,
          37.2955351
        ],
        "_area_m2": 32.7
      },
      "geometry": {
        "type": "Polygon",
        "coordinates": [
          [
            [
              126.97552978065737,
              37.29551452207321
            ],
            [
              126.97554162852083,
              37.295564148773494
            ],
            [
              126.97560716053998,
              37.29555570078043
            ],
            [
              126.97559531267699,
              37.295506074073636
            ],
            [
              126.97552978065737,
              37.29551452207321
            ]
          ]
        ]
      }
    },
    {
      "type": "Feature",
      "properties": {
        "indoor": "room",
        "level": [
          2
        ],
        "ref": "",
        "name": "",
        "room_type": "",
        "_idx": 31,
        "_centroid": [
          126.9756194,
          37.2955304
        ],
        "_area_m2": 12.3
      },
      "geometry": {
        "type": "Polygon",
        "coordinates": [
          [
            [
              126.97564166467973,
              37.29555125271463
            ],
            [
              126.97563769551267,
              37.295531767635644
            ],
            [
              126.97562023885062,
              37.29553401804409
            ],
            [
              126.97561405442353,
              37.295503657998914
            ],
            [
              126.97559531267699,
              37.295506074073636
            ],
            [
              126.97560716053998,
              37.29555570078043
            ],
            [
              126.97564166467973,
              37.29555125271463
            ]
          ]
        ]
      }
    },
    {
      "type": "Feature",
      "properties": {
        "indoor": "room",
        "level": [
          2
        ],
        "ref": "",
        "name": "",
        "room_type": "restroom",
        "_idx": 32,
        "_centroid": [
          126.9756416,
          37.2955188
        ],
        "_area_m2": 15.5
      },
      "geometry": {
        "type": "Polygon",
        "coordinates": [
          [
            [
              126.97567105958494,
              37.295527466538886
            ],
            [
              126.97566487515796,
              37.295497106490934
            ],
            [
              126.97561405442353,
              37.295503657998914
            ],
            [
              126.97562023885062,
              37.29553401804409
            ],
            [
              126.97563769551267,
              37.295531767635644
            ],
            [
              126.97567105958494,
              37.295527466538886
            ]
          ]
        ]
      }
    },
    {
      "type": "Feature",
      "properties": {
        "indoor": "room",
        "level": [
          2
        ],
        "ref": "",
        "name": "",
        "room_type": "elevator",
        "_idx": 33,
        "_centroid": [
          126.9756841,
          37.2955102
        ],
        "_area_m2": 9.8
      },
      "geometry": {
        "type": "Polygon",
        "coordinates": [
          [
            [
              126.97567105958494,
              37.295527466538886
            ],
            [
              126.97570332384196,
              37.29552330722349
            ],
            [
              126.97569713941378,
              37.29549294717423
            ],
            [
              126.97566487515796,
              37.295497106490934
            ],
            [
              126.97567105958494,
              37.295527466538886
            ]
          ]
        ]
      }
    },
    {
      "type": "Feature",
      "properties": {
        "indoor": "room",
        "level": [
          2
        ],
        "ref": "85273",
        "name": "나노입자공학연구실",
        "room_type": "lab",
        "_idx": 34,
        "_centroid": [
          126.9757854,
          37.2955065
        ],
        "_area_m2": 50.1
      },
      "geometry": {
        "type": "Polygon",
        "coordinates": [
          [
            [
              126.9757271526891,
              37.29549005919014
            ],
            [
              126.97573667100959,
              37.295536785692136
            ],
            [
              126.97584355639518,
              37.29552300666652
            ],
            [
              126.97583403807837,
              37.29547628015508
            ],
            [
              126.9757271526891,
              37.29549005919014
            ]
          ]
        ]
      }
    },
    {
      "type": "Feature",
      "properties": {
        "indoor": "room",
        "level": [
          2
        ],
        "ref": "85297",
        "name": "복합소재물성및응용연구실",
        "room_type": "lab",
        "_idx": 35,
        "_centroid": [
          126.9754754,
          37.2954823
        ],
        "_area_m2": 11.1
      },
      "geometry": {
        "type": "Polygon",
        "coordinates": [
          [
            [
              126.97548396503356,
              37.295459180236975
            ],
            [
              126.97545807760817,
              37.29546251749223
            ],
            [
              126.97546682741512,
              37.29550547129192
            ],
            [
              126.97549271420723,
              37.295502130930174
            ],
            [
              126.97548396503356,
              37.295459180236975
            ]
          ]
        ]
      }
    },
    {
      "type": "Feature",
      "properties": {
        "indoor": "room",
        "level": [
          2
        ],
        "ref": "85295",
        "name": "복합소재물성및응용연구실",
        "room_type": "lab",
        "_idx": 36,
        "_centroid": [
          126.9755041,
          37.2954786
        ],
        "_area_m2": 13.5
      },
      "geometry": {
        "type": "Polygon",
        "coordinates": [
          [
            [
              126.97548396503356,
              37.295459180236975
            ],
            [
              126.97549271420723,
              37.295502130930174
            ],
            [
              126.97552415268352,
              37.2954980741941
            ],
            [
              126.97551540427912,
              37.29545512727269
            ],
            [
              126.97548396503356,
              37.295459180236975
            ]
          ]
        ]
      }
    },
    {
      "type": "Feature",
      "properties": {
        "indoor": "room",
        "level": [
          2
        ],
        "ref": "85293",
        "name": "이창구교수실",
        "room_type": "office",
        "_idx": 37,
        "_centroid": [
          126.9755359,
          37.2954745
        ],
        "_area_m2": 13.8
      },
      "geometry": {
        "type": "Polygon",
        "coordinates": [
          [
            [
              126.97551540427912,
              37.29545512727269
            ],
            [
              126.97552415268352,
              37.2954980741941
            ],
            [
              126.97555631239128,
              37.29549392439227
            ],
            [
              126.97554756477321,
              37.29545098132925
            ],
            [
              126.97551540427912,
              37.29545512727269
            ]
          ]
        ]
      }
    },
    {
      "type": "Feature",
      "properties": {
        "indoor": "room",
        "level": [
          2
        ],
        "ref": "85291",
        "name": "그래핀공학연구실",
        "room_type": "lab",
        "_idx": 38,
        "_centroid": [
          126.97557,
          37.2954701
        ],
        "_area_m2": 15.5
      },
      "geometry": {
        "type": "Polygon",
        "coordinates": [
          [
            [
              126.97554756477321,
              37.29545098132925
            ],
            [
              126.97555631239128,
              37.29549392439227
            ],
            [
              126.97559237339024,
              37.29548927117835
            ],
            [
              126.97558362665403,
              37.29544633244178
            ],
            [
              126.97554756477321,
              37.29545098132925
            ]
          ]
        ]
      }
    },
    {
      "type": "Feature",
      "properties": {
        "indoor": "room",
        "level": [
          2
        ],
        "ref": "85289",
        "name": "그래핀공학연구실",
        "room_type": "lab",
        "_idx": 39,
        "_centroid": [
          126.9756033,
          37.2954658
        ],
        "_area_m2": 13.2
      },
      "geometry": {
        "type": "Polygon",
        "coordinates": [
          [
            [
              126.97558362665403,
              37.29544633244178
            ],
            [
              126.97559237339024,
              37.29548927117835
            ],
            [
              126.97562300989922,
              37.29548531792597
            ],
            [
              126.97561426391215,
              37.29544238286504
            ],
            [
              126.97558362665403,
              37.29544633244178
            ]
          ]
        ]
      }
    },
    {
      "type": "Feature",
      "properties": {
        "indoor": "room",
        "level": [
          2
        ],
        "ref": "85287",
        "name": "김재훈교수실",
        "room_type": "office",
        "_idx": 40,
        "_centroid": [
          126.9756361,
          37.2954616
        ],
        "_area_m2": 15
      },
      "geometry": {
        "type": "Polygon",
        "coordinates": [
          [
            [
              126.97561426391215,
              37.29544238286504
            ],
            [
              126.97562300989922,
              37.29548531792597
            ],
            [
              126.97565784552167,
              37.29548082283133
            ],
            [
              126.9756491003865,
              37.295437891949824
            ],
            [
              126.97561426391215,
              37.29544238286504
            ]
          ]
        ]
      }
    },
    {
      "type": "Feature",
      "properties": {
        "indoor": "room",
        "level": [
          2
        ],
        "ref": "85285",
        "name": "김태성교수실",
        "room_type": "office",
        "_idx": 41,
        "_centroid": [
          126.9756706,
          37.2954572
        ],
        "_area_m2": 14.7
      },
      "geometry": {
        "type": "Polygon",
        "coordinates": [
          [
            [
              126.9756491003865,
              37.295437891949824
            ],
            [
              126.97565784552167,
              37.29548082283133
            ],
            [
              126.97569204722484,
              37.29547640953592
            ],
            [
              126.9756833029261,
              37.29543348275778
            ],
            [
              126.9756491003865,
              37.295437891949824
            ]
          ]
        ]
      }
    },
    {
      "type": "Feature",
      "properties": {
        "indoor": "room",
        "level": [
          2
        ],
        "ref": "85277",
        "name": "나노입자공학연구실",
        "room_type": "lab",
        "_idx": 42,
        "_centroid": [
          126.9757642,
          37.2954568
        ],
        "_area_m2": 65
      },
      "geometry": {
        "type": "Polygon",
        "coordinates": [
          [
            [
              126.9757271526891,
              37.29549005919014
            ],
            [
              126.97583403807837,
              37.29547628015508
            ],
            [
              126.9758216861649,
              37.295415643191866
            ],
            [
              126.97571480077929,
              37.295429422237135
            ],
            [
              126.97572354430842,
              37.29547234523732
            ],
            [
              126.9757271526891,
              37.29549005919014
            ]
          ]
        ]
      }
    },
    {
      "type": "Feature",
      "properties": {
        "indoor": "room",
        "level": [
          2
        ],
        "ref": "85283",
        "name": "나노입자공학연구실",
        "room_type": "lab",
        "_idx": 43,
        "_centroid": [
          126.9757034,
          37.2954529
        ],
        "_area_m2": 13.6
      },
      "geometry": {
        "type": "Polygon",
        "coordinates": [
          [
            [
              126.9756833029261,
              37.29543348275778
            ],
            [
              126.97569204722484,
              37.29547640953592
            ],
            [
              126.97572354430842,
              37.29547234523732
            ],
            [
              126.97571479263746,
              37.295429423287736
            ],
            [
              126.9756833029261,
              37.29543348275778
            ]
          ]
        ]
      }
    }
  ]
}