{
  "type": "FeatureCollection",
  "features": [
    {
      "type": "Feature",
      "properties": {
        "indoor": "room",
        "level": [
          1
        ],
        "ref": "85101",
        "name": "정보보안+인공지능연구실",
        "room_type": "lab",
        "_idx": 1,
        "_centroid": [
          126.9752899,
          37.2960509
        ],
        "_area_m2": 41.2
      },
      "geometry": {
        "type": "Polygon",
        "coordinates": [
          [
            [
              126.97531842597853,
              37.296016732762574
            ],
            [
              126.9752492953928,
              37.29602564460667
            ],
            [
              126.97526141008329,
              37.296085116551495
            ],
            [
              126.97533054066936,
              37.296076204711795
            ],
            [
              126.97531842597853,
              37.296016732762574
            ]
          ]
        ]
      }
    },
    {
      "type": "Feature",
      "properties": {
        "indoor": "room",
        "level": [
          1
        ],
        "ref": "85105",
        "name": "창업보육실",
        "room_type": "lab",
        "_idx": 2,
        "_centroid": [
          126.9753563,
          37.2960424
        ],
        "_area_m2": 37.9
      },
      "geometry": {
        "type": "Polygon",
        "coordinates": [
          [
            [
              126.97531842597853,
              37.296016732762574
            ],
            [
              126.97533054066936,
              37.296076204711795
            ],
            [
              126.97539408775657,
              37.296068012658374
            ],
            [
              126.97538197306633,
              37.29600854070211
            ],
            [
              126.97531842597853,
              37.296016732762574
            ]
          ]
        ]
      }
    },
    {
      "type": "Feature",
      "properties": {
        "indoor": "room",
        "level": [
          1
        ],
        "ref": "85109",
        "name": "창업보육실",
        "room_type": "lab",
        "_idx": 3,
        "_centroid": [
          126.9754199,
          37.2960342
        ],
        "_area_m2": 37.9
      },
      "geometry": {
        "type": "Polygon",
        "coordinates": [
          [
            [
              126.97538197306633,
              37.29600854070211
            ],
            [
              126.97539408775657,
              37.296068012658374
            ],
            [
              126.97545773078714,
              37.296059808236585
            ],
            [
              126.97544561609698,
              37.296000336273345
            ],
            [
              126.97538197306633,
              37.29600854070211
            ]
          ]
        ]
      }
    },
    {
      "type": "Feature",
      "properties": {
        "indoor": "room",
        "level": [
          1
        ],
        "ref": "85113",
        "name": "창업보육실",
        "room_type": "lab",
        "_idx": 4,
        "_centroid": [
          126.9754768,
          37.2960268
        ],
        "_area_m2": 30
      },
      "geometry": {
        "type": "Polygon",
        "coordinates": [
          [
            [
              126.97544561609698,
              37.296000336273345
            ],
            [
              126.97545773078714,
              37.296059808236585
            ],
            [
              126.97550805980875,
              37.296053320165264
            ],
            [
              126.97549594511852,
              37.29599384819652
            ],
            [
              126.97544561609698,
              37.296000336273345
            ]
          ]
        ]
      }
    },
    {
      "type": "Feature",
      "properties": {
        "indoor": "room",
        "level": [
          1
        ],
        "ref": "85115",
        "name": "창업보육실",
        "room_type": "lab",
        "_idx": 5,
        "_centroid": [
          126.9755267,
          37.2960204
        ],
        "_area_m2": 29.5
      },
      "geometry": {
        "type": "Polygon",
        "coordinates": [
          [
            [
              126.97549594511852,
              37.29599384819652
            ],
            [
              126.97550805980875,
              37.296053320165264
            ],
            [
              126.9755574884376,
              37.29604694816639
            ],
            [
              126.97554537374711,
              37.29598747619226
            ],
            [
              126.97549594511852,
              37.29599384819652
            ]
          ]
        ]
      }
    },
    {
      "type": "Feature",
      "properties": {
        "indoor": "room",
        "level": [
          1
        ],
        "ref": "",
        "name": "",
        "room_type": "stairs",
        "_idx": 6,
        "_centroid": [
          126.9756395,
          37.2960188
        ],
        "_area_m2": 17.1
      },
      "geometry": {
        "type": "Polygon",
        "coordinates": [
          [
            [
              126.9756724682276,
              37.29603212576266
            ],
            [
              126.97566663799199,
              37.29600350467463
            ],
            [
              126.9756380926171,
              37.29600718455064
            ],
            [
              126.9756071154047,
              37.29601117792245
            ],
            [
              126.97561294564011,
              37.296039799005264
            ],
            [
              126.9756724682276,
              37.29603212576266
            ]
          ]
        ]
      }
    },
    {
      "type": "Feature",
      "properties": {
        "indoor": "room",
        "level": [
          1
        ],
        "ref": "",
        "name": "1층 화장실",
        "room_type": "restroom",
        "_idx": 7,
        "_centroid": [
          126.9755988,
          37.2960115
        ],
        "_area_m2": 42.6
      },
      "geometry": {
        "type": "Polygon",
        "coordinates": [
          [
            [
              126.9756380926171,
              37.29600718455064
            ],
            [
              126.97563180816226,
              37.29597633365246
            ],
            [
              126.97554537374711,
              37.29598747619226
            ],
            [
              126.9755574884376,
              37.29604694816639
            ],
            [
              126.97561294564011,
              37.296039799005264
            ],
            [
              126.9756071154047,
              37.29601117792245
            ],
            [
              126.9756380926171,
              37.29600718455064
            ]
          ]
        ]
      }
    },
    {
      "type": "Feature",
      "properties": {
        "indoor": "room",
        "level": [
          1
        ],
        "ref": "85125",
        "name": "지능형로봇학과 사무실",
        "room_type": "office",
        "_idx": 8,
        "_centroid": [
          126.9757563,
          37.2960046
        ],
        "_area_m2": 32.1
      },
      "geometry": {
        "type": "Polygon",
        "coordinates": [
          [
            [
              126.97580221064058,
              37.29598197231308
            ],
            [
              126.97570378222811,
              37.29599466103912
            ],
            [
              126.97571041739623,
              37.29602723361497
            ],
            [
              126.9758088458077,
              37.29601454489333
            ],
            [
              126.97580221064058,
              37.29598197231308
            ]
          ]
        ]
      }
    },
    {
      "type": "Feature",
      "properties": {
        "indoor": "room",
        "level": [
          1
        ],
        "ref": "",
        "name": "",
        "room_type": "storage",
        "_idx": 9,
        "_centroid": [
          126.9756492,
          37.2959899
        ],
        "_area_m2": 8.8
      },
      "geometry": {
        "type": "Polygon",
        "coordinates": [
          [
            [
              126.9756380926171,
              37.29600718455064
            ],
            [
              126.97566663799199,
              37.29600350467463
            ],
            [
              126.97566035353711,
              37.295972653775934
            ],
            [
              126.97563180816226,
              37.29597633365246
            ],
            [
              126.9756380926171,
              37.29600718455064
            ]
          ]
        ]
      }
    },
    {
      "type": "Feature",
      "properties": {
        "indoor": "room",
        "level": [
          1
        ],
        "ref": "85102",
        "name": "산학협력 중점교수실",
        "room_type": "office",
        "_idx": 10,
        "_centroid": [
          126.9752006,
          37.2959725
        ],
        "_area_m2": 21.5
      },
      "geometry": {
        "type": "Polygon",
        "coordinates": [
          [
            [
              126.97521235676288,
              37.29594016384269
            ],
            [
              126.97517532674463,
              37.295944903775435
            ],
            [
              126.97519002912554,
              37.296004635670826
            ],
            [
              126.97522449836842,
              37.296000192128254
            ],
            [
              126.97521235676288,
              37.29594016384269
            ]
          ]
        ]
      }
    },
    {
      "type": "Feature",
      "properties": {
        "indoor": "room",
        "level": [
          1
        ],
        "ref": "85127",
        "name": "로보틱스 및 인공지능연구실",
        "room_type": "lab",
        "_idx": 11,
        "_centroid": [
          126.9757495,
          37.295971
        ],
        "_area_m2": 34.2
      },
      "geometry": {
        "type": "Polygon",
        "coordinates": [
          [
            [
              126.97579515111656,
              37.29594731653
            ],
            [
              126.97569672270333,
              37.29596000526212
            ],
            [
              126.97570378222811,
              37.29599466103912
            ],
            [
              126.97580221064058,
              37.29598197231308
            ],
            [
              126.97579515111656,
              37.29594731653
            ]
          ]
        ]
      }
    },
    {
      "type": "Feature",
      "properties": {
        "indoor": "room",
        "level": [
          1
        ],
        "ref": "85104",
        "name": "학생창업지원실",
        "room_type": "office",
        "_idx": 12,
        "_centroid": [
          126.9752625,
          37.2959645
        ],
        "_area_m2": 53
      },
      "geometry": {
        "type": "Polygon",
        "coordinates": [
          [
            [
              126.97521235676288,
              37.29594016384269
            ],
            [
              126.97522449836842,
              37.296000192128254
            ],
            [
              126.97531263560646,
              37.29598883006932
            ],
            [
              126.97530050983006,
              37.29592888003065
            ],
            [
              126.97521235676288,
              37.29594016384269
            ]
          ]
        ]
      }
    },
    {
      "type": "Feature",
      "properties": {
        "indoor": "room",
        "level": [
          1
        ],
        "ref": "85108",
        "name": "창업보육실",
        "room_type": "lab",
        "_idx": 13,
        "_centroid": [
          126.9753295,
          37.2959559
        ],
        "_area_m2": 27.5
      },
      "geometry": {
        "type": "Polygon",
        "coordinates": [
          [
            [
              126.97530050983006,
              37.29592888003065
            ],
            [
              126.97531263560646,
              37.29598883006932
            ],
            [
              126.97535839441161,
              37.29598293115244
            ],
            [
              126.97534627685319,
              37.295923021737764
            ],
            [
              126.97530050983006,
              37.29592888003065
            ]
          ]
        ]
      }
    },
    {
      "type": "Feature",
      "properties": {
        "indoor": "room",
        "level": [
          1
        ],
        "ref": "85110",
        "name": "창업보육실",
        "room_type": "lab",
        "_idx": 14,
        "_centroid": [
          126.9753809,
          37.2959493
        ],
        "_area_m2": 34.3
      },
      "geometry": {
        "type": "Polygon",
        "coordinates": [
          [
            [
              126.97534627685319,
              37.295923021737764
            ],
            [
              126.97535839441161,
              37.29598293115244
            ],
            [
              126.97541548896191,
              37.29597557090766
            ],
            [
              126.97540338165715,
              37.29591571218071
            ],
            [
              126.97534627685319,
              37.295923021737764
            ]
          ]
        ]
      }
    },
    {
      "type": "Feature",
      "properties": {
        "indoor": "room",
        "level": [
          1
        ],
        "ref": "85114",
        "name": "창업보육실",
        "room_type": "lab",
        "_idx": 15,
        "_centroid": [
          126.9754352,
          37.2959423
        ],
        "_area_m2": 30.9
      },
      "geometry": {
        "type": "Polygon",
        "coordinates": [
          [
            [
              126.97540338165715,
              37.29591571218071
            ],
            [
              126.97541548896191,
              37.29597557090766
            ],
            [
              126.97546702448449,
              37.29596892729529
            ],
            [
              126.9754549264348,
              37.295909114320864
            ],
            [
              126.97540338165715,
              37.29591571218071
            ]
          ]
        ]
      }
    },
    {
      "type": "Feature",
      "properties": {
        "indoor": "room",
        "level": [
          1
        ],
        "ref": "85129",
        "name": "로보틱스 및 인공지능 연구실",
        "room_type": "lab",
        "_idx": 16,
        "_centroid": [
          126.9757432,
          37.29594
        ],
        "_area_m2": 26.9
      },
      "geometry": {
        "type": "Polygon",
        "coordinates": [
          [
            [
              126.97569116852118,
              37.29593273931644
            ],
            [
              126.97569672270333,
              37.29596000526212
            ],
            [
              126.97579515111656,
              37.29594731653
            ],
            [
              126.97578959693169,
              37.295920050580406
            ],
            [
              126.97569116852118,
              37.29593273931644
            ]
          ]
        ]
      }
    },
    {
      "type": "Feature",
      "properties": {
        "indoor": "room",
        "level": [
          1
        ],
        "ref": "85116",
        "name": "창업보육실",
        "room_type": "lab",
        "_idx": 17,
        "_centroid": [
          126.9754846,
          37.295936
        ],
        "_area_m2": 28.3
      },
      "geometry": {
        "type": "Polygon",
        "coordinates": [
          [
            [
              126.9754549264348,
              37.295909114320864
            ],
            [
              126.97546702448449,
              37.29596892729529
            ],
            [
              126.97551426863645,
              37.29596283689751
            ],
            [
              126.97550217907121,
              37.29590306586578
            ],
            [
              126.9754549264348,
              37.295909114320864
            ]
          ]
        ]
      }
    },
    {
      "type": "Feature",
      "properties": {
        "indoor": "room",
        "level": [
          1
        ],
        "ref": "85120",
        "name": "창업보육실",
        "room_type": "lab",
        "_idx": 18,
        "_centroid": [
          126.9755391,
          37.295929
        ],
        "_area_m2": 37
      },
      "geometry": {
        "type": "Polygon",
        "coordinates": [
          [
            [
              126.97550217907121,
              37.29590306586578
            ],
            [
              126.97551426863645,
              37.29596283689751
            ],
            [
              126.97557599757633,
              37.29595487921845
            ],
            [
              126.97556391909661,
              37.29589516298884
            ],
            [
              126.97550217907121,
              37.29590306586578
            ]
          ]
        ]
      }
    },
    {
      "type": "Feature",
      "properties": {
        "indoor": "room",
        "level": [
          1
        ],
        "ref": "85122",
        "name": "회의실",
        "room_type": "lounge",
        "_idx": 19,
        "_centroid": [
          126.9755944,
          37.2959219
        ],
        "_area_m2": 29.3
      },
      "geometry": {
        "type": "Polygon",
        "coordinates": [
          [
            [
              126.97556391909661,
              37.29589516298884
            ],
            [
              126.97557599757633,
              37.29595487921845
            ],
            [
              126.97562495168543,
              37.29594856838451
            ],
            [
              126.9756127982909,
              37.2958889063303
            ],
            [
              126.97556391909661,
              37.29589516298884
            ]
          ]
        ]
      }
    },
    {
      "type": "Feature",
      "properties": {
        "indoor": "room",
        "level": [
          1
        ],
        "ref": "85133",
        "name": "Learning Factory",
        "room_type": "lab",
        "_idx": 20,
        "_centroid": [
          126.975825,
          37.2959216
        ],
        "_area_m2": 266.4
      },
      "geometry": {
        "type": "Polygon",
        "coordinates": [
          [
            [
              126.97579515111656,
              37.29594731653
            ],
            [
              126.97579517711397,
              37.29594731653
            ],
            [
              126.97580223663729,
              37.2959819912943
            ],
            [
              126.97580221064058,
              37.29598197231308
            ],
            [
              126.9758088458077,
              37.29601454489333
            ],
            [
              126.97594023418179,
              37.29599760719739
            ],
            [
              126.97588960853983,
              37.29574908110322
            ],
            [
              126.97579768552448,
              37.295760931234156
            ],
            [
              126.97582906234305,
              37.295914962961454
            ],
            [
              126.97578959693169,
              37.295920050580406
            ],
            [
              126.97579515111656,
              37.29594731653
            ]
          ]
        ]
      }
    },
    {
      "type": "Feature",
      "properties": {
        "indoor": "room",
        "level": [
          1
        ],
        "ref": "",
        "name": "1층 엘리베이터",
        "room_type": "elevator",
        "_idx": 21,
        "_centroid": [
          126.9757285,
          37.2958717
        ],
        "_area_m2": 16.7
      },
      "geometry": {
        "type": "Polygon",
        "coordinates": [
          [
            [
              126.97577233453111,
              37.29584884796818
            ],
            [
              126.97571068731867,
              37.29585638052117
            ],
            [
              126.97571504119563,
              37.2958779690541
            ],
            [
              126.97569257952884,
              37.295880979005695
            ],
            [
              126.97571504119563,
              37.29587796905411
            ],
            [
              126.97571619730309,
              37.2958836980635
            ],
            [
              126.97577753652398,
              37.295875790614204
            ],
            [
              126.97577233453111,
              37.29584884796818
            ]
          ]
        ]
      }
    },
    {
      "type": "Feature",
      "properties": {
        "indoor": "room",
        "level": [
          1
        ],
        "ref": "",
        "name": "",
        "room_type": "stairs",
        "_idx": 22,
        "_centroid": [
          126.9757008,
          37.2958458
        ],
        "_area_m2": 15.1
      },
      "geometry": {
        "type": "Polygon",
        "coordinates": [
          [
            [
              126.97569257952884,
              37.295880979005695
            ],
            [
              126.97571504119563,
              37.2958779690541
            ],
            [
              126.97571068731867,
              37.29585638052117
            ],
            [
              126.97570606038425,
              37.29583343804325
            ],
            [
              126.97570164881704,
              37.29581156345538
            ],
            [
              126.97567877292285,
              37.29581457340961
            ],
            [
              126.97569257952884,
              37.295880979005695
            ]
          ]
        ]
      }
    },
    {
      "type": "Feature",
      "properties": {
        "indoor": "room",
        "level": [
          1
        ],
        "ref": "",
        "name": "",
        "room_type": "stairs",
        "_idx": 23,
        "_centroid": [
          126.9757392,
          37.2958411
        ],
        "_area_m2": 14.2
      },
      "geometry": {
        "type": "Polygon",
        "coordinates": [
          [
            [
              126.97571068731867,
              37.29585638052117
            ],
            [
              126.97577233453111,
              37.29584884796818
            ],
            [
              126.97576790033098,
              37.295825881938136
            ],
            [
              126.97570606038425,
              37.29583343804325
            ],
            [
              126.97571068731867,
              37.29585638052117
            ]
          ]
        ]
      }
    },
    {
      "type": "Feature",
      "properties": {
        "indoor": "room",
        "level": [
          1
        ],
        "ref": "",
        "name": "",
        "room_type": "restroom",
        "_idx": 24,
        "_centroid": [
          126.9757264,
          37.2958085
        ],
        "_area_m2": 27.2
      },
      "geometry": {
        "type": "Polygon",
        "coordinates": [
          [
            [
              126.97570606038425,
              37.29583343804325
            ],
            [
              126.97576790033098,
              37.295825881938136
            ],
            [
              126.97575940099073,
              37.29578186132911
            ],
            [
              126.97569722662986,
              37.29578991919122
            ],
            [
              126.97570164881704,
              37.29581156345538
            ],
            [
              126.97570606038425,
              37.29583343804325
            ]
          ]
        ]
      }
    },
    {
      "type": "Feature",
      "properties": {
        "indoor": "room",
        "level": [
          1
        ],
        "ref": "",
        "name": "",
        "room_type": "",
        "_idx": 25,
        "_centroid": [
          126.9757268,
          37.2957781
        ],
        "_area_m2": 9.7
      },
      "geometry": {
        "type": "Polygon",
        "coordinates": [
          [
            [
              126.975756400298,
              37.29576631985485
            ],
            [
              126.97569405582193,
              37.2957743997658
            ],
            [
              126.97569722662985,
              37.29578991919122
            ],
            [
              126.97575940099073,
              37.29578186132911
            ],
            [
              126.975756400298,
              37.29576631985485
            ]
          ]
        ]
      }
    },
    {
      "type": "Feature",
      "properties": {
        "indoor": "room",
        "level": [
          1
        ],
        "ref": "85156",
        "name": "의공학실험실",
        "room_type": "lab",
        "_idx": 26,
        "_centroid": [
          126.975718,
          37.2957342
        ],
        "_area_m2": 45.5
      },
      "geometry": {
        "type": "Polygon",
        "coordinates": [
          [
            [
              126.9757424271716,
              37.2956939489047
            ],
            [
              126.97567929053143,
              37.295702131488916
            ],
            [
              126.97569405582193,
              37.2957743997658
            ],
            [
              126.975756400298,
              37.29576631985485
            ],
            [
              126.9757424271716,
              37.2956939489047
            ]
          ]
        ]
      }
    },
    {
      "type": "Feature",
      "properties": {
        "indoor": "room",
        "level": [
          1
        ],
        "ref": "85155",
        "name": "스마트카팩토리",
        "room_type": "lab",
        "_idx": 27,
        "_centroid": [
          126.9758364,
          37.2957193
        ],
        "_area_m2": 65.8
      },
      "geometry": {
        "type": "Polygon",
        "coordinates": [
          [
            [
              126.97587505522469,
              37.295677637494194
            ],
            [
              126.97578313220599,
              37.29568948763698
            ],
            [
              126.97579768552448,
              37.295760931234156
            ],
            [
              126.97588960853983,
              37.29574908110322
            ],
            [
              126.97587505522469,
              37.295677637494194
            ]
          ]
        ]
      }
    },
    {
      "type": "Feature",
      "properties": {
        "indoor": "room",
        "level": [
          1
        ],
        "ref": "85162",
        "name": "재활바이오메카트로닉스연구실",
        "room_type": "lab",
        "_idx": 28,
        "_centroid": [
          126.9757023,
          37.2956552
        ],
        "_area_m2": 46.2
      },
      "geometry": {
        "type": "Polygon",
        "coordinates": [
          [
            [
              126.97567929053143,
              37.295702131488916
            ],
            [
              126.9757424271716,
              37.2956939489047
            ],
            [
              126.97573478568356,
              37.2956543713804
            ],
            [
              126.97572845956651,
              37.295621606495615
            ],
            [
              126.97566439908398,
              37.29562941562312
            ],
            [
              126.97566443661881,
              37.295629429365285
            ],
            [
              126.97567929053143,
              37.295702131488916
            ]
          ]
        ]
      }
    },
    {
      "type": "Feature",
      "properties": {
        "indoor": "room",
        "level": [
          1
        ],
        "ref": "85161",
        "name": "능동형연성소재및로봇연구실",
        "room_type": "lab",
        "_idx": 29,
        "_centroid": [
          126.9758217,
          37.2956471
        ],
        "_area_m2": 67.3
      },
      "geometry": {
        "type": "Polygon",
        "coordinates": [
          [
            [
              126.97576825944837,
              37.29561647573858
            ],
            [
              126.97578313220599,
              37.29568948763698
            ],
            [
              126.97587505522469,
              37.295677637494194
            ],
            [
              126.9758601824418,
              37.29560462558763
            ],
            [
              126.97576825944837,
              37.29561647573858
            ]
          ]
        ]
      }
    },
    {
      "type": "Feature",
      "properties": {
        "indoor": "room",
        "level": [
          1
        ],
        "ref": "85167",
        "name": "기계생물공학연구실",
        "room_type": "lab",
        "_idx": 30,
        "_centroid": [
          126.9757538,
          37.2955986
        ],
        "_area_m2": 112.6
      },
      "geometry": {
        "type": "Polygon",
        "coordinates": [
          [
            [
              126.97572845956651,
              37.295621606495615
            ],
            [
              126.97576825944837,
              37.29561647573858
            ],
            [
              126.9758601824418,
              37.29560462558763
            ],
            [
              126.97584847816101,
              37.29554716815938
            ],
            [
              126.97565278398645,
              37.295572395873734
            ],
            [
              126.97566443661881,
              37.295629429365285
            ],
            [
              126.97572845956651,
              37.295621606495615
            ]
          ]
        ]
      }
    },
    {
      "type": "Feature",
      "properties": {
        "indoor": "room",
        "level": [
          1
        ],
        "ref": "",
        "name": "",
        "room_type": "stairs",
        "_idx": 31,
        "_centroid": [
          126.9756748,
          37.2955351
        ],
        "_area_m2": 16
      },
      "geometry": {
        "type": "Polygon",
        "coordinates": [
          [
            [
              126.97570685580708,
              37.29551906392379
            ],
            [
              126.97563807290223,
              37.29552793100586
            ],
            [
              126.97564279399697,
              37.29555110737963
            ],
            [
              126.97571157692288,
              37.29554224040504
            ],
            [
              126.97570685580708,
              37.29551906392379
            ]
          ]
        ]
      }
    },
    {
      "type": "Feature",
      "properties": {
        "indoor": "room",
        "level": [
          1
        ],
        "ref": "",
        "name": "",
        "room_type": "reserved",
        "_idx": 32,
        "_centroid": [
          126.9756213,
          37.2955327
        ],
        "_area_m2": 10.8
      },
      "geometry": {
        "type": "Polygon",
        "coordinates": [
          [
            [
              126.97563807290223,
              37.29552793100586
            ],
            [
              126.97562085251536,
              37.295530150955315
            ],
            [
              126.97561769709294,
              37.29551466063483
            ],
            [
              126.97560016985659,
              37.29551692014187
            ],
            [
              126.97560804636335,
              37.29555558678175
            ],
            [
              126.97564279399697,
              37.29555110737963
            ],
            [
              126.97563807290223,
              37.29552793100586
            ]
          ]
        ]
      }
    },
    {
      "type": "Feature",
      "properties": {
        "indoor": "room",
        "level": [
          1
        ],
        "ref": "",
        "name": "",
        "room_type": "elevator",
        "_idx": 33,
        "_centroid": [
          126.9756403,
          37.2955146
        ],
        "_area_m2": 27.4
      },
      "geometry": {
        "type": "Polygon",
        "coordinates": [
          [
            [
              126.97563807290223,
              37.29552793100586
            ],
            [
              126.97570685580708,
              37.29551906392379
            ],
            [
              126.9757009496557,
              37.29549006996133
            ],
            [
              126.97559741912653,
              37.29550341650483
            ],
            [
              126.97560016985659,
              37.29551692014187
            ],
            [
              126.97561769709294,
              37.29551466063483
            ],
            [
              126.97562085251536,
              37.295530150955315
            ],
            [
              126.97563807290223,
              37.29552793100586
            ]
          ]
        ]
      }
    },
    {
      "type": "Feature",
      "properties": {
        "indoor": "room",
        "level": [
          1
        ],
        "ref": "85191",
        "name": "소재공정실",
        "room_type": "lab",
        "_idx": 34,
        "_centroid": [
          126.9755605,
          37.2955059
        ],
        "_area_m2": 140.2
      },
      "geometry": {
        "type": "Polygon",
        "coordinates": [
          [
            [
              126.97559357425072,
              37.29548454157369
            ],
            [
              126.9755857355675,
              37.29544606057058
            ],
            [
              126.97545807760817,
              37.29546251749223
            ],
            [
              126.97548038836364,
              37.29557204348557
            ],
            [
              126.97560804636335,
              37.29555558678175
            ],
            [
              126.97560016985659,
              37.29551692014187
            ],
            [
              126.97559741912653,
              37.29550341650483
            ],
            [
              126.97559357425072,
              37.29548454157369
            ]
          ]
        ]
      }
    },
    {
      "type": "Feature",
      "properties": {
        "indoor": "room",
        "level": [
          1
        ],
        "ref": "85175",
        "name": "나노공정연구실",
        "room_type": "lab",
        "_idx": 35,
        "_centroid": [
          126.9757855,
          37.2954926
        ],
        "_area_m2": 30.5
      },
      "geometry": {
        "type": "Polygon",
        "coordinates": [
          [
            [
              126.97573195734574,
              37.29548398775717
            ],
            [
              126.97573810279441,
              37.2955141564591
            ],
            [
              126.97583910134496,
              37.29550113632526
            ],
            [
              126.97583295589845,
              37.295470967617476
            ],
            [
              126.97573195734574,
              37.29548398775717
            ]
          ]
        ]
      }
    },
    {
      "type": "Feature",
      "properties": {
        "indoor": "room",
        "level": [
          1
        ],
        "ref": "85189",
        "name": "전기물성측정실",
        "room_type": "lab",
        "_idx": 36,
        "_centroid": [
          126.9756051,
          37.2954633
        ],
        "_area_m2": 11.9
      },
      "geometry": {
        "type": "Polygon",
        "coordinates": [
          [
            [
              126.97562444114413,
              37.29548056239527
            ],
            [
              126.97561660246058,
              37.29544208139025
            ],
            [
              126.9755857355675,
              37.29544606057058
            ],
            [
              126.97559357425072,
              37.29548454157369
            ],
            [
              126.97562444114413,
              37.29548056239527
            ]
          ]
        ]
      }
    },
    {
      "type": "Feature",
      "properties": {
        "indoor": "room",
        "level": [
          1
        ],
        "ref": "85187",
        "name": "스펙트로미터실",
        "room_type": "lab",
        "_idx": 37,
        "_centroid": [
          126.9756396,
          37.2954589
        ],
        "_area_m2": 14.7
      },
      "geometry": {
        "type": "Polygon",
        "coordinates": [
          [
            [
              126.97566253330704,
              37.29547565177758
            ],
            [
              126.97565469462351,
              37.29543717077015
            ],
            [
              126.97561660246058,
              37.29544208139025
            ],
            [
              126.97562444114413,
              37.29548056239527
            ],
            [
              126.97566253330704,
              37.29547565177758
            ]
          ]
        ]
      }
    },
    {
      "type": "Feature",
      "properties": {
        "indoor": "room",
        "level": [
          1
        ],
        "ref": "85185",
        "name": "주사전자현미경실",
        "room_type": "lab",
        "_idx": 38,
        "_centroid": [
          126.9756748,
          37.2954543
        ],
        "_area_m2": 12.5
      },
      "geometry": {
        "type": "Polygon",
        "coordinates": [
          [
            [
              126.97569487070339,
              37.29547148303056
            ],
            [
              126.9756870320198,
              37.2954330020211
            ],
            [
              126.97565469462351,
              37.29543717077015
            ],
            [
              126.97566253330704,
              37.29547565177758
            ],
            [
              126.97569487070339,
              37.29547148303056
            ]
          ]
        ]
      }
    },
    {
      "type": "Feature",
      "properties": {
        "indoor": "room",
        "level": [
          1
        ],
        "ref": "85177",
        "name": "재료분석실",
        "room_type": "lab",
        "_idx": 39,
        "_centroid": [
          126.9757672,
          37.2954533
        ],
        "_area_m2": 56
      },
      "geometry": {
        "type": "Polygon",
        "coordinates": [
          [
            [
              126.97572068761434,
              37.295428663337596
            ],
            [
              126.9757285262977,
              37.29546714434921
            ],
            [
              126.97573195734574,
              37.29548398775717
            ],
            [
              126.97583295589845,
              37.295470967617476
            ],
            [
              126.9758216861649,
              37.295415643191866
            ],
            [
              126.97572068761434,
              37.295428663337596
            ]
          ]
        ]
      }
    },
    {
      "type": "Feature",
      "properties": {
        "indoor": "room",
        "level": [
          1
        ],
        "ref": "85183",
        "name": "X-선회절분석실",
        "room_type": "lab",
        "_idx": 40,
        "_centroid": [
          126.9757078,
          37.2954501
        ],
        "_area_m2": 13
      },
      "geometry": {
        "type": "Polygon",
        "coordinates": [
          [
            [
              126.9757285262977,
              37.29546714434921
            ],
            [
              126.97572068761434,
              37.295428663337596
            ],
            [
              126.9756870320198,
              37.2954330020211
            ],
            [
              126.97569487070339,
              37.29547148303056
            ],
            [
              126.9757285262977,
              37.29546714434921
            ]
          ]
        ]
      }
    }
  ]
}