{
  "type": "FeatureCollection",
  "features": [
    {
      "type": "Feature",
      "properties": {
        "indoor": "room",
        "level": [
          4
        ],
        "ref": "",
        "name": "",
        "room_type": "",
        "_idx": 1,
        "_centroid": [
          126.9752334,
          37.2960591
        ],
        "_area_m2": 34.2
      },
      "geometry": {
        "type": "Polygon",
        "coordinates": [
          [
            [
              126.97521062355197,
              37.296091663599235
            ],
            [
              126.97526886724759,
              37.296084155225486
            ],
            [
              126.97525712406706,
              37.29602650704723
            ],
            [
              126.97519703883493,
              37.296034257312634
            ],
            [
              126.97521062355197,
              37.296091663599235
            ]
          ]
        ]
      }
    },
    {
      "type": "Feature",
      "properties": {
        "indoor": "room",
        "level": [
          4
        ],
        "ref": "",
        "name": "",
        "room_type": "",
        "_idx": 2,
        "_centroid": [
          126.975295,
          37.2960512
        ],
        "_area_m2": 37
      },
      "geometry": {
        "type": "Polygon",
        "coordinates": [
          [
            [
              126.97525712406706,
              37.29602650704723
            ],
            [
              126.97526886724759,
              37.296084155225486
            ],
            [
              126.97533292947833,
              37.29607589676325
            ],
            [
              126.97532118534792,
              37.29601824391982
            ],
            [
              126.97525712406706,
              37.29602650704723
            ]
          ]
        ]
      }
    },
    {
      "type": "Feature",
      "properties": {
        "indoor": "room",
        "level": [
          4
        ],
        "ref": "",
        "name": "",
        "room_type": "",
        "_idx": 3,
        "_centroid": [
          126.9753591,
          37.2960429
        ],
        "_area_m2": 37.1
      },
      "geometry": {
        "type": "Polygon",
        "coordinates": [
          [
            [
              126.97532118534792,
              37.29601824391982
            ],
            [
              126.97533292947833,
              37.29607589676325
            ],
            [
              126.97539708322365,
              37.29606762650358
            ],
            [
              126.9753853381427,
              37.29600996898822
            ],
            [
              126.97532118534792,
              37.29601824391982
            ]
          ]
        ]
      }
    },
    {
      "type": "Feature",
      "properties": {
        "indoor": "room",
        "level": [
          4
        ],
        "ref": "",
        "name": "",
        "room_type": "",
        "_idx": 4,
        "_centroid": [
          126.9754234,
          37.2960346
        ],
        "_area_m2": 37.2
      },
      "geometry": {
        "type": "Polygon",
        "coordinates": [
          [
            [
              126.9753853381427,
              37.29600996898822
            ],
            [
              126.97539708322365,
              37.29606762650358
            ],
            [
              126.9754614465691,
              37.2960593292237
            ],
            [
              126.97544970053445,
              37.29600166702116
            ],
            [
              126.9753853381427,
              37.29600996898822
            ]
          ]
        ]
      }
    },
    {
      "type": "Feature",
      "properties": {
        "indoor": "room",
        "level": [
          4
        ],
        "ref": "",
        "name": "",
        "room_type": "",
        "_idx": 5,
        "_centroid": [
          126.9755872,
          37.2960272
        ],
        "_area_m2": 10.5
      },
      "geometry": {
        "type": "Polygon",
        "coordinates": [
          [
            [
              126.97560085902307,
              37.29600945081457
            ],
            [
              126.97556719834485,
              37.296013790120476
            ],
            [
              126.97557353148612,
              37.296044880006995
            ],
            [
              126.9756071921649,
              37.296040540703764
            ],
            [
              126.97560085902307,
              37.29600945081457
            ]
          ]
        ]
      }
    },
    {
      "type": "Feature",
      "properties": {
        "indoor": "room",
        "level": [
          4
        ],
        "ref": "",
        "name": "",
        "room_type": "",
        "_idx": 6,
        "_centroid": [
          126.975485,
          37.2960267
        ],
        "_area_m2": 34
      },
      "geometry": {
        "type": "Polygon",
        "coordinates": [
          [
            [
              126.97544970053445,
              37.29600166702116
            ],
            [
              126.9754614465691,
              37.2960593292237
            ],
            [
              126.97552028651954,
              37.29605174398193
            ],
            [
              126.97550853961316,
              37.29599407749442
            ],
            [
              126.97544970053445,
              37.29600166702116
            ]
          ]
        ]
      }
    },
    {
      "type": "Feature",
      "properties": {
        "indoor": "room",
        "level": [
          4
        ],
        "ref": "",
        "name": "",
        "room_type": "",
        "_idx": 7,
        "_centroid": [
          126.9755463,
          37.2960183
        ],
        "_area_m2": 30.8
      },
      "geometry": {
        "type": "Polygon",
        "coordinates": [
          [
            [
              126.97550853961316,
              37.29599407749442
            ],
            [
              126.97552028651954,
              37.29605174398193
            ],
            [
              126.97557353148612,
              37.296044880006995
            ],
            [
              126.97556719834485,
              37.296013790120476
            ],
            [
              126.97556178379119,
              37.29598720964193
            ],
            [
              126.97550853961316,
              37.29599407749442
            ]
          ]
        ]
      }
    },
    {
      "type": "Feature",
      "properties": {
        "indoor": "room",
        "level": [
          4
        ],
        "ref": "",
        "name": "",
        "room_type": "",
        "_idx": 8,
        "_centroid": [
          126.9756368,
          37.2960176
        ],
        "_area_m2": 20.3
      },
      "geometry": {
        "type": "Polygon",
        "coordinates": [
          [
            [
              126.97560085902307,
              37.29600945081457
            ],
            [
              126.9756071921649,
              37.296040540703764
            ],
            [
              126.9756724682276,
              37.29603212576266
            ],
            [
              126.9756661350868,
              37.29600103586728
            ],
            [
              126.97563732272911,
              37.296004750161075
            ],
            [
              126.97560085902307,
              37.29600945081457
            ]
          ]
        ]
      }
    },
    {
      "type": "Feature",
      "properties": {
        "indoor": "room",
        "level": [
          4
        ],
        "ref": "",
        "name": "",
        "room_type": "",
        "_idx": 9,
        "_centroid": [
          126.9755998,
          37.2959987
        ],
        "_area_m2": 18.7
      },
      "geometry": {
        "type": "Polygon",
        "coordinates": [
          [
            [
              126.97560085902307,
              37.29600945081457
            ],
            [
              126.97563732272911,
              37.296004750161075
            ],
            [
              126.97563190713733,
              37.2959781645817
            ],
            [
              126.97556178379119,
              37.29598720964193
            ],
            [
              126.97556719834485,
              37.296013790120476
            ],
            [
              126.97560085902307,
              37.29600945081457
            ]
          ]
        ]
      }
    },
    {
      "type": "Feature",
      "properties": {
        "indoor": "room",
        "level": [
          4
        ],
        "ref": "",
        "name": "",
        "room_type": "",
        "_idx": 10,
        "_centroid": [
          126.975649,
          37.2959896
        ],
        "_area_m2": 7.7
      },
      "geometry": {
        "type": "Polygon",
        "coordinates": [
          [
            [
              126.97563190713733,
              37.2959781645817
            ],
            [
              126.97563732272911,
              37.296004750161075
            ],
            [
              126.9756661350868,
              37.29600103586728
            ],
            [
              126.97566071906705,
              37.295974448192595
            ],
            [
              126.97563190713733,
              37.2959781645817
            ]
          ]
        ]
      }
    },
    {
      "type": "Feature",
      "properties": {
        "indoor": "room",
        "level": [
          4
        ],
        "ref": "",
        "name": "",
        "room_type": "",
        "_idx": 11,
        "_centroid": [
          126.9752115,
          37.295974
        ],
        "_area_m2": 37.1
      },
      "geometry": {
        "type": "Polygon",
        "coordinates": [
          [
            [
              126.97523288052194,
              37.29593748432671
            ],
            [
              126.97517532674463,
              37.295944903775435
            ],
            [
              126.97519139322107,
              37.29601040006887
            ],
            [
              126.9752462921397,
              37.29600332305709
            ],
            [
              126.97523288052194,
              37.29593748432671
            ]
          ]
        ]
      }
    },
    {
      "type": "Feature",
      "properties": {
        "indoor": "room",
        "level": [
          4
        ],
        "ref": "",
        "name": "",
        "room_type": "",
        "_idx": 12,
        "_centroid": [
          126.9752711,
          37.2959663
        ],
        "_area_m2": 41.6
      },
      "geometry": {
        "type": "Polygon",
        "coordinates": [
          [
            [
              126.97523288052194,
              37.29593748432671
            ],
            [
              126.9752462921397,
              37.29600332305709
            ],
            [
              126.97530936545598,
              37.29599519228488
            ],
            [
              126.97529595379729,
              37.29592935333851
            ],
            [
              126.97523288052194,
              37.29593748432671
            ]
          ]
        ]
      }
    },
    {
      "type": "Feature",
      "properties": {
        "indoor": "room",
        "level": [
          4
        ],
        "ref": "",
        "name": "",
        "room_type": "",
        "_idx": 13,
        "_centroid": [
          126.9757549,
          37.295966
        ],
        "_area_m2": 98.7
      },
      "geometry": {
        "type": "Polygon",
        "coordinates": [
          [
            [
              126.97579104779416,
              37.295933168089384
            ],
            [
              126.97578843351914,
              37.295920334390765
            ],
            [
              126.97568406615166,
              37.29593378873749
            ],
            [
              126.97570328846238,
              37.29602815262845
            ],
            [
              126.97580765583105,
              37.296014698296915
            ],
            [
              126.97579104779416,
              37.295933168089384
            ]
          ]
        ]
      }
    },
    {
      "type": "Feature",
      "properties": {
        "indoor": "room",
        "level": [
          4
        ],
        "ref": "",
        "name": "",
        "room_type": "",
        "_idx": 14,
        "_centroid": [
          126.9753365,
          37.2959579
        ],
        "_area_m2": 44.6
      },
      "geometry": {
        "type": "Polygon",
        "coordinates": [
          [
            [
              126.97529595379729,
              37.29592935333851
            ],
            [
              126.97530936545598,
              37.29599519228488
            ],
            [
              126.9753770101153,
              37.295986472221486
            ],
            [
              126.97536359841102,
              37.295920633043686
            ],
            [
              126.97529595379729,
              37.29592935333851
            ]
          ]
        ]
      }
    },
    {
      "type": "Feature",
      "properties": {
        "indoor": "room",
        "level": [
          4
        ],
        "ref": "",
        "name": "",
        "room_type": "",
        "_idx": 15,
        "_centroid": [
          126.9758571,
          37.2959552
        ],
        "_area_m2": 101.7
      },
      "geometry": {
        "type": "Polygon",
        "coordinates": [
          [
            [
              126.97579104779416,
              37.295933168089384
            ],
            [
              126.97580765583105,
              37.296014698296915
            ],
            [
              126.97594023418179,
              37.29599760719739
            ],
            [
              126.97592521380437,
              37.2959238709201
            ],
            [
              126.97584008582585,
              37.295934828454776
            ],
            [
              126.97583850146206,
              37.29592705067846
            ],
            [
              126.97579104779416,
              37.295933168089384
            ]
          ]
        ]
      }
    },
    {
      "type": "Feature",
      "properties": {
        "indoor": "room",
        "level": [
          4
        ],
        "ref": "",
        "name": "",
        "room_type": "",
        "_idx": 16,
        "_centroid": [
          126.9754031,
          37.2959493
        ],
        "_area_m2": 43.3
      },
      "geometry": {
        "type": "Polygon",
        "coordinates": [
          [
            [
              126.97536359841102,
              37.295920633043686
            ],
            [
              126.9753770101153,
              37.295986472221486
            ],
            [
              126.97544264881573,
              37.29597801074597
            ],
            [
              126.97542923706725,
              37.2959121713436
            ],
            [
              126.97536359841102,
              37.295920633043686
            ]
          ]
        ]
      }
    },
    {
      "type": "Feature",
      "properties": {
        "indoor": "room",
        "level": [
          4
        ],
        "ref": "",
        "name": "",
        "room_type": "",
        "_idx": 17,
        "_centroid": [
          126.975467,
          37.2959411
        ],
        "_area_m2": 41
      },
      "geometry": {
        "type": "Polygon",
        "coordinates": [
          [
            [
              126.97542923706725,
              37.2959121713436
            ],
            [
              126.97544264881573,
              37.29597801074597
            ],
            [
              126.97550480697801,
              37.29596999794612
            ],
            [
              126.97549139518769,
              37.295904158331105
            ],
            [
              126.97542923706725,
              37.2959121713436
            ]
          ]
        ]
      }
    },
    {
      "type": "Feature",
      "properties": {
        "indoor": "room",
        "level": [
          4
        ],
        "ref": "",
        "name": "",
        "room_type": "",
        "_idx": 18,
        "_centroid": [
          126.9755226,
          37.2959339
        ],
        "_area_m2": 32.3
      },
      "geometry": {
        "type": "Polygon",
        "coordinates": [
          [
            [
              126.97549139518769,
              37.295904158331105
            ],
            [
              126.97550480697801,
              37.29596999794612
            ],
            [
              126.97555376825407,
              37.295963686355
            ],
            [
              126.97554034904566,
              37.295897847524515
            ],
            [
              126.97549139518769,
              37.295904158331105
            ]
          ]
        ]
      }
    },
    {
      "type": "Feature",
      "properties": {
        "indoor": "room",
        "level": [
          4
        ],
        "ref": "",
        "name": "",
        "room_type": "",
        "_idx": 19,
        "_centroid": [
          126.97557,
          37.2959211
        ],
        "_area_m2": 35
      },
      "geometry": {
        "type": "Polygon",
        "coordinates": [
          [
            [
              126.97554034904566,
              37.295897847524515
            ],
            [
              126.97555376825407,
              37.295963686355
            ],
            [
              126.97560681991416,
              37.29595684747306
            ],
            [
              126.97559340066968,
              37.29589100845942
            ],
            [
              126.97555545088987,
              37.29589590069495
            ],
            [
              126.97554034904566,
              37.295897847524515
            ]
          ]
        ]
      }
    },
    {
      "type": "Feature",
      "properties": {
        "indoor": "room",
        "level": [
          4
        ],
        "ref": "",
        "name": "",
        "room_type": "",
        "_idx": 20,
        "_centroid": [
          126.9756219,
          37.2959211
        ],
        "_area_m2": 28.7
      },
      "geometry": {
        "type": "Polygon",
        "coordinates": [
          [
            [
              126.97559340066968,
              37.29589100845942
            ],
            [
              126.97560681991416,
              37.29595684747306
            ],
            [
              126.97565034085848,
              37.29595123719433
            ],
            [
              126.97563692896853,
              37.295885397077974
            ],
            [
              126.97559340066968,
              37.29589100845942
            ]
          ]
        ]
      }
    },
    {
      "type": "Feature",
      "properties": {
        "indoor": "room",
        "level": [
          4
        ],
        "ref": "34",
        "name": "",
        "room_type": "storage",
        "_idx": 21,
        "_centroid": [
          126.9758653,
          37.2958869
        ],
        "_area_m2": 89.6
      },
      "geometry": {
        "type": "Polygon",
        "coordinates": [
          [
            [
              126.97581872645821,
              37.29582978961827
            ],
            [
              126.97583850146206,
              37.29592705067846
            ],
            [
              126.97584008582585,
              37.295934828454776
            ],
            [
              126.97592521380437,
              37.2959238709201
            ],
            [
              126.97590385035951,
              37.29581883673546
            ],
            [
              126.97581872645821,
              37.29582978961827
            ]
          ]
        ]
      }
    },
    {
      "type": "Feature",
      "properties": {
        "indoor": "room",
        "level": [
          4
        ],
        "ref": "",
        "name": "",
        "room_type": "",
        "_idx": 22,
        "_centroid": [
          126.9757493,
          37.2958712
        ],
        "_area_m2": 16
      },
      "geometry": {
        "type": "Polygon",
        "coordinates": [
          [
            [
              126.97578175333959,
              37.29585526136484
            ],
            [
              126.97571223033374,
              37.29586422381615
            ],
            [
              126.97571689344943,
              37.295887115507874
            ],
            [
              126.9757864164546,
              37.29587815305927
            ],
            [
              126.97578175333959,
              37.29585526136484
            ]
          ]
        ]
      }
    },
    {
      "type": "Feature",
      "properties": {
        "indoor": "room",
        "level": [
          4
        ],
        "ref": "",
        "name": "",
        "room_type": "",
        "_idx": 23,
        "_centroid": [
          126.9757444,
          37.2958469
        ],
        "_area_m2": 17.9
      },
      "geometry": {
        "type": "Polygon",
        "coordinates": [
          [
            [
              126.97577652778844,
              37.29582960861551
            ],
            [
              126.97570700478185,
              37.295838571070014
            ],
            [
              126.97571223033374,
              37.29586422381615
            ],
            [
              126.97578175333959,
              37.29585526136484
            ],
            [
              126.97577652778844,
              37.29582960861551
            ]
          ]
        ]
      }
    },
    {
      "type": "Feature",
      "properties": {
        "indoor": "room",
        "level": [
          4
        ],
        "ref": "",
        "name": "",
        "room_type": "",
        "_idx": 24,
        "_centroid": [
          126.9757375,
          37.2958131
        ],
        "_area_m2": 29.2
      },
      "geometry": {
        "type": "Polygon",
        "coordinates": [
          [
            [
              126.97576798562969,
              37.29578767431031
            ],
            [
              126.97569846262189,
              37.29579663676993
            ],
            [
              126.97570700478185,
              37.295838571070014
            ],
            [
              126.97577652778844,
              37.29582960861551
            ],
            [
              126.97576798562969,
              37.29578767431031
            ]
          ]
        ]
      }
    },
    {
      "type": "Feature",
      "properties": {
        "indoor": "room",
        "level": [
          4
        ],
        "ref": "",
        "name": "",
        "room_type": "",
        "_idx": 25,
        "_centroid": [
          126.9758564,
          37.2958002
        ],
        "_area_m2": 41.2
      },
      "geometry": {
        "type": "Polygon",
        "coordinates": [
          [
            [
              126.97581872645821,
              37.29582978961827
            ],
            [
              126.97590385035951,
              37.29581883673546
            ],
            [
              126.97589402773121,
              37.29577054341186
            ],
            [
              126.97580890611184,
              37.29578149600796
            ],
            [
              126.97581872645821,
              37.29582978961827
            ]
          ]
        ]
      }
    },
    {
      "type": "Feature",
      "properties": {
        "indoor": "room",
        "level": [
          4
        ],
        "ref": "",
        "name": "",
        "room_type": "",
        "_idx": 26,
        "_centroid": [
          126.9757314,
          37.295783
        ],
        "_area_m2": 12.8
      },
      "geometry": {
        "type": "Polygon",
        "coordinates": [
          [
            [
              126.97576425121068,
              37.295769341676674
            ],
            [
              126.97569472820236,
              37.295778304138594
            ],
            [
              126.97569846262189,
              37.29579663676993
            ],
            [
              126.97576798562969,
              37.29578767431031
            ],
            [
              126.97576425121068,
              37.295769341676674
            ]
          ]
        ]
      }
    },
    {
      "type": "Feature",
      "properties": {
        "indoor": "room",
        "level": [
          4
        ],
        "ref": "",
        "name": "",
        "room_type": "",
        "_idx": 27,
        "_centroid": [
          126.9757266,
          37.2957598
        ],
        "_area_m2": 19.5
      },
      "geometry": {
        "type": "Polygon",
        "coordinates": [
          [
            [
              126.97575854577016,
              37.29574133310287
            ],
            [
              126.97568902276103,
              37.29575029556823
            ],
            [
              126.97569472820236,
              37.295778304138594
            ],
            [
              126.97576425121068,
              37.295769341676674
            ],
            [
              126.97575854577016,
              37.29574133310287
            ]
          ]
        ]
      }
    },
    {
      "type": "Feature",
      "properties": {
        "indoor": "room",
        "level": [
          4
        ],
        "ref": "",
        "name": "",
        "room_type": "",
        "_idx": 28,
        "_centroid": [
          126.9758469,
          37.2957536
        ],
        "_area_m2": 38.3
      },
      "geometry": {
        "type": "Polygon",
        "coordinates": [
          [
            [
              126.97580890611184,
              37.29578149600796
            ],
            [
              126.97589402773121,
              37.29577054341186
            ],
            [
              126.97588489470098,
              37.29572564052334
            ],
            [
              126.97579977520336,
              37.29573659285295
            ],
            [
              126.97580890611184,
              37.29578149600796
            ]
          ]
        ]
      }
    },
    {
      "type": "Feature",
      "properties": {
        "indoor": "room",
        "level": [
          4
        ],
        "ref": "34",
        "name": "",
        "room_type": "storage",
        "_idx": 29,
        "_centroid": [
          126.9757195,
          37.2957246
        ],
        "_area_m2": 29.6
      },
      "geometry": {
        "type": "Polygon",
        "coordinates": [
          [
            [
              126.9757498894461,
              37.29569883834884
            ],
            [
              126.97568036643575,
              37.295707800819436
            ],
            [
              126.97568902276103,
              37.29575029556823
            ],
            [
              126.97575854577016,
              37.29574133310287
            ],
            [
              126.9757498894461,
              37.29569883834884
            ]
          ]
        ]
      }
    },
    {
      "type": "Feature",
      "properties": {
        "indoor": "room",
        "level": [
          4
        ],
        "ref": "",
        "name": "",
        "room_type": "",
        "_idx": 30,
        "_centroid": [
          126.9758379,
          37.2957092
        ],
        "_area_m2": 37.5
      },
      "geometry": {
        "type": "Polygon",
        "coordinates": [
          [
            [
              126.97579977520336,
              37.29573659285295
            ],
            [
              126.97588489470098,
              37.29572564052334
            ],
            [
              126.97587596344334,
              37.2956817296573
            ],
            [
              126.97579084602057,
              37.295692681726344
            ],
            [
              126.97579977520336,
              37.29573659285295
            ]
          ]
        ]
      }
    },
    {
      "type": "Feature",
      "properties": {
        "indoor": "room",
        "level": [
          4
        ],
        "ref": "",
        "name": "",
        "room_type": "",
        "_idx": 31,
        "_centroid": [
          126.9757126,
          37.295691
        ],
        "_area_m2": 17.2
      },
      "geometry": {
        "type": "Polygon",
        "coordinates": [
          [
            [
              126.97574486660169,
              37.29567418070698
            ],
            [
              126.97567534359062,
              37.295683143180625
            ],
            [
              126.97568036643575,
              37.295707800819436
            ],
            [
              126.9757498894461,
              37.29569883834884
            ],
            [
              126.97574486660169,
              37.29567418070698
            ]
          ]
        ]
      }
    },
    {
      "type": "Feature",
      "properties": {
        "indoor": "room",
        "level": [
          4
        ],
        "ref": "",
        "name": "",
        "room_type": "",
        "_idx": 32,
        "_centroid": [
          126.975708,
          37.2956683
        ],
        "_area_m2": 14.4
      },
      "geometry": {
        "type": "Polygon",
        "coordinates": [
          [
            [
              126.9757406432635,
              37.29565344792062
            ],
            [
              126.97567112025183,
              37.295662410396815
            ],
            [
              126.97567534359062,
              37.295683143180625
            ],
            [
              126.97574486660169,
              37.29567418070698
            ],
            [
              126.9757406432635,
              37.29565344792062
            ]
          ]
        ]
      }
    },
    {
      "type": "Feature",
      "properties": {
        "indoor": "room",
        "level": [
          4
        ],
        "ref": "",
        "name": "",
        "room_type": "",
        "_idx": 33,
        "_centroid": [
          126.9758288,
          37.2956645
        ],
        "_area_m2": 38.7
      },
      "geometry": {
        "type": "Polygon",
        "coordinates": [
          [
            [
              126.97579084602057,
              37.295692681726344
            ],
            [
              126.97587596344334,
              37.2956817296573
            ],
            [
              126.97586674672345,
              37.29563641530537
            ],
            [
              126.9757816314419,
              37.2956473671056
            ],
            [
              126.97579084602057,
              37.295692681726344
            ]
          ]
        ]
      }
    },
    {
      "type": "Feature",
      "properties": {
        "indoor": "room",
        "level": [
          4
        ],
        "ref": "",
        "name": "",
        "room_type": "",
        "_idx": 34,
        "_centroid": [
          126.9757037,
          37.2956471
        ],
        "_area_m2": 15
      },
      "geometry": {
        "type": "Polygon",
        "coordinates": [
          [
            [
              126.9757362506342,
              37.295631884067376
            ],
            [
              126.9756667276219,
              37.29564084654616
            ],
            [
              126.97567112025183,
              37.295662410396815
            ],
            [
              126.9757406432635,
              37.29565344792062
            ],
            [
              126.9757362506342,
              37.295631884067376
            ]
          ]
        ]
      }
    },
    {
      "type": "Feature",
      "properties": {
        "indoor": "room",
        "level": [
          4
        ],
        "ref": "",
        "name": "",
        "room_type": "",
        "_idx": 35,
        "_centroid": [
          126.9756991,
          37.2956245
        ],
        "_area_m2": 16.5
      },
      "geometry": {
        "type": "Polygon",
        "coordinates": [
          [
            [
              126.97573142266933,
              37.29560818310853
            ],
            [
              126.97566189965634,
              37.29561714559024
            ],
            [
              126.9756667276219,
              37.29564084654616
            ],
            [
              126.9757362506342,
              37.295631884067376
            ],
            [
              126.97573142266933,
              37.29560818310853
            ]
          ]
        ]
      }
    },
    {
      "type": "Feature",
      "properties": {
        "indoor": "room",
        "level": [
          4
        ],
        "ref": "",
        "name": "",
        "room_type": "",
        "_idx": 36,
        "_centroid": [
          126.9758197,
          37.29562
        ],
        "_area_m2": 37.4
      },
      "geometry": {
        "type": "Polygon",
        "coordinates": [
          [
            [
              126.9757816314419,
              37.2956473671056
            ],
            [
              126.97586674672345,
              37.29563641530537
            ],
            [
              126.97585783316057,
              37.29559259143638
            ],
            [
              126.97577271994977,
              37.295603542976494
            ],
            [
              126.9757816314419,
              37.2956473671056
            ]
          ]
        ]
      }
    },
    {
      "type": "Feature",
      "properties": {
        "indoor": "room",
        "level": [
          4
        ],
        "ref": "",
        "name": "",
        "room_type": "",
        "_idx": 37,
        "_centroid": [
          126.9756945,
          37.295602
        ],
        "_area_m2": 14.9
      },
      "geometry": {
        "type": "Polygon",
        "coordinates": [
          [
            [
              126.97572707901256,
              37.295586859666294
            ],
            [
              126.97565755599896,
              37.295595822150666
            ],
            [
              126.97566189965634,
              37.29561714559024
            ],
            [
              126.97573142266933,
              37.29560818310853
            ],
            [
              126.97572707901256,
              37.295586859666294
            ]
          ]
        ]
      }
    },
    {
      "type": "Feature",
      "properties": {
        "indoor": "room",
        "level": [
          4
        ],
        "ref": "",
        "name": "",
        "room_type": "",
        "_idx": 38,
        "_centroid": [
          126.9756899,
          37.2955796
        ],
        "_area_m2": 16.3
      },
      "geometry": {
        "type": "Polygon",
        "coordinates": [
          [
            [
              126.97572230700068,
              37.295563433386334
            ],
            [
              126.97565278398645,
              37.295572395873734
            ],
            [
              126.97565755599896,
              37.295595822150666
            ],
            [
              126.97572707901256,
              37.295586859666294
            ],
            [
              126.97572230700068,
              37.295563433386334
            ]
          ]
        ]
      }
    },
    {
      "type": "Feature",
      "properties": {
        "indoor": "room",
        "level": [
          4
        ],
        "ref": "",
        "name": "",
        "room_type": "",
        "_idx": 39,
        "_centroid": [
          126.9758108,
          37.2955761
        ],
        "_area_m2": 37.5
      },
      "geometry": {
        "type": "Polygon",
        "coordinates": [
          [
            [
              126.97577271994977,
              37.295603542976494
            ],
            [
              126.97585783316057,
              37.29559259143638
            ],
            [
              126.97584888020268,
              37.29554857388022
            ],
            [
              126.9757637690718,
              37.29555952515917
            ],
            [
              126.97577271994977,
              37.295603542976494
            ]
          ]
        ]
      }
    },
    {
      "type": "Feature",
      "properties": {
        "indoor": "room",
        "level": [
          4
        ],
        "ref": "",
        "name": "",
        "room_type": "",
        "_idx": 40,
        "_centroid": [
          126.9756853,
          37.2955569
        ],
        "_area_m2": 15.3
      },
      "geometry": {
        "type": "Polygon",
        "coordinates": [
          [
            [
              126.97564830274578,
              37.29555039697515
            ],
            [
              126.97565278398645,
              37.295572395873734
            ],
            [
              126.97572230700068,
              37.295563433386334
            ],
            [
              126.97571782575092,
              37.29554143448642
            ],
            [
              126.97564830274578,
              37.29555039697515
            ]
          ]
        ]
      }
    },
    {
      "type": "Feature",
      "properties": {
        "indoor": "room",
        "level": [
          4
        ],
        "ref": "",
        "name": "",
        "room_type": "",
        "_idx": 41,
        "_centroid": [
          126.975804,
          37.2955426
        ],
        "_area_m2": 19.5
      },
      "geometry": {
        "type": "Polygon",
        "coordinates": [
          [
            [
              126.9757637690718,
              37.29555952515917
            ],
            [
              126.97584888020268,
              37.29554857388022
            ],
            [
              126.97584423100851,
              37.295525715941245
            ],
            [
              126.97575912095772,
              37.29553666708458
            ],
            [
              126.9757637690718,
              37.29555952515917
            ]
          ]
        ]
      }
    },
    {
      "type": "Feature",
      "properties": {
        "indoor": "room",
        "level": [
          4
        ],
        "ref": "",
        "name": "",
        "room_type": "",
        "_idx": 42,
        "_centroid": [
          126.9755083,
          37.2955418
        ],
        "_area_m2": 34.6
      },
      "geometry": {
        "type": "Polygon",
        "coordinates": [
          [
            [
              126.97554675346377,
              37.295563488096725
            ],
            [
              126.97553615473889,
              37.295511457791676
            ],
            [
              126.9754697896399,
              37.29552001318555
            ],
            [
              126.97548038836364,
              37.29557204348557
            ],
            [
              126.97554675346377,
              37.295563488096725
            ]
          ]
        ]
      }
    },
    {
      "type": "Feature",
      "properties": {
        "indoor": "room",
        "level": [
          4
        ],
        "ref": "",
        "name": "",
        "room_type": "",
        "_idx": 43,
        "_centroid": [
          126.9756807,
          37.2955335
        ],
        "_area_m2": 14.4
      },
      "geometry": {
        "type": "Polygon",
        "coordinates": [
          [
            [
              126.97571360263498,
              37.29552070273754
            ],
            [
              126.97567949747824,
              37.29552509937065
            ],
            [
              126.97564407962928,
              37.29552966522793
            ],
            [
              126.97564830274578,
              37.29555039697515
            ],
            [
              126.97571782575092,
              37.295541434486424
            ],
            [
              126.97571360263498,
              37.29552070273754
            ]
          ]
        ]
      }
    },
    {
      "type": "Feature",
      "properties": {
        "indoor": "room",
        "level": [
          4
        ],
        "ref": "",
        "name": "",
        "room_type": "",
        "_idx": 44,
        "_centroid": [
          126.9755753,
          37.2955331
        ],
        "_area_m2": 35.3
      },
      "geometry": {
        "type": "Polygon",
        "coordinates": [
          [
            [
              126.97553615473889,
              37.295511457791676
            ],
            [
              126.97554675346377,
              37.295563488096725
            ],
            [
              126.97561442021893,
              37.29555476490636
            ],
            [
              126.97560382149473,
              37.29550273459419
            ],
            [
              126.97553615473889,
              37.295511457791676
            ]
          ]
        ]
      }
    },
    {
      "type": "Feature",
      "properties": {
        "indoor": "room",
        "level": [
          4
        ],
        "ref": "",
        "name": "",
        "room_type": "",
        "_idx": 45,
        "_centroid": [
          126.9756267,
          37.2955283
        ],
        "_area_m2": 12.6
      },
      "geometry": {
        "type": "Polygon",
        "coordinates": [
          [
            [
              126.97564407962928,
              37.29552966522793
            ],
            [
              126.97562793742729,
              37.295531746183975
            ],
            [
              126.97562156182136,
              37.29550044761632
            ],
            [
              126.97560382149473,
              37.29550273459419
            ],
            [
              126.97561442021893,
              37.29555476490636
            ],
            [
              126.97564830274578,
              37.29555039697515
            ],
            [
              126.97564407962928,
              37.29552966522793
            ]
          ]
        ]
      }
    },
    {
      "type": "Feature",
      "properties": {
        "indoor": "room",
        "level": [
          4
        ],
        "ref": "",
        "name": "",
        "room_type": "",
        "_idx": 46,
        "_centroid": [
          126.9756492,
          37.2955162
        ],
        "_area_m2": 16.2
      },
      "geometry": {
        "type": "Polygon",
        "coordinates": [
          [
            [
              126.97564407962928,
              37.29552966522793
            ],
            [
              126.97567949747824,
              37.29552509937065
            ],
            [
              126.97567312187219,
              37.29549380079987
            ],
            [
              126.97562156182136,
              37.29550044761632
            ],
            [
              126.97562793742729,
              37.295531746183975
            ],
            [
              126.97564407962928,
              37.29552966522793
            ]
          ]
        ]
      }
    },
    {
      "type": "Feature",
      "properties": {
        "indoor": "room",
        "level": [
          4
        ],
        "ref": "",
        "name": "",
        "room_type": "",
        "_idx": 47,
        "_centroid": [
          126.9756934,
          37.2955073
        ],
        "_area_m2": 10.7
      },
      "geometry": {
        "type": "Polygon",
        "coordinates": [
          [
            [
              126.97567312187219,
              37.29549380079987
            ],
            [
              126.97567949747824,
              37.29552509937065
            ],
            [
              126.97571360263498,
              37.29552070273754
            ],
            [
              126.97570722702719,
              37.29548940416523
            ],
            [
              126.97567312187219,
              37.29549380079987
            ]
          ]
        ]
      }
    },
    {
      "type": "Feature",
      "properties": {
        "indoor": "room",
        "level": [
          4
        ],
        "ref": "34",
        "name": "",
        "room_type": "storage",
        "_idx": 48,
        "_centroid": [
          126.9757963,
          37.2955047
        ],
        "_area_m2": 45.1
      },
      "geometry": {
        "type": "Polygon",
        "coordinates": [
          [
            [
              126.97575912095772,
              37.29553666708458
            ],
            [
              126.97584423100851,
              37.295525715941245
            ],
            [
              126.97583347238475,
              37.295472820760644
            ],
            [
              126.97574836483334,
              37.29548377158998
            ],
            [
              126.97575912095772,
              37.29553666708458
            ]
          ]
        ]
      }
    },
    {
      "type": "Feature",
      "properties": {
        "indoor": "room",
        "level": [
          4
        ],
        "ref": "",
        "name": "",
        "room_type": "",
        "_idx": 49,
        "_centroid": [
          126.9754783,
          37.2954798
        ],
        "_area_m2": 12.6
      },
      "geometry": {
        "type": "Polygon",
        "coordinates": [
          [
            [
              126.97549055473692,
              37.2954583250179
            ],
            [
              126.97545807760817,
              37.29546251749223
            ],
            [
              126.9754659867847,
              37.295501291633926
            ],
            [
              126.9754984639137,
              37.29549709916085
            ],
            [
              126.97549055473692,
              37.2954583250179
            ]
          ]
        ]
      }
    },
    {
      "type": "Feature",
      "properties": {
        "indoor": "room",
        "level": [
          4
        ],
        "ref": "",
        "name": "",
        "room_type": "",
        "_idx": 50,
        "_centroid": [
          126.9755119,
          37.2954755
        ],
        "_area_m2": 13.6
      },
      "geometry": {
        "type": "Polygon",
        "coordinates": [
          [
            [
              126.97549055473692,
              37.2954583250179
            ],
            [
              126.9754984639137,
              37.29549709916085
            ],
            [
              126.9755333289744,
              37.295492598429625
            ],
            [
              126.97552541979853,
              37.29545382428412
            ],
            [
              126.97549055473692,
              37.2954583250179
            ]
          ]
        ]
      }
    },
    {
      "type": "Feature",
      "properties": {
        "indoor": "room",
        "level": [
          4
        ],
        "ref": "",
        "name": "",
        "room_type": "",
        "_idx": 51,
        "_centroid": [
          126.9755458,
          37.2954711
        ],
        "_area_m2": 12.7
      },
      "geometry": {
        "type": "Polygon",
        "coordinates": [
          [
            [
              126.97552541979853,
              37.29545382428412
            ],
            [
              126.9755333289744,
              37.295492598429625
            ],
            [
              126.97556612100938,
              37.29548836530533
            ],
            [
              126.97555821183352,
              37.29544959115752
            ],
            [
              126.97552541979853,
              37.29545382428412
            ]
          ]
        ]
      }
    },
    {
      "type": "Feature",
      "properties": {
        "indoor": "room",
        "level": [
          4
        ],
        "ref": "",
        "name": "",
        "room_type": "",
        "_idx": 52,
        "_centroid": [
          126.9755807,
          37.2954666
        ],
        "_area_m2": 14.4
      },
      "geometry": {
        "type": "Polygon",
        "coordinates": [
          [
            [
              126.97555821183352,
              37.29544959115752
            ],
            [
              126.97556612100938,
              37.29548836530533
            ],
            [
              126.97560317248117,
              37.29548358233027
            ],
            [
              126.97559526330545,
              37.295444808179845
            ],
            [
              126.97555821183352,
              37.29544959115752
            ]
          ]
        ]
      }
    },
    {
      "type": "Feature",
      "properties": {
        "indoor": "room",
        "level": [
          4
        ],
        "ref": "",
        "name": "",
        "room_type": "",
        "_idx": 53,
        "_centroid": [
          126.9756149,
          37.2954622
        ],
        "_area_m2": 12.2
      },
      "geometry": {
        "type": "Polygon",
        "coordinates": [
          [
            [
              126.97559526330545,
              37.295444808179845
            ],
            [
              126.97560317248117,
              37.29548358233027
            ],
            [
              126.9756346184178,
              37.29547952297383
            ],
            [
              126.97562670924209,
              37.2954407488212
            ],
            [
              126.97559526330545,
              37.295444808179845
            ]
          ]
        ]
      }
    },
    {
      "type": "Feature",
      "properties": {
        "indoor": "room",
        "level": [
          4
        ],
        "ref": "",
        "name": "",
        "room_type": "",
        "_idx": 54,
        "_centroid": [
          126.9756477,
          37.2954579
        ],
        "_area_m2": 13.2
      },
      "geometry": {
        "type": "Polygon",
        "coordinates": [
          [
            [
              126.97562670924209,
              37.2954407488212
            ],
            [
              126.9756346184178,
              37.29547952297383
            ],
            [
              126.97566870318454,
              37.29547512297077
            ],
            [
              126.97566079400875,
              37.29543634881576
            ],
            [
              126.97562670924209,
              37.2954407488212
            ]
          ]
        ]
      }
    },
    {
      "type": "Feature",
      "properties": {
        "indoor": "room",
        "level": [
          4
        ],
        "ref": "",
        "name": "",
        "room_type": "",
        "_idx": 55,
        "_centroid": [
          126.9756831,
          37.2954534
        ],
        "_area_m2": 14.2
      },
      "geometry": {
        "type": "Polygon",
        "coordinates": [
          [
            [
              126.97566079400875,
              37.29543634881576
            ],
            [
              126.97566870318454,
              37.29547512297077
            ],
            [
              126.97570531140941,
              37.29547039721446
            ],
            [
              126.97569740223344,
              37.29543162305691
            ],
            [
              126.97566079400875,
              37.29543634881576
            ]
          ]
        ]
      }
    },
    {
      "type": "Feature",
      "properties": {
        "indoor": "room",
        "level": [
          4
        ],
        "ref": "34",
        "name": "",
        "room_type": "storage",
        "_idx": 56,
        "_centroid": [
          126.975777,
          37.2954528
        ],
        "_area_m2": 48.8
      },
      "geometry": {
        "type": "Polygon",
        "coordinates": [
          [
            [
              126.97574836483334,
              37.29548377158998
            ],
            [
              126.97583347238475,
              37.295472820760644
            ],
            [
              126.97582183231874,
              37.29541559193588
            ],
            [
              126.97573670434022,
              37.295426549544594
            ],
            [
              126.97574461351674,
              37.295465323704825
            ],
            [
              126.97574836483334,
              37.29548377158998
            ]
          ]
        ]
      }
    },
    {
      "type": "Feature",
      "properties": {
        "indoor": "room",
        "level": [
          4
        ],
        "ref": "34",
        "name": "",
        "room_type": "storage",
        "_idx": 57,
        "_centroid": [
          126.975721,
          37.2954485
        ],
        "_area_m2": 15.3
      },
      "geometry": {
        "type": "Polygon",
        "coordinates": [
          [
            [
              126.97569740223344,
              37.29543162305691
            ],
            [
              126.97570531140941,
              37.29547039721446
            ],
            [
              126.97574461351674,
              37.295465323704825
            ],
            [
              126.97573670434022,
              37.295426549544594
            ],
            [
              126.97569740223344,
              37.29543162305691
            ]
          ]
        ]
      }
    }
  ]
}