{
  "type": "FeatureCollection",
  "features": [
    {
      "type": "Feature",
      "properties": {
        "indoor": "corridor",
        "level": "3"
      },
      "geometry": {
        "type": "Polygon",
        "coordinates": [
          [
            [
              126.97519505169731,
              37.29602586006426
            ],
            [
              126.97567473046497,
              37.29596404880317
            ],
            [
              126.97568472870132,
              37.29601313095232
            ],
            [
              126.97571554217535,
              37.29600111401151
            ],
            [
              126.97569804302483,
              37.29592802951215
            ],
            [
              126.9758151798242,
              37.295874401089705
            ],
            [
              126.9758132212707,
              37.29586478637637
            ],
            [
              126.97573241793947,
              37.295468114571925
            ],
            [
              126.97546620845144,
              37.29550243272952
            ],
            [
              126.97546904744958,
              37.29551636969042
            ],
            [
              126.9757000582811,
              37.29548658914226
            ],
            [
              126.97577831468793,
              37.29587075776945
            ],
            [
              126.97571539049528,
              37.295878869543444
            ],
            [
              126.97565808988382,
              37.29591605292527
            ],
            [
              126.97566436221838,
              37.29594684434745
            ],
            [
              126.97519079989976,
              37.296007892810486
            ],
            [
              126.97519505169731,
              37.29602586006426
            ]
          ]
        ]
      }
    }
  ]
}