{
  "type": "FeatureCollection",
  "features": [
    {
      "type": "Feature",
      "properties": {
        "building": "university",
        "name": "유틸리티동",
        "loc_ref": "UTIL"
      },
      "geometry": {
        "type": "Polygon",
        "coordinates": [
          [
            [
              126.97839927311483,
              37.29390232454507
            ],
            [
              126.97845720743257,
              37.2942692625937
            ],
            [
              126.97880795724176,
              37.29423421490841
            ],
            [
              126.97875002292405,
              37.29386727668882
            ],
            [
              126.97839927311483,
              37.29390232454507
            ]
          ]
        ]
      }
    }
  ]
}