{
  "type": "FeatureCollection",
  "features": [
    {
      "type": "Feature",
      "properties": {
        "indoor": "corridor",
        "level": "1"
      },
      "geometry": {
        "type": "Polygon",
        "coordinates": [
          [
            [
              126.97850464978411,
              37.29393740696143
            ],
            [
              126.97853811429994,
              37.29393235355414
            ],
            [
              126.97859162434585,
              37.29392700669087
            ],
            [
              126.97858480030185,
              37.293883785196805
            ],
            [
              126.97839927311483,
              37.29390232454507
            ],
            [
              126.97840636272811,
              37.29394722805866
            ],
            [
              126.97850464978411,
              37.29393740696143
            ]
          ]
        ]
      }
    },
    {
      "type": "Feature",
      "properties": {
        "indoor": "corridor",
        "level": "1"
      },
      "geometry": {
        "type": "Polygon",
        "coordinates": [
          [
            [
              126.97850464978411,
              37.29393740696143
            ],
            [
              126.97855549448855,
              37.294259441538514
            ],
            [
              126.97858922472481,
              37.29425607114008
            ],
            [
              126.97855687886953,
              37.294051202664356
            ],
            [
              126.97855477094312,
              37.294037851721406
            ],
            [
              126.97853811429994,
              37.29393235355413
            ],
            [
              126.97850464978411,
              37.29393740696143
            ]
          ]
        ]
      }
    },
    {
      "type": "Feature",
      "properties": {
        "indoor": "corridor",
        "level": "1"
      },
      "geometry": {
        "type": "Polygon",
        "coordinates": [
          [
            [
              126.97855477094312,
              37.2940378517214
            ],
            [
              126.97855687886953,
              37.294051202664356
            ],
            [
              126.97866912821085,
              37.29403998626727
            ],
            [
              126.97866701588158,
              37.29402660761772
            ],
            [
              126.97855477094312,
              37.2940378517214
            ]
          ]
        ]
      }
    }
  ]
}