{
  "type": "FeatureCollection",
  "features": [
    {
      "type": "Feature",
      "properties": {
        "indoor": "room",
        "level": "2",
        "ref": "",
        "name": "",
        "room_type": "",
        "_idx": 1,
        "_centroid": [
          126.9785142,
          37.2942511
        ],
        "_area_m2": 27.8
      },
      "geometry": {
        "type": "Polygon",
        "coordinates": [
          [
            [
              126.97855477067007,
              37.29425485710664
            ],
            [
              126.97855099612113,
              37.294230950331254
            ],
            [
              126.97845270907328,
              37.29424077138926
            ],
            [
              126.97845720743254,
              37.2942692625937
            ],
            [
              126.97855549448855,
              37.294259441538514
            ],
            [
              126.97855477067007,
              37.29425485710664
            ]
          ]
        ]
      }
    },
    {
      "type": "Feature",
      "properties": {
        "indoor": "room",
        "level": "2",
        "ref": "",
        "name": "",
        "room_type": "",
        "_idx": 2,
        "_centroid": [
          126.9786515,
          37.2942287
        ],
        "_area_m2": 34.1
      },
      "geometry": {
        "type": "Polygon",
        "coordinates": [
          [
            [
              126.97868943487683,
              37.294214401168624
            ],
            [
              126.97865210421611,
              37.294218131329906
            ],
            [
              126.97858430419377,
              37.29422490605591
            ],
            [
              126.97858922472481,
              37.29425607114008
            ],
            [
              126.9786994054534,
              37.2942450616414
            ],
            [
              126.97869448492479,
              37.294213896556776
            ],
            [
              126.97868943487683,
              37.294214401168624
            ]
          ]
        ]
      }
    },
    {
      "type": "Feature",
      "properties": {
        "indoor": "room",
        "level": "2",
        "ref": "",
        "name": "",
        "room_type": "",
        "_idx": 3,
        "_centroid": [
          126.9785003,
          37.294226
        ],
        "_area_m2": 19.3
      },
      "geometry": {
        "type": "Polygon",
        "coordinates": [
          [
            [
              126.97845270907328,
              37.29424077138926
            ],
            [
              126.97855099612113,
              37.294230950331254
            ],
            [
              126.97854787035752,
              37.29421115271312
            ],
            [
              126.97844958330909,
              37.29422097377382
            ],
            [
              126.97845270907328,
              37.29424077138926
            ]
          ]
        ]
      }
    },
    {
      "type": "Feature",
      "properties": {
        "indoor": "room",
        "level": "2",
        "ref": "",
        "name": "",
        "room_type": "",
        "_idx": 4,
        "_centroid": [
          126.9785914,
          37.2941954
        ],
        "_area_m2": 6.8
      },
      "geometry": {
        "type": "Polygon",
        "coordinates": [
          [
            [
              126.97860523940398,
              37.29420903549581
            ],
            [
              126.9786005850265,
              37.294179556138964
            ],
            [
              126.97857750814434,
              37.294181862032616
            ],
            [
              126.97858216252244,
              37.2942113413885
            ],
            [
              126.97860523940398,
              37.29420903549581
            ]
          ]
        ]
      }
    },
    {
      "type": "Feature",
      "properties": {
        "indoor": "room",
        "level": "2",
        "ref": "",
        "name": "",
        "room_type": "",
        "_idx": 5,
        "_centroid": [
          126.9786609,
          37.2941946
        ],
        "_area_m2": 20.4
      },
      "geometry": {
        "type": "Polygon",
        "coordinates": [
          [
            [
              126.97866221788026,
              37.29417339764629
            ],
            [
              126.9786374688326,
              37.29417587062661
            ],
            [
              126.97864212321022,
              37.29420534998488
            ],
            [
              126.97864996254451,
              37.29420456666138
            ],
            [
              126.97865210421611,
              37.294218131329906
            ],
            [
              126.97869448492479,
              37.294213896556776
            ],
            [
              126.97868768887778,
              37.294170852527046
            ],
            [
              126.97866221788026,
              37.29417339764629
            ]
          ]
        ]
      }
    },
    {
      "type": "Feature",
      "properties": {
        "indoor": "room",
        "level": "2",
        "ref": "",
        "name": "",
        "room_type": "",
        "_idx": 6,
        "_centroid": [
          126.9786214,
          37.2941925
        ],
        "_area_m2": 10.8
      },
      "geometry": {
        "type": "Polygon",
        "coordinates": [
          [
            [
              126.97864212321022,
              37.29420534998488
            ],
            [
              126.9786374688326,
              37.29417587062661
            ],
            [
              126.9786005850265,
              37.294179556138964
            ],
            [
              126.97860523940398,
              37.29420903549581
            ],
            [
              126.97864212321022,
              37.29420534998488
            ]
          ]
        ]
      }
    },
    {
      "type": "Feature",
      "properties": {
        "indoor": "room",
        "level": "2",
        "ref": "",
        "name": "",
        "room_type": "",
        "_idx": 7,
        "_centroid": [
          126.9784938,
          37.2941846
        ],
        "_area_m2": 61.3
      },
      "geometry": {
        "type": "Polygon",
        "coordinates": [
          [
            [
              126.97844958330909,
              37.29422097377382
            ],
            [
              126.97854787035752,
              37.29421115271312
            ],
            [
              126.97853794333514,
              37.29414827802966
            ],
            [
              126.97843965628486,
              37.294158099098716
            ],
            [
              126.97844958330909,
              37.29422097377382
            ]
          ]
        ]
      }
    },
    {
      "type": "Feature",
      "properties": {
        "indoor": "room",
        "level": "2",
        "ref": "",
        "name": "",
        "room_type": "",
        "_idx": 8,
        "_centroid": [
          126.9784861,
          37.294136
        ],
        "_area_m2": 33.6
      },
      "geometry": {
        "type": "Polygon",
        "coordinates": [
          [
            [
              126.97843965628486,
              37.294158099098716
            ],
            [
              126.97853794333514,
              37.29414827802966
            ],
            [
              126.97853250197106,
              37.29411381411573
            ],
            [
              126.97843421491976,
              37.2941236351894
            ],
            [
              126.97843965628486,
              37.294158099098716
            ]
          ]
        ]
      }
    },
    {
      "type": "Feature",
      "properties": {
        "indoor": "room",
        "level": "2",
        "ref": "",
        "name": "",
        "room_type": "",
        "_idx": 9,
        "_centroid": [
          126.9786142,
          37.2941287
        ],
        "_area_m2": 82.4
      },
      "geometry": {
        "type": "Polygon",
        "coordinates": [
          [
            [
              126.97859618278412,
              37.29410608349237
            ],
            [
              126.97859999174496,
              37.29413020827132
            ],
            [
              126.97856982860147,
              37.29413322224195
            ],
            [
              126.97857750814434,
              37.294181862032616
            ],
            [
              126.97868768887778,
              37.294170852527046
            ],
            [
              126.9786741954939,
              37.294085389666435
            ],
            [
              126.97859417790607,
              37.29409338521228
            ],
            [
              126.97859618278412,
              37.29410608349237
            ]
          ]
        ]
      }
    },
    {
      "type": "Feature",
      "properties": {
        "indoor": "room",
        "level": "2",
        "ref": "",
        "name": "",
        "room_type": "",
        "_idx": 10,
        "_centroid": [
          126.9785825,
          37.2941173
        ],
        "_area_m2": 7.2
      },
      "geometry": {
        "type": "Polygon",
        "coordinates": [
          [
            [
              126.97859618278412,
              37.29410608349237
            ],
            [
              126.97858030255074,
              37.29410767028234
            ],
            [
              126.9785660196364,
              37.29410909746442
            ],
            [
              126.97856982860147,
              37.29413322224195
            ],
            [
              126.97859999174496,
              37.29413020827132
            ],
            [
              126.97859618278412,
              37.29410608349237
            ]
          ]
        ]
      }
    },
    {
      "type": "Feature",
      "properties": {
        "indoor": "room",
        "level": "2",
        "ref": "",
        "name": "",
        "room_type": "",
        "_idx": 11,
        "_centroid": [
          126.9784779,
          37.2940842
        ],
        "_area_m2": 67.4
      },
      "geometry": {
        "type": "Polygon",
        "coordinates": [
          [
            [
              126.97843421491976,
              37.2941236351894
            ],
            [
              126.97853250197106,
              37.29411381411573
            ],
            [
              126.97852159372357,
              37.29404472465642
            ],
            [
              126.97842330667022,
              37.29405454573921
            ],
            [
              126.97843421491976,
              37.2941236351894
            ]
          ]
        ]
      }
    },
    {
      "type": "Feature",
      "properties": {
        "indoor": "room",
        "level": "2",
        "ref": "",
        "name": "",
        "room_type": "",
        "_idx": 12,
        "_centroid": [
          126.9786032,
          37.2940611
        ],
        "_area_m2": 59.6
      },
      "geometry": {
        "type": "Polygon",
        "coordinates": [
          [
            [
              126.97855687886953,
              37.294051202664356
            ],
            [
              126.97856401475565,
              37.2940963991851
            ],
            [
              126.9786741954939,
              37.294085389666435
            ],
            [
              126.97866558590201,
              37.2940308592123
            ],
            [
              126.97855540517342,
              37.294041868742326
            ],
            [
              126.97855687886953,
              37.294051202664356
            ]
          ]
        ]
      }
    },
    {
      "type": "Feature",
      "properties": {
        "indoor": "room",
        "level": "2",
        "ref": "",
        "name": "",
        "room_type": "",
        "_idx": 13,
        "_centroid": [
          126.9784672,
          37.2940163
        ],
        "_area_m2": 65.0
      },
      "geometry": {
        "type": "Polygon",
        "coordinates": [
          [
            [
              126.97842330667022,
              37.29405454573921
            ],
            [
              126.97852159372357,
              37.29404472465642
            ],
            [
              126.97851106526213,
              37.293978040644234
            ],
            [
              126.97841277820682,
              37.29398786173591
            ],
            [
              126.97842330667022,
              37.29405454573921
            ]
          ]
        ]
      }
    },
    {
      "type": "Feature",
      "properties": {
        "indoor": "room",
        "level": "2",
        "ref": "",
        "name": "",
        "room_type": "",
        "_idx": 14,
        "_centroid": [
          126.97846,
          37.293971
        ],
        "_area_m2": 23.3
      },
      "geometry": {
        "type": "Polygon",
        "coordinates": [
          [
            [
              126.97841277820682,
              37.29398786173591
            ],
            [
              126.97851106526213,
              37.293978040644234
            ],
            [
              126.97850729584091,
              37.29395416629836
            ],
            [
              126.97840900878492,
              37.2939639873934
            ],
            [
              126.97841277820682,
              37.29398786173591
            ]
          ]
        ]
      }
    }
  ]
}