{
  "type": "FeatureCollection",
  "features": [
    {
      "type": "Feature",
      "properties": {
        "indoor": "room",
        "level": "1",
        "ref": "",
        "name": "",
        "room_type": "",
        "_idx": 1,
        "_centroid": [
          126.9785028,
          37.2942421
        ],
        "_area_m2": 43.5
      },
      "geometry": {
        "type": "Polygon",
        "coordinates": [
          [
            [
              126.97854845941387,
              37.29421488355906
            ],
            [
              126.97845017234509,
              37.294224704621406
            ],
            [
              126.97845720743254,
              37.2942692625937
            ],
            [
              126.97855549448855,
              37.29425944153852
            ],
            [
              126.97854845941387,
              37.29421488355906
            ]
          ]
        ]
      }
    },
    {
      "type": "Feature",
      "properties": {
        "indoor": "room",
        "level": "1",
        "ref": "",
        "name": "",
        "room_type": "",
        "_idx": 2,
        "_centroid": [
          126.9786428,
          37.2942341
        ],
        "_area_m2": 36.4
      },
      "geometry": {
        "type": "Polygon",
        "coordinates": [
          [
            [
              126.97869631056328,
              37.29421214772633
            ],
            [
              126.97858406072353,
              37.29422336397988
            ],
            [
              126.97858922472481,
              37.29425607114008
            ],
            [
              126.97870147457081,
              37.29424485489066
            ],
            [
              126.97869631056328,
              37.29421214772633
            ]
          ]
        ]
      }
    },
    {
      "type": "Feature",
      "properties": {
        "indoor": "room",
        "level": "1",
        "ref": "",
        "name": "",
        "room_type": "",
        "_idx": 3,
        "_centroid": [
          126.9784964,
          37.2942015
        ],
        "_area_m2": 35.6
      },
      "geometry": {
        "type": "Polygon",
        "coordinates": [
          [
            [
              126.97844440309423,
              37.29418816402944
            ],
            [
              126.97845017234509,
              37.294224704621406
            ],
            [
              126.97854845941387,
              37.29421488355906
            ],
            [
              126.97854269017041,
              37.294178342961644
            ],
            [
              126.97844440309423,
              37.29418816402944
            ]
          ]
        ]
      }
    },
    {
      "type": "Feature",
      "properties": {
        "indoor": "room",
        "level": "1",
        "ref": "",
        "name": "",
        "room_type": "",
        "_idx": 4,
        "_centroid": [
          126.9787327,
          37.2941987
        ],
        "_area_m2": 63.8
      },
      "geometry": {
        "type": "Polygon",
        "coordinates": [
          [
            [
              126.97870147457081,
              37.29424485489066
            ],
            [
              126.97877725036999,
              37.2942372832066
            ],
            [
              126.97876385570727,
              37.29415244567905
            ],
            [
              126.9786880799081,
              37.29416001737165
            ],
            [
              126.97870147457081,
              37.29424485489066
            ]
          ]
        ]
      }
    },
    {
      "type": "Feature",
      "properties": {
        "indoor": "room",
        "level": "1",
        "ref": "",
        "name": "",
        "room_type": "",
        "_idx": 5,
        "_centroid": [
          126.9786108,
          37.2941904
        ],
        "_area_m2": 20.2
      },
      "geometry": {
        "type": "Polygon",
        "coordinates": [
          [
            [
              126.9785819066825,
              37.29420972097591
            ],
            [
              126.97864476130924,
              37.294203440400025
            ],
            [
              126.97863964682765,
              37.29417104690358
            ],
            [
              126.97857679220515,
              37.29417732748169
            ],
            [
              126.9785819066825,
              37.29420972097591
            ]
          ]
        ]
      }
    },
    {
      "type": "Feature",
      "properties": {
        "indoor": "room",
        "level": "1",
        "ref": "",
        "name": "",
        "room_type": "",
        "_idx": 6,
        "_centroid": [
          126.9786225,
          37.2941694
        ],
        "_area_m2": 171.5
      },
      "geometry": {
        "type": "Polygon",
        "coordinates": [
          [
            [
              126.9785819066825,
              37.29420972097591
            ],
            [
              126.97858380260911,
              37.29422172916613
            ],
            [
              126.97858406072353,
              37.29422336397988
            ],
            [
              126.97869631056328,
              37.29421214772633
            ],
            [
              126.9786919419186,
              37.29418447812375
            ],
            [
              126.97866912821085,
              37.29403998626727
            ],
            [
              126.97855687886953,
              37.294051202664356
            ],
            [
              126.97857679220515,
              37.29417732748169
            ],
            [
              126.97863964682765,
              37.29417104690358
            ],
            [
              126.97864476130924,
              37.294203440400025
            ],
            [
              126.9785819066825,
              37.29420972097591
            ]
          ]
        ]
      }
    },
    {
      "type": "Feature",
      "properties": {
        "indoor": "room",
        "level": "1",
        "ref": "",
        "name": "",
        "room_type": "",
        "_idx": 7,
        "_centroid": [
          126.9784799,
          37.2940971
        ],
        "_area_m2": 168.1
      },
      "geometry": {
        "type": "Polygon",
        "coordinates": [
          [
            [
              126.97844440309423,
              37.29418816402944
            ],
            [
              126.97854269017041,
              37.294178342961644
            ],
            [
              126.97851547623512,
              37.294005978341886
            ],
            [
              126.97841718917336,
              37.294015799430625
            ],
            [
              126.97844440309423,
              37.29418816402944
            ]
          ]
        ]
      }
    },
    {
      "type": "Feature",
      "properties": {
        "indoor": "room",
        "level": "1",
        "ref": "",
        "name": "",
        "room_type": "",
        "_idx": 8,
        "_centroid": [
          126.9787167,
          37.2939988
        ],
        "_area_m2": 266.7
      },
      "geometry": {
        "type": "Polygon",
        "coordinates": [
          [
            [
              126.97864354010095,
              37.29387791575936
            ],
            [
              126.97868339373527,
              37.29413035984944
            ],
            [
              126.97878987655835,
              37.29411972081461
            ],
            [
              126.97875002292405,
              37.29386727668882
            ],
            [
              126.97864354010095,
              37.29387791575936
            ]
          ]
        ]
      }
    },
    {
      "type": "Feature",
      "properties": {
        "indoor": "room",
        "level": "1",
        "ref": "",
        "name": "",
        "room_type": "",
        "_idx": 9,
        "_centroid": [
          126.9784639,
          37.2939957
        ],
        "_area_m2": 29.6
      },
      "geometry": {
        "type": "Polygon",
        "coordinates": [
          [
            [
              126.97841718917336,
              37.294015799430625
            ],
            [
              126.97851547623512,
              37.294005978341886
            ],
            [
              126.97851068486175,
              37.29397563127008
            ],
            [
              126.97841239780253,
              37.293985452362556
            ],
            [
              126.97841718917336,
              37.294015799430625
            ]
          ]
        ]
      }
    },
    {
      "type": "Feature",
      "properties": {
        "indoor": "room",
        "level": "1",
        "ref": "",
        "name": "",
        "room_type": "",
        "_idx": 10,
        "_centroid": [
          126.9784597,
          37.2939686
        ],
        "_area_m2": 23.2
      },
      "geometry": {
        "type": "Polygon",
        "coordinates": [
          [
            [
              126.97841239780253,
              37.293985452362556
            ],
            [
              126.97851068486175,
              37.29397563127008
            ],
            [
              126.97850692284032,
              37.29395180379403
            ],
            [
              126.9784086357831,
              37.293961624889356
            ],
            [
              126.97841239780253,
              37.293985452362556
            ]
          ]
        ]
      }
    },
    {
      "type": "Feature",
      "properties": {
        "indoor": "room",
        "level": "1",
        "ref": "",
        "name": "",
        "room_type": "",
        "_idx": 11,
        "_centroid": [
          126.9785924,
          37.2939592
        ],
        "_area_m2": 142.7
      },
      "geometry": {
        "type": "Polygon",
        "coordinates": [
          [
            [
              126.97854574636702,
              37.29398069278976
            ],
            [
              126.97855477094312,
              37.29403785172141
            ],
            [
              126.97866701588158,
              37.29402660761772
            ],
            [
              126.97866392445165,
              37.294007027472915
            ],
            [
              126.97864354010095,
              37.29387791575935
            ],
            [
              126.97858480030183,
              37.29388378519681
            ],
            [
              126.97859162434585,
              37.29392700669087
            ],
            [
              126.97853811429994,
              37.29393235355415
            ],
            [
              126.97854235394281,
              37.293959206190934
            ],
            [
              126.97854574636702,
              37.29398069278976
            ]
          ]
        ]
      }
    },
    {
      "type": "Feature",
      "properties": {
        "indoor": "room",
        "level": "1",
        "ref": "",
        "name": "",
        "room_type": "",
        "_idx": 12,
        "_centroid": [
          126.9784566,
          37.2939495
        ],
        "_area_m2": 14.0
      },
      "geometry": {
        "type": "Polygon",
        "coordinates": [
          [
            [
              126.9784086357831,
              37.293961624889356
            ],
            [
              126.97850692284032,
              37.29395180379403
            ],
            [
              126.97850464978411,
              37.29393740696144
            ],
            [
              126.97840636272811,
              37.29394722805866
            ],
            [
              126.9784086357831,
              37.293961624889356
            ]
          ]
        ]
      }
    }
  ]
}